{"type":"FeatureCollection", "features": [
{"type":"Feature","geometry":{"type":"Polygon","coordinates":[[[71.169913,36.030802],[71.223073,36.125393],[71.382443,36.218566],[71.629147,36.459533],[71.736324,36.395919],[71.793788,36.490745],[71.874713,36.499065],[72.050413,36.618645],[72.171646,36.653629],[72.213607,36.726442],[72.454109,36.757964],[72.565214,36.820596],[72.867727,36.830415],[73.191842,36.877027],[73.640083,36.896638],[73.865083,36.872582],[73.946938,36.83088],[74.094319,36.831241],[74.394043,36.994022],[74.549279,37.008931],[74.366137,37.14776],[74.487267,37.225946],[74.623279,37.230804],[74.78854,37.331159],[74.660383,37.393972],[74.529848,37.375756],[74.223924,37.403351],[74.163256,37.330074],[73.798213,37.22853],[73.617656,37.233181],[73.74571,37.352863],[73.753462,37.428388],[73.485261,37.480969],[73.276075,37.459472],[73.067509,37.315062],[72.995575,37.3093],[72.760964,37.187499],[72.657714,37.028826],[72.405947,37.007665],[72.259806,36.967305],[71.836576,36.699156],[71.61106,36.704841],[71.463059,36.948082],[71.431123,37.066989],[71.487037,37.267055],[71.497165,37.566545],[71.590286,37.815729],[71.597727,37.89836],[71.501196,37.946212],[71.341154,37.893295],[71.255785,37.949881],[71.364512,38.206816],[71.334384,38.280662],[71.217699,38.325827],[70.974045,38.473673],[70.761086,38.44352],[70.595773,38.338178],[70.482602,38.137363],[70.165205,37.889911],[70.240343,37.827563],[70.283079,37.704831],[70.157867,37.541431],[70.004187,37.551371],[70.004286,37.2762],[70.033018,37.135098],[70.124123,37.042545],[70.007748,36.91444],[70.00382,36.615052],[70.043095,36.457232],[70.209286,36.337834],[70.472474,36.283574],[70.47759,36.178076],[70.429014,36.037852],[70.463482,35.978321],[70.273365,35.850215],[70.231197,35.670355],[70.371602,35.697124],[70.486582,35.661519],[70.554691,35.566873],[70.543529,35.446312],[70.729874,35.497472],[70.86444,35.484243],[70.866145,35.600256],[71.014301,35.7064],[70.97849,35.781486],[71.169913,36.030802]]]},"properties":{"LOCATION_TYPE":"level1","ADM0_A3":"AFG","LOCATION_ID":"AFG-BDS","NAME":"Badakhshan","TYPE_EN":"Province"}},
{"type":"Feature","geometry":{"type":"Polygon","coordinates":[[[70.004187,37.551371],[69.895247,37.61817],[69.80223,37.581506],[69.528655,37.586027],[69.37838,37.437406],[69.445197,37.23641],[69.308617,37.116882],[69.304638,36.849896],[69.216168,36.792742],[69.255597,36.612236],[69.147904,36.490538],[69.220664,36.296958],[69.300608,36.228177],[69.444113,36.247194],[69.681101,36.350081],[69.777736,36.213578],[69.788123,36.099063],[69.88605,36.006123],[69.961032,35.809856],[70.273365,35.850215],[70.463482,35.978321],[70.429014,36.037852],[70.47759,36.178076],[70.472474,36.283574],[70.209286,36.337834],[70.043095,36.457232],[70.00382,36.615052],[70.007748,36.91444],[70.124123,37.042545],[70.033018,37.135098],[70.004286,37.2762],[70.004187,37.551371]]]},"properties":{"LOCATION_TYPE":"level1","ADM0_A3":"AFG","LOCATION_ID":"AFG-TAK","NAME":"Takhar","TYPE_EN":"Province"}},
{"type":"Feature","geometry":{"type":"Polygon","coordinates":[[[69.308617,37.116882],[69.123615,37.169205],[69.005483,37.305528],[68.897169,37.335965],[68.824615,37.260621],[68.668862,37.278294],[68.626901,37.206257],[68.307282,37.114221],[68.277775,37.010068],[68.186411,37.01831],[68.02482,36.925518],[68.038101,36.817004],[68.189099,36.593245],[68.239535,36.571205],[68.322373,36.548105],[68.722762,36.534308],[68.862081,36.41261],[68.999231,36.41739],[69.220664,36.296958],[69.147904,36.490538],[69.255597,36.612236],[69.216168,36.792742],[69.304638,36.849896],[69.308617,37.116882]]]},"properties":{"LOCATION_TYPE":"level1","ADM0_A3":"AFG","LOCATION_ID":"AFG-KDZ","NAME":"Kunduz","TYPE_EN":"Province"}},
{"type":"Feature","geometry":{"type":"Polygon","coordinates":[[[68.02482,36.925518],[67.87811,37.064431],[67.78535,37.096548],[67.764266,37.220882],[67.482371,37.277364],[67.391163,37.21959],[67.236753,37.192408],[67.005915,37.384386],[66.734975,37.363302],[66.539018,37.36909],[66.461452,37.324441],[66.250848,37.35965],[66.249321,37.309403],[66.409415,37.249613],[66.503621,37.112412],[66.467447,36.972886],[66.564754,36.78375],[66.435511,36.762511],[66.52734,36.58769],[66.663611,36.508599],[66.461401,36.224249],[66.594571,36.170454],[66.628833,35.86254],[66.524705,35.727484],[66.799675,35.674825],[66.904888,35.718079],[66.944627,35.794224],[67.114694,35.925094],[67.067514,36.063949],[67.267708,36.15322],[67.3738,36.289361],[67.42005,36.471573],[67.376901,36.567717],[67.500149,36.640219],[67.688044,36.647944],[67.832377,36.589602],[68.079855,36.562161],[68.189099,36.593245],[68.038101,36.817004],[68.02482,36.925518]]]},"properties":{"LOCATION_TYPE":"level1","ADM0_A3":"AFG","LOCATION_ID":"AFG-BAL","NAME":"Balkh","TYPE_EN":"Province"}},
{"type":"Feature","geometry":{"type":"Polygon","coordinates":[[[66.250848,37.35965],[66.079666,37.440868],[65.855184,37.507944],[65.804334,37.565305],[65.668839,37.520553],[65.624087,37.345138],[65.487922,37.241997],[65.366998,37.070322],[65.340281,36.906791],[65.444874,36.748972],[65.392422,36.619574],[65.484768,36.385635],[65.277907,36.361243],[65.211348,36.244868],[65.144944,35.937083],[65.367308,35.914862],[65.576494,35.927885],[65.685221,36.000413],[65.533189,35.974239],[65.490659,36.096815],[65.527091,36.339617],[65.689562,36.351373],[66.047731,36.530277],[66.234231,36.535445],[66.52734,36.58769],[66.435511,36.762511],[66.564754,36.78375],[66.467447,36.972886],[66.503621,37.112412],[66.409415,37.249613],[66.249321,37.309403],[66.250848,37.35965]]]},"properties":{"LOCATION_TYPE":"level1","ADM0_A3":"AFG","LOCATION_ID":"AFG-JOW","NAME":"Jawzjan","TYPE_EN":"Province"}},
{"type":"Feature","geometry":{"type":"Polygon","coordinates":[[[65.487922,37.241997],[65.063088,37.233232],[64.807909,37.135512],[64.76016,37.092621],[64.778764,36.93847],[64.592005,36.621073],[64.605855,36.461083],[64.444572,36.249985],[64.33724,36.225955],[64.266134,36.152471],[64.123352,36.146064],[63.906327,36.031732],[63.946671,35.987674],[63.915045,35.775181],[64.001293,35.609196],[64.027079,35.487188],[64.247118,35.46843],[64.306235,35.39722],[64.415789,35.417658],[64.41641,35.236816],[64.614227,35.199299],[64.730137,35.213148],[64.91917,35.213665],[65.140293,35.254567],[65.29279,35.196405],[65.451385,35.253947],[65.411026,35.447837],[65.5212,35.677151],[65.623003,35.676066],[65.67995,35.787351],[65.79462,35.79425],[65.791674,35.89737],[65.685221,36.000413],[65.576494,35.927885],[65.367308,35.914862],[65.144944,35.937083],[65.211348,36.244868],[65.277907,36.361243],[65.484768,36.385635],[65.392422,36.619574],[65.444874,36.748972],[65.340281,36.906791],[65.366998,37.070322],[65.487922,37.241997]]]},"properties":{"LOCATION_TYPE":"level1","ADM0_A3":"AFG","LOCATION_ID":"AFG-FYB","NAME":"Faryab","TYPE_EN":"Province"}},
{"type":"Feature","geometry":{"type":"Polygon","coordinates":[[[63.906327,36.031732],[63.765906,35.977288],[63.602298,35.962664],[63.511089,35.901841],[63.342934,35.856262],[63.125273,35.860241],[63.183926,35.712343],[63.076646,35.6247],[63.080211,35.437063],[62.823063,35.327514],[62.671813,35.041996],[62.651763,34.894046],[63.031481,34.648945],[63.173333,34.610653],[63.360298,34.63463],[63.550054,34.555927],[63.805336,34.511175],[64.011731,34.56218],[64.174926,34.670442],[64.476303,34.671424],[64.529374,34.711112],[64.72099,34.697546],[64.965575,34.765398],[65.029189,34.824981],[65.047327,34.939728],[64.986039,35.039464],[64.730137,35.213148],[64.614227,35.199299],[64.41641,35.236816],[64.415789,35.417658],[64.306235,35.39722],[64.247118,35.46843],[64.027079,35.487188],[64.001293,35.609196],[63.915045,35.775181],[63.946671,35.987674],[63.906327,36.031732]]]},"properties":{"LOCATION_TYPE":"level1","ADM0_A3":"AFG","LOCATION_ID":"AFG-BDG","NAME":"Badghis","TYPE_EN":"Province"}},
{"type":"Feature","geometry":{"type":"Polygon","coordinates":[[[62.823063,35.327514],[62.621066,35.222709],[62.399323,35.255937],[62.302016,35.14752],[62.219023,35.30627],[62.033815,35.423989],[61.919352,35.451842],[61.799049,35.417478],[61.538703,35.452307],[61.393182,35.553593],[61.344193,35.630901],[61.190404,35.369573],[61.108342,35.277951],[61.115887,35.059877],[61.06545,34.814724],[60.959927,34.723205],[60.947525,34.63799],[60.714361,34.537428],[60.890474,34.318914],[60.643667,34.306641],[60.520884,34.186131],[60.486778,34.094277],[60.528016,33.84145],[60.486881,33.71138],[60.511789,33.638387],[60.655553,33.559891],[60.879622,33.548703],[60.919788,33.512571],[61.164463,33.461472],[61.451526,33.459663],[61.527852,33.512373],[61.847367,33.476458],[61.823131,33.342771],[61.758432,33.285204],[61.844112,33.166916],[61.686912,33.022274],[61.664123,32.928688],[61.86225,32.817868],[61.964673,32.892075],[62.073762,32.783219],[62.179905,32.831717],[62.352453,32.845127],[62.396533,32.997159],[62.535852,33.062504],[62.685921,33.065605],[62.741628,33.121338],[63.041403,33.176477],[63.14026,33.319491],[63.074631,33.532837],[63.241132,33.618517],[63.450009,33.652184],[63.577391,33.79494],[63.387894,34.073993],[63.493107,34.268451],[63.741257,34.268451],[63.849881,34.219927],[64.117978,34.22556],[64.201332,34.271552],[64.193736,34.465338],[64.459559,34.55939],[64.476303,34.671424],[64.174926,34.670442],[64.011731,34.56218],[63.805336,34.511175],[63.550054,34.555927],[63.360298,34.63463],[63.173333,34.610653],[63.031481,34.648945],[62.651763,34.894046],[62.671813,35.041996],[62.823063,35.327514]]]},"properties":{"LOCATION_TYPE":"level1","ADM0_A3":"AFG","LOCATION_ID":"AFG-HER","NAME":"Hirat","TYPE_EN":"Province"}},
{"type":"Feature","geometry":{"type":"Polygon","coordinates":[[[61.606259,31.388741],[61.749233,31.30238],[61.826334,31.034593],[61.7852,30.831401],[61.461705,30.494574],[60.844379,29.858179],[61.613427,29.638502],[62.374466,29.424872],[62.602581,29.41807],[62.758681,30.073178],[62.773461,30.21198],[62.919912,30.309003],[63.011482,30.456927],[63.092304,30.518706],[63.057371,30.681771],[63.153438,30.76696],[63.143051,30.936355],[63.22594,30.985861],[63.342935,31.125284],[63.316373,31.316616],[63.407634,31.804932],[63.497758,31.91875],[63.565919,32.071609],[63.530055,32.200205],[63.139485,32.24426],[63.065949,32.046571],[62.9812,31.989753],[62.719304,31.940841],[62.600861,32.054891],[61.979246,32.021121],[61.904005,31.899371],[61.892843,31.804855],[61.724016,31.606236],[61.665053,31.597891],[61.606259,31.388741]]]},"properties":{"LOCATION_TYPE":"level1","ADM0_A3":"AFG","LOCATION_ID":"AFG-NIM","NAME":"Nimroz","TYPE_EN":"Province"}},
{"type":"Feature","geometry":{"type":"Polygon","coordinates":[[[61.606259,31.388741],[61.665053,31.597891],[61.724016,31.606236],[61.892843,31.804855],[61.904005,31.899371],[61.979246,32.021121],[62.600861,32.054891],[62.719304,31.940841],[62.9812,31.989753],[63.065949,32.046571],[63.139485,32.24426],[63.530055,32.200205],[63.716866,32.315289],[63.812467,32.321438],[64.020878,32.450035],[63.996952,32.554344],[64.177406,32.572198],[64.293523,32.629998],[64.254249,32.692785],[64.385352,32.841174],[64.567253,32.904168],[64.568597,33.020646],[64.715874,33.133378],[64.725176,33.227791],[64.682698,33.27523],[64.522863,33.309724],[64.475527,33.227636],[64.326544,33.123327],[64.229393,33.158984],[64.011525,33.487388],[63.888638,33.496922],[63.791383,33.418787],[63.498998,33.335537],[63.14026,33.319491],[63.041403,33.176477],[62.741628,33.121338],[62.685921,33.065605],[62.535852,33.062504],[62.396533,32.997159],[62.352453,32.845127],[62.179905,32.831717],[62.073762,32.783219],[61.964673,32.892075],[61.86225,32.817868],[61.664123,32.928688],[61.686912,33.022274],[61.844112,33.166916],[61.758432,33.285204],[61.823131,33.342771],[61.847367,33.476458],[61.527852,33.512373],[61.451526,33.459663],[61.164463,33.461472],[60.919788,33.512571],[60.832183,33.484495],[60.757046,33.366337],[60.5676,33.151285],[60.577522,32.994344],[60.830323,32.248885],[60.774926,32.027194],[60.805311,31.733981],[60.792599,31.660084],[60.855024,31.482731],[61.606259,31.388741]]]},"properties":{"LOCATION_TYPE":"level1","ADM0_A3":"AFG","LOCATION_ID":"AFG-FRA","NAME":"Farah","TYPE_EN":"Province"}},
{"type":"Feature","geometry":{"type":"Polygon","coordinates":[[[70.983356,34.555256],[71.065822,34.55846],[71.080601,34.672923],[71.203075,34.748164],[71.289478,34.87503],[71.459958,34.942674],[71.508947,35.072021],[71.633694,35.203124],[71.529825,35.300895],[71.61106,35.395463],[71.593422,35.464194],[71.469157,35.387814],[71.23434,35.315106],[71.12184,35.109382],[70.852968,35.069281],[70.651998,35.131603],[70.574432,34.99404],[70.615514,34.800202],[70.666881,34.749352],[70.683986,34.595873],[70.822995,34.55231],[70.983356,34.555256]]]},"properties":{"LOCATION_TYPE":"level1","ADM0_A3":"AFG","LOCATION_ID":"AFG-KNR","NAME":"Kunar","TYPE_EN":"Province"}},
{"type":"Feature","geometry":{"type":"Polygon","coordinates":[[[71.169913,36.030802],[70.97849,35.781486],[71.014301,35.7064],[70.866145,35.600256],[70.86444,35.484243],[70.729874,35.497472],[70.543529,35.446312],[70.554691,35.566873],[70.486582,35.661519],[70.371602,35.697124],[70.231197,35.670355],[70.13513,35.478093],[69.919898,35.342959],[69.972194,35.235782],[70.035808,35.101191],[70.150168,35.090985],[70.259567,34.942157],[70.3916,34.904071],[70.574432,34.99404],[70.651998,35.131603],[70.852968,35.069281],[71.12184,35.109382],[71.23434,35.315106],[71.469157,35.387814],[71.593422,35.464194],[71.59349,35.549356],[71.483316,35.62656],[71.519799,35.683766],[71.341567,35.947264],[71.169913,36.030802]]]},"properties":{"LOCATION_TYPE":"level1","ADM0_A3":"AFG","LOCATION_ID":"AFG-NUR","NAME":"Nuristan","TYPE_EN":"Province"}},
{"type":"Feature","geometry":{"type":"Polygon","coordinates":[[[70.983356,34.555256],[70.822995,34.55231],[70.683986,34.595873],[70.666881,34.749352],[70.615514,34.800202],[70.40576,34.654681],[70.419557,34.557219],[70.303337,34.465855],[70.064695,34.411595],[69.812049,34.411027],[69.664771,34.355035],[69.485868,34.159001],[69.696604,34.244241],[69.792515,34.208093],[69.897574,34.04508],[69.905445,34.035848],[70.002838,34.043789],[70.328193,33.957282],[70.521979,33.938705],[70.862217,33.964775],[71.046702,34.041877],[71.101789,34.151818],[71.122046,34.356819],[70.970841,34.468879],[70.983356,34.555256]]]},"properties":{"LOCATION_TYPE":"level1","ADM0_A3":"AFG","LOCATION_ID":"AFG-NAN","NAME":"Nangarhar","TYPE_EN":"Province"}},
{"type":"Feature","geometry":{"type":"Polygon","coordinates":[[[69.996478,33.742091],[69.775256,33.61154],[69.583639,33.554645],[69.529637,33.382407],[69.40117,33.24456],[69.400085,33.132061],[69.340812,33.067698],[69.478125,33.01135],[69.547517,33.075011],[69.771844,33.114776],[69.880933,33.089248],[70.124794,33.199034],[70.294448,33.318949],[70.285715,33.382873],[70.154973,33.506612],[70.170218,33.638671],[70.108154,33.727296],[69.996478,33.742091]]]},"properties":{"LOCATION_TYPE":"level1","ADM0_A3":"AFG","LOCATION_ID":"AFG-KHO","NAME":"Khost","TYPE_EN":"Province"}},
{"type":"Feature","geometry":{"type":"Polygon","coordinates":[[[69.905445,34.035848],[69.897574,34.04508],[69.806933,34.073864],[69.716448,34.009707],[69.591081,34.054924],[69.298437,33.828814],[69.075298,33.709519],[68.984503,33.604435],[68.772371,33.612962],[68.799088,33.455478],[68.768805,33.393285],[68.867662,33.419511],[68.981092,33.361633],[68.998817,33.160302],[69.161856,33.227274],[69.40117,33.24456],[69.529637,33.382407],[69.583639,33.554645],[69.775256,33.61154],[69.996478,33.742091],[69.841091,33.941805],[69.905445,34.035848]]]},"properties":{"LOCATION_TYPE":"level1","ADM0_A3":"AFG","LOCATION_ID":"AFG-PKA","NAME":"Paktya","TYPE_EN":"Province"}},
{"type":"Feature","geometry":{"type":"Polygon","coordinates":[[[68.09834,31.759124],[68.159126,31.825914],[68.356065,31.762507],[68.527476,31.822968],[68.675787,31.774702],[68.77728,31.618588],[69.004036,31.651092],[69.114313,31.737754],[69.29885,31.93769],[69.251049,32.13065],[69.264433,32.322369],[69.228001,32.421304],[69.281952,32.532796],[69.429126,32.667361],[69.387165,32.785338],[69.477288,32.856833],[69.478125,33.01135],[69.340812,33.067698],[69.400085,33.132061],[69.40117,33.24456],[69.161856,33.227274],[68.998817,33.160302],[68.981092,33.361633],[68.867662,33.419511],[68.768805,33.393285],[68.685348,33.326028],[68.583235,33.174875],[68.489649,33.116222],[68.42464,32.975016],[68.152771,32.730586],[68.034845,32.723481],[67.908083,32.817015],[67.836718,32.671882],[68.057221,32.502874],[68.089622,32.399909],[68.083266,32.196045],[68.05133,32.098403],[68.076445,32.003447],[68.013761,31.892886],[68.09834,31.759124]]]},"properties":{"LOCATION_TYPE":"level1","ADM0_A3":"AFG","LOCATION_ID":"AFG-PIA","NAME":"Paktika","TYPE_EN":"Province"}},
{"type":"Feature","geometry":{"type":"Polygon","coordinates":[[[68.09834,31.759124],[68.013761,31.892886],[68.076445,32.003447],[68.05133,32.098403],[67.921105,32.076595],[67.720032,32.15889],[67.639469,32.300664],[67.742977,32.33105],[67.594613,32.5137],[67.662465,32.577495],[67.406563,32.798851],[67.383309,32.907707],[67.204715,32.985713],[67.166216,33.053642],[67.011497,32.927138],[66.987312,32.830503],[66.805411,32.811615],[66.670432,32.718442],[66.560878,32.759861],[66.418096,32.673768],[66.327197,32.577469],[66.326577,32.49166],[66.436286,32.552716],[66.539174,32.501789],[66.49866,32.372236],[66.322236,32.1931],[66.34394,31.962235],[66.18209,31.835111],[66.311643,31.69481],[66.416546,31.757803],[66.549406,31.774908],[66.676478,31.865032],[66.936721,31.737055],[67.032736,31.716927],[67.18854,31.760956],[67.293133,31.64073],[67.396641,31.629853],[67.411214,31.548643],[67.628927,31.570476],[67.74828,31.544392],[67.842711,31.623497],[67.955211,31.633212],[68.09834,31.759124]]]},"properties":{"LOCATION_TYPE":"level1","ADM0_A3":"AFG","LOCATION_ID":"AFG-ZAB","NAME":"Zabul","TYPE_EN":"Province"}},
{"type":"Feature","geometry":{"type":"Polygon","coordinates":[[[67.74828,31.544392],[67.628927,31.570476],[67.411214,31.548643],[67.396641,31.629853],[67.293133,31.64073],[67.18854,31.760956],[67.032736,31.716927],[66.936721,31.737055],[66.676478,31.865032],[66.549406,31.774908],[66.416546,31.757803],[66.311643,31.69481],[66.18209,31.835111],[66.34394,31.962235],[66.322236,32.1931],[66.49866,32.372236],[66.539174,32.501789],[66.436286,32.552716],[66.326577,32.49166],[66.035949,32.428719],[65.99931,32.465745],[65.799271,32.48825],[65.606104,32.575221],[65.543886,32.527576],[65.414333,32.274051],[65.235378,32.323945],[65.166493,32.23103],[65.115282,32.069387],[64.946145,32.044401],[64.910643,31.934589],[64.817987,31.851493],[64.812871,31.703388],[64.736028,31.425111],[64.673655,30.738408],[64.660167,30.415301],[64.630557,30.223117],[64.499477,29.570203],[64.820312,29.567886],[65.036371,29.540162],[66.195628,29.835338],[66.340529,29.956571],[66.225239,30.04442],[66.300893,30.225598],[66.321822,30.437368],[66.267975,30.601389],[66.366264,30.922868],[66.550025,30.976973],[66.663093,31.083117],[66.696993,31.195823],[66.943283,31.314731],[67.022865,31.239386],[67.346204,31.20776],[67.749435,31.328011],[67.770364,31.394674],[67.59699,31.42568],[67.568981,31.52986],[67.74828,31.544392]]]},"properties":{"LOCATION_TYPE":"level1","ADM0_A3":"AFG","LOCATION_ID":"AFG-KAN","NAME":"Kandahar","TYPE_EN":"Province"}},
{"type":"Feature","geometry":{"type":"Polygon","coordinates":[[[64.499477,29.570203],[64.630557,30.223117],[64.660167,30.415301],[64.673655,30.738408],[64.736028,31.425111],[64.812871,31.703388],[64.817987,31.851493],[64.910643,31.934589],[64.946145,32.044401],[65.115282,32.069387],[65.166493,32.23103],[65.235378,32.323945],[65.292015,32.550546],[65.269691,32.647103],[65.17781,32.685318],[65.208092,32.771824],[65.185407,32.900602],[65.294185,33.069041],[65.348187,33.092477],[65.361727,33.220195],[65.2191,33.362951],[65.158741,33.362641],[64.953276,33.249211],[64.823878,33.204433],[64.725176,33.227791],[64.715874,33.133378],[64.568597,33.020646],[64.567253,32.904168],[64.385352,32.841174],[64.254249,32.692785],[64.293523,32.629998],[64.177406,32.572198],[63.996952,32.554344],[64.020878,32.450035],[63.812467,32.321438],[63.716866,32.315289],[63.530055,32.200205],[63.565919,32.071609],[63.497758,31.91875],[63.407634,31.804932],[63.316373,31.316616],[63.342935,31.125284],[63.22594,30.985861],[63.143051,30.936355],[63.153438,30.76696],[63.057371,30.681771],[63.092304,30.518706],[63.011482,30.456927],[62.919912,30.309003],[62.773461,30.21198],[62.758681,30.073178],[62.602581,29.41807],[63.568605,29.497477],[63.971991,29.429574],[64.086093,29.386605],[64.207739,29.499983],[64.499477,29.570203]]]},"properties":{"LOCATION_TYPE":"level1","ADM0_A3":"AFG","LOCATION_ID":"AFG-HEL","NAME":"Hilmand","TYPE_EN":"Province"}},
{"type":"Feature","geometry":{"type":"Polygon","coordinates":[[[66.829182,33.28094],[66.528425,33.242803],[66.474423,33.319],[66.29521,33.297503],[66.082819,33.178595],[66.033934,33.06023],[65.56373,33.147021],[65.422705,33.067258],[65.348187,33.092477],[65.294185,33.069041],[65.185407,32.900602],[65.208092,32.771824],[65.17781,32.685318],[65.269691,32.647103],[65.292015,32.550546],[65.235378,32.323945],[65.414333,32.274051],[65.543886,32.527576],[65.606104,32.575221],[65.799271,32.48825],[65.99931,32.465745],[66.035949,32.428719],[66.326577,32.49166],[66.327197,32.577469],[66.418096,32.673768],[66.560878,32.759861],[66.670432,32.718442],[66.805411,32.811615],[66.987312,32.830503],[67.011497,32.927138],[66.921786,32.962769],[66.921941,33.140122],[66.972223,33.249392],[66.829182,33.28094]]]},"properties":{"LOCATION_TYPE":"level1","ADM0_A3":"AFG","LOCATION_ID":"AFG-URU","NAME":"Uruzgan","TYPE_EN":"Province"}},
{"type":"Feature","geometry":{"type":"Polygon","coordinates":[[[66.829182,33.28094],[66.972223,33.249392],[66.921941,33.140122],[66.921786,32.962769],[67.011497,32.927138],[67.166216,33.053642],[67.204715,32.985713],[67.383309,32.907707],[67.406563,32.798851],[67.662465,32.577495],[67.594613,32.5137],[67.742977,32.33105],[67.639469,32.300664],[67.720032,32.15889],[67.921105,32.076595],[68.05133,32.098403],[68.083266,32.196045],[68.089622,32.399909],[68.057221,32.502874],[67.836718,32.671882],[67.908083,32.817015],[68.034845,32.723481],[68.152771,32.730586],[68.42464,32.975016],[68.489649,33.116222],[68.583235,33.174875],[68.685348,33.326028],[68.768805,33.393285],[68.799088,33.455478],[68.772371,33.612962],[68.773301,33.710217],[68.711858,33.790057],[68.554193,33.680839],[68.452442,33.69939],[68.39751,33.790909],[68.230389,33.92687],[68.145174,33.956326],[68.099234,34.166959],[68.032365,34.203029],[67.821008,34.146857],[67.672697,34.209333],[67.431368,34.13864],[67.34698,34.036631],[67.328221,33.952217],[67.383154,33.872093],[67.182029,33.683887],[66.844375,33.580225],[66.858948,33.453798],[66.829182,33.28094]]]},"properties":{"LOCATION_TYPE":"level1","ADM0_A3":"AFG","LOCATION_ID":"AFG-GHA","NAME":"Ghazni","TYPE_EN":"Province"}},
{"type":"Feature","geometry":{"type":"Polygon","coordinates":[[[70.273365,35.850215],[69.961032,35.809856],[69.782387,35.653121],[69.748901,35.541087],[69.556147,35.456182],[69.263504,35.392414],[69.283348,35.161704],[69.709626,35.158604],[69.796856,35.080856],[69.972194,35.235782],[69.919898,35.342959],[70.13513,35.478093],[70.231197,35.670355],[70.273365,35.850215]]]},"properties":{"LOCATION_TYPE":"level1","ADM0_A3":"AFG","LOCATION_ID":"AFG-PAR","NAME":"Parwan","TYPE_EN":"Province"}},
{"type":"Feature","geometry":{"type":"Polygon","coordinates":[[[69.897057,34.853609],[69.779751,34.778136],[69.719238,34.650392],[69.604258,34.649307],[69.448299,34.591222],[69.394969,34.725839],[69.227537,34.872807],[68.982797,34.89539],[68.871538,34.704187],[68.862701,34.622228],[68.841928,34.492753],[68.969155,34.349144],[69.181132,34.309534],[69.281487,34.364078],[69.485868,34.159001],[69.664771,34.355035],[69.812049,34.411027],[69.853339,34.681604],[69.927804,34.753848],[69.897057,34.853609]]]},"properties":{"LOCATION_TYPE":"level1","ADM0_A3":"AFG","LOCATION_ID":"AFG-KAB","NAME":"Kabul","TYPE_EN":"Province"}},
{"type":"Feature","geometry":{"type":"Polygon","coordinates":[[[69.812049,34.411027],[70.064695,34.411595],[70.303337,34.465855],[70.419557,34.557219],[70.40576,34.654681],[70.615514,34.800202],[70.574432,34.99404],[70.3916,34.904071],[70.259567,34.942157],[70.150168,35.090985],[70.035808,35.101191],[69.972194,35.235782],[69.796856,35.080856],[69.897057,34.853609],[69.927804,34.753848],[69.853339,34.681604],[69.812049,34.411027]]]},"properties":{"LOCATION_TYPE":"level1","ADM0_A3":"AFG","LOCATION_ID":"AFG-LAG","NAME":"Laghman","TYPE_EN":"Province"}},
{"type":"Feature","geometry":{"type":"Polygon","coordinates":[[[69.485868,34.159001],[69.281487,34.364078],[69.181132,34.309534],[68.969155,34.349144],[68.840842,34.197086],[68.806684,34.089082],[68.888126,33.992861],[68.773508,33.946869],[68.711858,33.790057],[68.773301,33.710217],[68.772371,33.612962],[68.984503,33.604435],[69.075298,33.709519],[69.298437,33.828814],[69.591081,34.054924],[69.716448,34.009707],[69.806933,34.073864],[69.897574,34.04508],[69.792515,34.208093],[69.696604,34.244241],[69.485868,34.159001]]]},"properties":{"LOCATION_TYPE":"level1","ADM0_A3":"AFG","LOCATION_ID":"AFG-LOG","NAME":"Logar","TYPE_EN":"Province"}},
{"type":"Feature","geometry":{"type":"Polygon","coordinates":[[[69.897057,34.853609],[69.796856,35.080856],[69.709626,35.158604],[69.283348,35.161704],[69.278387,35.048507],[69.428765,34.93593],[69.565966,34.910273],[69.563641,34.775242],[69.604258,34.649307],[69.719238,34.650392],[69.779751,34.778136],[69.897057,34.853609]]]},"properties":{"LOCATION_TYPE":"level1","ADM0_A3":"AFG","LOCATION_ID":"AFG-KAP","NAME":"Kapisa","TYPE_EN":"Province"}},
{"type":"Feature","geometry":{"type":"Polygon","coordinates":[[[68.862701,34.622228],[68.55595,34.691526],[68.399526,34.624709],[68.282685,34.800305],[68.039031,34.685868],[67.974332,34.595951],[67.50697,34.681139],[67.317163,34.641555],[67.342174,34.517118],[67.2767,34.415419],[67.409664,34.409037],[67.434365,34.328267],[67.548105,34.277701],[67.429197,34.206026],[67.431368,34.13864],[67.672697,34.209333],[67.821008,34.146857],[68.032365,34.203029],[68.099234,34.166959],[68.145174,33.956326],[68.230389,33.92687],[68.39751,33.790909],[68.452442,33.69939],[68.554193,33.680839],[68.711858,33.790057],[68.773508,33.946869],[68.888126,33.992861],[68.806684,34.089082],[68.840842,34.197086],[68.969155,34.349144],[68.841928,34.492753],[68.862701,34.622228]]]},"properties":{"LOCATION_TYPE":"level1","ADM0_A3":"AFG","LOCATION_ID":"AFG-WAR","NAME":"Wardak","TYPE_EN":"Province"}},
{"type":"Feature","geometry":{"type":"Polygon","coordinates":[[[67.431368,34.13864],[67.429197,34.206026],[67.548105,34.277701],[67.434365,34.328267],[67.409664,34.409037],[67.2767,34.415419],[67.342174,34.517118],[67.317163,34.641555],[67.50697,34.681139],[67.974332,34.595951],[68.039031,34.685868],[68.282685,34.800305],[68.23659,34.963241],[68.183983,35.009595],[68.015466,35.064423],[68.012056,35.172169],[68.101921,35.314641],[68.088537,35.461221],[67.861057,35.435202],[67.598696,35.469618],[67.403617,35.422903],[67.306156,35.436623],[67.016768,35.352468],[66.834608,35.375154],[66.682214,35.214931],[66.556537,35.173306],[66.348281,35.158991],[66.330608,34.957376],[66.363629,34.9142],[66.577001,34.792864],[66.600927,34.738707],[66.764948,34.644966],[66.652914,34.43379],[66.487033,34.389219],[66.547081,34.175356],[66.515868,34.061074],[66.666556,33.971958],[66.783242,34.003868],[67.096194,33.967849],[67.34698,34.036631],[67.431368,34.13864]]]},"properties":{"LOCATION_TYPE":"level1","ADM0_A3":"AFG","LOCATION_ID":"AFG-BAM","NAME":"Bamyan","TYPE_EN":"Province"}},
{"type":"Feature","geometry":{"type":"Polygon","coordinates":[[[68.862701,34.622228],[68.871538,34.704187],[68.982797,34.89539],[69.227537,34.872807],[69.394969,34.725839],[69.448299,34.591222],[69.604258,34.649307],[69.563641,34.775242],[69.565966,34.910273],[69.428765,34.93593],[69.278387,35.048507],[69.283348,35.161704],[69.263504,35.392414],[69.185317,35.420112],[68.895774,35.245963],[68.791026,35.243792],[68.575639,35.063855],[68.288266,35.073105],[68.183983,35.009595],[68.23659,34.963241],[68.282685,34.800305],[68.399526,34.624709],[68.55595,34.691526],[68.862701,34.622228]]]},"properties":{"LOCATION_TYPE":"level1","ADM0_A3":"AFG","LOCATION_ID":"AFG-PAR","NAME":"Parwan","TYPE_EN":"Province"}},
{"type":"Feature","geometry":{"type":"Polygon","coordinates":[[[66.52734,36.58769],[66.234231,36.535445],[66.047731,36.530277],[65.689562,36.351373],[65.527091,36.339617],[65.490659,36.096815],[65.533189,35.974239],[65.685221,36.000413],[65.791674,35.89737],[65.79462,35.79425],[65.67995,35.787351],[65.623003,35.676066],[65.5212,35.677151],[65.411026,35.447837],[65.451385,35.253947],[65.639332,35.248753],[65.756638,35.186483],[65.804697,35.104912],[66.036879,35.06277],[66.121732,34.794647],[66.251491,34.919884],[66.363629,34.9142],[66.330608,34.957376],[66.348281,35.158991],[66.556537,35.173306],[66.682214,35.214931],[66.834608,35.375154],[66.993668,35.494268],[67.026069,35.647385],[66.904888,35.718079],[66.799675,35.674825],[66.524705,35.727484],[66.628833,35.86254],[66.594571,36.170454],[66.461401,36.224249],[66.663611,36.508599],[66.52734,36.58769]]]},"properties":{"LOCATION_TYPE":"level1","ADM0_A3":"AFG","LOCATION_ID":"AFG-SAR","NAME":"Sari Pul","TYPE_EN":"Province"}},
{"type":"Feature","geometry":{"type":"Polygon","coordinates":[[[66.363629,34.9142],[66.251491,34.919884],[66.121732,34.794647],[66.036879,35.06277],[65.804697,35.104912],[65.756638,35.186483],[65.639332,35.248753],[65.451385,35.253947],[65.29279,35.196405],[65.140293,35.254567],[64.91917,35.213665],[64.730137,35.213148],[64.986039,35.039464],[65.047327,34.939728],[65.029189,34.824981],[64.965575,34.765398],[64.72099,34.697546],[64.529374,34.711112],[64.476303,34.671424],[64.459559,34.55939],[64.193736,34.465338],[64.201332,34.271552],[64.117978,34.22556],[63.849881,34.219927],[63.741257,34.268451],[63.493107,34.268451],[63.387894,34.073993],[63.577391,33.79494],[63.450009,33.652184],[63.241132,33.618517],[63.074631,33.532837],[63.14026,33.319491],[63.498998,33.335537],[63.791383,33.418787],[63.888638,33.496922],[64.011525,33.487388],[64.229393,33.158984],[64.326544,33.123327],[64.475527,33.227636],[64.522863,33.309724],[64.682698,33.27523],[64.725176,33.227791],[64.823878,33.204433],[64.953276,33.249211],[65.158741,33.362641],[65.2191,33.362951],[65.370253,33.424833],[65.574427,33.60074],[65.49345,33.763521],[65.412576,33.831165],[65.520477,33.973327],[65.467353,34.075078],[65.532104,34.349144],[65.957401,34.323435],[66.31371,34.379323],[66.487033,34.389219],[66.652914,34.43379],[66.764948,34.644966],[66.600927,34.738707],[66.577001,34.792864],[66.363629,34.9142]]]},"properties":{"LOCATION_TYPE":"level1","ADM0_A3":"AFG","LOCATION_ID":"AFG-GHO","NAME":"Ghor","TYPE_EN":"Province"}},
{"type":"Feature","geometry":{"type":"Polygon","coordinates":[[[69.961032,35.809856],[69.88605,36.006123],[69.788123,36.099063],[69.777736,36.213578],[69.681101,36.350081],[69.444113,36.247194],[69.300608,36.228177],[69.220664,36.296958],[68.999231,36.41739],[68.862081,36.41261],[68.722762,36.534308],[68.322373,36.548105],[68.239535,36.571205],[68.172666,36.521182],[68.371414,36.26373],[68.531404,36.1526],[68.322838,35.955558],[68.30749,35.846675],[68.163519,35.690173],[68.19406,35.61333],[68.088537,35.461221],[68.101921,35.314641],[68.012056,35.172169],[68.015466,35.064423],[68.183983,35.009595],[68.288266,35.073105],[68.575639,35.063855],[68.791026,35.243792],[68.895774,35.245963],[69.185317,35.420112],[69.263504,35.392414],[69.556147,35.456182],[69.748901,35.541087],[69.782387,35.653121],[69.961032,35.809856]]]},"properties":{"LOCATION_TYPE":"level1","ADM0_A3":"AFG","LOCATION_ID":"AFG-BGL","NAME":"Baghlan","TYPE_EN":"Province"}},
{"type":"Feature","geometry":{"type":"Polygon","coordinates":[[[68.189099,36.593245],[68.079855,36.562161],[67.832377,36.589602],[67.688044,36.647944],[67.500149,36.640219],[67.376901,36.567717],[67.42005,36.471573],[67.3738,36.289361],[67.267708,36.15322],[67.067514,36.063949],[67.114694,35.925094],[66.944627,35.794224],[66.904888,35.718079],[67.026069,35.647385],[66.993668,35.494268],[66.834608,35.375154],[67.016768,35.352468],[67.306156,35.436623],[67.403617,35.422903],[67.598696,35.469618],[67.861057,35.435202],[68.088537,35.461221],[68.19406,35.61333],[68.163519,35.690173],[68.30749,35.846675],[68.322838,35.955558],[68.531404,36.1526],[68.371414,36.26373],[68.172666,36.521182],[68.239535,36.571205],[68.189099,36.593245]]]},"properties":{"LOCATION_TYPE":"level1","ADM0_A3":"AFG","LOCATION_ID":"AFG-SAM","NAME":"Samangan","TYPE_EN":"Province"}},
{"type":"Feature","geometry":{"type":"Polygon","coordinates":[[[67.34698,34.036631],[67.096194,33.967849],[66.783242,34.003868],[66.666556,33.971958],[66.515868,34.061074],[66.547081,34.175356],[66.487033,34.389219],[66.31371,34.379323],[65.957401,34.323435],[65.532104,34.349144],[65.467353,34.075078],[65.520477,33.973327],[65.412576,33.831165],[65.49345,33.763521],[65.574427,33.60074],[65.370253,33.424833],[65.2191,33.362951],[65.361727,33.220195],[65.348187,33.092477],[65.422705,33.067258],[65.56373,33.147021],[66.033934,33.06023],[66.082819,33.178595],[66.29521,33.297503],[66.474423,33.319],[66.528425,33.242803],[66.829182,33.28094],[66.858948,33.453798],[66.844375,33.580225],[67.182029,33.683887],[67.383154,33.872093],[67.328221,33.952217],[67.34698,34.036631]]]},"properties":{"LOCATION_TYPE":"level1","ADM0_A3":"AFG","LOCATION_ID":"AFG-URU","NAME":"Uruzgan","TYPE_EN":"Province"}}
]}