{"type":"FeatureCollection", "features": [
{"type":"Feature","geometry":{"type":"Polygon","coordinates":[[[12.782656,-4.400071],[12.608098,-4.565043],[12.377621,-4.619407],[12.332353,-4.765858],[12.235201,-4.803995],[12.018072,-5.0086],[12.124612,-5.184828],[12.232188,-5.479587],[12.147227,-5.617934],[12.210541,-5.763442],[12.508983,-5.726264],[12.530687,-5.162681],[12.444387,-5.055091],[12.678895,-4.924298],[12.833201,-4.722656],[13.027194,-4.612172],[12.854285,-4.403089],[12.782656,-4.400071]]]},"properties":{"LOCATION_TYPE":"level1","ADM0_A3":"AGO","LOCATION_ID":"AGO-CAB","NAME":"Cabinda","TYPE_EN":"Province"}},
{"type":"Feature","geometry":{"type":"Polygon","coordinates":[[[21.983805,-16.165886],[21.853685,-16.082894],[21.709714,-15.854226],[21.622277,-15.845286],[21.377383,-15.422779],[21.264677,-15.360768],[20.927643,-15.00451],[20.682697,-14.960223],[20.271094,-14.98539],[20.087694,-14.906118],[19.682241,-14.529759],[19.527832,-14.289722],[19.221856,-14.25329],[19.15881,-14.389561],[18.897224,-14.38367],[18.804103,-14.221974],[18.727467,-13.949277],[18.554919,-13.80665],[18.21587,-13.708672],[17.953147,-13.57235],[17.808505,-13.694048],[17.806955,-13.851247],[17.647895,-13.99067],[17.465425,-14.030099],[17.355096,-14.143581],[17.300784,-14.311633],[17.042299,-14.165388],[16.953363,-13.99837],[16.70697,-13.977493],[16.473599,-14.010307],[16.461766,-14.268224],[16.50228,-14.626807],[16.65979,-14.877593],[16.748001,-15.163053],[16.845308,-15.303355],[17.054546,-15.450219],[17.167201,-15.582356],[17.383518,-15.924764],[17.41747,-16.365461],[17.235155,-16.770604],[17.235465,-17.002786],[17.278972,-17.388928],[18.453581,-17.389893],[18.761986,-17.747701],[19.020575,-17.822322],[19.17209,-17.801238],[19.421274,-17.859426],[19.672628,-17.842682],[20.03426,-17.895909],[20.336154,-17.854878],[20.565494,-17.985206],[20.806202,-18.031405],[21.216617,-17.930636],[21.381154,-18.012595],[22.230508,-17.857565],[23.381652,-17.641144],[23.290805,-17.535414],[23.073041,-17.405086],[22.998627,-17.293775],[22.755851,-17.154869],[22.710479,-17.055444],[22.522894,-16.914677],[22.333654,-16.673658],[22.15165,-16.597694],[21.983805,-16.165886]]]},"properties":{"LOCATION_TYPE":"level1","ADM0_A3":"AGO","LOCATION_ID":"AGO-CCU","NAME":"Cuando Cubango","TYPE_EN":"Province"}},
{"type":"Feature","geometry":{"type":"Polygon","coordinates":[[[21.983805,-16.165886],[21.981325,-15.11117],[21.980808,-14.357624],[21.979878,-13.001479],[23.222696,-13.001479],[24.000633,-13.001479],[23.865654,-12.789709],[23.928699,-12.561609],[24.030812,-12.385083],[23.959602,-12.19667],[23.959912,-11.617171],[24.061094,-11.394962],[24.011175,-11.272903],[24.003733,-10.982481],[23.833718,-11.028473],[23.494824,-10.964291],[23.373281,-10.975143],[23.196754,-11.071881],[23.014336,-11.102474],[22.829231,-11.052141],[22.727739,-11.096789],[22.53757,-11.037155],[22.281771,-11.236729],[22.165499,-10.85236],[22.322389,-10.742186],[22.308573,-10.612519],[22.138473,-10.590619],[21.794877,-10.63041],[21.674006,-10.888017],[21.696226,-11.132498],[21.235634,-11.274557],[21.035492,-11.471599],[20.747344,-11.443539],[20.176784,-11.20898],[20.105212,-11.278019],[19.624208,-11.256005],[19.399984,-11.410931],[19.188628,-11.456045],[19.064191,-11.658823],[18.857485,-11.900049],[18.868957,-12.013737],[18.710672,-12.2623],[18.518591,-12.377125],[18.299173,-12.730075],[18.154427,-12.862367],[18.17117,-12.964118],[18.058981,-13.086488],[18.076809,-13.273711],[17.947256,-13.394273],[17.953147,-13.57235],[18.21587,-13.708672],[18.554919,-13.80665],[18.727467,-13.949277],[18.804103,-14.221974],[18.897224,-14.38367],[19.15881,-14.389561],[19.221856,-14.25329],[19.527832,-14.289722],[19.682241,-14.529759],[20.087694,-14.906118],[20.271094,-14.98539],[20.682697,-14.960223],[20.927643,-15.00451],[21.264677,-15.360768],[21.377383,-15.422779],[21.622277,-15.845286],[21.709714,-15.854226],[21.853685,-16.082894],[21.983805,-16.165886]]]},"properties":{"LOCATION_TYPE":"level1","ADM0_A3":"AGO","LOCATION_ID":"AGO-MOX","NAME":"Moxico","TYPE_EN":"Province"}},
{"type":"Feature","geometry":{"type":"Polygon","coordinates":[[[12.533355,-13.567039],[12.502452,-13.855239],[12.415538,-13.878595],[12.328787,-14.092218],[12.331309,-14.433526],[12.272716,-14.750584],[12.207774,-14.833266],[12.104991,-15.172784],[12.056407,-15.233087],[11.992035,-15.617283],[11.736618,-15.900203],[11.821951,-16.479099],[11.752778,-17.229181],[12.095261,-17.139676],[12.242642,-17.224839],[12.554561,-17.235588],[12.818318,-17.104846],[12.887151,-17.029812],[13.166307,-16.951057],[13.345947,-16.968711],[13.154732,-16.714018],[13.247543,-16.535373],[13.227079,-16.428816],[13.480914,-16.248207],[13.511506,-15.994166],[13.589848,-15.820223],[13.545768,-15.530938],[13.220723,-15.229251],[13.296584,-14.88643],[13.590313,-14.676158],[13.681108,-14.437981],[13.665761,-14.277371],[13.584887,-14.082293],[13.624626,-13.957339],[13.564733,-13.846855],[13.382109,-13.822102],[13.286507,-13.562118],[13.101092,-13.521655],[12.919191,-13.606869],[12.613215,-13.534109],[12.533355,-13.567039]]]},"properties":{"LOCATION_TYPE":"level1","ADM0_A3":"AGO","LOCATION_ID":"AGO-NAM","NAME":"Namibe","TYPE_EN":"Province"}},
{"type":"Feature","geometry":{"type":"Polygon","coordinates":[[[13.345947,-16.968711],[13.494659,-17.024024],[13.521324,-17.1219],[13.884351,-17.338527],[13.942745,-17.408187],[14.207432,-17.388033],[15.057199,-17.388343],[16.339808,-17.388653],[17.278972,-17.388928],[17.235465,-17.002786],[17.235155,-16.770604],[17.41747,-16.365461],[17.383518,-15.924764],[17.167201,-15.582356],[17.054546,-15.450219],[16.845308,-15.303355],[16.748001,-15.163053],[16.517318,-15.155819],[16.377223,-15.215402],[16.234131,-15.38087],[15.710597,-15.399783],[15.459088,-15.571246],[15.168408,-16.038556],[15.039475,-16.04238],[14.960203,-15.931792],[14.711743,-15.863683],[14.526948,-15.857016],[14.377035,-16.001659],[14.117464,-16.112505],[14.011786,-16.199269],[13.894635,-16.156119],[13.737746,-16.324068],[13.615944,-16.366546],[13.480914,-16.248207],[13.227079,-16.428816],[13.247543,-16.535373],[13.154732,-16.714018],[13.345947,-16.968711]]]},"properties":{"LOCATION_TYPE":"level1","ADM0_A3":"AGO","LOCATION_ID":"AGO-CNN","NAME":"Cunene","TYPE_EN":"Province"}},
{"type":"Feature","geometry":{"type":"Polygon","coordinates":[[[14.759652,-5.880469],[14.576609,-5.904651],[14.02119,-5.872509],[13.943572,-5.841606],[13.641523,-5.865791],[13.184911,-5.856386],[12.98588,-5.90114],[12.927569,-5.981218],[12.742538,-6.049356],[12.645518,-6.028985],[12.279447,-6.147705],[12.620425,-6.734823],[12.815196,-6.946954],[12.849963,-7.265919],[13.094135,-7.792777],[13.400402,-7.694982],[13.50391,-7.734515],[13.817017,-7.619845],[13.955304,-7.484556],[13.865128,-7.349474],[13.924091,-7.19584],[13.797484,-6.97947],[13.941661,-6.960298],[14.231514,-6.814106],[14.290787,-6.715042],[14.53408,-6.603163],[14.788276,-6.536655],[14.967645,-6.263338],[14.900466,-6.195539],[14.759652,-5.880469]]]},"properties":{"LOCATION_TYPE":"level1","ADM0_A3":"AGO","LOCATION_ID":"AGO-ZAI","NAME":"Zaire","TYPE_EN":"Province"}},
{"type":"Feature","geometry":{"type":"Polygon","coordinates":[[[17.097895,-7.378294],[16.996099,-7.297951],[16.927059,-7.085665],[16.926956,-6.888571],[16.832905,-6.827799],[16.730792,-6.56983],[16.726762,-6.189182],[16.604288,-6.061851],[16.597364,-5.924702],[16.315727,-5.854629],[14.759652,-5.880469],[14.900466,-6.195539],[14.967645,-6.263338],[14.788276,-6.536655],[14.53408,-6.603163],[14.290787,-6.715042],[14.231514,-6.814106],[13.941661,-6.960298],[13.797484,-6.97947],[13.924091,-7.19584],[13.865128,-7.349474],[13.955304,-7.484556],[13.817017,-7.619845],[14.124906,-7.641755],[14.288772,-7.819729],[14.418324,-7.892903],[14.646424,-7.875953],[14.718254,-7.927113],[14.710503,-8.089893],[14.639448,-8.234122],[14.661772,-8.398453],[14.815871,-8.396128],[14.920464,-8.275309],[15.112701,-8.297788],[15.221014,-8.093201],[15.192489,-7.969797],[15.407876,-7.934089],[15.540116,-8.054185],[15.716126,-8.011345],[15.800462,-8.21154],[15.919008,-8.212987],[16.092021,-8.115163],[16.125817,-7.876521],[16.058483,-7.660514],[16.219403,-7.568633],[16.3457,-7.434016],[16.627182,-7.332627],[16.781126,-7.552045],[16.89068,-7.600931],[16.98132,-7.455049],[17.097895,-7.378294]]]},"properties":{"LOCATION_TYPE":"level1","ADM0_A3":"AGO","LOCATION_ID":"AGO-UIG","NAME":"Uíge","TYPE_EN":"Province"}},
{"type":"Feature","geometry":{"type":"Polygon","coordinates":[[[21.913146,-8.333003],[21.851203,-8.143481],[21.758496,-8.015117],[21.770485,-7.806758],[21.854097,-7.585996],[21.842418,-7.369885],[21.784954,-7.283379],[20.520535,-7.286376],[20.524463,-7.143129],[20.611486,-6.915959],[20.331089,-6.916786],[20.294296,-7.001949],[19.521836,-7.001949],[19.476361,-7.315935],[19.513155,-7.479439],[19.424685,-7.579691],[19.333838,-7.867322],[19.355542,-8.001991],[18.773768,-8.001991],[18.738525,-7.932331],[18.507635,-7.997547],[18.176596,-7.999201],[18.098151,-8.109271],[17.901367,-8.048086],[17.628412,-8.098006],[17.536219,-8.075402],[17.576375,-8.348792],[17.527334,-8.445737],[17.586762,-8.597511],[17.585056,-9.109831],[17.55157,-9.209308],[17.400881,-9.278503],[17.338353,-9.379272],[17.413594,-9.577296],[17.71342,-9.806843],[18.235404,-10.002697],[18.176751,-10.212761],[18.372553,-10.39983],[18.469705,-10.40231],[18.632331,-10.403499],[18.894589,-10.260717],[19.117107,-10.208731],[19.472124,-9.993395],[19.863935,-9.843068],[19.957986,-9.694912],[19.991938,-9.470068],[20.187946,-9.298967],[20.369176,-9.218455],[20.427363,-9.100271],[20.694427,-8.984774],[20.837312,-8.745564],[21.028825,-8.608828],[21.25832,-8.559322],[21.552204,-8.541649],[21.913146,-8.333003]]]},"properties":{"LOCATION_TYPE":"level1","ADM0_A3":"AGO","LOCATION_ID":"AGO-LNO","NAME":"Lunda Norte","TYPE_EN":"Province"}},
{"type":"Feature","geometry":{"type":"Polygon","coordinates":[[[17.097895,-7.378294],[16.98132,-7.455049],[16.89068,-7.600931],[16.781126,-7.552045],[16.627182,-7.332627],[16.3457,-7.434016],[16.219403,-7.568633],[16.058483,-7.660514],[16.125817,-7.876521],[16.092021,-8.115163],[15.919008,-8.212987],[15.800462,-8.21154],[15.81612,-8.402846],[15.679539,-8.464083],[15.616856,-8.601645],[15.722379,-8.720656],[15.664967,-8.881111],[15.637837,-9.151586],[15.285558,-9.232563],[15.120194,-9.526757],[15.109393,-9.723747],[15.363796,-9.816765],[15.758243,-9.782658],[15.809041,-9.715996],[16.163334,-9.743178],[16.307925,-9.899034],[16.377998,-10.138916],[16.336037,-10.249193],[16.446263,-10.344381],[16.611576,-10.574186],[16.786242,-10.768851],[16.888355,-10.74999],[17.092631,-10.833189],[17.28125,-10.857683],[17.448889,-11.102526],[17.401036,-11.190841],[17.515035,-11.378427],[17.504751,-11.68709],[17.650427,-11.708587],[17.816463,-11.555883],[18.405626,-11.540432],[18.587631,-11.41274],[18.836866,-11.347627],[18.775578,-11.232751],[18.762659,-10.961346],[18.639772,-10.803681],[18.65357,-10.581938],[18.469705,-10.40231],[18.372553,-10.39983],[18.176751,-10.212761],[18.235404,-10.002697],[17.71342,-9.806843],[17.413594,-9.577296],[17.338353,-9.379272],[17.400881,-9.278503],[17.55157,-9.209308],[17.585056,-9.109831],[17.586762,-8.597511],[17.527334,-8.445737],[17.576375,-8.348792],[17.536219,-8.075402],[17.420569,-7.843861],[17.288898,-7.699477],[17.097895,-7.378294]]]},"properties":{"LOCATION_TYPE":"level1","ADM0_A3":"AGO","LOCATION_ID":"AGO-MAL","NAME":"Malanje","TYPE_EN":"Province"}},
{"type":"Feature","geometry":{"type":"Polygon","coordinates":[[[21.913146,-8.333003],[21.552204,-8.541649],[21.25832,-8.559322],[21.028825,-8.608828],[20.837312,-8.745564],[20.694427,-8.984774],[20.427363,-9.100271],[20.369176,-9.218455],[20.187946,-9.298967],[19.991938,-9.470068],[19.957986,-9.694912],[19.863935,-9.843068],[19.472124,-9.993395],[19.117107,-10.208731],[18.894589,-10.260717],[18.632331,-10.403499],[18.469705,-10.40231],[18.65357,-10.581938],[18.639772,-10.803681],[18.762659,-10.961346],[19.235963,-11.293729],[19.188628,-11.456045],[19.399984,-11.410931],[19.624208,-11.256005],[20.105212,-11.278019],[20.176784,-11.20898],[20.747344,-11.443539],[21.035492,-11.471599],[21.235634,-11.274557],[21.696226,-11.132498],[21.674006,-10.888017],[21.794877,-10.63041],[22.138473,-10.590619],[22.308573,-10.612519],[22.313397,-10.368565],[22.20281,-10.130647],[22.159918,-9.931486],[21.998378,-9.809116],[21.854097,-9.61781],[21.793326,-9.393534],[21.841075,-9.275815],[21.859885,-8.846384],[21.939983,-8.499945],[21.913146,-8.333003]]]},"properties":{"LOCATION_TYPE":"level1","ADM0_A3":"AGO","LOCATION_ID":"AGO-LSU","NAME":"Lunda Sul","TYPE_EN":"Province"}},
{"type":"Feature","geometry":{"type":"Polygon","coordinates":[[[13.792601,-11.74874],[14.075865,-11.787652],[14.236165,-12.001541],[14.414449,-11.8446],[14.517026,-11.859844],[14.671126,-12.082156],[14.854525,-12.09058],[15.021182,-12.205973],[15.116421,-12.048877],[15.369998,-11.939529],[15.403381,-11.557899],[15.748166,-11.443746],[15.785838,-11.276779],[15.951099,-10.946773],[16.169587,-11.003617],[16.324461,-10.834584],[16.557522,-10.673353],[16.611576,-10.574186],[16.446263,-10.344381],[16.336037,-10.249193],[16.377998,-10.138916],[16.307925,-9.899034],[16.163334,-9.743178],[15.809041,-9.715996],[15.758243,-9.782658],[15.363796,-9.816765],[15.109393,-9.723747],[14.948473,-9.673466],[14.740062,-9.758732],[14.565189,-9.769171],[14.539816,-10.02869],[14.606065,-10.36655],[14.550048,-10.439001],[14.39538,-10.324589],[14.215184,-10.276427],[14.023878,-10.39983],[13.728909,-10.347378],[13.489086,-10.24926],[13.542328,-10.42669],[13.75294,-10.646173],[13.739268,-10.78338],[13.828624,-10.91367],[13.846528,-11.113702],[13.7942,-11.341485],[13.792601,-11.74874]]]},"properties":{"LOCATION_TYPE":"level1","ADM0_A3":"AGO","LOCATION_ID":"AGO-CUS","NAME":"Cuanza Sul","TYPE_EN":"Province"}},
{"type":"Feature","geometry":{"type":"Polygon","coordinates":[[[12.533355,-13.567039],[12.613215,-13.534109],[12.919191,-13.606869],[13.101092,-13.521655],[13.286507,-13.562118],[13.382109,-13.822102],[13.564733,-13.846855],[13.671342,-13.81125],[14.354091,-13.855226],[14.519972,-13.609091],[14.639293,-13.657461],[14.776752,-13.624543],[15.11084,-13.402903],[14.962064,-13.285442],[14.908682,-13.011143],[14.806569,-12.684962],[15.069292,-12.51598],[15.021182,-12.205973],[14.854525,-12.09058],[14.671126,-12.082156],[14.517026,-11.859844],[14.414449,-11.8446],[14.236165,-12.001541],[14.075865,-11.787652],[13.792601,-11.74874],[13.766449,-11.920505],[13.639822,-12.248712],[13.505626,-12.371352],[13.364024,-12.592706],[13.178559,-12.601739],[12.939464,-12.816664],[12.944835,-12.982354],[12.634451,-13.343357],[12.512706,-13.442071],[12.533355,-13.567039]]]},"properties":{"LOCATION_TYPE":"level1","ADM0_A3":"AGO","LOCATION_ID":"AGO-BGU","NAME":"Benguela","TYPE_EN":"Province"}},
{"type":"Feature","geometry":{"type":"Polygon","coordinates":[[[13.371001,-8.581556],[13.616099,-8.693888],[13.637338,-8.835688],[13.50422,-8.970408],[13.482878,-9.149984],[13.305214,-9.161714],[13.143403,-9.330255],[13.223888,-9.61419],[13.198578,-9.708673],[13.327159,-9.886],[13.317393,-9.976332],[13.489086,-10.24926],[13.728909,-10.347378],[14.023878,-10.39983],[14.215184,-10.276427],[14.39538,-10.324589],[14.550048,-10.439001],[14.606065,-10.36655],[14.539816,-10.02869],[14.565189,-9.769171],[14.411348,-9.68747],[14.161493,-9.628094],[14.084546,-9.52562],[14.200302,-9.265532],[14.120565,-8.889793],[14.279005,-8.841165],[14.369128,-8.695438],[14.26314,-8.467183],[14.37719,-8.387963],[14.661772,-8.398453],[14.639448,-8.234122],[14.710503,-8.089893],[14.718254,-7.927113],[14.646424,-7.875953],[14.418324,-7.892903],[14.288772,-7.819729],[14.124906,-7.641755],[13.817017,-7.619845],[13.50391,-7.734515],[13.400402,-7.694982],[13.094135,-7.792777],[13.369395,-8.3235],[13.371001,-8.581556]]]},"properties":{"LOCATION_TYPE":"level1","ADM0_A3":"AGO","LOCATION_ID":"AGO-BGO","NAME":"Bengo","TYPE_EN":"Province"}},
{"type":"Feature","geometry":{"type":"Polygon","coordinates":[[[13.143403,-9.330255],[13.305214,-9.161714],[13.482878,-9.149984],[13.50422,-8.970408],[13.637338,-8.835688],[13.616099,-8.693888],[13.371001,-8.581556],[13.380138,-8.75506],[13.212169,-8.814874],[12.996349,-9.093845],[13.143403,-9.330255]]]},"properties":{"LOCATION_TYPE":"level1","ADM0_A3":"AGO","LOCATION_ID":"AGO-LUA","NAME":"Luanda","TYPE_EN":"Province"}},
{"type":"Feature","geometry":{"type":"Polygon","coordinates":[[[16.611576,-10.574186],[16.557522,-10.673353],[16.324461,-10.834584],[16.169587,-11.003617],[15.951099,-10.946773],[15.785838,-11.276779],[15.748166,-11.443746],[15.904849,-11.487929],[16.055382,-11.449482],[16.292319,-11.503018],[16.314539,-11.609937],[16.467708,-11.754734],[16.578916,-11.969553],[16.479646,-12.151196],[16.337484,-12.276873],[16.371177,-12.484044],[16.306013,-12.579542],[16.5029,-12.751469],[16.537678,-13.153357],[16.526206,-13.356342],[16.532717,-13.549974],[16.473599,-14.010307],[16.70697,-13.977493],[16.953363,-13.99837],[17.042299,-14.165388],[17.300784,-14.311633],[17.355096,-14.143581],[17.465425,-14.030099],[17.647895,-13.99067],[17.806955,-13.851247],[17.808505,-13.694048],[17.953147,-13.57235],[17.947256,-13.394273],[18.076809,-13.273711],[18.058981,-13.086488],[18.17117,-12.964118],[18.154427,-12.862367],[18.299173,-12.730075],[18.518591,-12.377125],[18.710672,-12.2623],[18.868957,-12.013737],[18.857485,-11.900049],[19.064191,-11.658823],[19.188628,-11.456045],[19.235963,-11.293729],[18.762659,-10.961346],[18.775578,-11.232751],[18.836866,-11.347627],[18.587631,-11.41274],[18.405626,-11.540432],[17.816463,-11.555883],[17.650427,-11.708587],[17.504751,-11.68709],[17.515035,-11.378427],[17.401036,-11.190841],[17.448889,-11.102526],[17.28125,-10.857683],[17.092631,-10.833189],[16.888355,-10.74999],[16.786242,-10.768851],[16.611576,-10.574186]]]},"properties":{"LOCATION_TYPE":"level1","ADM0_A3":"AGO","LOCATION_ID":"AGO-BIE","NAME":"Bié","TYPE_EN":"Province"}},
{"type":"Feature","geometry":{"type":"Polygon","coordinates":[[[15.800462,-8.21154],[15.716126,-8.011345],[15.540116,-8.054185],[15.407876,-7.934089],[15.192489,-7.969797],[15.221014,-8.093201],[15.112701,-8.297788],[14.920464,-8.275309],[14.815871,-8.396128],[14.661772,-8.398453],[14.37719,-8.387963],[14.26314,-8.467183],[14.369128,-8.695438],[14.279005,-8.841165],[14.120565,-8.889793],[14.200302,-9.265532],[14.084546,-9.52562],[14.161493,-9.628094],[14.411348,-9.68747],[14.565189,-9.769171],[14.740062,-9.758732],[14.948473,-9.673466],[15.109393,-9.723747],[15.120194,-9.526757],[15.285558,-9.232563],[15.637837,-9.151586],[15.664967,-8.881111],[15.722379,-8.720656],[15.616856,-8.601645],[15.679539,-8.464083],[15.81612,-8.402846],[15.800462,-8.21154]]]},"properties":{"LOCATION_TYPE":"level1","ADM0_A3":"AGO","LOCATION_ID":"AGO-CNO","NAME":"Cuanza Norte","TYPE_EN":"Province"}},
{"type":"Feature","geometry":{"type":"Polygon","coordinates":[[[16.526206,-13.356342],[16.243019,-13.341046],[16.136101,-13.437784],[15.915597,-13.436544],[15.61298,-13.719886],[15.377749,-13.600203],[15.31274,-13.38988],[15.11084,-13.402903],[14.776752,-13.624543],[14.639293,-13.657461],[14.519972,-13.609091],[14.354091,-13.855226],[13.671342,-13.81125],[13.564733,-13.846855],[13.624626,-13.957339],[13.584887,-14.082293],[13.665761,-14.277371],[13.681108,-14.437981],[13.590313,-14.676158],[13.296584,-14.88643],[13.220723,-15.229251],[13.545768,-15.530938],[13.589848,-15.820223],[13.511506,-15.994166],[13.480914,-16.248207],[13.615944,-16.366546],[13.737746,-16.324068],[13.894635,-16.156119],[14.011786,-16.199269],[14.117464,-16.112505],[14.377035,-16.001659],[14.526948,-15.857016],[14.711743,-15.863683],[14.960203,-15.931792],[15.039475,-16.04238],[15.168408,-16.038556],[15.459088,-15.571246],[15.710597,-15.399783],[16.234131,-15.38087],[16.377223,-15.215402],[16.517318,-15.155819],[16.748001,-15.163053],[16.65979,-14.877593],[16.50228,-14.626807],[16.461766,-14.268224],[16.473599,-14.010307],[16.532717,-13.549974],[16.526206,-13.356342]]]},"properties":{"LOCATION_TYPE":"level1","ADM0_A3":"AGO","LOCATION_ID":"AGO-HUI","NAME":"Huíla","TYPE_EN":"Province"}},
{"type":"Feature","geometry":{"type":"Polygon","coordinates":[[[15.748166,-11.443746],[15.403381,-11.557899],[15.369998,-11.939529],[15.116421,-12.048877],[15.021182,-12.205973],[15.069292,-12.51598],[14.806569,-12.684962],[14.908682,-13.011143],[14.962064,-13.285442],[15.11084,-13.402903],[15.31274,-13.38988],[15.377749,-13.600203],[15.61298,-13.719886],[15.915597,-13.436544],[16.136101,-13.437784],[16.243019,-13.341046],[16.526206,-13.356342],[16.537678,-13.153357],[16.5029,-12.751469],[16.306013,-12.579542],[16.371177,-12.484044],[16.337484,-12.276873],[16.479646,-12.151196],[16.578916,-11.969553],[16.467708,-11.754734],[16.314539,-11.609937],[16.292319,-11.503018],[16.055382,-11.449482],[15.904849,-11.487929],[15.748166,-11.443746]]]},"properties":{"LOCATION_TYPE":"level1","ADM0_A3":"AGO","LOCATION_ID":"AGO-HUA","NAME":"Huambo","TYPE_EN":"Province"}}
]}