{"type":"FeatureCollection", "features": [
{"type":"Feature","geometry":{"type":"Polygon","coordinates":[[[-63.013497,18.271969],[-62.995204,18.256186],[-62.994804,18.234525],[-62.97289,18.269273],[-62.994523,18.274897],[-62.999982,18.267336],[-63.007395,18.273017],[-63.013497,18.271969]]]},"properties":{"LOCATION_TYPE":"level1","ADM0_A3":"AIA","LOCATION_ID":"AIA-X02~","NAME":"East End","TYPE_EN":"District"}},
{"type":"Feature","geometry":{"type":"Polygon","coordinates":[[[-63.022925,18.27035],[-63.048114,18.235441],[-63.044108,18.232267],[-63.029298,18.235165],[-63.023079,18.251009],[-62.995204,18.256186],[-63.013497,18.271969],[-63.022925,18.27035]]]},"properties":{"LOCATION_TYPE":"level1","ADM0_A3":"AIA","LOCATION_ID":"AIA-X10~","NAME":"Stoney Ground","TYPE_EN":"District"}},
{"type":"Feature","geometry":{"type":"Polygon","coordinates":[[[-63.061165,18.245784],[-63.048114,18.235441],[-63.022925,18.27035],[-63.038197,18.267727],[-63.061165,18.245784]]]},"properties":{"LOCATION_TYPE":"level1","ADM0_A3":"AIA","LOCATION_ID":"AIA-X06~","NAME":"North Side","TYPE_EN":"District"}},
{"type":"Feature","geometry":{"type":"Polygon","coordinates":[[[-63.072718,18.231349],[-63.046972,18.226718],[-63.044108,18.232267],[-63.048114,18.235441],[-63.061165,18.245784],[-63.072718,18.231349]]]},"properties":{"LOCATION_TYPE":"level1","ADM0_A3":"AIA","LOCATION_ID":"AIA-X13~","NAME":"The Valley","TYPE_EN":"District"}},
{"type":"Feature","geometry":{"type":"Polygon","coordinates":[[[-63.077902,18.225967],[-63.075832,18.216271],[-63.061308,18.219152],[-63.046972,18.226718],[-63.072718,18.231349],[-63.077902,18.225967]]]},"properties":{"LOCATION_TYPE":"level1","ADM0_A3":"AIA","LOCATION_ID":"AIA-X05~","NAME":"North Hill","TYPE_EN":"District"}},
{"type":"Feature","geometry":{"type":"Polygon","coordinates":[[[-63.097239,18.21247],[-63.075832,18.216271],[-63.077902,18.225967],[-63.097239,18.21247]]]},"properties":{"LOCATION_TYPE":"level1","ADM0_A3":"AIA","LOCATION_ID":"AIA-X07~","NAME":"Sandy Ground","TYPE_EN":"District"}},
{"type":"Feature","geometry":{"type":"Polygon","coordinates":[[[-63.122792,18.208075],[-63.122599,18.183583],[-63.11384,18.189846],[-63.072629,18.212133],[-63.061308,18.219152],[-63.075832,18.216271],[-63.097239,18.21247],[-63.122792,18.208075]]]},"properties":{"LOCATION_TYPE":"level1","ADM0_A3":"AIA","LOCATION_ID":"AIA-X09~","NAME":"South Hill","TYPE_EN":"District"}},
{"type":"Feature","geometry":{"type":"Polygon","coordinates":[[[-63.122599,18.183583],[-63.122792,18.208075],[-63.142079,18.198147],[-63.150502,18.169094],[-63.122599,18.183583]]]},"properties":{"LOCATION_TYPE":"level1","ADM0_A3":"AIA","LOCATION_ID":"AIA-X14~","NAME":"West End","TYPE_EN":"District"}},
{"type":"Feature","geometry":{"type":"Polygon","coordinates":[[[-63.061388,18.198851],[-63.061334,18.212485],[-63.072629,18.212133],[-63.11384,18.189846],[-63.099517,18.176174],[-63.061388,18.198851]]]},"properties":{"LOCATION_TYPE":"level1","ADM0_A3":"AIA","LOCATION_ID":"AIA-X01~","NAME":"Blowing Point","TYPE_EN":"District"}},
{"type":"Feature","geometry":{"type":"Polygon","coordinates":[[[-63.030435,18.215031],[-63.034229,18.227913],[-63.046972,18.226718],[-63.061308,18.219152],[-63.061334,18.212485],[-63.061388,18.198851],[-63.030435,18.215031]]]},"properties":{"LOCATION_TYPE":"level1","ADM0_A3":"AIA","LOCATION_ID":"AIA-X11~","NAME":"The Farrington","TYPE_EN":"District"}},
{"type":"Feature","geometry":{"type":"Polygon","coordinates":[[[-62.994804,18.234525],[-62.995204,18.256186],[-63.023079,18.251009],[-63.029298,18.235165],[-63.034229,18.227913],[-63.030435,18.215031],[-63.011545,18.220445],[-62.994804,18.234525]]]},"properties":{"LOCATION_TYPE":"level1","ADM0_A3":"AIA","LOCATION_ID":"AIA-X08~","NAME":"Sandy Hill","TYPE_EN":"District"}},
{"type":"Feature","geometry":{"type":"Polygon","coordinates":[[[-63.007395,18.273017],[-62.999982,18.267336],[-62.994523,18.274897],[-63.007395,18.273017]]]},"properties":{"LOCATION_TYPE":"level1","ADM0_A3":"AIA","LOCATION_ID":"AIA-X04~","NAME":"Island Harbour","TYPE_EN":"District"}},
{"type":"Feature","geometry":{"type":"Polygon","coordinates":[[[-63.252031,18.27297],[-63.245606,18.28321],[-63.253573,18.286846],[-63.262631,18.282028],[-63.252031,18.27297]]]},"properties":{"LOCATION_TYPE":"level1","ADM0_A3":"AIA","LOCATION_ID":"AIA-X00","NAME":null,"TYPE_EN":null}},
{"type":"Feature","geometry":{"type":"Polygon","coordinates":[[[-63.072629,18.212133],[-63.061334,18.212485],[-63.061308,18.219152],[-63.072629,18.212133]]]},"properties":{"LOCATION_TYPE":"level1","ADM0_A3":"AIA","LOCATION_ID":"AIA-X03~","NAME":"George Hill","TYPE_EN":"District"}},
{"type":"Feature","geometry":{"type":"Polygon","coordinates":[[[-63.034229,18.227913],[-63.029298,18.235165],[-63.044108,18.232267],[-63.046972,18.226718],[-63.034229,18.227913]]]},"properties":{"LOCATION_TYPE":"level1","ADM0_A3":"AIA","LOCATION_ID":"AIA-X12~","NAME":"The Quarter","TYPE_EN":"District"}}
]}