{"type":"FeatureCollection", "features": [
{"type":"Feature","geometry":{"type":"Polygon","coordinates":[[[20.478108,41.321585],[20.540172,41.400678],[20.490873,41.436025],[20.444157,41.549661],[20.534591,41.594026],[20.500381,41.734095],[20.550921,41.793522],[20.540786,41.844865],[20.404574,41.845405],[20.357652,41.820652],[20.318739,41.893438],[20.20717,41.8992],[20.115961,41.825354],[20.1557,41.761663],[20.024701,41.700452],[19.813499,41.706912],[19.805903,41.624901],[19.836185,41.566662],[19.911116,41.509818],[19.962172,41.482119],[20.051107,41.390988],[20.108365,41.403106],[20.235747,41.344402],[20.29502,41.374271],[20.449429,41.388327],[20.478108,41.321585]]]},"properties":{"LOCATION_TYPE":"level1","ADM0_A3":"ALB","LOCATION_ID":"ALB-09","NAME":"Dibër","TYPE_EN":"County"}},
{"type":"Feature","geometry":{"type":"Polygon","coordinates":[[[20.540786,41.844865],[20.59929,41.94788],[20.549371,42.123476],[20.500795,42.211223],[20.333363,42.317883],[20.249647,42.318607],[20.199728,42.427799],[20.135546,42.509629],[20.039221,42.557765],[19.981757,42.510765],[19.907549,42.506399],[19.829063,42.468723],[19.789159,42.414104],[19.830914,42.267756],[19.924138,42.251737],[20.036948,42.256542],[20.235592,42.19236],[20.159266,42.104278],[20.212648,42.02821],[20.267218,41.993096],[20.20717,41.8992],[20.318739,41.893438],[20.357652,41.820652],[20.404574,41.845405],[20.540786,41.844865]]]},"properties":{"LOCATION_TYPE":"level1","ADM0_A3":"ALB","LOCATION_ID":"ALB-07","NAME":"Kukës","TYPE_EN":"County"}},
{"type":"Feature","geometry":{"type":"Polygon","coordinates":[[[20.597419,41.086273],[20.542808,41.029589],[20.422867,40.988144],[20.398528,40.888874],[20.468498,40.79968],[20.415736,40.752293],[20.29316,40.726042],[20.418372,40.531428],[20.442608,40.439702],[20.461676,40.324516],[20.52684,40.158066],[20.615361,40.081017],[20.696442,40.215066],[20.706984,40.288085],[20.770442,40.36255],[20.768995,40.412573],[20.826666,40.464818],[20.911932,40.459547],[21.018799,40.558972],[21.036679,40.639743],[20.963505,40.736068],[20.964849,40.875956],[20.939941,40.907065],[20.837415,40.924066],[20.766102,40.893732],[20.702746,40.936314],[20.664092,41.059149],[20.597419,41.086273]]]},"properties":{"LOCATION_TYPE":"level1","ADM0_A3":"ALB","LOCATION_ID":"ALB-06","NAME":"Korçë","TYPE_EN":"County"}},
{"type":"Feature","geometry":{"type":"Polygon","coordinates":[[[20.597419,41.086273],[20.51268,41.210147],[20.478108,41.321585],[20.449429,41.388327],[20.29502,41.374271],[20.235747,41.344402],[20.120147,41.273192],[20.035553,41.254278],[19.971164,41.194798],[19.746165,41.12178],[19.670924,41.056616],[19.723375,41.011089],[19.811949,40.999487],[19.803112,40.901302],[19.867191,40.868358],[20.016639,40.873681],[20.013073,40.828464],[20.221949,40.71568],[20.29316,40.726042],[20.415736,40.752293],[20.468498,40.79968],[20.398528,40.888874],[20.422867,40.988144],[20.542808,41.029589],[20.597419,41.086273]]]},"properties":{"LOCATION_TYPE":"level1","ADM0_A3":"ALB","LOCATION_ID":"ALB-03","NAME":"Elbasan","TYPE_EN":"County"}},
{"type":"Feature","geometry":{"type":"Polygon","coordinates":[[[20.615361,40.081017],[20.52684,40.158066],[20.461676,40.324516],[20.442608,40.439702],[20.370416,40.399162],[20.248615,40.372368],[20.148362,40.47262],[19.904915,40.527294],[19.776447,40.422959],[19.758619,40.346297],[19.810243,40.295396],[19.939383,40.065307],[20.041289,40.049597],[20.205,39.938622],[20.299577,39.805056],[20.371604,39.784291],[20.392998,39.835451],[20.317964,39.918391],[20.310005,39.98986],[20.376461,39.993736],[20.432789,40.063809],[20.615361,40.081017]]]},"properties":{"LOCATION_TYPE":"level1","ADM0_A3":"ALB","LOCATION_ID":"ALB-05","NAME":"Gjirokastër","TYPE_EN":"County"}},
{"type":"Feature","geometry":{"type":"Polygon","coordinates":[[[20.299577,39.805056],[20.205,39.938622],[20.041289,40.049597],[19.939383,40.065307],[19.810243,40.295396],[19.758619,40.346297],[19.776447,40.422959],[19.711128,40.526131],[19.411456,40.641292],[19.304684,40.652642],[19.379242,40.566148],[19.4546,40.55386],[19.418793,40.491889],[19.47877,40.453925],[19.474946,40.348375],[19.381114,40.295233],[19.476248,40.21369],[19.74936,40.084621],[19.855235,40.049872],[19.923839,39.952826],[19.906423,39.912665],[20.016287,39.845038],[19.98699,39.717963],[20.199935,39.640062],[20.299463,39.728222],[20.299577,39.805056]]]},"properties":{"LOCATION_TYPE":"level1","ADM0_A3":"ALB","LOCATION_ID":"ALB-12","NAME":"Vlorë","TYPE_EN":"County"}},
{"type":"Feature","geometry":{"type":"Polygon","coordinates":[[[19.829063,42.468723],[19.73433,42.524382],[19.737534,42.624402],[19.699293,42.654814],[19.605035,42.584844],[19.517806,42.45803],[19.417243,42.374107],[19.400397,42.325893],[19.272033,42.180682],[19.374869,42.094667],[19.346447,41.961548],[19.365082,41.852362],[19.432953,41.868598],[19.529549,41.835711],[19.560129,41.938732],[19.72291,41.895298],[19.795516,41.94651],[19.901659,41.968911],[19.95318,41.876178],[20.005012,41.880028],[20.088159,41.963124],[20.212648,42.02821],[20.159266,42.104278],[20.235592,42.19236],[20.036948,42.256542],[19.924138,42.251737],[19.830914,42.267756],[19.789159,42.414104],[19.829063,42.468723]]]},"properties":{"LOCATION_TYPE":"level1","ADM0_A3":"ALB","LOCATION_ID":"ALB-10","NAME":"Shkodër","TYPE_EN":"County"}},
{"type":"Feature","geometry":{"type":"Polygon","coordinates":[[[19.304684,40.652642],[19.411456,40.641292],[19.711128,40.526131],[19.776447,40.422959],[19.904915,40.527294],[19.848897,40.568583],[19.828899,40.652558],[19.756241,40.716585],[19.731902,40.811979],[19.774277,40.847145],[19.867191,40.868358],[19.803112,40.901302],[19.811949,40.999487],[19.723375,41.011089],[19.670924,41.056616],[19.597078,41.069328],[19.483183,41.045247],[19.448009,41.00932],[19.525157,40.945258],[19.506602,40.905097],[19.414236,40.868842],[19.365571,40.785956],[19.351573,40.694159],[19.304684,40.652642]]]},"properties":{"LOCATION_TYPE":"level1","ADM0_A3":"ALB","LOCATION_ID":"ALB-04","NAME":"Fier","TYPE_EN":"County"}},
{"type":"Feature","geometry":{"type":"Polygon","coordinates":[[[19.448009,41.00932],[19.483183,41.045247],[19.597078,41.069328],[19.670924,41.056616],[19.746165,41.12178],[19.971164,41.194798],[20.035553,41.254278],[20.120147,41.273192],[20.235747,41.344402],[20.108365,41.403106],[20.051107,41.390988],[19.962172,41.482119],[19.911116,41.509818],[19.892977,41.469278],[19.737328,41.40724],[19.622038,41.446153],[19.642192,41.307091],[19.58726,41.243994],[19.515963,41.260457],[19.468761,41.187567],[19.448009,41.00932]]]},"properties":{"LOCATION_TYPE":"level1","ADM0_A3":"ALB","LOCATION_ID":"ALB-11","NAME":"Tiranë","TYPE_EN":"County"}},
{"type":"Feature","geometry":{"type":"Polygon","coordinates":[[[19.515963,41.260457],[19.58726,41.243994],[19.642192,41.307091],[19.622038,41.446153],[19.737328,41.40724],[19.892977,41.469278],[19.911116,41.509818],[19.836185,41.566662],[19.76792,41.586713],[19.685807,41.55811],[19.556407,41.583075],[19.440929,41.585395],[19.516612,41.513414],[19.440929,41.440863],[19.414236,41.382799],[19.431651,41.313707],[19.515963,41.260457]]]},"properties":{"LOCATION_TYPE":"level1","ADM0_A3":"ALB","LOCATION_ID":"ALB-02","NAME":"Durrës","TYPE_EN":"County"}},
{"type":"Feature","geometry":{"type":"Polygon","coordinates":[[[19.556407,41.583075],[19.685807,41.55811],[19.76792,41.586713],[19.836185,41.566662],[19.805903,41.624901],[19.813499,41.706912],[20.024701,41.700452],[20.1557,41.761663],[20.115961,41.825354],[20.20717,41.8992],[20.267218,41.993096],[20.212648,42.02821],[20.088159,41.963124],[20.005012,41.880028],[19.95318,41.876178],[19.901659,41.968911],[19.795516,41.94651],[19.72291,41.895298],[19.560129,41.938732],[19.529549,41.835711],[19.5713,41.770413],[19.604991,41.632148],[19.556407,41.583075]]]},"properties":{"LOCATION_TYPE":"level1","ADM0_A3":"ALB","LOCATION_ID":"ALB-08","NAME":"Lezhë","TYPE_EN":"County"}},
{"type":"Feature","geometry":{"type":"Polygon","coordinates":[[[20.29316,40.726042],[20.221949,40.71568],[20.013073,40.828464],[20.016639,40.873681],[19.867191,40.868358],[19.774277,40.847145],[19.731902,40.811979],[19.756241,40.716585],[19.828899,40.652558],[19.848897,40.568583],[19.904915,40.527294],[20.148362,40.47262],[20.248615,40.372368],[20.370416,40.399162],[20.442608,40.439702],[20.418372,40.531428],[20.29316,40.726042]]]},"properties":{"LOCATION_TYPE":"level1","ADM0_A3":"ALB","LOCATION_ID":"ALB-01","NAME":"Berat","TYPE_EN":"County"}}
]}