{"type":"FeatureCollection", "features": [
{"type":"Feature","geometry":{"type":"Polygon","coordinates":[[[20.277599,60.142157],[20.222423,60.149604],[20.201915,60.087551],[20.268891,60.086005],[20.297618,60.121527],[20.277599,60.142157]]]},"properties":{"LOCATION_TYPE":"level1","ADM0_A3":"ALD","LOCATION_ID":"ALD-X11~","NAME":"Lumparland","TYPE_EN":null}},
{"type":"Feature","geometry":{"type":"Polygon","coordinates":[[[19.639496,60.220933],[19.578868,60.260484],[19.53712,60.232164],[19.513194,60.183783],[19.544607,60.134752],[19.671072,60.158108],[19.639496,60.220933]]]},"properties":{"LOCATION_TYPE":"level1","ADM0_A3":"ALD","LOCATION_ID":"ALD-X04~","NAME":"Eckerö","TYPE_EN":null}},
{"type":"Feature","geometry":{"type":"Polygon","coordinates":[[[20.427908,60.265692],[20.379649,60.26968],[20.392914,60.196763],[20.441417,60.245185],[20.427908,60.265692]]]},"properties":{"LOCATION_TYPE":"level1","ADM0_A3":"ALD","LOCATION_ID":"ALD-X12~","NAME":"Vårdö","TYPE_EN":null}},
{"type":"Feature","geometry":{"type":"Polygon","coordinates":[[[20.818858,60.232164],[20.853038,60.265692],[20.781098,60.263658],[20.818858,60.232164]]]},"properties":{"LOCATION_TYPE":"level1","ADM0_A3":"ALD","LOCATION_ID":"ALD-X14~","NAME":"Kumlinge","TYPE_EN":null}},
{"type":"Feature","geometry":{"type":"Polygon","coordinates":[[[19.91033,60.10106],[19.937094,60.110769],[19.965994,60.091132],[20.006358,60.094387],[20.03297,60.144355],[19.943614,60.186225],[19.846871,60.178054],[19.81017,60.148999],[19.824474,60.094387],[19.91033,60.10106]]]},"properties":{"LOCATION_TYPE":"level1","ADM0_A3":"ALD","LOCATION_ID":"ALD-X02~","NAME":"Jomala","TYPE_EN":null}},
{"type":"Feature","geometry":{"type":"Polygon","coordinates":[[[19.965994,60.091132],[19.937094,60.110769],[19.91033,60.10106],[19.965994,60.091132]]]},"properties":{"LOCATION_TYPE":"level1","ADM0_A3":"ALD","LOCATION_ID":"ALD-X09~","NAME":"Mariehamn","TYPE_EN":null}},
{"type":"Feature","geometry":{"type":"Polygon","coordinates":[[[20.983572,59.942776],[20.934744,59.957994],[20.93214,59.935858],[20.983572,59.942776]]]},"properties":{"LOCATION_TYPE":"level1","ADM0_A3":"ALD","LOCATION_ID":"ALD-X16~","NAME":"Kökar","TYPE_EN":null}},
{"type":"Feature","geometry":{"type":"MultiPolygon","coordinates":[[[[20.610118,60.044989],[20.544932,60.056098],[20.505544,60.024237],[20.577485,60.006659],[20.610118,60.044989]]],[[[20.281315,59.976616],[20.398576,59.981349],[20.436746,60.004989],[20.339447,60.02011],[20.281315,59.976616]]]]},"properties":{"LOCATION_TYPE":"level1","ADM0_A3":"ALD","LOCATION_ID":"ALD-X06~","NAME":"Föglö","TYPE_EN":null}},
{"type":"Feature","geometry":{"type":"Polygon","coordinates":[[[20.68336,60.13052],[20.653575,60.151353],[20.638682,60.131334],[20.68336,60.13052]]]},"properties":{"LOCATION_TYPE":"level1","ADM0_A3":"ALD","LOCATION_ID":"ALD-X13~","NAME":"Sottunga","TYPE_EN":null}},
{"type":"Feature","geometry":{"type":"Polygon","coordinates":[[[20.03365,60.063626],[20.025256,60.042485],[20.104258,60.028248],[20.123179,59.988872],[20.225218,60.005478],[20.193191,60.06557],[20.163259,60.087845],[20.101269,60.094975],[20.03365,60.063626]]]},"properties":{"LOCATION_TYPE":"level1","ADM0_A3":"ALD","LOCATION_ID":"ALD-X10~","NAME":"Lemland","TYPE_EN":null}},
{"type":"Feature","geometry":{"type":"Polygon","coordinates":[[[21.088634,60.480129],[21.059255,60.466742],[21.064952,60.454779],[21.09669,60.463446],[21.088634,60.480129]]]},"properties":{"LOCATION_TYPE":"level1","ADM0_A3":"ALD","LOCATION_ID":"ALD-X15~","NAME":"Brändö","TYPE_EN":null}}
]}