{"type":"FeatureCollection", "features": [
{"type":"Feature","geometry":{"type":"Polygon","coordinates":[[[1.597349,42.621921],[1.543089,42.649362],[1.466814,42.641455],[1.451415,42.602052],[1.555607,42.562654],[1.597349,42.621921]]]},"properties":{"LOCATION_TYPE":"level1","ADM0_A3":"AND","LOCATION_ID":"AND-05","NAME":"Ordino","TYPE_EN":null}},
{"type":"Feature","geometry":{"type":"Polygon","coordinates":[[[1.597349,42.621921],[1.555607,42.562654],[1.682773,42.574553],[1.717091,42.53989],[1.752688,42.576679],[1.721993,42.609855],[1.597349,42.621921]]]},"properties":{"LOCATION_TYPE":"level1","ADM0_A3":"AND","LOCATION_ID":"AND-02","NAME":"Canillo","TYPE_EN":null}},
{"type":"Feature","geometry":{"type":"Polygon","coordinates":[[[1.717091,42.53989],[1.682773,42.574553],[1.555607,42.562654],[1.556351,42.538114],[1.656984,42.49764],[1.717091,42.53989]]]},"properties":{"LOCATION_TYPE":"level1","ADM0_A3":"AND","LOCATION_ID":"AND-03","NAME":"Encamp","TYPE_EN":null}},
{"type":"Feature","geometry":{"type":"Polygon","coordinates":[[[1.451415,42.602052],[1.409764,42.540609],[1.449968,42.504073],[1.487191,42.518035],[1.556351,42.538114],[1.555607,42.562654],[1.451415,42.602052]]]},"properties":{"LOCATION_TYPE":"level1","ADM0_A3":"AND","LOCATION_ID":"AND-04","NAME":"La Massana","TYPE_EN":null}},
{"type":"Feature","geometry":{"type":"Polygon","coordinates":[[[1.449968,42.504073],[1.407593,42.486762],[1.447901,42.434646],[1.508466,42.428677],[1.572665,42.453075],[1.499089,42.489032],[1.487191,42.518035],[1.449968,42.504073]]]},"properties":{"LOCATION_TYPE":"level1","ADM0_A3":"AND","LOCATION_ID":"AND-06","NAME":"Sant Julià de Lòria","TYPE_EN":null}},
{"type":"Feature","geometry":{"type":"Polygon","coordinates":[[[1.656984,42.49764],[1.556351,42.538114],[1.499089,42.489032],[1.572665,42.453075],[1.639517,42.466427],[1.656984,42.49764]]]},"properties":{"LOCATION_TYPE":"level1","ADM0_A3":"AND","LOCATION_ID":"AND-08","NAME":"Escaldes-Engordany","TYPE_EN":null}},
{"type":"Feature","geometry":{"type":"Polygon","coordinates":[[[1.556351,42.538114],[1.487191,42.518035],[1.499089,42.489032],[1.556351,42.538114]]]},"properties":{"LOCATION_TYPE":"level1","ADM0_A3":"AND","LOCATION_ID":"AND-07","NAME":"Andorra la Vella","TYPE_EN":null}}
]}