{"type":"FeatureCollection", "features": [
{"type":"Feature","geometry":{"type":"MultiPolygon","coordinates":[[[[56.349123,25.294025],[56.235771,25.211175],[56.206722,25.226701],[56.16606,25.219727],[56.164045,25.053381],[56.270498,24.93915],[56.282281,24.951449],[56.305845,25.02054],[56.362234,25.068264],[56.382986,25.321275],[56.349123,25.294025]]],[[[56.260625,25.331075],[56.365001,25.423166],[56.369965,25.525702],[56.340017,25.60456],[56.221508,25.613838],[56.152496,25.657961],[56.068754,25.641794],[55.965711,25.576708],[55.982609,25.495602],[56.127872,25.465759],[56.07728,25.343105],[56.001264,25.380932],[55.983074,25.331762],[55.977338,25.282049],[55.986175,25.225334],[56.108803,25.218151],[56.233625,25.312526],[56.260625,25.331075]]],[[[56.314278,24.911962],[56.275614,24.913958],[56.252929,24.894812],[56.274683,24.871949],[56.314278,24.911962]]]]},"properties":{"LOCATION_TYPE":"level1","ADM0_A3":"ARE","LOCATION_ID":"ARE-FU","NAME":"Fujayrah","TYPE_EN":"Emirate"}},
{"type":"Feature","geometry":{"type":"MultiPolygon","coordinates":[[[[56.349123,25.294025],[56.382986,25.321275],[56.365001,25.423166],[56.260625,25.331075],[56.349123,25.294025]]],[[[56.316053,24.929912],[56.383311,24.978217],[56.362234,25.068264],[56.305845,25.02054],[56.282281,24.951449],[56.316053,24.929912]]],[[[55.975873,24.972112],[55.950053,25.043614],[55.986175,25.225334],[55.977338,25.282049],[55.983074,25.331762],[56.001264,25.380932],[55.928142,25.3476],[55.904268,25.295123],[55.806651,25.28608],[55.761486,25.368943],[55.515163,25.513254],[55.492104,25.460159],[55.632243,25.413152],[55.597465,25.359615],[55.424496,25.39452],[55.32482,25.307088],[55.448843,25.306776],[55.600772,25.200348],[55.657719,25.054802],[55.61953,24.999327],[55.66113,24.895432],[55.670897,24.708983],[55.799933,24.693248],[55.788667,24.855202],[55.89698,24.968606],[55.975873,24.972112]]],[[[56.164045,25.053381],[56.204198,24.900625],[56.252929,24.894812],[56.275614,24.913958],[56.270498,24.93915],[56.164045,25.053381]]]]},"properties":{"LOCATION_TYPE":"level1","ADM0_A3":"ARE","LOCATION_ID":"ARE-SH","NAME":"Sharjah","TYPE_EN":"Emirate"}},
{"type":"Feature","geometry":{"type":"MultiPolygon","coordinates":[[[[56.233625,25.312526],[56.108803,25.218151],[55.986175,25.225334],[55.950053,25.043614],[55.975873,24.972112],[56.025252,24.882562],[56.105702,24.820372],[56.171366,24.824069],[56.274683,24.871949],[56.252929,24.894812],[56.204198,24.900625],[56.164045,25.053381],[56.16606,25.219727],[56.206722,25.226701],[56.233625,25.312526]]],[[[56.152496,25.657961],[56.183475,26.014537],[56.162701,26.073552],[56.077397,26.061048],[56.014415,25.878852],[55.842459,25.713813],[55.745984,25.662297],[55.802,25.626214],[55.84453,25.47351],[55.928142,25.3476],[56.001264,25.380932],[56.07728,25.343105],[56.127872,25.465759],[55.982609,25.495602],[55.965711,25.576708],[56.068754,25.641794],[56.152496,25.657961]]]]},"properties":{"LOCATION_TYPE":"level1","ADM0_A3":"ARE","LOCATION_ID":"ARE-RK","NAME":"Ras Al Khaymah","TYPE_EN":"Emirate"}},
{"type":"Feature","geometry":{"type":"MultiPolygon","coordinates":[[[[56.171366,24.824069],[56.105702,24.820372],[56.07627,24.729972],[56.118259,24.735416],[56.171366,24.824069]]],[[[55.32482,25.307088],[55.259044,25.215277],[55.082286,25.016832],[55.005859,24.969913],[55.137854,24.63692],[55.200538,24.595088],[55.41236,24.60284],[55.670897,24.708983],[55.66113,24.895432],[55.61953,24.999327],[55.657719,25.054802],[55.600772,25.200348],[55.448843,25.306776],[55.32482,25.307088]]]]},"properties":{"LOCATION_TYPE":"level1","ADM0_A3":"ARE","LOCATION_ID":"ARE-DU","NAME":"Dubay","TYPE_EN":"Emirate"}},
{"type":"Feature","geometry":{"type":"Polygon","coordinates":[[[56.316053,24.929912],[56.282281,24.951449],[56.270498,24.93915],[56.275614,24.913958],[56.314278,24.911962],[56.316053,24.929912]]]},"properties":{"LOCATION_TYPE":"level1","ADM0_A3":"ARE","LOCATION_ID":"ARE-X01~","NAME":"Neutral Zone","TYPE_EN":"Emirate"}},
{"type":"Feature","geometry":{"type":"Polygon","coordinates":[[[56.025252,24.882562],[55.960852,24.881247],[56.031546,24.754149],[56.07627,24.729972],[56.105702,24.820372],[56.025252,24.882562]]]},"properties":{"LOCATION_TYPE":"level1","ADM0_A3":"ARE","LOCATION_ID":"ARE-X02~","NAME":"Neutral Zone","TYPE_EN":"Emirate"}},
{"type":"Feature","geometry":{"type":"MultiPolygon","coordinates":[[[[55.799933,24.693248],[55.670897,24.708983],[55.41236,24.60284],[55.200538,24.595088],[55.137854,24.63692],[55.005859,24.969913],[54.707042,24.8039],[54.640473,24.732611],[54.661876,24.678127],[54.581798,24.50845],[54.537446,24.49844],[54.47877,24.569892],[54.440684,24.523912],[54.558604,24.457709],[54.483165,24.425116],[54.445974,24.316148],[54.382579,24.254584],[54.323009,24.270657],[54.187022,24.203599],[54.122569,24.144721],[53.951182,24.103746],[53.85377,24.061998],[53.581309,24.048529],[53.519298,24.096869],[53.437022,24.119818],[53.253754,24.098782],[53.165294,24.170315],[53.067231,24.121894],[52.999766,24.165676],[52.947113,24.137885],[52.839203,24.152004],[52.670095,24.144721],[52.634125,24.189887],[52.341075,24.007514],[52.224376,23.974026],[52.067393,23.963446],[52.023936,23.98786],[51.809418,24.000678],[51.771983,24.176337],[51.709809,24.221096],[51.569347,24.256171],[51.593522,24.078325],[52.224078,23.328422],[52.538477,22.95475],[52.583074,22.931108],[53.438939,22.825869],[54.134297,22.740319],[55.105297,22.620946],[55.186843,22.703577],[55.197592,22.849459],[55.191287,22.995368],[55.22591,23.121251],[55.321098,23.275092],[55.375255,23.469344],[55.445328,23.552259],[55.478298,23.67636],[55.538346,23.770049],[55.530595,23.874668],[55.461555,23.930556],[55.499795,23.970605],[55.646866,24.02502],[55.807063,24.007476],[55.997853,24.08127],[55.933154,24.220719],[55.847164,24.211417],[55.754147,24.245472],[55.807373,24.340789],[55.774611,24.4259],[55.759831,24.558528],[55.818226,24.643381],[55.799933,24.693248]]],[[[53.656993,24.158393],[53.741466,24.13349],[53.854991,24.152167],[53.920421,24.139838],[53.9546,24.200995],[53.83961,24.26435],[53.72283,24.229885],[53.656993,24.158393]]],[[[53.322759,24.262691],[53.361583,24.350775],[53.231781,24.295559],[53.322759,24.262691]]]]},"properties":{"LOCATION_TYPE":"level1","ADM0_A3":"ARE","LOCATION_ID":"ARE-AZ","NAME":"Abu Dhabi","TYPE_EN":"Emirate"}},
{"type":"Feature","geometry":{"type":"Polygon","coordinates":[[[55.515163,25.513254],[55.761486,25.368943],[55.806651,25.28608],[55.904268,25.295123],[55.928142,25.3476],[55.84453,25.47351],[55.802,25.626214],[55.745984,25.662297],[55.656912,25.597724],[55.626313,25.536322],[55.515163,25.513254]]]},"properties":{"LOCATION_TYPE":"level1","ADM0_A3":"ARE","LOCATION_ID":"ARE-UQ","NAME":"Umm Al Qaywayn","TYPE_EN":"Emirate"}},
{"type":"Feature","geometry":{"type":"Polygon","coordinates":[[[55.424496,25.39452],[55.597465,25.359615],[55.632243,25.413152],[55.492104,25.460159],[55.424496,25.39452]]]},"properties":{"LOCATION_TYPE":"level1","ADM0_A3":"ARE","LOCATION_ID":"ARE-AJ","NAME":"Ajman","TYPE_EN":"Emirate"}}
]}