{"type":"FeatureCollection", "features": [
{"type":"Feature","geometry":{"type":"Polygon","coordinates":[[[-58.446971,-34.00694],[-58.549387,-33.683038],[-58.521718,-33.449314],[-58.412343,-33.298272],[-58.383168,-33.075453],[-58.146799,-33.049981],[-58.220082,-32.489516],[-58.101591,-32.31136],[-58.186547,-32.15292],[-58.148306,-32.0629],[-58.168615,-31.846014],[-58.059268,-31.811494],[-57.986818,-31.554145],[-58.075236,-31.475184],[-57.905117,-31.240986],[-57.807242,-30.90757],[-57.808659,-30.747331],[-57.987256,-30.603506],[-58.068,-30.420727],[-58.260754,-30.230713],[-58.629749,-30.152268],[-58.876168,-30.226992],[-59.004998,-30.204099],[-59.241314,-30.343471],[-59.38854,-30.305953],[-59.661521,-30.336908],[-59.618113,-30.446772],[-59.660642,-30.736056],[-60.094027,-31.353693],[-60.41411,-31.673519],[-60.647765,-31.716048],[-60.722515,-31.947249],[-60.66624,-32.048328],[-60.765665,-32.541063],[-60.675464,-32.846522],[-60.495423,-33.122061],[-60.294092,-33.256574],[-60.118082,-33.393569],[-59.640618,-33.671019],[-59.520702,-33.65531],[-59.392648,-33.739387],[-59.26232,-33.724246],[-59.162688,-33.828788],[-59.031818,-33.829563],[-58.679798,-34.031204],[-58.446971,-34.00694]]]},"properties":{"LOCATION_TYPE":"level1","ADM0_A3":"ARG","LOCATION_ID":"ARG-E","NAME":"Entre Ríos","TYPE_EN":"Province"}},
{"type":"Feature","geometry":{"type":"Polygon","coordinates":[[[-67.251329,-23.733091],[-67.362369,-24.030367],[-68.244486,-24.385384],[-68.503695,-24.612347],[-68.572373,-24.769856],[-68.379207,-25.136759],[-68.496468,-25.159997],[-67.806863,-25.283211],[-66.60102,-25.269103],[-66.469245,-25.479788],[-66.512498,-25.63089],[-66.806821,-25.725044],[-66.781732,-25.894905],[-66.41979,-26.376684],[-66.224815,-26.17096],[-66.053818,-26.253488],[-65.711823,-26.295397],[-65.66534,-26.074791],[-65.267277,-26.163571],[-64.966442,-26.268836],[-64.767359,-26.211371],[-64.486343,-26.220208],[-64.425003,-26.027558],[-64.211605,-25.603657],[-63.924387,-25.652336],[-63.398579,-25.659364],[-62.334381,-24.402903],[-62.339213,-24.120646],[-62.338825,-23.556236],[-62.341357,-22.472261],[-62.632684,-22.295951],[-62.790917,-22.113223],[-62.804353,-22.004082],[-63.639392,-21.997468],[-63.74042,-22.050591],[-63.947591,-22.007596],[-64.293978,-22.690862],[-64.45371,-22.642906],[-64.428285,-22.542344],[-64.572023,-22.343183],[-64.58688,-22.212752],[-65.020368,-22.096583],[-65.190478,-22.098474],[-65.241878,-22.326182],[-65.334327,-22.502347],[-65.268724,-22.629781],[-65.268414,-22.843722],[-65.192475,-22.980509],[-65.039306,-23.002265],[-65.042898,-23.251449],[-64.815935,-23.504612],[-64.660105,-23.45464],[-64.438283,-23.619592],[-64.346997,-23.504612],[-64.181064,-23.54156],[-64.158766,-24.18364],[-64.31488,-24.414013],[-64.399397,-24.423987],[-64.625481,-24.613226],[-64.816581,-24.458869],[-64.901744,-24.592555],[-65.031503,-24.564857],[-65.174647,-24.454683],[-65.276863,-24.501812],[-65.587102,-24.402593],[-65.759288,-24.155786],[-65.759107,-24.076825],[-65.964056,-23.989698],[-66.025964,-23.84764],[-65.986819,-23.543317],[-66.170193,-23.420689],[-66.352198,-23.367824],[-66.402866,-23.556908],[-66.337935,-23.723823],[-66.351991,-24.041375],[-66.504488,-24.237125],[-66.67533,-24.199143],[-66.857438,-24.060237],[-67.092152,-23.826297],[-67.251329,-23.733091]]]},"properties":{"LOCATION_TYPE":"level1","ADM0_A3":"ARG","LOCATION_ID":"ARG-A","NAME":"Salta","TYPE_EN":"Province"}},
{"type":"Feature","geometry":{"type":"Polygon","coordinates":[[[-67.251329,-23.733091],[-67.092152,-23.826297],[-66.857438,-24.060237],[-66.67533,-24.199143],[-66.504488,-24.237125],[-66.351991,-24.041375],[-66.337935,-23.723823],[-66.402866,-23.556908],[-66.352198,-23.367824],[-66.170193,-23.420689],[-65.986819,-23.543317],[-66.025964,-23.84764],[-65.964056,-23.989698],[-65.759107,-24.076825],[-65.759288,-24.155786],[-65.587102,-24.402593],[-65.276863,-24.501812],[-65.174647,-24.454683],[-65.031503,-24.564857],[-64.901744,-24.592555],[-64.816581,-24.458869],[-64.625481,-24.613226],[-64.399397,-24.423987],[-64.31488,-24.414013],[-64.158766,-24.18364],[-64.181064,-23.54156],[-64.346997,-23.504612],[-64.438283,-23.619592],[-64.660105,-23.45464],[-64.815935,-23.504612],[-65.042898,-23.251449],[-65.039306,-23.002265],[-65.192475,-22.980509],[-65.268414,-22.843722],[-65.268724,-22.629781],[-65.334327,-22.502347],[-65.241878,-22.326182],[-65.190478,-22.098474],[-65.579894,-22.086454],[-65.744613,-22.11405],[-66.094488,-21.83293],[-66.240009,-21.792415],[-66.297163,-22.050281],[-66.377468,-22.127072],[-66.735896,-22.225051],[-66.796461,-22.434857],[-67.032725,-22.524567],[-67.037686,-22.654585],[-67.193904,-22.822223],[-67.013967,-23.000714],[-67.251329,-23.733091]]]},"properties":{"LOCATION_TYPE":"level1","ADM0_A3":"ARG","LOCATION_ID":"ARG-Y","NAME":"Jujuy","TYPE_EN":"Province"}},
{"type":"Feature","geometry":{"type":"Polygon","coordinates":[[[-62.341357,-22.472261],[-62.338825,-23.556236],[-62.339213,-24.120646],[-62.049515,-24.209168],[-61.90203,-24.317275],[-61.775707,-24.341718],[-61.660313,-24.476438],[-61.451101,-24.619376],[-61.19874,-24.674928],[-61.034254,-24.897963],[-60.799927,-25.07542],[-60.499661,-25.209572],[-60.360341,-25.363258],[-60.178053,-25.6651],[-60.03341,-25.701222],[-59.862465,-25.823126],[-59.673561,-26.013502],[-59.669014,-26.117165],[-59.413138,-26.190081],[-59.283482,-26.347849],[-59.146798,-26.29948],[-58.953528,-26.405623],[-58.863327,-26.50386],[-58.577117,-26.689585],[-58.351275,-26.885812],[-58.247939,-26.758159],[-58.206184,-26.402728],[-58.086501,-26.12719],[-57.872716,-26.010298],[-57.875352,-25.876146],[-57.753705,-25.672747],[-57.623067,-25.615386],[-57.556921,-25.45984],[-57.754067,-25.180891],[-58.224064,-24.941216],[-58.311966,-24.993615],[-58.473403,-24.851299],[-58.809196,-24.776781],[-59.000916,-24.644179],[-59.340973,-24.4876],[-59.459725,-24.358512],[-60.033669,-24.007009],[-60.328018,-24.017964],[-60.593584,-23.912234],[-60.837625,-23.871823],[-61.006349,-23.805471],[-61.109857,-23.606982],[-61.296951,-23.481408],[-61.491849,-23.413195],[-61.60515,-23.289275],[-61.744263,-23.234808],[-61.956446,-23.034407],[-62.1708,-22.71732],[-62.287227,-22.483949],[-62.341357,-22.472261]]]},"properties":{"LOCATION_TYPE":"level1","ADM0_A3":"ARG","LOCATION_ID":"ARG-P","NAME":"Formosa","TYPE_EN":"Province"}},
{"type":"Feature","geometry":{"type":"Polygon","coordinates":[[[-55.623042,-28.14435],[-55.440746,-28.078905],[-55.329874,-27.928113],[-55.02581,-27.84016],[-54.913207,-27.736911],[-54.827527,-27.545088],[-54.69968,-27.553046],[-54.460831,-27.412589],[-54.286888,-27.428402],[-54.18953,-27.260867],[-53.819217,-27.139738],[-53.710696,-26.873811],[-53.746043,-26.693873],[-53.724442,-26.376063],[-53.66672,-26.219174],[-53.826193,-25.972677],[-53.837303,-25.809173],[-53.90996,-25.629236],[-54.2148,-25.531464],[-54.460573,-25.642051],[-54.545632,-25.574769],[-54.643146,-25.68794],[-54.587904,-25.810827],[-54.662266,-25.979912],[-54.638288,-26.196953],[-54.706475,-26.441796],[-54.903337,-26.65987],[-54.97527,-26.787821],[-55.414003,-26.979851],[-55.461855,-27.097983],[-55.598979,-27.182629],[-55.591331,-27.328357],[-55.754732,-27.443698],[-55.966094,-27.331723],[-56.017325,-27.451554],[-55.873277,-27.715776],[-55.838627,-27.906617],[-55.736954,-28.065987],[-55.623042,-28.14435]]]},"properties":{"LOCATION_TYPE":"level1","ADM0_A3":"ARG","LOCATION_ID":"ARG-N","NAME":"Misiones","TYPE_EN":"Province"}},
{"type":"Feature","geometry":{"type":"Polygon","coordinates":[[[-58.351275,-26.885812],[-58.577117,-26.689585],[-58.863327,-26.50386],[-58.953528,-26.405623],[-59.146798,-26.29948],[-59.283482,-26.347849],[-59.413138,-26.190081],[-59.669014,-26.117165],[-59.673561,-26.013502],[-59.862465,-25.823126],[-60.03341,-25.701222],[-60.178053,-25.6651],[-60.360341,-25.363258],[-60.499661,-25.209572],[-60.799927,-25.07542],[-61.034254,-24.897963],[-61.19874,-24.674928],[-61.451101,-24.619376],[-61.660313,-24.476438],[-61.775707,-24.341718],[-61.90203,-24.317275],[-62.049515,-24.209168],[-62.339213,-24.120646],[-62.334381,-24.402903],[-63.398579,-25.659364],[-61.753874,-25.661431],[-61.722325,-25.744165],[-61.70938,-26.793816],[-61.709949,-28.000409],[-60.041317,-28.000099],[-58.864748,-27.999324],[-58.817903,-27.772568],[-58.886529,-27.478943],[-58.604196,-27.316264],[-58.653289,-27.156274],[-58.51154,-27.060156],[-58.459812,-26.928174],[-58.351275,-26.885812]]]},"properties":{"LOCATION_TYPE":"level1","ADM0_A3":"ARG","LOCATION_ID":"ARG-H","NAME":"Chaco","TYPE_EN":"Province"}},
{"type":"Feature","geometry":{"type":"Polygon","coordinates":[[[-55.966094,-27.331723],[-56.124554,-27.298901],[-56.279842,-27.389645],[-56.367537,-27.580641],[-56.54644,-27.455067],[-56.771155,-27.506744],[-56.904351,-27.418687],[-57.180097,-27.487313],[-57.335229,-27.409489],[-57.535682,-27.407215],[-57.697791,-27.333524],[-58.021958,-27.259834],[-58.510765,-27.278437],[-58.604196,-27.316264],[-58.886529,-27.478943],[-58.817903,-27.772568],[-58.864748,-27.999324],[-58.950479,-28.112392],[-59.081375,-28.157557],[-59.066208,-28.401367],[-59.0991,-28.664193],[-59.197441,-29.022053],[-59.511272,-29.207571],[-59.58907,-29.411176],[-59.591086,-29.614988],[-59.664802,-29.878331],[-59.59907,-30.01269],[-59.661521,-30.336908],[-59.38854,-30.305953],[-59.241314,-30.343471],[-59.004998,-30.204099],[-58.876168,-30.226992],[-58.629749,-30.152268],[-58.260754,-30.230713],[-58.068,-30.420727],[-57.987256,-30.603506],[-57.808659,-30.747331],[-57.88579,-30.589863],[-57.849617,-30.48527],[-57.652729,-30.329104],[-57.642466,-30.193092],[-57.506175,-30.144309],[-57.325153,-29.981011],[-57.308513,-29.848513],[-57.094159,-29.751981],[-56.677027,-29.313352],[-56.617289,-29.160906],[-56.415751,-29.051352],[-56.184705,-28.744188],[-55.898056,-28.460691],[-55.772534,-28.231971],[-55.623042,-28.14435],[-55.736954,-28.065987],[-55.838627,-27.906617],[-55.873277,-27.715776],[-56.017325,-27.451554],[-55.966094,-27.331723]]]},"properties":{"LOCATION_TYPE":"level1","ADM0_A3":"ARG","LOCATION_ID":"ARG-W","NAME":"Corrientes","TYPE_EN":"Province"}},
{"type":"Feature","geometry":{"type":"Polygon","coordinates":[[[-68.496468,-25.159997],[-68.605963,-25.436999],[-68.559351,-25.663032],[-68.498476,-25.754913],[-68.419876,-26.179279],[-68.575164,-26.30351],[-68.570151,-26.550626],[-68.32014,-26.87009],[-68.330476,-27.044963],[-68.518009,-27.076899],[-68.585861,-27.162785],[-68.801093,-27.112763],[-69.13406,-27.772344],[-68.849616,-27.793445],[-68.435016,-27.746626],[-68.447264,-27.979377],[-68.084366,-28.155232],[-67.931946,-28.124071],[-67.824097,-28.382402],[-67.704156,-28.339252],[-67.260127,-28.35832],[-67.098586,-28.341474],[-66.976165,-28.267422],[-66.584354,-28.404157],[-66.473947,-28.614119],[-66.337573,-28.735713],[-66.334395,-28.874516],[-66.121824,-28.970634],[-65.792439,-29.250101],[-65.729497,-29.502178],[-65.401894,-30.140175],[-65.138189,-30.063074],[-64.943395,-29.878331],[-64.961637,-29.610492],[-64.882468,-29.55711],[-65.03543,-29.292682],[-65.102248,-28.694889],[-65.179995,-28.645073],[-65.07827,-28.481517],[-65.079097,-28.274605],[-65.169092,-27.909666],[-65.333423,-27.86357],[-65.570695,-28.050226],[-65.713244,-27.809568],[-65.821067,-27.805693],[-65.929329,-27.654332],[-65.986845,-27.429953],[-66.191148,-27.30903],[-65.87233,-26.916445],[-65.85352,-26.723175],[-66.155517,-26.497194],[-66.053818,-26.253488],[-66.224815,-26.17096],[-66.41979,-26.376684],[-66.781732,-25.894905],[-66.806821,-25.725044],[-66.512498,-25.63089],[-66.469245,-25.479788],[-66.60102,-25.269103],[-67.806863,-25.283211],[-68.496468,-25.159997]]]},"properties":{"LOCATION_TYPE":"level1","ADM0_A3":"ARG","LOCATION_ID":"ARG-K","NAME":"Catamarca","TYPE_EN":"Province"}},
{"type":"Feature","geometry":{"type":"Polygon","coordinates":[[[-69.13406,-27.772344],[-69.173008,-27.924083],[-69.303233,-27.99953],[-69.420306,-28.212644],[-69.654045,-28.400994],[-69.473041,-28.42643],[-69.19019,-28.594017],[-69.102986,-28.777675],[-68.921136,-28.989548],[-68.998832,-29.117912],[-68.943047,-29.305291],[-69.022035,-29.611681],[-68.700581,-29.60212],[-68.327994,-29.692503],[-67.927941,-30.038166],[-67.634522,-30.247869],[-67.566232,-30.379747],[-67.182147,-30.726238],[-67.080706,-30.905503],[-67.059958,-31.081823],[-67.103935,-31.354262],[-67.048925,-31.523295],[-66.866456,-31.627733],[-66.730521,-31.876555],[-66.601485,-31.913659],[-66.217167,-31.925441],[-66.054386,-31.871439],[-65.75965,-31.885495],[-65.767272,-31.096241],[-65.521137,-30.405224],[-65.401894,-30.140175],[-65.729497,-29.502178],[-65.792439,-29.250101],[-66.121824,-28.970634],[-66.334395,-28.874516],[-66.337573,-28.735713],[-66.473947,-28.614119],[-66.584354,-28.404157],[-66.976165,-28.267422],[-67.098586,-28.341474],[-67.260127,-28.35832],[-67.704156,-28.339252],[-67.824097,-28.382402],[-67.931946,-28.124071],[-68.084366,-28.155232],[-68.447264,-27.979377],[-68.435016,-27.746626],[-68.849616,-27.793445],[-69.13406,-27.772344]]]},"properties":{"LOCATION_TYPE":"level1","ADM0_A3":"ARG","LOCATION_ID":"ARG-F","NAME":"La Rioja","TYPE_EN":"Province"}},
{"type":"Feature","geometry":{"type":"Polygon","coordinates":[[[-69.654045,-28.400994],[-69.740855,-28.640628],[-69.735842,-28.8124],[-69.806613,-28.959885],[-69.803926,-29.098688],[-69.910948,-29.143233],[-70.042619,-29.363064],[-69.929086,-29.718288],[-69.922187,-29.939567],[-69.975621,-30.058629],[-69.849737,-30.126635],[-69.902809,-30.312671],[-70.217105,-30.515139],[-70.319476,-30.800806],[-70.339785,-31.041722],[-70.479802,-31.096705],[-70.568969,-31.304238],[-70.591371,-31.549598],[-70.42828,-31.870095],[-70.241703,-31.961459],[-70.335237,-32.140001],[-70.256119,-32.314278],[-69.981227,-32.305366],[-69.631687,-32.233536],[-69.612567,-32.123362],[-69.447693,-32.052824],[-69.285042,-32.050343],[-69.145102,-31.961873],[-69.02498,-32.077318],[-68.92217,-32.076233],[-68.902171,-32.325675],[-68.6896,-32.33508],[-68.393701,-32.15013],[-68.020726,-32.06905],[-67.831849,-32.239169],[-67.467194,-32.21793],[-67.393013,-32.262165],[-67.388827,-31.897639],[-67.344385,-31.846841],[-66.985131,-31.888493],[-66.730521,-31.876555],[-66.866456,-31.627733],[-67.048925,-31.523295],[-67.103935,-31.354262],[-67.059958,-31.081823],[-67.080706,-30.905503],[-67.182147,-30.726238],[-67.566232,-30.379747],[-67.634522,-30.247869],[-67.927941,-30.038166],[-68.327994,-29.692503],[-68.700581,-29.60212],[-69.022035,-29.611681],[-68.943047,-29.305291],[-68.998832,-29.117912],[-68.921136,-28.989548],[-69.102986,-28.777675],[-69.19019,-28.594017],[-69.473041,-28.42643],[-69.654045,-28.400994]]]},"properties":{"LOCATION_TYPE":"level1","ADM0_A3":"ARG","LOCATION_ID":"ARG-J","NAME":"San Juan","TYPE_EN":"Province"}},
{"type":"Feature","geometry":{"type":"Polygon","coordinates":[[[-70.256119,-32.314278],[-70.172482,-32.464942],[-70.140029,-32.768283],[-70.000219,-32.876597],[-70.111194,-33.038447],[-70.100833,-33.186862],[-70.010011,-33.299103],[-69.905289,-33.238228],[-69.787674,-33.379408],[-69.895367,-33.662285],[-69.909552,-33.955704],[-69.832761,-34.243232],[-70.040345,-34.277028],[-70.058691,-34.395781],[-70.227828,-34.58533],[-70.353711,-34.953266],[-70.386629,-35.16669],[-70.542899,-35.209271],[-70.40823,-35.506204],[-70.421537,-35.659683],[-70.357329,-35.815229],[-70.420245,-35.868352],[-70.380325,-36.046016],[-70.430748,-36.129402],[-70.377998,-36.325328],[-70.270925,-36.364498],[-70.175427,-36.568104],[-70.067656,-36.61177],[-69.790127,-36.863228],[-69.809868,-37.011281],[-69.623471,-37.152564],[-69.260366,-37.152564],[-69.088439,-37.207186],[-68.98506,-37.363817],[-68.756676,-37.371672],[-68.525967,-37.441177],[-68.427523,-37.53776],[-68.249394,-37.557035],[-68.256758,-36.276752],[-68.29319,-36.128285],[-68.24632,-35.999301],[-66.617169,-35.999921],[-66.525624,-35.514576],[-66.506607,-35.141472],[-66.572003,-34.852911],[-66.737962,-34.615406],[-66.821368,-34.22928],[-66.747057,-34.064174],[-66.929578,-33.837934],[-67.019676,-33.616501],[-67.142589,-33.452015],[-67.22695,-32.91613],[-67.192121,-32.761101],[-67.25837,-32.653562],[-67.393013,-32.262165],[-67.467194,-32.21793],[-67.831849,-32.239169],[-68.020726,-32.06905],[-68.393701,-32.15013],[-68.6896,-32.33508],[-68.902171,-32.325675],[-68.92217,-32.076233],[-69.02498,-32.077318],[-69.145102,-31.961873],[-69.285042,-32.050343],[-69.447693,-32.052824],[-69.612567,-32.123362],[-69.631687,-32.233536],[-69.981227,-32.305366],[-70.256119,-32.314278]]]},"properties":{"LOCATION_TYPE":"level1","ADM0_A3":"ARG","LOCATION_ID":"ARG-M","NAME":"Mendoza","TYPE_EN":"Province"}},
{"type":"Feature","geometry":{"type":"Polygon","coordinates":[[[-70.430748,-36.129402],[-70.588477,-36.150195],[-70.703122,-36.26006],[-70.71865,-36.414572],[-70.890371,-36.400413],[-71.043282,-36.484335],[-71.055322,-36.671301],[-71.145343,-36.68825],[-71.146479,-37.214833],[-71.205597,-37.292658],[-71.12307,-37.443243],[-71.18503,-37.706069],[-71.009976,-38.065531],[-70.973751,-38.424682],[-70.848668,-38.527621],[-70.873835,-38.691436],[-71.228025,-38.808845],[-71.415765,-38.935348],[-71.401968,-39.236002],[-71.519997,-39.614997],[-71.718744,-39.623368],[-71.624848,-39.93105],[-71.683708,-40.098998],[-71.823751,-40.210103],[-71.678488,-40.340224],[-71.804165,-40.42642],[-71.87336,-40.647079],[-71.955577,-40.720356],[-71.867402,-41.010235],[-71.553741,-41.031965],[-71.359282,-41.089688],[-71.148003,-41.051241],[-71.031085,-40.928768],[-71.130226,-40.779474],[-70.971502,-40.640361],[-70.717745,-40.597315],[-70.576074,-40.523521],[-70.444816,-40.566878],[-70.21421,-40.538197],[-70.084631,-40.420582],[-69.966473,-39.973064],[-69.680392,-39.82315],[-69.54022,-39.825889],[-69.265172,-39.59841],[-68.962219,-39.4887],[-68.808973,-39.307678],[-68.574465,-39.107638],[-68.320915,-38.961808],[-68.031604,-38.969714],[-68.252133,-38.659294],[-68.249394,-37.557035],[-68.427523,-37.53776],[-68.525967,-37.441177],[-68.756676,-37.371672],[-68.98506,-37.363817],[-69.088439,-37.207186],[-69.260366,-37.152564],[-69.623471,-37.152564],[-69.809868,-37.011281],[-69.790127,-36.863228],[-70.067656,-36.61177],[-70.175427,-36.568104],[-70.270925,-36.364498],[-70.377998,-36.325328],[-70.430748,-36.129402]]]},"properties":{"LOCATION_TYPE":"level1","ADM0_A3":"ARG","LOCATION_ID":"ARG-Q","NAME":"Neuquén","TYPE_EN":"Province"}},
{"type":"Feature","geometry":{"type":"Polygon","coordinates":[[[-71.76926,-41.999607],[-71.736263,-42.08389],[-72.124714,-42.263311],[-72.041929,-42.491049],[-72.148434,-42.592645],[-72.112674,-42.863842],[-72.148537,-42.998718],[-72.009838,-43.120364],[-71.742981,-43.190127],[-71.901731,-43.322006],[-71.937336,-43.456881],[-71.723757,-43.594754],[-71.819203,-43.758051],[-71.659885,-43.92631],[-71.858736,-44.107798],[-71.822045,-44.40318],[-71.209783,-44.427571],[-71.122657,-44.530304],[-71.335977,-44.801605],[-71.497104,-44.742901],[-71.85455,-44.79096],[-72.04782,-44.754786],[-72.080944,-44.886561],[-71.889432,-44.94723],[-71.588726,-44.978132],[-71.311534,-45.299456],[-71.508318,-45.40839],[-71.525836,-45.518978],[-71.765098,-45.572411],[-71.798533,-45.739946],[-71.665879,-45.88402],[-71.649163,-45.999414],[-69.633289,-45.999621],[-68.366881,-45.999414],[-67.581662,-46.00003],[-67.360636,-45.776662],[-67.331925,-45.613491],[-67.064795,-45.349949],[-66.868921,-45.235597],[-66.523997,-45.216097],[-66.46772,-45.077016],[-66.200367,-44.992919],[-65.602643,-45.027687],[-65.572916,-44.895829],[-65.715443,-44.869963],[-65.685539,-44.71253],[-65.32571,-44.508278],[-65.216885,-44.36641],[-65.308708,-44.200085],[-65.222374,-44.036896],[-65.318227,-43.832208],[-65.334055,-43.672621],[-65.032338,-43.378106],[-65.032338,-43.299412],[-64.765248,-43.147393],[-64.447581,-43.068617],[-64.513051,-42.936293],[-64.997141,-42.784845],[-64.946034,-42.654229],[-64.614858,-42.515313],[-64.322621,-42.542413],[-64.218617,-42.655938],[-64.250966,-42.75213],[-64.1079,-42.883722],[-63.736643,-42.824802],[-63.620269,-42.751235],[-63.579335,-42.59295],[-63.590484,-42.341241],[-63.709625,-42.134373],[-63.80996,-42.070174],[-64.16218,-42.209405],[-64.06843,-42.269627],[-64.127553,-42.432712],[-64.566274,-42.435968],[-64.531484,-42.244236],[-64.857289,-42.193617],[-65.054596,-42.010675],[-65.127208,-42.000227],[-66.883845,-41.999193],[-68.080619,-41.999348],[-69.399686,-41.999607],[-71.232727,-41.999038],[-71.76926,-41.999607]]]},"properties":{"LOCATION_TYPE":"level1","ADM0_A3":"ARG","LOCATION_ID":"ARG-U","NAME":"Chubut","TYPE_EN":"Province"}},
{"type":"Feature","geometry":{"type":"Polygon","coordinates":[[[-71.76926,-41.999607],[-71.232727,-41.999038],[-69.399686,-41.999607],[-68.080619,-41.999348],[-66.883845,-41.999193],[-65.127208,-42.000227],[-65.054596,-42.010675],[-64.999908,-41.79339],[-64.993276,-41.552992],[-65.061187,-41.448419],[-65.17512,-41.010186],[-65.121938,-40.833673],[-64.946523,-40.711358],[-64.77302,-40.806085],[-64.174306,-41.008966],[-64.062123,-40.999444],[-63.779408,-41.158787],[-63.099517,-41.15488],[-62.801625,-41.041681],[-62.861455,-40.938379],[-63.117796,-40.746143],[-63.387417,-40.709091],[-63.38858,-39.325765],[-63.478006,-39.318478],[-63.99446,-39.009815],[-64.471486,-38.8537],[-64.820922,-38.810396],[-65.11416,-38.803574],[-65.3674,-38.838353],[-65.96018,-38.742131],[-66.561952,-38.701565],[-66.647942,-38.557388],[-67.069828,-38.408973],[-67.176592,-38.222628],[-67.554088,-38.261747],[-67.705655,-38.100568],[-67.844897,-38.056902],[-67.848256,-37.907763],[-67.710513,-37.780019],[-67.850323,-37.600237],[-68.249394,-37.557035],[-68.252133,-38.659294],[-68.031604,-38.969714],[-68.320915,-38.961808],[-68.574465,-39.107638],[-68.808973,-39.307678],[-68.962219,-39.4887],[-69.265172,-39.59841],[-69.54022,-39.825889],[-69.680392,-39.82315],[-69.966473,-39.973064],[-70.084631,-40.420582],[-70.21421,-40.538197],[-70.444816,-40.566878],[-70.576074,-40.523521],[-70.717745,-40.597315],[-70.971502,-40.640361],[-71.130226,-40.779474],[-71.031085,-40.928768],[-71.148003,-41.051241],[-71.359282,-41.089688],[-71.553741,-41.031965],[-71.867402,-41.010235],[-71.903953,-41.367655],[-71.853258,-41.567332],[-71.925967,-41.622936],[-71.794037,-41.867469],[-71.76926,-41.999607]]]},"properties":{"LOCATION_TYPE":"level1","ADM0_A3":"ARG","LOCATION_ID":"ARG-R","NAME":"Río Negro","TYPE_EN":"Province"}},
{"type":"Feature","geometry":{"type":"Polygon","coordinates":[[[-71.649163,-45.999414],[-71.770162,-46.112636],[-71.751869,-46.393033],[-71.68717,-46.690069],[-71.934132,-46.79952],[-72.009838,-47.198152],[-72.170551,-47.407544],[-72.328733,-47.426458],[-72.344443,-47.602261],[-72.543914,-47.9148],[-72.343047,-48.07045],[-72.325632,-48.285527],[-72.57678,-48.452132],[-72.592334,-48.791129],[-72.742919,-48.913809],[-73.009725,-48.990394],[-73.183151,-49.239061],[-73.059745,-49.554971],[-73.19675,-49.682423],[-73.465098,-49.759959],[-73.57274,-49.932352],[-73.480756,-50.022682],[-73.530572,-50.140814],[-73.322936,-50.268352],[-73.261854,-50.556603],[-73.096076,-50.770647],[-72.778421,-50.619648],[-72.505983,-50.601251],[-72.302843,-50.648897],[-72.263466,-50.836276],[-72.382218,-51.160597],[-72.313437,-51.298005],[-72.351522,-51.583465],[-72.281139,-51.701494],[-71.958471,-51.867996],[-71.917699,-51.990055],[-69.952754,-52.007419],[-69.485289,-52.132476],[-69.212256,-52.137953],[-68.820497,-52.243167],[-68.365611,-52.306204],[-68.685059,-52.005006],[-68.935928,-51.645516],[-69.167778,-50.978225],[-69.149973,-50.74212],[-69.076519,-50.560172],[-68.876429,-50.330572],[-68.4381,-50.200779],[-68.328277,-50.120212],[-68.07635,-50.087268],[-67.833207,-49.95454],[-67.732012,-49.781302],[-67.65331,-49.37713],[-67.704172,-49.303888],[-67.556549,-49.015817],[-67.198285,-48.818353],[-67.114348,-48.67375],[-66.65099,-48.431085],[-66.46849,-48.400275],[-66.300852,-48.251886],[-65.964131,-48.056988],[-65.847068,-47.944417],[-65.845626,-47.742206],[-65.735665,-47.509535],[-65.744902,-47.204164],[-65.979563,-47.066176],[-66.200493,-47.089587],[-66.628795,-47.051218],[-66.786448,-47.006606],[-67.129995,-46.706596],[-67.42322,-46.567419],[-67.540883,-46.4013],[-67.622467,-46.163751],[-67.581662,-46.00003],[-68.366881,-45.999414],[-69.633289,-45.999621],[-71.649163,-45.999414]]]},"properties":{"LOCATION_TYPE":"level1","ADM0_A3":"ARG","LOCATION_ID":"ARG-Z","NAME":"Santa Cruz","TYPE_EN":"Province"}},
{"type":"Feature","geometry":{"type":"MultiPolygon","coordinates":[[[[-68.641882,-54.782971],[-68.520334,-54.852227],[-68.077626,-54.846124],[-67.030995,-54.905206],[-66.802805,-54.94256],[-66.540508,-55.051046],[-65.993355,-54.972366],[-65.966225,-54.902073],[-65.332265,-54.913832],[-65.155588,-54.640558],[-65.844228,-54.647393],[-66.482213,-54.4658],[-66.766582,-54.249842],[-67.29776,-54.053806],[-67.571523,-53.907973],[-67.558248,-53.836189],[-67.983632,-53.601332],[-68.111402,-53.343802],[-68.451351,-53.297717],[-68.520715,-53.120631],[-68.265981,-52.980645],[-68.627617,-52.639572],[-68.634746,-53.710881],[-68.641882,-54.782971]]],[[[-63.888417,-54.729913],[-64.375478,-54.721368],[-64.758656,-54.832289],[-64.607167,-54.900567],[-63.888417,-54.729913]]]]},"properties":{"LOCATION_TYPE":"level1","ADM0_A3":"ARG","LOCATION_ID":"ARG-V","NAME":"Tierra del Fuego","TYPE_EN":"National Territory"}},
{"type":"Feature","geometry":{"type":"MultiPolygon","coordinates":[[[[-62.801625,-41.041681],[-62.7294,-41.041111],[-62.337799,-40.872735],[-62.25064,-40.622247],[-62.414906,-40.462091],[-62.484202,-40.28753],[-62.368723,-40.211196],[-62.314565,-39.869399],[-62.164174,-39.858819],[-62.055776,-39.451918],[-62.195424,-39.397149],[-62.316396,-39.265232],[-62.357818,-39.102227],[-62.274037,-38.954522],[-62.37975,-38.798435],[-62.157338,-38.810479],[-62.026723,-38.937595],[-61.518056,-39.011489],[-60.865712,-38.975681],[-59.889312,-38.838474],[-59.063222,-38.69378],[-58.15567,-38.430108],[-57.593577,-38.152765],[-57.511871,-37.872328],[-57.309153,-37.64544],[-57.055898,-37.412693],[-56.664866,-36.851007],[-56.697621,-36.396173],[-56.9287,-36.363702],[-57.248036,-36.170343],[-57.366444,-35.987888],[-57.352625,-35.727524],[-57.144909,-35.4842],[-57.248769,-35.248793],[-57.522032,-35.013154],[-57.871032,-34.829915],[-58.154872,-34.7504],[-58.315031,-34.657195],[-58.443972,-34.774928],[-58.541631,-34.710347],[-58.474192,-34.52158],[-58.511465,-34.435945],[-58.37857,-34.188246],[-58.446971,-34.00694],[-58.679798,-34.031204],[-59.031818,-33.829563],[-59.162688,-33.828788],[-59.26232,-33.724246],[-59.392648,-33.739387],[-59.520702,-33.65531],[-59.640618,-33.671019],[-60.118082,-33.393569],[-60.294092,-33.256574],[-60.46682,-33.612005],[-60.910463,-33.563739],[-60.963069,-33.677221],[-61.710517,-34.376816],[-62.853807,-34.382139],[-63.339617,-34.380485],[-63.373594,-34.41361],[-63.384058,-35.002101],[-63.388813,-35.984573],[-63.38858,-36.852376],[-63.387831,-37.779399],[-63.38858,-39.325765],[-63.387417,-40.709091],[-63.117796,-40.746143],[-62.861455,-40.938379],[-62.801625,-41.041681]]],[[[-62.1553,-40.374205],[-62.237326,-40.509949],[-62.108709,-40.564064],[-62.028517,-40.454882],[-62.1553,-40.374205]]]]},"properties":{"LOCATION_TYPE":"level1","ADM0_A3":"ARG","LOCATION_ID":"ARG-B","NAME":"Buenos Aires","TYPE_EN":"Federal District"}},
{"type":"Feature","geometry":{"type":"Polygon","coordinates":[[[-58.474192,-34.52158],[-58.541631,-34.710347],[-58.443972,-34.774928],[-58.315031,-34.657195],[-58.474192,-34.52158]]]},"properties":{"LOCATION_TYPE":"level1","ADM0_A3":"ARG","LOCATION_ID":"ARG-C","NAME":"Ciudad de Buenos Aires","TYPE_EN":"Federal District"}},
{"type":"Feature","geometry":{"type":"Polygon","coordinates":[[[-58.864748,-27.999324],[-60.041317,-28.000099],[-61.709949,-28.000409],[-61.865495,-28.916891],[-62.087135,-30.156609],[-62.125324,-30.457675],[-61.903916,-30.672546],[-61.865805,-30.788766],[-62.121551,-31.608561],[-62.22276,-31.706798],[-62.184752,-31.955517],[-62.218574,-32.138503],[-62.072872,-32.253638],[-61.914122,-32.462928],[-61.732971,-32.827453],[-61.76284,-32.999846],[-61.91991,-33.114102],[-62.853807,-34.382139],[-61.710517,-34.376816],[-60.963069,-33.677221],[-60.910463,-33.563739],[-60.46682,-33.612005],[-60.294092,-33.256574],[-60.495423,-33.122061],[-60.675464,-32.846522],[-60.765665,-32.541063],[-60.66624,-32.048328],[-60.722515,-31.947249],[-60.647765,-31.716048],[-60.41411,-31.673519],[-60.094027,-31.353693],[-59.660642,-30.736056],[-59.618113,-30.446772],[-59.661521,-30.336908],[-59.59907,-30.01269],[-59.664802,-29.878331],[-59.591086,-29.614988],[-59.58907,-29.411176],[-59.511272,-29.207571],[-59.197441,-29.022053],[-59.0991,-28.664193],[-59.066208,-28.401367],[-59.081375,-28.157557],[-58.950479,-28.112392],[-58.864748,-27.999324]]]},"properties":{"LOCATION_TYPE":"level1","ADM0_A3":"ARG","LOCATION_ID":"ARG-S","NAME":"Santa Fe","TYPE_EN":"Province"}},
{"type":"Feature","geometry":{"type":"Polygon","coordinates":[[[-64.486343,-26.220208],[-64.767359,-26.211371],[-64.966442,-26.268836],[-65.267277,-26.163571],[-65.66534,-26.074791],[-65.711823,-26.295397],[-66.053818,-26.253488],[-66.155517,-26.497194],[-65.85352,-26.723175],[-65.87233,-26.916445],[-66.191148,-27.30903],[-65.986845,-27.429953],[-65.929329,-27.654332],[-65.821067,-27.805693],[-65.713244,-27.809568],[-65.570695,-28.050226],[-65.333423,-27.86357],[-65.169092,-27.909666],[-65.00104,-27.764093],[-65.068271,-27.62374],[-65.063594,-27.47238],[-64.879833,-27.309185],[-64.728111,-26.987551],[-64.674367,-26.804823],[-64.50554,-26.683487],[-64.52404,-26.446551],[-64.486343,-26.220208]]]},"properties":{"LOCATION_TYPE":"level1","ADM0_A3":"ARG","LOCATION_ID":"ARG-T","NAME":"Tucumán","TYPE_EN":"Province"}},
{"type":"Feature","geometry":{"type":"Polygon","coordinates":[[[-63.398579,-25.659364],[-63.924387,-25.652336],[-64.211605,-25.603657],[-64.425003,-26.027558],[-64.486343,-26.220208],[-64.52404,-26.446551],[-64.50554,-26.683487],[-64.674367,-26.804823],[-64.728111,-26.987551],[-64.879833,-27.309185],[-65.063594,-27.47238],[-65.068271,-27.62374],[-65.00104,-27.764093],[-65.169092,-27.909666],[-65.079097,-28.274605],[-65.07827,-28.481517],[-65.179995,-28.645073],[-65.102248,-28.694889],[-65.03543,-29.292682],[-64.882468,-29.55711],[-64.29408,-29.425129],[-64.05841,-29.46926],[-64.048669,-29.525691],[-63.80765,-29.649766],[-63.46271,-29.655244],[-63.362819,-29.77348],[-62.288156,-29.776735],[-62.242578,-29.805622],[-62.087135,-30.156609],[-61.865495,-28.916891],[-61.709949,-28.000409],[-61.70938,-26.793816],[-61.722325,-25.744165],[-61.753874,-25.661431],[-63.398579,-25.659364]]]},"properties":{"LOCATION_TYPE":"level1","ADM0_A3":"ARG","LOCATION_ID":"ARG-G","NAME":"Santiago del Estero","TYPE_EN":"Province"}},
{"type":"Feature","geometry":{"type":"Polygon","coordinates":[[[-65.086616,-35.001791],[-65.0869,-33.962371],[-65.131704,-33.205466],[-65.005872,-32.98548],[-64.875311,-32.544111],[-64.945023,-32.290483],[-65.176895,-32.329654],[-65.255495,-32.111631],[-65.58966,-31.915209],[-65.75965,-31.885495],[-66.054386,-31.871439],[-66.217167,-31.925441],[-66.601485,-31.913659],[-66.730521,-31.876555],[-66.985131,-31.888493],[-67.344385,-31.846841],[-67.388827,-31.897639],[-67.393013,-32.262165],[-67.25837,-32.653562],[-67.192121,-32.761101],[-67.22695,-32.91613],[-67.142589,-33.452015],[-67.019676,-33.616501],[-66.929578,-33.837934],[-66.747057,-34.064174],[-66.821368,-34.22928],[-66.737962,-34.615406],[-66.572003,-34.852911],[-66.506607,-35.141472],[-66.525624,-35.514576],[-66.617169,-35.999921],[-65.087779,-35.998784],[-65.086616,-35.001791]]]},"properties":{"LOCATION_TYPE":"level1","ADM0_A3":"ARG","LOCATION_ID":"ARG-D","NAME":"San Luis","TYPE_EN":"Province"}},
{"type":"Feature","geometry":{"type":"Polygon","coordinates":[[[-65.086616,-35.001791],[-65.087779,-35.998784],[-66.617169,-35.999921],[-68.24632,-35.999301],[-68.29319,-36.128285],[-68.256758,-36.276752],[-68.249394,-37.557035],[-67.850323,-37.600237],[-67.710513,-37.780019],[-67.848256,-37.907763],[-67.844897,-38.056902],[-67.705655,-38.100568],[-67.554088,-38.261747],[-67.176592,-38.222628],[-67.069828,-38.408973],[-66.647942,-38.557388],[-66.561952,-38.701565],[-65.96018,-38.742131],[-65.3674,-38.838353],[-65.11416,-38.803574],[-64.820922,-38.810396],[-64.471486,-38.8537],[-63.99446,-39.009815],[-63.478006,-39.318478],[-63.38858,-39.325765],[-63.387831,-37.779399],[-63.38858,-36.852376],[-63.388813,-35.984573],[-63.384058,-35.002101],[-65.086616,-35.001791]]]},"properties":{"LOCATION_TYPE":"level1","ADM0_A3":"ARG","LOCATION_ID":"ARG-L","NAME":"La Pampa","TYPE_EN":"Province"}},
{"type":"Feature","geometry":{"type":"Polygon","coordinates":[[[-62.087135,-30.156609],[-62.242578,-29.805622],[-62.288156,-29.776735],[-63.362819,-29.77348],[-63.46271,-29.655244],[-63.80765,-29.649766],[-64.048669,-29.525691],[-64.05841,-29.46926],[-64.29408,-29.425129],[-64.882468,-29.55711],[-64.961637,-29.610492],[-64.943395,-29.878331],[-65.138189,-30.063074],[-65.401894,-30.140175],[-65.521137,-30.405224],[-65.767272,-31.096241],[-65.75965,-31.885495],[-65.58966,-31.915209],[-65.255495,-32.111631],[-65.176895,-32.329654],[-64.945023,-32.290483],[-64.875311,-32.544111],[-65.005872,-32.98548],[-65.131704,-33.205466],[-65.0869,-33.962371],[-65.086616,-35.001791],[-63.384058,-35.002101],[-63.373594,-34.41361],[-63.339617,-34.380485],[-62.853807,-34.382139],[-61.91991,-33.114102],[-61.76284,-32.999846],[-61.732971,-32.827453],[-61.914122,-32.462928],[-62.072872,-32.253638],[-62.218574,-32.138503],[-62.184752,-31.955517],[-62.22276,-31.706798],[-62.121551,-31.608561],[-61.865805,-30.788766],[-61.903916,-30.672546],[-62.125324,-30.457675],[-62.087135,-30.156609]]]},"properties":{"LOCATION_TYPE":"level1","ADM0_A3":"ARG","LOCATION_ID":"ARG-X","NAME":"Córdoba","TYPE_EN":"Province"}}
]}