{"type":"FeatureCollection", "features": [
{"type":"Feature","geometry":{"type":"Polygon","coordinates":[[[45.373585,40.651298],[45.39881,40.708937],[45.555855,40.776582],[45.537871,40.875904],[45.416432,40.961325],[45.221611,41.014449],[45.166731,41.107776],[45.186781,41.156869],[45.052009,41.192112],[45.0024,41.290452],[44.85382,41.223514],[44.936048,41.062972],[44.772389,40.999591],[44.905352,40.909079],[44.843599,40.82278],[44.751873,40.772602],[44.772492,40.665167],[44.796574,40.650077],[44.915429,40.669197],[45.064567,40.654185],[45.174277,40.732088],[45.373585,40.651298]]]},"properties":{"LOCATION_TYPE":"level1","ADM0_A3":"ARM","LOCATION_ID":"ARM-TV","NAME":"Tavush","TYPE_EN":"Province"}},
{"type":"Feature","geometry":{"type":"Polygon","coordinates":[[[44.85382,41.223514],[44.612863,41.223118],[44.551523,41.177023],[44.190977,41.230043],[44.103643,41.175162],[43.977755,41.164537],[43.966082,41.0885],[44.122971,40.958379],[44.037137,40.784565],[44.165811,40.740537],[44.287457,40.741131],[44.418405,40.681755],[44.526719,40.699687],[44.772492,40.665167],[44.751873,40.772602],[44.843599,40.82278],[44.905352,40.909079],[44.772389,40.999591],[44.936048,41.062972],[44.85382,41.223514]]]},"properties":{"LOCATION_TYPE":"level1","ADM0_A3":"ARM","LOCATION_ID":"ARM-LO","NAME":"Lori","TYPE_EN":"Province"}},
{"type":"Feature","geometry":{"type":"Polygon","coordinates":[[[43.977755,41.164537],[43.863245,41.158988],[43.729713,41.106691],[43.566622,41.124054],[43.436294,41.08323],[43.460479,41.022872],[43.604863,40.963341],[43.711316,40.781646],[43.729351,40.677105],[43.652508,40.529414],[43.563625,40.464715],[43.624463,40.411137],[43.793069,40.497993],[44.060288,40.450503],[44.198677,40.510447],[44.180694,40.58636],[44.079976,40.640491],[44.165811,40.740537],[44.037137,40.784565],[44.122971,40.958379],[43.966082,41.0885],[43.977755,41.164537]]]},"properties":{"LOCATION_TYPE":"level1","ADM0_A3":"ARM","LOCATION_ID":"ARM-SH","NAME":"Shirak","TYPE_EN":"Province"}},
{"type":"Feature","geometry":{"type":"Polygon","coordinates":[[[45.373585,40.651298],[45.174277,40.732088],[45.064567,40.654185],[44.915429,40.669197],[44.796574,40.650077],[44.799054,40.543934],[44.866543,40.506675],[44.957494,40.292476],[44.946642,40.241963],[45.029789,40.163337],[45.014751,40.079389],[45.109526,39.865784],[45.26223,39.940405],[45.459789,39.950637],[45.577583,39.983983],[45.63957,40.025413],[45.873768,40.009755],[45.950766,40.117191],[45.97924,40.223592],[45.585413,40.398724],[45.526192,40.441047],[45.373585,40.651298]]]},"properties":{"LOCATION_TYPE":"level1","ADM0_A3":"ARM","LOCATION_ID":"ARM-GR","NAME":"Gegharkunik","TYPE_EN":"Province"}},
{"type":"Feature","geometry":{"type":"Polygon","coordinates":[[[45.577583,39.983983],[45.459789,39.950637],[45.26223,39.940405],[45.109526,39.865784],[45.074999,39.74982],[45.141255,39.684401],[45.16792,39.565545],[45.259955,39.599703],[45.312975,39.533815],[45.457463,39.48927],[45.709066,39.568422],[45.712538,39.734164],[45.809122,39.851237],[45.715431,39.950896],[45.577583,39.983983]]]},"properties":{"LOCATION_TYPE":"level1","ADM0_A3":"ARM","LOCATION_ID":"ARM-VD","NAME":"Vayots Dzor","TYPE_EN":"Province"}},
{"type":"Feature","geometry":{"type":"Polygon","coordinates":[[[45.809122,39.851237],[45.712538,39.734164],[45.709066,39.568422],[45.788088,39.548957],[45.803075,39.448188],[45.767004,39.354395],[45.958827,39.272436],[45.958104,39.151513],[46.135871,38.863701],[46.391876,38.922354],[46.475798,38.975607],[46.479312,39.114771],[46.597858,39.225075],[46.49528,39.324009],[46.374616,39.378838],[46.527268,39.538156],[46.343713,39.618616],[46.206461,39.587921],[46.045127,39.687553],[45.97924,39.768478],[45.809122,39.851237]]]},"properties":{"LOCATION_TYPE":"level1","ADM0_A3":"ARM","LOCATION_ID":"ARM-SU","NAME":"Syunik","TYPE_EN":"Province"}},
{"type":"Feature","geometry":{"type":"Polygon","coordinates":[[[45.074999,39.74982],[45.109526,39.865784],[45.014751,40.079389],[45.029789,40.163337],[44.96199,40.162252],[44.692601,40.08329],[44.64759,40.115614],[44.555296,40.054816],[44.440471,40.153363],[44.351226,40.08298],[44.380926,40.009804],[44.522171,39.933533],[44.774559,39.702797],[45.074999,39.74982]]]},"properties":{"LOCATION_TYPE":"level1","ADM0_A3":"ARM","LOCATION_ID":"ARM-AR","NAME":"Ararat","TYPE_EN":"Province"}},
{"type":"Feature","geometry":{"type":"Polygon","coordinates":[[[43.690348,40.240443],[43.832498,40.266095],[44.017758,40.185816],[44.136459,40.18517],[44.282031,40.238397],[44.418405,40.189278],[44.426002,40.200802],[44.408949,40.290616],[44.50455,40.380068],[44.553281,40.564217],[44.428637,40.613413],[44.418405,40.681755],[44.287457,40.741131],[44.165811,40.740537],[44.079976,40.640491],[44.180694,40.58636],[44.198677,40.510447],[44.060288,40.450503],[43.793069,40.497993],[43.624463,40.411137],[43.594217,40.345445],[43.690348,40.240443]]]},"properties":{"LOCATION_TYPE":"level1","ADM0_A3":"ARM","LOCATION_ID":"ARM-AG","NAME":"Aragatsotn","TYPE_EN":"Province"}},
{"type":"Feature","geometry":{"type":"Polygon","coordinates":[[[43.690348,40.240443],[43.721393,40.169384],[43.665427,40.110163],[43.912131,40.024328],[44.032433,40.008618],[44.255262,40.043397],[44.380926,40.009804],[44.351226,40.08298],[44.440471,40.153363],[44.418405,40.189278],[44.282031,40.238397],[44.136459,40.18517],[44.017758,40.185816],[43.832498,40.266095],[43.690348,40.240443]]]},"properties":{"LOCATION_TYPE":"level1","ADM0_A3":"ARM","LOCATION_ID":"ARM-AV","NAME":"Armavir","TYPE_EN":"Province"}},
{"type":"Feature","geometry":{"type":"Polygon","coordinates":[[[44.772492,40.665167],[44.526719,40.699687],[44.418405,40.681755],[44.428637,40.613413],[44.553281,40.564217],[44.50455,40.380068],[44.408949,40.290616],[44.426002,40.200802],[44.571884,40.229173],[44.64759,40.115614],[44.692601,40.08329],[44.96199,40.162252],[45.029789,40.163337],[44.946642,40.241963],[44.957494,40.292476],[44.866543,40.506675],[44.799054,40.543934],[44.796574,40.650077],[44.772492,40.665167]]]},"properties":{"LOCATION_TYPE":"level1","ADM0_A3":"ARM","LOCATION_ID":"ARM-KT","NAME":"Kotayk","TYPE_EN":"Province"}},
{"type":"Feature","geometry":{"type":"Polygon","coordinates":[[[44.64759,40.115614],[44.571884,40.229173],[44.426002,40.200802],[44.418405,40.189278],[44.440471,40.153363],[44.555296,40.054816],[44.64759,40.115614]]]},"properties":{"LOCATION_TYPE":"level1","ADM0_A3":"ARM","LOCATION_ID":"ARM-ER","NAME":"Erevan","TYPE_EN":"City"}}
]}