{"type":"FeatureCollection", "features": [
{"type":"Feature","geometry":{"type":"Polygon","coordinates":[[[-170.692633,-14.31482],[-170.721506,-14.289239],[-170.788645,-14.294529],[-170.831248,-14.319431],[-170.755483,-14.36712],[-170.692633,-14.31482]]]},"properties":{"LOCATION_TYPE":"level1","ADM0_A3":"ASM","LOCATION_ID":"ASM-X05~","NAME":"Western","TYPE_EN":null}},
{"type":"Feature","geometry":{"type":"Polygon","coordinates":[[[-170.721506,-14.289239],[-170.692633,-14.31482],[-170.620066,-14.254571],[-170.698476,-14.260512],[-170.721506,-14.289239]]]},"properties":{"LOCATION_TYPE":"level1","ADM0_A3":"ASM","LOCATION_ID":"ASM-X01~","NAME":"Eastern","TYPE_EN":null}},
{"type":"Feature","geometry":{"type":"Polygon","coordinates":[[[-169.463857,-14.22324],[-169.542673,-14.236749],[-169.522817,-14.270929],[-169.463857,-14.22324]]]},"properties":{"LOCATION_TYPE":"level1","ADM0_A3":"ASM","LOCATION_ID":"ASM-X02~","NAME":"Manu's","TYPE_EN":null}},
{"type":"Feature","geometry":{"type":"Polygon","coordinates":[[[-168.16157,-14.532892],[-168.160471,-14.520929],[-168.173085,-14.523696],[-168.16157,-14.532892]]]},"properties":{"LOCATION_TYPE":"level1","ADM0_A3":"ASM","LOCATION_ID":"ASM-X03~","NAME":"Rose Atoll","TYPE_EN":null}},
{"type":"Feature","geometry":{"type":"Polygon","coordinates":[[[-171.072825,-11.052504],[-171.085642,-11.051365],[-171.081532,-11.066095],[-171.073476,-11.062107],[-171.072825,-11.052504]]]},"properties":{"LOCATION_TYPE":"level1","ADM0_A3":"ASM","LOCATION_ID":"ASM-X04~","NAME":"Swain's Island","TYPE_EN":null}}
]}