{"type":"FeatureCollection", "features": [
{"type":"Feature","geometry":{"type":"MultiPolygon","coordinates":[[[[-51.730621,-82.062595],[-53.224924,-82.125095],[-54.761545,-82.299737],[-55.187611,-82.458266],[-55.927235,-82.483087],[-56.338043,-82.64544],[-57.698883,-82.910252],[-59.46996,-83.460138],[-60.446116,-83.468683],[-61.624827,-83.312188],[-60.978342,-82.975193],[-61.932485,-82.972345],[-62.795033,-82.519708],[-61.120229,-82.344334],[-62.471913,-82.256443],[-63.841786,-82.302179],[-65.072581,-82.40602],[-66.062408,-82.195408],[-65.80309,-81.88836],[-63.577219,-81.87184],[-63.4794,-81.780043],[-65.624867,-81.784112],[-65.691721,-81.710545],[-62.207346,-81.69256],[-62.414174,-81.55755],[-65.174306,-81.512302],[-68.371653,-81.110284],[-69.975819,-80.976007],[-70.433705,-80.657322],[-71.281809,-80.663507],[-72.557037,-80.798598],[-72.769195,-80.969171],[-74.046864,-80.804132],[-74.838287,-80.919366],[-75.711985,-80.638116],[-75.57844,-80.403497],[-76.115346,-80.281915],[-76.274485,-80.08115],[-77.666127,-80.181736],[-78.37267,-80.150323],[-79.687327,-79.982599],[-77.419057,-80.013849],[-76.632192,-79.939223],[-76.097646,-79.733575],[-75.924631,-79.520278],[-76.532582,-79.312921],[-80.429351,-79.258477],[-80.49234,-79.577895],[-81.11734,-79.469903],[-81.105702,-79.203383],[-82.579498,-78.944594],[-83.253529,-78.772719],[-83.886138,-78.419366],[-83.681264,-78.327244],[-83.677561,-78.011489],[-82.48705,-78.465753],[-80.295237,-78.846775],[-77.754018,-78.735772],[-77.361195,-78.624444],[-77.412506,-78.41961],[-79.280814,-78.171817],[-81.6162,-77.862074],[-80.762278,-77.789972],[-79.423695,-77.878025],[-79.145579,-77.844659],[-77.685414,-77.929864],[-75.217641,-78.144627],[-74.269439,-78.129164],[-73.627309,-78.024998],[-72.804514,-77.698989],[-72.722279,-77.575616],[-75.080393,-77.437107],[-75.526601,-77.541192],[-75.921295,-77.336602],[-76.322581,-77.262872],[-77.186879,-76.826593],[-77.52359,-76.72975],[-77.509267,-76.556085],[-76.929067,-76.603774],[-76.499257,-76.524998],[-75.894276,-76.621026],[-75.210276,-76.565199],[-74.082021,-76.693617],[-73.936838,-76.653009],[-72.406239,-76.689386],[-71.709055,-76.762791],[-70.332143,-76.677667],[-69.978383,-76.534601],[-70.180898,-76.450616],[-69.474843,-76.340997],[-68.018137,-76.221124],[-68.104319,-76.147882],[-66.218617,-76.010837],[-63.16161,-75.409438],[-64.272328,-75.241143],[-63.040924,-75.147231],[-63.57311,-74.871352],[-63.292958,-74.720147],[-62.673166,-74.703302],[-62.591054,-74.951104],[-62.131907,-74.951593],[-61.782135,-74.721775],[-62.334218,-74.458103],[-61.542714,-74.544041],[-61.06786,-74.519627],[-60.681956,-74.324802],[-61.055409,-74.103123],[-61.791005,-73.906671],[-60.910797,-73.899835],[-60.734731,-73.715753],[-60.79955,-73.577895],[-61.71288,-73.460138],[-61.167633,-73.319757],[-60.703114,-73.391046],[-60.093577,-73.299249],[-59.904124,-72.993422],[-60.246978,-73.033949],[-60.622141,-72.942315],[-60.520416,-72.682712],[-61.041819,-72.701593],[-61.365631,-72.465997],[-60.642568,-72.429946],[-60.661773,-72.255792],[-61.427398,-72.065199],[-62.112213,-72.009535],[-62.440907,-71.91961],[-61.497222,-71.854913],[-61.091786,-71.871026],[-60.771555,-71.760024],[-61.119049,-71.539321],[-61.55724,-71.690606],[-61.725819,-71.53281],[-61.129303,-71.414809],[-60.93456,-71.182224],[-61.333852,-71.039972],[-61.261708,-70.89422],[-62.005767,-70.793145],[-61.354237,-70.56113],[-62.380483,-70.413995],[-62.259429,-70.218357],[-62.009267,-70.07586],[-62.529652,-69.863946],[-62.397288,-69.515232],[-62.653432,-69.38893],[-62.962514,-69.379002],[-63.32079,-69.050063],[-63.867543,-69.007013],[-63.21231,-68.838637],[-63.812896,-68.71795],[-63.741811,-68.57171],[-64.127838,-68.545017],[-64.077382,-68.714939],[-64.359446,-68.784438],[-65.338531,-68.563409],[-64.975697,-68.40781],[-65.481068,-68.308364],[-64.989084,-68.089125],[-65.672841,-67.88836],[-65.55016,-67.72031],[-65.588735,-67.554376],[-65.326894,-67.399102],[-64.749135,-67.307306],[-64.966298,-67.033868],[-64.773793,-66.845636],[-64.36852,-66.911228],[-63.831288,-66.917901],[-63.751332,-66.787693],[-63.936187,-66.704197],[-63.911977,-66.502618],[-63.755767,-66.214614],[-63.234609,-66.239435],[-62.905141,-66.476739],[-62.551137,-66.413181],[-62.668284,-66.227472],[-62.220326,-66.174249],[-61.682362,-66.316583],[-61.022206,-66.132582],[-60.577504,-65.940118],[-61.244618,-65.912856],[-61.339345,-66.08766],[-61.712148,-66.139581],[-62.022776,-66.111505],[-62.372426,-65.915704],[-62.341664,-65.795099],[-62.06607,-65.69199],[-61.960846,-65.493585],[-62.198313,-65.304457],[-61.739369,-65.087823],[-61.051747,-65.010919],[-60.636301,-64.696547],[-60.234486,-64.520685],[-59.417633,-64.330824],[-59.275299,-64.454848],[-58.993031,-64.443455],[-58.769928,-64.282403],[-58.733306,-64.031427],[-58.077056,-63.662856],[-57.750885,-63.656345],[-57.12678,-63.503513],[-56.776031,-63.563084],[-57.105865,-63.241388],[-57.28661,-63.214776],[-57.880279,-63.314711],[-58.131703,-63.444431],[-58.898549,-63.540216],[-58.920766,-63.650974],[-59.489003,-63.879083],[-59.910878,-63.847914],[-60.877187,-64.047459],[-60.968658,-64.295668],[-61.113189,-64.381443],[-61.582875,-64.442641],[-61.604319,-64.560724],[-61.915679,-64.574884],[-62.141835,-64.784845],[-62.518056,-64.731866],[-62.897857,-64.931085],[-63.233754,-64.965265],[-63.083608,-65.166111],[-63.826975,-65.030206],[-64.109853,-65.267755],[-63.682281,-65.523858],[-64.145131,-65.623956],[-64.686513,-66.038344],[-64.916575,-65.926935],[-65.259755,-65.957452],[-65.640533,-66.214776],[-65.800364,-66.715753],[-66.292144,-66.58587],[-66.512074,-66.630141],[-66.440582,-66.845636],[-66.614166,-67.038018],[-66.917307,-66.956801],[-67.540395,-67.138767],[-67.472157,-67.549005],[-66.992747,-67.468683],[-66.632069,-67.543552],[-67.016021,-67.741143],[-66.873769,-67.918064],[-67.268707,-67.968683],[-66.945872,-68.222833],[-67.016184,-68.78574],[-67.384185,-68.79339],[-67.273264,-68.943292],[-66.878163,-68.964451],[-66.759145,-69.071222],[-67.009592,-69.262465],[-67.253041,-69.273045],[-67.527496,-69.433689],[-67.953277,-69.374607],[-68.653798,-69.382094],[-68.824859,-69.431329],[-68.361887,-69.683364],[-68.483754,-70.052667],[-67.949371,-70.311782],[-67.683583,-70.626153],[-67.64269,-70.85475],[-67.411122,-70.992852],[-67.622629,-71.433364],[-67.424143,-71.620538],[-66.80016,-71.955499],[-66.747955,-72.092055],[-67.511098,-72.83408],[-68.667348,-73.088149],[-69.918853,-73.21852],[-70.292958,-73.29339],[-70.882924,-73.256036],[-71.422963,-73.353774],[-72.239247,-73.388849],[-72.513539,-73.46087],[-73.07311,-73.444431],[-74.105133,-73.716078],[-75.268137,-73.621189],[-76.277211,-73.820896],[-77.242421,-73.812433],[-76.69872,-73.54754],[-77.531158,-73.467462],[-78.201243,-73.556329],[-78.871816,-73.583185],[-78.744049,-73.364923],[-79.64745,-73.03867],[-80.377675,-72.949965],[-80.65099,-73.084405],[-80.436757,-73.188165],[-81.311187,-73.273045],[-81.328236,-73.480076],[-81.115468,-73.569513],[-81.233998,-73.730239],[-82.064768,-73.886977],[-82.933705,-73.710382],[-83.881581,-73.666681],[-85.101471,-73.487074],[-85.542877,-73.37184],[-85.678619,-73.177504],[-86.367747,-73.262791],[-86.946523,-73.383559],[-87.504954,-73.201104],[-88.443837,-73.263604],[-88.714019,-73.119806],[-88.406321,-72.91839],[-88.108754,-72.843357],[-88.2235,-72.712335],[-89.3485,-72.634535],[-89.110504,-72.764337],[-89.087961,-72.960056],[-89.283803,-73.106622],[-90.206695,-73.149835],[-90.534291,-73.280206],[-91.114858,-73.300714],[-91.953847,-73.184503],[-92.801381,-73.142755],[-93.571645,-73.175226],[-94.335805,-73.321547],[-94.577992,-73.235528],[-95.193756,-73.20908],[-95.842681,-73.331476],[-96.474965,-73.299493],[-97.418853,-73.124933],[-97.717437,-73.025323],[-99.68224,-73.017267],[-100.376861,-73.065851],[-100.76594,-72.976007],[-101.960317,-73.055597],[-102.188629,-72.894464],[-102.093984,-72.771742],[-103.041412,-72.707615],[-103.429921,-72.849379],[-103.288319,-73.159356],[-102.873647,-73.308201],[-101.856597,-73.304457],[-99.768056,-73.36419],[-99.48526,-73.547459],[-98.891225,-73.588474],[-99.867421,-73.733087],[-101.16393,-73.770685],[-101.385365,-73.667169],[-102.88976,-73.585545],[-102.923329,-73.857517],[-101.589223,-74.000177],[-101.30663,-74.306573],[-101.395904,-74.502699],[-100.927317,-74.550551],[-100.130727,-74.473403],[-100.083363,-74.846124],[-99.323964,-74.962579],[-99.379709,-75.112726],[-98.899078,-75.174981],[-98.641957,-75.309503],[-99.431386,-75.303399],[-100.137441,-75.384454],[-101.14859,-75.371759],[-101.65685,-75.305352],[-101.564198,-75.146742],[-103.295969,-75.085382],[-103.812164,-75.153009],[-105.141754,-75.181329],[-106.449127,-75.316827],[-107.866078,-75.3235],[-108.103668,-75.256524],[-109.69286,-75.146091],[-110.445912,-75.192966],[-111.481068,-75.195733],[-111.526845,-75.108005],[-111.017893,-74.989028],[-110.675445,-74.82936],[-110.294423,-74.781915],[-110.103139,-74.548598],[-110.448598,-74.271254],[-110.741363,-74.320245],[-111.230784,-74.19671],[-111.887034,-74.228611],[-111.697092,-74.422947],[-111.916819,-74.618422],[-111.542633,-74.801528],[-112.917795,-74.873142],[-113.789662,-74.977472],[-113.969635,-74.884861],[-113.649281,-74.587986],[-113.883209,-74.237074],[-113.422027,-74.1749],[-113.611195,-74.02516],[-114.210032,-73.863458],[-114.733998,-73.926853],[-115.124867,-74.094903],[-114.83849,-74.471449],[-115.649322,-74.530938],[-116.050201,-74.497328],[-116.693471,-74.557875],[-117.662343,-74.503351],[-118.123891,-74.312758],[-118.975494,-74.404229],[-119.134999,-74.598077],[-120.829335,-74.739841],[-122.200022,-74.753839],[-124.05134,-74.81113],[-124.365631,-74.706964],[-125.740061,-74.704767],[-126.113433,-74.761489],[-126.939076,-74.67669],[-128.473012,-74.763442],[-129.975087,-74.913263],[-131.012807,-74.816502],[-131.555409,-74.845961],[-132.093129,-74.763279],[-132.791168,-74.76865],[-133.865549,-74.928318],[-134.586252,-74.736261],[-134.518625,-74.643243],[-135.342397,-74.560154],[-135.700103,-74.677992],[-136.224843,-74.70143],[-136.884877,-74.828302],[-136.877594,-75.038181],[-137.477447,-75.088149],[-139.56664,-75.148045],[-140.277008,-75.43255],[-141.238433,-75.598728],[-140.912953,-75.762384],[-141.52717,-75.767511],[-141.861399,-75.521173],[-142.46703,-75.431736],[-142.679433,-75.561782],[-143.391835,-75.538263],[-144.307607,-75.642348],[-144.16039,-75.803969],[-145.180328,-75.907159],[-146.209218,-75.91546],[-146.499623,-76.087009],[-145.538645,-76.315525],[-145.354644,-76.434503],[-146.250722,-76.423761],[-147.164459,-76.232192],[-148.197092,-76.087091],[-148.539662,-76.228285],[-149.483347,-76.293227],[-149.63976,-76.429946],[-148.45283,-76.506036],[-148.03954,-76.4485],[-147.081695,-76.432794],[-146.618072,-76.532403],[-145.592519,-76.916762],[-145.275014,-77.221124],[-145.964467,-77.25449],[-145.406646,-77.479262],[-146.396596,-77.495212],[-146.889801,-77.255792],[-147.701161,-77.409438],[-147.846832,-77.263767],[-148.513051,-77.107599],[-148.86738,-77.137384],[-149.020863,-77.337823],[-147.758209,-77.461684],[-148.801503,-77.583754],[-148.673695,-77.6749],[-149.974965,-77.816176],[-151.514597,-77.416436],[-152.485463,-77.319106],[-152.575429,-77.502048],[-153.248036,-77.446466],[-153.534047,-77.254164],[-154.894399,-77.103692],[-155.475046,-77.167901],[-156.323842,-77.066095],[-157.083079,-77.351251],[-157.925404,-77.056329],[-158.311716,-77.13242],[-158.140207,-77.427911],[-158.637074,-77.864516],[-157.199574,-78.252699],[-156.348012,-78.199884],[-154.136586,-78.248305],[-154.730336,-78.454685],[-156.052846,-78.494073],[-156.528269,-78.66367],[-154.969797,-79.034763],[-153.079335,-79.139418],[-152.234242,-79.110935],[-152.414174,-79.26393],[-150.446889,-79.559177],[-149.092397,-79.630304],[-147.945668,-79.786554],[-148.518625,-79.886814],[-148.834096,-80.13128],[-150.3697,-80.07464],[-150.60912,-80.269708],[-149.665151,-80.527032],[-149.018748,-80.591485],[-149.461659,-80.719171],[-148.406606,-80.746026],[-147.628,-80.92018],[-152.529191,-81.047133],[-156.450144,-81.148696],[-157.056711,-81.351332],[-154.996571,-81.48919],[-153.790354,-81.691013],[-154.804026,-81.965997],[-152.896799,-82.374119],[-152.542917,-82.54811],[-155.058787,-82.801935],[-155.592234,-83.046075],[-158.497182,-83.117934],[-156.917673,-83.230157],[-157.555287,-83.390232],[-158.999867,-83.457127],[-162.169057,-83.524672],[-162.869944,-83.321466],[-164.166249,-83.396091],[-164.983225,-83.340265],[-165.086293,-83.202081],[-167.333201,-83.198012],[-168.085805,-83.255548],[-170.719472,-83.196954],[-171.408315,-82.95379],[-172.512441,-82.869887],[-174.027577,-82.915216],[-169.433054,-83.409438],[-168.582631,-83.530369],[-168.053578,-83.753676],[-166.068227,-83.817966],[-165.420725,-83.766778],[-163.993886,-83.93906],[-163.70283,-84.0499],[-165.154408,-84.137953],[-164.156687,-84.292087],[-165.409739,-84.364516],[-163.862864,-84.5499],[-158.249582,-84.767185],[-155.642649,-84.827813],[-156.938832,-85.007013],[-155.503977,-85.126072],[-156.008412,-85.221938],[-162.848948,-84.883071],[-168.018625,-84.78102],[-168.254709,-84.648207],[-175.178049,-84.414809],[-175.998728,-84.4874],[-178.297556,-84.307712],[-179.969106,-84.355401],[-180,-84.352796],[-180,-84.515235],[-180,-85.01385],[-180,-85.512465],[-180,-86.01108],[-180,-86.509695],[-180,-87.00831],[-180,-87.506925],[-180,-88.00554],[-180,-88.504155],[-180,-89.00277],[-180,-89.501385],[-180,-90],[-179.500693,-90],[-179.001387,-90],[-178.50208,-90],[-178.002774,-90],[-177.503467,-90],[-177.004161,-90],[-176.504854,-90],[-176.005548,-90],[-175.506241,-90],[-175.006935,-90],[-174.507628,-90],[-174.008322,-90],[-173.509015,-90],[-173.009709,-90],[-172.510402,-90],[-172.011096,-90],[-171.511789,-90],[-171.012483,-90],[-170.513176,-90],[-170.01387,-90],[-169.514563,-90],[-169.015257,-90],[-168.51595,-90],[-168.016644,-90],[-167.517337,-90],[-167.018031,-90],[-166.518724,-90],[-166.019417,-90],[-165.520111,-90],[-165.020804,-90],[-164.521498,-90],[-164.022191,-90],[-163.522885,-90],[-163.023578,-90],[-162.524272,-90],[-162.024965,-90],[-161.525659,-90],[-161.026352,-90],[-160.527046,-90],[-160.027739,-90],[-159.528433,-90],[-159.029126,-90],[-158.52982,-90],[-158.030513,-90],[-157.531207,-90],[-157.0319,-90],[-156.532594,-90],[-156.033287,-90],[-155.533981,-90],[-155.034674,-90],[-154.535368,-90],[-154.036061,-90],[-153.536755,-90],[-153.037448,-90],[-152.538141,-90],[-152.038835,-90],[-151.539528,-90],[-151.040222,-90],[-150.540915,-90],[-150.041609,-90],[-149.542302,-90],[-149.042996,-90],[-148.543689,-90],[-148.044383,-90],[-147.545076,-90],[-147.04577,-90],[-146.546463,-90],[-146.047157,-90],[-145.54785,-90],[-145.048544,-90],[-144.549237,-90],[-144.049931,-90],[-143.550624,-90],[-143.051318,-90],[-142.552011,-90],[-142.052705,-90],[-141.553398,-90],[-141.054092,-90],[-140.554785,-90],[-140.055479,-90],[-139.556172,-90],[-139.056865,-90],[-138.557559,-90],[-138.058252,-90],[-137.558946,-90],[-137.059639,-90],[-136.560333,-90],[-136.061026,-90],[-135.56172,-90],[-135.062413,-90],[-134.563107,-90],[-134.0638,-90],[-133.564494,-90],[-133.065187,-90],[-132.565881,-90],[-132.066574,-90],[-131.567268,-90],[-131.067961,-90],[-130.568655,-90],[-130.069348,-90],[-129.570042,-90],[-129.070735,-90],[-128.571429,-90],[-128.072122,-90],[-127.572816,-90],[-127.073509,-90],[-126.574202,-90],[-126.074896,-90],[-125.575589,-90],[-125.076283,-90],[-124.576976,-90],[-124.07767,-90],[-123.578363,-90],[-123.079057,-90],[-122.57975,-90],[-122.080444,-90],[-121.581137,-90],[-121.081831,-90],[-120.582524,-90],[-120.083218,-90],[-119.583911,-90],[-119.084605,-90],[-118.585298,-90],[-118.085992,-90],[-117.586685,-90],[-117.087379,-90],[-116.588072,-90],[-116.088766,-90],[-115.589459,-90],[-115.090153,-90],[-114.590846,-90],[-114.09154,-90],[-113.592233,-90],[-113.092926,-90],[-112.59362,-90],[-112.094313,-90],[-111.595007,-90],[-111.0957,-90],[-110.596394,-90],[-110.097087,-90],[-109.597781,-90],[-109.098474,-90],[-108.599168,-90],[-108.099861,-90],[-107.600555,-90],[-107.101248,-90],[-106.601942,-90],[-106.102635,-90],[-105.603329,-90],[-105.104022,-90],[-104.604716,-90],[-104.105409,-90],[-103.606103,-90],[-103.106796,-90],[-102.60749,-90],[-102.108183,-90],[-101.608877,-90],[-101.10957,-90],[-100.610264,-90],[-100.110957,-90],[-99.61165,-90],[-99.112344,-90],[-98.613037,-90],[-98.113731,-90],[-97.614424,-90],[-97.115118,-90],[-96.615811,-90],[-96.116505,-90],[-95.617198,-90],[-95.117892,-90],[-94.618585,-90],[-94.119279,-90],[-93.619972,-90],[-93.120666,-90],[-92.621359,-90],[-92.122053,-90],[-91.622746,-90],[-91.12344,-90],[-90.624133,-90],[-90.124827,-90],[-89.62552,-90],[-89.126214,-90],[-88.626907,-90],[-88.127601,-90],[-87.628294,-90],[-87.128988,-90],[-86.629681,-90],[-86.130374,-90],[-85.631068,-90],[-85.131761,-90],[-84.632455,-90],[-84.133148,-90],[-83.633842,-90],[-83.134535,-90],[-82.635229,-90],[-82.135922,-90],[-81.636616,-90],[-81.137309,-90],[-80.638003,-90],[-80.138696,-90],[-79.63939,-90],[-79.140083,-90],[-78.640777,-90],[-78.14147,-90],[-77.642164,-90],[-77.142857,-90],[-76.643551,-90],[-76.144244,-90],[-75.644938,-90],[-75.145631,-90],[-74.646325,-90],[-74.147018,-90],[-73.647712,-90],[-73.148405,-90],[-72.649098,-90],[-72.149792,-90],[-71.650485,-90],[-71.151179,-90],[-70.651872,-90],[-70.152566,-90],[-69.653259,-90],[-69.153953,-90],[-68.654646,-90],[-68.15534,-90],[-67.656033,-90],[-67.156727,-90],[-66.65742,-90],[-66.158114,-90],[-65.658807,-90],[-65.159501,-90],[-64.660194,-90],[-64.160888,-90],[-63.661581,-90],[-63.162275,-90],[-62.662968,-90],[-62.163662,-90],[-61.664355,-90],[-61.165049,-90],[-60.665742,-90],[-60.166436,-90],[-59.667129,-90],[-59.167822,-90],[-58.668516,-90],[-58.169209,-90],[-57.669903,-90],[-57.170596,-90],[-56.67129,-90],[-56.171983,-90],[-55.672677,-90],[-55.17337,-90],[-54.674064,-90],[-54.174757,-90],[-53.675451,-90],[-53.176144,-90],[-52.676838,-90],[-52.177531,-90],[-51.678225,-90],[-51.178918,-90],[-50.679612,-90],[-50.180305,-90],[-49.680999,-90],[-49.181692,-90],[-48.682386,-90],[-48.183079,-90],[-47.683773,-90],[-47.184466,-90],[-46.68516,-90],[-46.185853,-90],[-45.686546,-90],[-45.18724,-90],[-44.687933,-90],[-44.188627,-90],[-43.68932,-90],[-43.190014,-90],[-42.690707,-90],[-42.191401,-90],[-41.692094,-90],[-41.192788,-90],[-40.693481,-90],[-40.194175,-90],[-39.694868,-90],[-39.195562,-90],[-38.696255,-90],[-38.196949,-90],[-37.697642,-90],[-37.198336,-90],[-36.699029,-90],[-36.199723,-90],[-35.700416,-90],[-35.20111,-90],[-34.701803,-90],[-34.202497,-90],[-33.70319,-90],[-33.203883,-90],[-32.704577,-90],[-32.20527,-90],[-31.705964,-90],[-31.206657,-90],[-30.707351,-90],[-30.208044,-90],[-29.708738,-90],[-29.209431,-90],[-28.710125,-90],[-28.210818,-90],[-27.711512,-90],[-27.212205,-90],[-26.712899,-90],[-26.213592,-90],[-25.714286,-90],[-25.214979,-90],[-24.715673,-90],[-24.216366,-90],[-23.71706,-90],[-23.217753,-90],[-22.718447,-90],[-22.21914,-90],[-21.719834,-90],[-21.220527,-90],[-20.721221,-90],[-20.221914,-90],[-19.722607,-90],[-19.223301,-90],[-18.723994,-90],[-18.224688,-90],[-17.725381,-90],[-17.226075,-90],[-16.726768,-90],[-16.227462,-90],[-15.728155,-90],[-15.228849,-90],[-14.729542,-90],[-14.230236,-90],[-13.730929,-90],[-13.231623,-90],[-12.732316,-90],[-12.23301,-90],[-11.733703,-90],[-11.234397,-90],[-10.73509,-90],[-10.235784,-90],[-9.736477,-90],[-9.237171,-90],[-8.737864,-90],[-8.238558,-90],[-7.739251,-90],[-7.239945,-90],[-6.740638,-90],[-6.241331,-90],[-5.742025,-90],[-5.242718,-90],[-4.743412,-90],[-4.244105,-90],[-3.744799,-90],[-3.245492,-90],[-2.746186,-90],[-2.246879,-90],[-1.747573,-90],[-1.248266,-90],[-0.74896,-90],[-0.249653,-90],[0.249653,-90],[0.74896,-90],[1.248266,-90],[1.747573,-90],[2.246879,-90],[2.746186,-90],[3.245492,-90],[3.744799,-90],[4.244105,-90],[4.743412,-90],[5.242718,-90],[5.742025,-90],[6.241331,-90],[6.740638,-90],[7.239945,-90],[7.739251,-90],[8.238558,-90],[8.737864,-90],[9.237171,-90],[9.736477,-90],[10.235784,-90],[10.73509,-90],[11.234397,-90],[11.733703,-90],[12.23301,-90],[12.732316,-90],[13.231623,-90],[13.730929,-90],[14.230236,-90],[14.729542,-90],[15.228849,-90],[15.728155,-90],[16.227462,-90],[16.726768,-90],[17.226075,-90],[17.725381,-90],[18.224688,-90],[18.723994,-90],[19.223301,-90],[19.722607,-90],[20.221914,-90],[20.721221,-90],[21.220527,-90],[21.719834,-90],[22.21914,-90],[22.718447,-90],[23.217753,-90],[23.71706,-90],[24.216366,-90],[24.715673,-90],[25.214979,-90],[25.714286,-90],[26.213592,-90],[26.712899,-90],[27.212205,-90],[27.711512,-90],[28.210818,-90],[28.710125,-90],[29.209431,-90],[29.708738,-90],[30.208044,-90],[30.707351,-90],[31.206657,-90],[31.705964,-90],[32.20527,-90],[32.704577,-90],[33.203883,-90],[33.70319,-90],[34.202497,-90],[34.701803,-90],[35.20111,-90],[35.700416,-90],[36.199723,-90],[36.699029,-90],[37.198336,-90],[37.697642,-90],[38.196949,-90],[38.696255,-90],[39.195562,-90],[39.694868,-90],[40.194175,-90],[40.693481,-90],[41.192788,-90],[41.692094,-90],[42.191401,-90],[42.690707,-90],[43.190014,-90],[43.68932,-90],[44.188627,-90],[44.687933,-90],[45.18724,-90],[45.686546,-90],[46.185853,-90],[46.68516,-90],[47.184466,-90],[47.683773,-90],[48.183079,-90],[48.682386,-90],[49.181692,-90],[49.680999,-90],[50.180305,-90],[50.679612,-90],[51.178918,-90],[51.678225,-90],[52.177531,-90],[52.676838,-90],[53.176144,-90],[53.675451,-90],[54.174757,-90],[54.674064,-90],[55.17337,-90],[55.672677,-90],[56.171983,-90],[56.67129,-90],[57.170596,-90],[57.669903,-90],[58.169209,-90],[58.668516,-90],[59.167822,-90],[59.667129,-90],[60.166436,-90],[60.665742,-90],[61.165049,-90],[61.664355,-90],[62.163662,-90],[62.662968,-90],[63.162275,-90],[63.661581,-90],[64.160888,-90],[64.660194,-90],[65.159501,-90],[65.658807,-90],[66.158114,-90],[66.65742,-90],[67.156727,-90],[67.656033,-90],[68.15534,-90],[68.654646,-90],[69.153953,-90],[69.653259,-90],[70.152566,-90],[70.651872,-90],[71.151179,-90],[71.650485,-90],[72.149792,-90],[72.649098,-90],[73.148405,-90],[73.647712,-90],[74.147018,-90],[74.646325,-90],[75.145631,-90],[75.644938,-90],[76.144244,-90],[76.643551,-90],[77.142857,-90],[77.642164,-90],[78.14147,-90],[78.640777,-90],[79.140083,-90],[79.63939,-90],[80.138696,-90],[80.638003,-90],[81.137309,-90],[81.636616,-90],[82.135922,-90],[82.635229,-90],[83.134535,-90],[83.633842,-90],[84.133148,-90],[84.632455,-90],[85.131761,-90],[85.631068,-90],[86.130374,-90],[86.629681,-90],[87.128988,-90],[87.628294,-90],[88.127601,-90],[88.626907,-90],[89.126214,-90],[89.62552,-90],[90.124827,-90],[90.624133,-90],[91.12344,-90],[91.622746,-90],[92.122053,-90],[92.621359,-90],[93.120666,-90],[93.619972,-90],[94.119279,-90],[94.618585,-90],[95.117892,-90],[95.617198,-90],[96.116505,-90],[96.615811,-90],[97.115118,-90],[97.614424,-90],[98.113731,-90],[98.613037,-90],[99.112344,-90],[99.61165,-90],[100.110957,-90],[100.610264,-90],[101.10957,-90],[101.608877,-90],[102.108183,-90],[102.60749,-90],[103.106796,-90],[103.606103,-90],[104.105409,-90],[104.604716,-90],[105.104022,-90],[105.603329,-90],[106.102635,-90],[106.601942,-90],[107.101248,-90],[107.600555,-90],[108.099861,-90],[108.599168,-90],[109.098474,-90],[109.597781,-90],[110.097087,-90],[110.596394,-90],[111.0957,-90],[111.595007,-90],[112.094313,-90],[112.59362,-90],[113.092926,-90],[113.592233,-90],[114.09154,-90],[114.590846,-90],[115.090153,-90],[115.589459,-90],[116.088766,-90],[116.588072,-90],[117.087379,-90],[117.586685,-90],[118.085992,-90],[118.585298,-90],[119.084605,-90],[119.583911,-90],[120.083218,-90],[120.582524,-90],[121.081831,-90],[121.581137,-90],[122.080444,-90],[122.57975,-90],[123.079057,-90],[123.578363,-90],[124.07767,-90],[124.576976,-90],[125.076283,-90],[125.575589,-90],[126.074896,-90],[126.574202,-90],[127.073509,-90],[127.572816,-90],[128.072122,-90],[128.571429,-90],[129.070735,-90],[129.570042,-90],[130.069348,-90],[130.568655,-90],[131.067961,-90],[131.567268,-90],[132.066574,-90],[132.565881,-90],[133.065187,-90],[133.564494,-90],[134.0638,-90],[134.563107,-90],[135.062413,-90],[135.56172,-90],[136.061026,-90],[136.560333,-90],[137.059639,-90],[137.558946,-90],[138.058252,-90],[138.557559,-90],[139.056865,-90],[139.556172,-90],[140.055479,-90],[140.554785,-90],[141.054092,-90],[141.553398,-90],[142.052705,-90],[142.552011,-90],[143.051318,-90],[143.550624,-90],[144.049931,-90],[144.549237,-90],[145.048544,-90],[145.54785,-90],[146.047157,-90],[146.546463,-90],[147.04577,-90],[147.545076,-90],[148.044383,-90],[148.543689,-90],[149.042996,-90],[149.542302,-90],[150.041609,-90],[150.540915,-90],[151.040222,-90],[151.539528,-90],[152.038835,-90],[152.538141,-90],[153.037448,-90],[153.536755,-90],[154.036061,-90],[154.535368,-90],[155.034674,-90],[155.533981,-90],[156.033287,-90],[156.532594,-90],[157.0319,-90],[157.531207,-90],[158.030513,-90],[158.52982,-90],[159.029126,-90],[159.528433,-90],[160.027739,-90],[160.527046,-90],[161.026352,-90],[161.525659,-90],[162.024965,-90],[162.524272,-90],[163.023578,-90],[163.522885,-90],[164.022191,-90],[164.521498,-90],[165.020804,-90],[165.520111,-90],[166.019417,-90],[166.518724,-90],[167.018031,-90],[167.517337,-90],[168.016644,-90],[168.51595,-90],[169.015257,-90],[169.514563,-90],[170.01387,-90],[170.513176,-90],[171.012483,-90],[171.511789,-90],[172.011096,-90],[172.510402,-90],[173.009709,-90],[173.509015,-90],[174.008322,-90],[174.507628,-90],[175.006935,-90],[175.506241,-90],[176.005548,-90],[176.504854,-90],[177.004161,-90],[177.503467,-90],[178.002774,-90],[178.50208,-90],[179.001387,-90],[179.500693,-90],[180,-90],[180,-89.501385],[180,-89.00277],[180,-88.504155],[180,-88.00554],[180,-87.506925],[180,-87.00831],[180,-86.509695],[180,-86.01108],[180,-85.512465],[180,-85.01385],[180,-84.515235],[180,-84.353382],[180,-84.352796],[179.354991,-84.197361],[177.535167,-84.057875],[175.677745,-83.961602],[174.973888,-83.830499],[173.962169,-83.881768],[172.820649,-83.667901],[171.331228,-83.555434],[171.193126,-83.445571],[169.383474,-83.336847],[168.660899,-83.397149],[167.74879,-83.255141],[168.763927,-83.191339],[168.592784,-82.998956],[167.424164,-83.026056],[167.306488,-82.817071],[166.108897,-82.652927],[164.673188,-82.3388],[163.318858,-82.483005],[160.857677,-82.500909],[160.639659,-82.422947],[163.838715,-82.231052],[162.390147,-81.798028],[162.47934,-81.689142],[161.011485,-81.548761],[161.454112,-81.423517],[160.919444,-81.270196],[160.907481,-80.992852],[160.159923,-80.781508],[161.009288,-80.758559],[161.200938,-80.648207],[160.612071,-80.546808],[160.75172,-80.38006],[158.587901,-80.476983],[158.207286,-80.405938],[158.7824,-80.258966],[160.850922,-79.957452],[160.328868,-79.861261],[160.761485,-79.650811],[159.875499,-79.662042],[160.710704,-79.419203],[160.386974,-79.168145],[161.130382,-79.049412],[162.06544,-79.068617],[161.755382,-78.839451],[162.125743,-78.759861],[163.851736,-78.737074],[164.409679,-78.603936],[166.08961,-78.566827],[166.546723,-78.712009],[167.215668,-78.600681],[165.786876,-78.420668],[165.685232,-78.260837],[164.531749,-78.317153],[164.207856,-78.225763],[164.533702,-77.987074],[164.500743,-77.853936],[163.906505,-77.696384],[163.715831,-77.39658],[163.069509,-77.018731],[162.469005,-77.015313],[162.931407,-76.707452],[162.423188,-76.639255],[162.884288,-76.43906],[162.736095,-76.073907],[162.900076,-75.822931],[162.200531,-75.637872],[162.191091,-75.387791],[161.087087,-75.384373],[161.776378,-75.188897],[162.543468,-75.240167],[162.786143,-74.990004],[162.543142,-74.953709],[162.591482,-74.750177],[163.011892,-74.70143],[163.4699,-74.341974],[163.787283,-74.624444],[164.31837,-74.502618],[164.587413,-74.574884],[165.238536,-74.546645],[165.288097,-74.465265],[164.591482,-73.92669],[164.905935,-73.657159],[165.231212,-73.593032],[165.26059,-73.893324],[166.2942,-73.725763],[165.873709,-73.565851],[167.03297,-73.566095],[167.363129,-73.394301],[166.872081,-73.221368],[167.171397,-73.153009],[168.334158,-73.16546],[168.752615,-73.076918],[169.2199,-73.132501],[169.932465,-72.735935],[168.867361,-72.575942],[169.126475,-72.48504],[170.255382,-72.60296],[170.2824,-72.326349],[170.016368,-72.170831],[170.256358,-71.950779],[170.773611,-71.95086],[170.945811,-71.860772],[170.813731,-71.699802],[170.361827,-71.544041],[170.075857,-71.65602],[169.791515,-71.519464],[168.761485,-71.275567],[168.500255,-71.161065],[167.87794,-71.014337],[167.833018,-70.861423],[167.416189,-70.759047],[166.470714,-70.76629],[166.724457,-70.618259],[166.369477,-70.583917],[165.925792,-70.684259],[165.312266,-70.560317],[164.876475,-70.573826],[164.240408,-70.491143],[164.19988,-70.639337],[163.42213,-70.653578],[162.920177,-70.502537],[162.595225,-70.269138],[162.094412,-70.314142],[161.996104,-70.464288],[162.083018,-70.676935],[161.990082,-70.92254],[161.41627,-70.904474],[161.186778,-70.412042],[160.636485,-70.048761],[159.761241,-69.885186],[160.334483,-69.796075],[159.753591,-69.501886],[159.284679,-69.433038],[159.040701,-69.490655],[158.794444,-69.314874],[158.446544,-69.326755],[157.992198,-69.172133],[157.625499,-69.195408],[157.373546,-69.354669],[157.139822,-69.16131],[156.350108,-69.201918],[155.888031,-68.982599],[155.308604,-68.893324],[155.011078,-68.898858],[154.718516,-68.528253],[153.835948,-68.273614],[153.70045,-68.545668],[153.844981,-68.760431],[153.406749,-68.769138],[153.250662,-68.878188],[152.403087,-68.698663],[151.614513,-68.698419],[151.566905,-68.916762],[150.970714,-68.717218],[151.094249,-68.406996],[150.852875,-68.350763],[150.37794,-68.439874],[149.39031,-68.384373],[148.435395,-68.473321],[147.628673,-68.356052],[147.262462,-68.408949],[146.718028,-68.303399],[147.0713,-68.117446],[146.385427,-67.915216],[146.109711,-67.749607],[146.048106,-67.586602],[145.238129,-67.528253],[144.942068,-67.718927],[143.880707,-67.933852],[143.90919,-67.756117],[144.191905,-67.581231],[144.662364,-67.116632],[144.512462,-67.01572],[143.855317,-67.094171],[143.87615,-66.940362],[143.470714,-66.845636],[142.822032,-67.019708],[142.477061,-67.025974],[141.9817,-66.799981],[141.578136,-66.779962],[141.260265,-66.857029],[141.003673,-66.767348],[140.081554,-66.733168],[139.25172,-66.567153],[138.732107,-66.569594],[138.018728,-66.488539],[137.731944,-66.3742],[136.944591,-66.32822],[136.636485,-66.456476],[136.159516,-66.245375],[135.647309,-66.27809],[135.343028,-66.100681],[135.178477,-66.331476],[134.739268,-66.367283],[134.420665,-66.496515],[134.259451,-66.279555],[133.792328,-66.105401],[133.120372,-66.096775],[132.826915,-66.190362],[132.478282,-66.150649],[131.757823,-66.243341],[130.729991,-66.147149],[130.342459,-66.29518],[130.102712,-66.276788],[129.72169,-66.438246],[129.532563,-66.614435],[129.575857,-66.750177],[129.434093,-66.967218],[129.202647,-67.100356],[128.76352,-67.025811],[128.520518,-67.145766],[127.836436,-67.021173],[127.432384,-67.070408],[126.998709,-66.932794],[126.718923,-66.592869],[126.854259,-66.449314],[126.116384,-66.43906],[125.897797,-66.306248],[125.410411,-66.417657],[125.148123,-66.659601],[124.622813,-66.756443],[124.260509,-66.594985],[123.730317,-66.650323],[123.516124,-66.754083],[123.149913,-66.733168],[122.244395,-66.844985],[121.850841,-67.015883],[121.51531,-67.09295],[120.920665,-67.131524],[120.499278,-67.233087],[119.022227,-67.411798],[118.732188,-67.278904],[120.341319,-67.012384],[120.351736,-66.934828],[119.32838,-67.127618],[118.665538,-67.178969],[118.367931,-67.046482],[117.58725,-67.114841],[116.500011,-67.124282],[115.965505,-67.199314],[115.337901,-67.219496],[115.212169,-67.32586],[114.670095,-67.343438],[114.031505,-67.478448],[113.868419,-67.362237],[114.030121,-67.190688],[114.765391,-67.07171],[115.160167,-67.053969],[115.597423,-66.919529],[115.780772,-66.788263],[115.598969,-66.592869],[115.113455,-66.478123],[114.674653,-66.478774],[114.320567,-66.33115],[114.406749,-66.235935],[113.775564,-65.9485],[113.203624,-65.765395],[111.847423,-65.934747],[111.615571,-65.932875],[110.927094,-66.05462],[110.489024,-66.30877],[110.724946,-66.40545],[110.44516,-66.658298],[109.84783,-66.854425],[109.385753,-66.932712],[109.149587,-66.885349],[108.832774,-66.968032],[108.576427,-66.805841],[108.298188,-66.756443],[108.135753,-66.62477],[107.116954,-66.462579],[106.767833,-66.455743],[103.908214,-65.978774],[103.559906,-66.002211],[103.306,-65.928155],[102.713715,-65.861261],[102.337901,-65.951267],[101.336436,-65.944024],[101.331065,-66.083917],[100.821544,-66.384535],[100.470551,-66.397393],[99.923188,-66.499688],[98.90504,-66.783298],[98.623302,-66.609308],[98.527599,-66.448989],[98.247813,-66.447931],[97.47169,-66.63128],[97.235199,-66.507989],[96.974132,-66.508396],[96.610362,-66.614841],[96.4074,-66.583754],[95.636974,-66.679132],[94.917166,-66.475356],[94.545095,-66.543145],[93.997081,-66.731378],[93.753754,-66.744317],[93.623546,-66.582615],[92.972179,-66.574151],[92.760265,-66.633884],[91.960134,-66.498224],[91.379405,-66.600274],[91.145193,-66.573826],[90.372325,-66.820733],[90.087576,-66.770196],[89.654307,-66.840427],[88.744802,-66.784926],[88.230154,-66.853936],[87.965668,-66.770278],[87.108653,-66.933282],[86.696788,-67.063897],[86.067149,-67.040948],[85.616466,-67.188165],[85.167003,-67.159112],[84.962169,-67.076104],[84.414073,-67.123793],[84.249685,-67.224054],[83.724132,-67.313653],[83.215343,-67.579034],[82.586192,-67.603448],[82.36199,-67.704197],[82.059418,-67.671808],[80.876231,-67.892348],[80.737071,-67.884698],[79.131358,-68.147719],[78.746593,-68.262465],[78.464366,-68.501642],[78.669932,-68.6985],[77.985606,-68.820082],[77.841645,-69.13006],[77.000499,-69.211684],[76.828136,-69.351983],[76.215668,-69.420668],[75.820486,-69.525079],[75.883311,-69.778904],[75.438243,-69.937433],[75.217296,-69.867852],[74.274587,-69.907403],[74.221365,-69.733575],[73.472992,-69.780938],[73.230724,-69.978936],[72.766287,-70.069024],[72.627452,-70.194594],[72.86964,-70.433364],[72.192231,-70.652927],[71.796235,-70.716404],[71.848155,-70.844659],[71.541759,-70.960138],[71.202485,-71.335056],[71.121104,-71.730564],[70.687266,-71.831638],[70.53004,-72.047947],[69.946462,-72.080743],[69.515147,-72.431899],[68.494314,-72.474867],[67.91863,-72.711196],[68.117361,-72.952732],[67.959158,-73.14658],[67.34197,-73.302341],[66.385427,-73.201837],[66.346039,-73.129002],[66.999766,-72.903497],[67.449067,-71.895929],[67.882335,-71.665297],[67.83253,-71.538507],[68.339122,-71.257501],[68.669688,-71.203709],[69.00766,-70.942071],[69.212901,-70.671808],[69.248383,-70.406915],[68.748383,-70.334405],[68.076671,-70.453546],[67.467459,-70.208266],[67.605479,-70.014825],[68.270844,-69.834731],[68.606293,-70.026951],[69.155284,-69.875665],[69.355235,-69.61712],[69.046153,-69.557306],[68.742035,-69.389255],[68.970551,-69.309259],[69.705577,-69.327325],[69.72641,-69.169692],[69.303884,-69.047296],[69.660981,-68.984308],[69.281261,-68.831313],[69.621104,-68.735528],[69.663259,-68.578871],[70.115408,-68.493585],[69.634776,-68.122166],[69.682953,-67.864435],[69.555186,-67.738458],[69.106781,-67.846287],[68.37672,-67.895196],[67.33961,-67.810805],[66.724946,-67.791925],[64.720958,-67.65309],[63.65089,-67.503351],[63.112641,-67.533787],[62.617361,-67.660089],[62.117442,-67.56227],[61.167003,-67.505304],[60.618907,-67.400567],[59.678559,-67.394138],[59.264903,-67.484308],[58.793305,-67.341241],[58.870616,-67.165134],[58.138845,-67.152032],[57.562755,-66.994236],[57.277517,-67.084893],[56.967947,-67.046157],[56.558442,-67.109796],[56.601248,-66.943455],[56.3921,-66.832289],[56.496593,-66.685724],[57.242442,-66.718927],[57.207693,-66.531183],[56.807791,-66.40545],[56.377208,-66.452813],[55.611583,-66.027927],[55.183442,-65.930922],[53.734548,-65.84588],[52.847667,-65.962091],[52.22169,-65.972914],[51.772146,-66.037205],[51.352306,-66.221775],[50.537364,-66.303888],[50.322032,-66.393813],[50.191417,-66.586521],[50.286143,-66.768976],[50.61378,-66.761977],[50.427745,-66.962579],[50.585948,-67.216404],[49.793305,-67.02809],[49.311534,-67.046157],[49.327973,-66.883477],[48.588064,-66.93727],[48.361095,-67.016371],[48.448741,-67.181736],[48.731619,-67.220798],[49.044688,-67.152032],[49.34962,-67.182387],[49.174653,-67.377048],[48.629405,-67.451918],[48.718272,-67.681899],[48.614024,-67.879327],[48.168224,-67.658136],[47.264903,-67.650649],[46.919607,-67.506524],[47.024262,-67.352716],[46.892426,-67.264581],[46.280772,-67.334242],[46.21697,-67.653009],[45.390391,-67.695977],[44.717133,-67.783624],[44.828624,-67.965916],[44.002208,-67.96852],[43.776052,-68.046482],[43.405528,-68.034601],[42.859386,-68.103774],[42.547048,-68.245782],[42.536143,-68.379571],[41.980724,-68.406345],[41.014822,-68.596449],[40.888845,-68.709405],[40.470551,-68.72617],[39.857921,-68.829522],[39.707367,-69.067966],[39.8449,-69.393243],[39.713064,-69.586847],[39.208832,-69.706638],[39.192638,-69.892511],[38.803559,-69.987726],[39.076427,-70.172621],[38.714041,-70.188735],[38.139334,-69.881443],[38.038422,-69.717462],[37.54005,-69.684747],[36.973806,-69.790623],[36.750987,-69.637465],[35.708344,-69.666111],[35.243988,-69.73561],[35.104747,-69.459649],[35.19988,-69.294122],[34.58725,-69.066827],[34.361501,-69.132908],[33.771251,-69.053481],[34.091156,-68.852472],[34.214203,-68.677911],[33.215994,-68.66961],[32.838064,-68.75213],[32.498871,-68.930922],[32.532481,-69.118829],[32.927908,-69.343683],[32.975759,-69.672133],[32.851085,-69.945489],[32.568858,-70.051528],[31.280447,-70.237074],[30.935313,-70.214614],[29.841156,-70.311293],[29.448253,-70.395685],[29.021821,-70.572035],[28.451671,-70.694024],[27.628429,-70.741306],[27.197032,-70.897068],[26.445649,-71.032403],[24.968028,-70.945489],[24.319347,-70.74033],[24.408865,-70.533949],[24.108897,-70.409438],[23.752452,-70.402602],[23.323009,-70.809747],[22.941742,-70.826349],[22.326915,-70.759454],[22.579275,-70.540216],[21.801606,-70.235935],[21.611339,-70.272149],[21.208507,-70.57643],[21.201182,-70.812188],[20.403982,-70.923435],[19.289236,-70.914321],[18.930919,-70.736017],[19.296641,-70.368097],[19.153494,-70.203546],[18.316173,-70.324395],[18.49822,-70.502537],[18.093761,-70.542413],[16.871104,-70.439386],[16.598155,-70.3742],[16.519867,-70.126723],[15.962576,-70.18963],[15.826915,-70.377618],[14.510509,-70.283868],[13.848806,-70.347833],[13.018321,-70.241795],[12.322032,-70.370294],[11.853526,-70.781508],[10.722667,-70.636895],[9.979259,-70.453546],[9.403575,-70.104262],[9.080577,-70.089288],[8.887462,-70.215509],[9.167817,-70.308038],[8.443126,-70.482354],[7.930431,-70.472345],[7.835297,-70.16367],[7.423513,-70.20436],[7.567393,-70.524347],[5.587738,-70.649184],[5.006114,-70.642673],[4.223969,-70.783787],[3.074067,-70.894627],[2.519705,-70.900567],[1.451915,-71.118259],[0.933767,-71.179376],[0.232188,-71.349867],[-0.469309,-71.754002],[-0.952138,-71.62363],[-0.812815,-71.377537],[-2.131256,-71.482599],[-2.236724,-71.387302],[-2.887074,-71.267999],[-3.337799,-71.425226],[-3.709584,-71.387628],[-5.193837,-71.330824],[-6.14977,-71.366306],[-6.019887,-71.108982],[-5.735707,-71.038832],[-5.56664,-70.841729],[-5.675282,-70.73268],[-6.31786,-70.70794],[-6.618276,-70.924005],[-7.284291,-70.791192],[-7.855784,-70.82586],[-7.892486,-70.970636],[-7.564198,-71.150567],[-7.568512,-71.334649],[-7.765207,-71.428399],[-7.596588,-71.594008],[-7.816762,-71.67197],[-8.295237,-71.626153],[-8.614125,-71.699884],[-9.105051,-71.185317],[-9.939524,-71.062433],[-10.101064,-71.181085],[-10.595611,-71.297296],[-10.600331,-71.527032],[-11.072092,-71.549005],[-11.609486,-71.416925],[-11.879506,-71.260349],[-12.380727,-71.39544],[-12.17516,-71.623956],[-11.527415,-71.755304],[-10.949086,-71.742852],[-11.032297,-72.048923],[-11.250356,-72.100763],[-11.356557,-72.396417],[-12.456044,-72.559666],[-13.181264,-72.803888],[-14.222646,-72.828302],[-13.895253,-72.986749],[-14.097483,-73.132989],[-14.883209,-73.042413],[-15.541412,-73.076837],[-15.978871,-73.194594],[-15.976186,-73.303806],[-16.438466,-73.413263],[-16.602854,-73.633559],[-16.196401,-73.83408],[-15.686269,-73.9485],[-14.697133,-73.789646],[-14.361806,-73.85768],[-14.827992,-74.081231],[-15.302113,-74.221449],[-15.195546,-74.360528],[-15.753082,-74.430434],[-16.597279,-74.307387],[-17.456288,-74.337172],[-17.623158,-74.585219],[-17.965688,-74.637872],[-17.802154,-74.776544],[-18.535878,-75.053155],[-18.873525,-75.249444],[-18.5065,-75.415704],[-19.240468,-75.548435],[-20.399485,-75.472101],[-21.17394,-75.705011],[-22.301869,-75.644627],[-23.269358,-75.73797],[-24.325592,-75.77988],[-25.94815,-75.933038],[-26.985178,-76.169692],[-27.337636,-76.172052],[-28.85912,-76.353285],[-30.153472,-76.635349],[-30.692128,-76.849786],[-31.696116,-76.976658],[-31.915028,-77.150811],[-32.50064,-77.126153],[-33.721099,-77.310968],[-34.711497,-77.62949],[-34.664296,-77.853611],[-35.312856,-77.844415],[-35.580963,-78.150486],[-36.013092,-78.210545],[-36.441151,-78.611261],[-36.251332,-78.851658],[-34.258453,-79.076593],[-34.218129,-79.138116],[-32.82018,-79.24391],[-30.611195,-79.074965],[-30.449452,-79.217218],[-29.541371,-79.280043],[-30.673248,-79.588067],[-28.692114,-79.65271],[-24.729848,-79.781996],[-23.738759,-79.830011],[-22.905629,-79.982843],[-24.068593,-80.009942],[-24.25414,-80.075942],[-29.760813,-80.175551],[-29.924184,-80.284356],[-31.278879,-80.297133],[-30.505849,-80.478204],[-32.030507,-80.435235],[-33.476186,-80.615411],[-35.358388,-80.61533],[-35.214955,-80.695408],[-36.033193,-80.920668],[-37.622792,-80.996026],[-38.75536,-80.871026],[-40.39802,-81.169854],[-41.119496,-81.22617],[-41.763824,-81.410414],[-41.986195,-81.619561],[-43.190297,-81.899672],[-43.147776,-82.11419],[-44.011098,-82.391209],[-45.520416,-82.526625],[-46.688791,-82.40545],[-46.088775,-82.224379],[-46.279205,-81.909763],[-48.38036,-81.890313],[-51.730621,-82.062595]]],[[[-59.286773,-80.209649],[-59.77595,-80.04518],[-59.820627,-79.76922],[-60.403147,-79.757257],[-61.466054,-79.881606],[-61.806142,-80.050877],[-61.515859,-80.241876],[-61.750356,-80.368341],[-65.918446,-80.394952],[-66.700917,-80.412367],[-64.284779,-80.751153],[-63.792348,-80.606134],[-63.141103,-80.592462],[-62.522084,-80.864923],[-60.652659,-80.960382],[-59.819,-80.744887],[-59.757436,-80.335707],[-59.286773,-80.209649]]],[[[-66.149078,-79.628188],[-66.91808,-79.566095],[-67.832102,-79.57936],[-66.933339,-79.792576],[-66.973012,-79.921645],[-65.511586,-79.964532],[-65.565785,-79.812677],[-66.271799,-79.721449],[-66.149078,-79.628188]]],[[[-68.233062,-79.285903],[-68.39269,-79.470798],[-67.511057,-79.397231],[-67.059071,-79.261326],[-67.613108,-79.211521],[-68.233062,-79.285903]]],[[[-33.916493,-79.312595],[-35.503407,-79.090102],[-36.659576,-79.223077],[-36.726389,-79.29811],[-34.070872,-79.361505],[-33.916493,-79.312595]]],[[[-66.734364,-78.441827],[-66.992909,-78.306736],[-69.437245,-78.687107],[-70.592763,-78.885919],[-71.395416,-79.101739],[-71.815663,-79.479181],[-71.444163,-79.652927],[-70.341786,-79.696873],[-69.646555,-79.603774],[-69.800852,-79.468845],[-68.946441,-79.097263],[-66.734364,-78.441827]]],[[[-52.518788,-80.200128],[-53.457631,-80.160903],[-54.163808,-80.530043],[-54.407826,-80.740004],[-54.16161,-80.87713],[-49.798004,-80.790948],[-49.719228,-80.685642],[-45.911435,-80.386764],[-43.531565,-80.199965],[-43.015736,-79.849786],[-42.971547,-79.429946],[-43.348459,-79.23919],[-43.459869,-78.955499],[-43.739003,-78.800551],[-45.218984,-78.818943],[-45.155751,-78.661879],[-43.963124,-78.603285],[-43.718251,-78.367446],[-43.818837,-78.248305],[-44.514556,-78.042169],[-45.934071,-77.817071],[-47.222524,-77.772638],[-49.072336,-78.042169],[-49.278066,-78.20086],[-50.204091,-78.593032],[-50.214426,-78.83294],[-50.713124,-79.281671],[-50.263661,-79.53574],[-52.518788,-80.200128]]],[[[-20.366567,-74.425388],[-20.69286,-74.101983],[-20.495839,-73.793715],[-21.009511,-73.870538],[-21.336049,-74.003676],[-20.959828,-74.238539],[-20.80663,-74.475193],[-20.366567,-74.425388]]],[[[-74.846791,-72.866632],[-75.295806,-72.819513],[-75.501088,-72.989353],[-76.126129,-73.158787],[-75.874582,-73.346612],[-74.593129,-73.614516],[-74.360911,-73.460382],[-74.552358,-73.387384],[-74.218577,-72.990818],[-74.846791,-72.866632]]],[[[-90.901601,-72.819757],[-90.757965,-72.697442],[-91.044179,-72.543145],[-91.686513,-72.609959],[-91.333404,-72.897556],[-91.524648,-73.19256],[-90.917714,-73.101251],[-90.739898,-72.864435],[-90.901601,-72.819757]]],[[[-95.499216,-72.315606],[-95.715932,-72.104587],[-96.441274,-72.193455],[-96.065338,-71.913832],[-96.360463,-71.835056],[-97.048207,-71.876397],[-97.305653,-72.176853],[-98.228627,-72.045017],[-97.982411,-71.859633],[-98.828114,-71.760512],[-99.104075,-71.921645],[-99.749501,-72.040297],[-99.944407,-71.893813],[-100.437367,-71.879327],[-102.087026,-71.973891],[-102.292226,-72.126723],[-100.205312,-72.271254],[-99.396555,-72.498224],[-98.535471,-72.464125],[-98.580149,-72.572849],[-97.599355,-72.557224],[-96.054758,-72.583673],[-96.022572,-72.436456],[-95.499216,-72.315606]]],[[[-74.912668,-71.02337],[-74.400502,-70.975274],[-73.618886,-70.774998],[-73.883901,-70.570571],[-74.820872,-70.607029],[-75.199818,-70.776625],[-76.108998,-70.83766],[-76.542551,-70.96559],[-76.130442,-71.137872],[-74.912668,-71.02337]]],[[[-3.430409,-70.538507],[-2.685048,-70.472345],[-2.833811,-70.281427],[-3.260487,-70.331231],[-3.430409,-70.538507]]],[[[-75.48351,-70.133722],[-74.873158,-70.183526],[-74.407135,-69.937677],[-74.962799,-69.716892],[-75.778798,-69.923272],[-75.831695,-70.016371],[-75.48351,-70.133722]]],[[[-72.84553,-69.585626],[-72.205312,-69.73447],[-72.14037,-69.624119],[-72.398549,-69.465265],[-72.833404,-69.425551],[-72.84553,-69.585626]]],[[[-61.755483,-69.454278],[-62.192047,-69.186212],[-62.579172,-69.189142],[-62.198842,-69.508071],[-61.755483,-69.454278]]],[[[-71.460072,-72.629164],[-70.523834,-72.667576],[-69.21817,-72.542901],[-69.138783,-72.375421],[-68.668691,-72.216729],[-68.414133,-72.219659],[-68.161244,-71.606378],[-68.273915,-71.436619],[-68.299184,-70.869073],[-68.720367,-70.369073],[-69.284779,-69.92311],[-69.317128,-69.625909],[-69.702789,-69.316095],[-70.077219,-69.291111],[-70.10558,-68.89072],[-70.402089,-68.786798],[-71.403798,-68.86004],[-72.012685,-68.955499],[-72.168121,-69.055759],[-72.142079,-69.232354],[-71.615875,-69.454848],[-71.91161,-69.708266],[-71.912221,-69.965916],[-71.316884,-70.177341],[-70.779775,-70.125665],[-70.230702,-70.136326],[-70.117502,-70.329767],[-70.998606,-70.465753],[-71.26651,-70.680108],[-70.701283,-70.831801],[-69.952545,-70.878839],[-70.208485,-70.98797],[-71.025502,-70.962172],[-71.690053,-71.158868],[-72.395416,-71.065118],[-72.786122,-71.062758],[-72.895863,-71.230401],[-72.315297,-71.288832],[-72.757395,-71.404555],[-73.407948,-71.315362],[-74.42276,-71.428318],[-74.390248,-71.668145],[-74.885854,-71.528416],[-75.403717,-71.670831],[-75.356028,-71.923598],[-74.815989,-72.064874],[-74.396799,-72.040297],[-74.00475,-72.173517],[-73.501332,-72.012465],[-73.035064,-71.926446],[-72.338938,-71.613458],[-71.830556,-71.80283],[-70.719716,-71.905694],[-71.086985,-72.049574],[-72.011586,-72.119724],[-71.552642,-72.278416],[-71.043772,-72.257582],[-70.457672,-72.140232],[-70.183339,-72.273858],[-70.709706,-72.396417],[-71.871083,-72.34881],[-72.676747,-72.271254],[-73.109242,-72.473403],[-72.408274,-72.674493],[-71.460072,-72.629164]]],[[[-69.109283,-67.626153],[-68.884592,-67.762465],[-68.139027,-67.571466],[-67.965159,-67.394627],[-68.250966,-67.369317],[-67.676829,-67.148045],[-67.97643,-67.066502],[-67.860463,-66.625665],[-68.377838,-66.820733],[-68.837473,-67.266778],[-69.154897,-67.475681],[-69.109283,-67.626153]]],[[[-62.906443,-64.521173],[-63.331695,-64.445082],[-63.313222,-64.254978],[-63.574941,-64.265232],[-63.902943,-64.534763],[-64.199534,-64.592055],[-64.029164,-64.774509],[-63.650706,-64.816502],[-63.335805,-64.758966],[-62.906443,-64.521173]]],[[[-62.656565,-64.503025],[-62.385487,-64.465997],[-62.060374,-64.227309],[-62.478179,-64.014581],[-62.623402,-64.130548],[-62.469309,-64.248468],[-62.656565,-64.503025]]],[[[-57.513336,-64.340997],[-57.155385,-64.085138],[-57.52123,-64.020929],[-57.829579,-64.074802],[-57.8072,-63.818129],[-58.25768,-63.906834],[-58.460357,-64.085707],[-58.131093,-64.102227],[-58.278188,-64.298435],[-58.193471,-64.381036],[-57.513336,-64.340997]]],[[[-55.159373,-63.203871],[-55.575673,-63.129083],[-55.974517,-63.146905],[-56.369537,-63.228123],[-56.450266,-63.429295],[-56.094879,-63.388767],[-55.901357,-63.296645],[-55.172719,-63.357599],[-55.159373,-63.203871]]],[[[-61.16039,-62.663344],[-60.811757,-62.67197],[-60.379221,-62.610121],[-60.245961,-62.752862],[-59.98941,-62.630141],[-60.010854,-62.525649],[-60.491078,-62.577081],[-60.674794,-62.548598],[-61.16039,-62.663344]]],[[[-58.466908,-62.160414],[-58.242828,-62.181573],[-58.007883,-61.904474],[-58.414052,-61.933282],[-58.678212,-62.004002],[-58.946034,-62.158787],[-58.584625,-62.248956],[-58.466908,-62.160414]]],[[[-55.077952,-61.093194],[-55.449045,-61.115004],[-55.281484,-61.256931],[-55.077952,-61.093194]]],[[[-162.339833,-82.923761],[-163.749705,-82.833591],[-163.261301,-83.080987],[-162.402415,-83.14837],[-161.575795,-83.024347],[-162.339833,-82.923761]]],[[[-160.571116,-81.598891],[-160.67573,-81.462823],[-162.983876,-81.270278],[-163.851186,-81.318943],[-163.728505,-81.481622],[-160.571116,-81.598891]]],[[[-29.618316,-79.911228],[-29.906239,-79.815037],[-31.095448,-79.810724],[-31.591664,-79.648696],[-32.089467,-79.809259],[-31.541737,-79.898533],[-29.989084,-79.96559],[-29.618316,-79.911228]]],[[[-159.842152,-79.348565],[-162.35322,-78.752618],[-163.265004,-78.757257],[-164.148061,-78.99212],[-164.297841,-79.230076],[-163.936635,-79.411716],[-160.71288,-79.854587],[-159.069814,-79.81878],[-158.974843,-79.722345],[-159.842152,-79.348565]]],[[[169.273448,-77.454522],[168.219574,-77.372328],[167.568126,-77.413263],[167.065766,-77.316339],[166.65447,-77.362563],[166.388682,-77.613377],[168.40089,-77.696222],[169.318207,-77.537205],[169.273448,-77.454522]]],[[[-127.128489,-74.469415],[-127.758046,-74.342706],[-127.905629,-74.552992],[-127.551747,-74.64365],[-127.128489,-74.469415]]],[[[-119.821034,-74.120782],[-119.003774,-73.983575],[-118.974436,-73.804864],[-119.494944,-73.772556],[-119.811635,-73.887953],[-119.636098,-74.001235],[-119.821034,-74.120782]]],[[[-120.26122,-73.92783],[-120.647369,-73.896742],[-120.686431,-73.767267],[-123.065582,-73.675388],[-123.289133,-73.774509],[-122.731068,-73.997735],[-123.028188,-74.248305],[-122.903798,-74.337009],[-122.243479,-74.413263],[-121.099029,-74.348077],[-121.004018,-74.14837],[-120.275543,-74.003188],[-120.26122,-73.92783]]],[[[-127.473175,-73.549574],[-126.546539,-73.670343],[-126.475453,-73.842218],[-125.109283,-74.122817],[-124.78425,-74.226007],[-124.244985,-74.214776],[-123.78303,-74.109633],[-124.208811,-73.93434],[-124.112172,-73.832696],[-124.629506,-73.730727],[-124.948842,-73.814386],[-125.270009,-73.698826],[-125.599273,-73.429376],[-126.104075,-73.296157],[-126.52717,-73.268324],[-127.303212,-73.318129],[-127.473175,-73.549574]]],[[[26.765636,-70.224298],[26.589692,-70.074802],[26.327403,-70.066583],[25.987315,-70.195001],[26.057302,-70.391046],[26.457774,-70.450128],[26.839854,-70.412042],[26.765636,-70.224298]]],[[[1.410981,-70.040216],[1.042491,-70.045994],[0.956798,-70.191664],[1.275727,-70.273858],[1.410981,-70.040216]]],[[[100.565929,-65.403009],[100.385102,-65.478611],[100.298025,-65.658624],[100.967052,-65.682875],[101.230724,-65.573989],[101.12672,-65.411879],[100.565929,-65.403009]]]]},"properties":{"LOCATION_TYPE":"level1","ADM0_A3":"ATA","LOCATION_ID":"ATA-X01~","NAME":"Antarctica","TYPE_EN":null}},
{"type":"Feature","geometry":{"type":"MultiPolygon","coordinates":[[[[-73.88683,-73.12005],[-74.145619,-73.3235],[-73.891672,-73.365492],[-73.522532,-73.130141],[-73.88683,-73.12005]]],[[[-89.892445,-72.884617],[-90.132476,-73.094415],[-89.585072,-73.070408],[-89.330678,-72.927992],[-89.892445,-72.884617]]],[[[-60.435292,-70.596775],[-60.955678,-70.537774],[-60.857533,-70.709161],[-60.435292,-70.596775]]],[[[-67.288197,-67.730076],[-67.495717,-67.589044],[-67.766265,-67.667657],[-67.647084,-67.776951],[-67.288197,-67.730076]]],[[[-56.545969,-63.099298],[-56.273508,-63.178481],[-56.047719,-63.017022],[-56.468739,-62.976332],[-56.545969,-63.099298]]],[[[-169.030344,-83.154229],[-170.890452,-82.934503],[-169.863149,-83.147393],[-169.030344,-83.154229]]],[[[-149.728749,-77.12949],[-149.44286,-77.024998],[-149.962595,-76.870701],[-150.782541,-76.970798],[-150.42158,-77.089776],[-149.728749,-77.12949]]],[[[-146.164784,-76.931329],[-147.072133,-76.823907],[-146.964833,-77.007094],[-146.164784,-76.931329]]],[[[-130.920481,-74.444268],[-131.806264,-74.321954],[-132.181264,-74.423761],[-131.205922,-74.60711],[-130.920481,-74.444268]]],[[[-116.140696,-73.90252],[-116.403391,-73.867283],[-117.371083,-74.079767],[-117.196401,-74.200291],[-116.599355,-74.141778],[-116.140696,-73.90252]]],[[[-2.717681,-70.820082],[-2.618072,-70.697686],[-3.180776,-70.668064],[-3.187734,-70.82464],[-2.843617,-71.055597],[-2.56432,-71.132582],[-2.080719,-70.825616],[-2.717681,-70.820082]]],[[[3.2199,-70.392348],[2.580821,-70.524347],[2.957856,-70.613458],[3.2199,-70.392348]]],[[[72.200369,-70.607029],[71.885997,-70.412286],[71.673595,-70.517185],[71.826915,-70.624933],[72.200369,-70.607029]]],[[[4.048839,-70.302992],[4.204845,-70.469496],[4.604747,-70.420587],[4.574392,-70.276137],[4.048839,-70.302992]]],[[[16.246837,-69.705987],[15.721853,-69.76393],[15.589122,-69.932061],[16.17156,-70.072931],[16.330414,-69.828871],[16.246837,-69.705987]]],[[[85.659272,-66.743666],[85.374766,-66.877211],[85.787364,-66.968927],[85.941173,-66.889907],[85.659272,-66.743666]]],[[[96.917166,-66.054376],[96.417979,-66.067071],[96.4074,-66.227634],[96.908458,-66.211358],[96.917166,-66.054376]]]]},"properties":{"LOCATION_TYPE":"level1","ADM0_A3":"ATA","LOCATION_ID":"ATA-X02~","NAME":null,"TYPE_EN":null}}
]}