{"type":"FeatureCollection", "features": [
{"type":"Feature","geometry":{"type":"Polygon","coordinates":[[[40.379731,-22.323907],[40.336436,-22.320489],[40.331798,-22.348077],[40.368663,-22.362563],[40.379731,-22.323907]]]},"properties":{"LOCATION_TYPE":"level1","ADM0_A3":"ATF","LOCATION_ID":"ATF-X03~","NAME":"Iles Eparses de l'ocean Indien","TYPE_EN":null}},
{"type":"Feature","geometry":{"type":"MultiPolygon","coordinates":[[[[69.192149,-48.986586],[69.205821,-49.086602],[69.31129,-49.069431],[69.411306,-48.928643],[69.312755,-48.892511],[69.192149,-48.986586]]],[[[70.548839,-49.183201],[70.521983,-49.09588],[70.408214,-49.056329],[70.27296,-49.07643],[70.194021,-49.156915],[70.090017,-49.121026],[69.85377,-49.20908],[69.71225,-49.306817],[69.495942,-49.239679],[69.472179,-49.151788],[69.644054,-49.124444],[69.657725,-49.062433],[69.437999,-49.014581],[69.214529,-49.12127],[69.083751,-48.973403],[69.163748,-48.846124],[69.074229,-48.79046],[69.116466,-48.726658],[68.956798,-48.671482],[68.896821,-48.822849],[68.791759,-48.846287],[68.878673,-48.944594],[68.755544,-49.047621],[68.85434,-49.149021],[68.792817,-49.248142],[68.901703,-49.431085],[68.778168,-49.592462],[68.831716,-49.717218],[69.06658,-49.691013],[69.114513,-49.603123],[69.373383,-49.566095],[69.469737,-49.631443],[69.66391,-49.664972],[69.715017,-49.58172],[69.855642,-49.679132],[70.12322,-49.713556],[70.295909,-49.530369],[70.138357,-49.505629],[70.065278,-49.5735],[69.813813,-49.532485],[69.81544,-49.453383],[69.945649,-49.432306],[70.016368,-49.36004],[70.139903,-49.3388],[70.311534,-49.378513],[70.463878,-49.356622],[70.556,-49.26686],[70.548839,-49.183201]]]]},"properties":{"LOCATION_TYPE":"level1","ADM0_A3":"ATF","LOCATION_ID":"ATF-X01~","NAME":"Archipel des Kerguelen","TYPE_EN":null}},
{"type":"Feature","geometry":{"type":"Polygon","coordinates":[[[51.834158,-46.376642],[51.736013,-46.327407],[51.705577,-46.437595],[51.823497,-46.451267],[51.834158,-46.376642]]]},"properties":{"LOCATION_TYPE":"level1","ADM0_A3":"ATF","LOCATION_ID":"ATF-X02~","NAME":"Archipel des Crozet","TYPE_EN":null}},
{"type":"Feature","geometry":{"type":"Polygon","coordinates":[[[77.503754,-37.8235],[77.536632,-37.901137],[77.585216,-37.8742],[77.503754,-37.8235]]]},"properties":{"LOCATION_TYPE":"level1","ADM0_A3":"ATF","LOCATION_ID":"ATF-X1~","NAME":"Iles Saint-Paul et Nouvelle-Amsterdam","TYPE_EN":null}}
]}