{"type":"FeatureCollection", "features": [
{"type":"Feature","geometry":{"type":"Polygon","coordinates":[[[-61.726226,17.038479],[-61.733392,17.064285],[-61.774209,17.060203],[-61.815027,17.047958],[-61.804067,17.00731],[-61.726226,17.038479]]]},"properties":{"LOCATION_TYPE":"level1","ADM0_A3":"ATG","LOCATION_ID":"ATG-06","NAME":"Saint Paul","TYPE_EN":"Parish"}},
{"type":"Feature","geometry":{"type":"Polygon","coordinates":[[[-61.714833,17.093085],[-61.733392,17.064285],[-61.726226,17.038479],[-61.685699,17.028551],[-61.667592,17.079413],[-61.714833,17.093085]]]},"properties":{"LOCATION_TYPE":"level1","ADM0_A3":"ATG","LOCATION_ID":"ATG-08","NAME":"Saint Philip","TYPE_EN":"Parish"}},
{"type":"Feature","geometry":{"type":"Polygon","coordinates":[[[-61.756418,17.114163],[-61.774209,17.071428],[-61.774209,17.060203],[-61.733392,17.064285],[-61.714833,17.093085],[-61.756418,17.114163]]]},"properties":{"LOCATION_TYPE":"level1","ADM0_A3":"ATG","LOCATION_ID":"ATG-07","NAME":"Saint Peter","TYPE_EN":"Parish"}},
{"type":"Feature","geometry":{"type":"Polygon","coordinates":[[[-61.793365,17.164944],[-61.795638,17.083673],[-61.774209,17.071428],[-61.756418,17.114163],[-61.793365,17.164944]]]},"properties":{"LOCATION_TYPE":"level1","ADM0_A3":"ATG","LOCATION_ID":"ATG-03","NAME":"Saint George","TYPE_EN":"Parish"}},
{"type":"Feature","geometry":{"type":"Polygon","coordinates":[[[-61.8662,17.086859],[-61.815027,17.047958],[-61.774209,17.060203],[-61.774209,17.071428],[-61.795638,17.083673],[-61.793365,17.164944],[-61.825266,17.168769],[-61.8662,17.086859]]]},"properties":{"LOCATION_TYPE":"level1","ADM0_A3":"ATG","LOCATION_ID":"ATG-04","NAME":"Saint John","TYPE_EN":"Parish"}},
{"type":"Feature","geometry":{"type":"Polygon","coordinates":[[[-61.804067,17.00731],[-61.815027,17.047958],[-61.8662,17.086859],[-61.89037,17.035386],[-61.851715,17.007636],[-61.804067,17.00731]]]},"properties":{"LOCATION_TYPE":"level1","ADM0_A3":"ATG","LOCATION_ID":"ATG-05","NAME":"Saint Mary","TYPE_EN":"Parish"}},
{"type":"Feature","geometry":{"type":"Polygon","coordinates":[[[-61.838938,17.593329],[-61.77066,17.545559],[-61.736399,17.554023],[-61.728749,17.604967],[-61.754262,17.668769],[-61.81786,17.703192],[-61.860097,17.684231],[-61.857289,17.600979],[-61.838938,17.593329]]]},"properties":{"LOCATION_TYPE":"level1","ADM0_A3":"ATG","LOCATION_ID":"ATG-10","NAME":"Barbuda","TYPE_EN":"Dependency"}},
{"type":"Feature","geometry":{"type":"Polygon","coordinates":[[[-62.345589,16.93914],[-62.34826,16.933657],[-62.343059,16.935063],[-62.345589,16.93914]]]},"properties":{"LOCATION_TYPE":"level1","ADM0_A3":"ATG","LOCATION_ID":"ATG-11","NAME":"Redonda","TYPE_EN":"Dependency"}}
]}