{"type":"FeatureCollection", "features": [
{"type":"Feature","geometry":{"type":"MultiPolygon","coordinates":[[[[129.000092,-31.689223],[129.000116,-30.980951],[129.000116,-30.269315],[129.000116,-29.202042],[129.000116,-28.490457],[129.000116,-27.778821],[129.000116,-27.06734],[129.000116,-25.999911],[129.000116,-25.304347],[129.000116,-24.261051],[129.000116,-23.217652],[129.000116,-22.174305],[129.000116,-21.478792],[129.000116,-20.783176],[129.000116,-20.087714],[129.000116,-19.392046],[129.000116,-18.696585],[129.000116,-18.000916],[129.000116,-16.957621],[129.000116,-16.262056],[129.000116,-15.566595],[129.000116,-14.868151],[128.834158,-14.840102],[128.5324,-14.752862],[128.402599,-14.823012],[128.417979,-15.039727],[128.313487,-14.904962],[128.195811,-15.056817],[128.224457,-15.260186],[128.067068,-15.125177],[128.175304,-14.698419],[127.90561,-14.497491],[127.789561,-14.36712],[127.666026,-14.178399],[127.489268,-14.058364],[127.418468,-13.94199],[127.322439,-13.917413],[127.107432,-13.952813],[127.07016,-13.828058],[126.952891,-13.723565],[126.747406,-13.791762],[126.818207,-13.942641],[126.701182,-14.007094],[126.704845,-14.118097],[126.569184,-14.195245],[126.500987,-13.997247],[126.39031,-14.00506],[126.247732,-14.22324],[126.191091,-14.159601],[126.149587,-13.932794],[126.074067,-14.026056],[126.134451,-14.094903],[126.141287,-14.195489],[126.071788,-14.226658],[126.060883,-14.35003],[125.985688,-14.382908],[126.04127,-14.508722],[125.925059,-14.51865],[125.828868,-14.573175],[125.822113,-14.461196],[125.744151,-14.444757],[125.658051,-14.360284],[125.693614,-14.27988],[125.58546,-14.255629],[125.617198,-14.4013],[125.583832,-14.526544],[125.466319,-14.524835],[125.144298,-14.728448],[125.232921,-14.860528],[125.204275,-14.932061],[125.280935,-14.993422],[125.354503,-14.99391],[125.37379,-15.107599],[125.310802,-15.150649],[125.215587,-15.05755],[125.12615,-15.049493],[124.907725,-15.100274],[124.84197,-15.141209],[124.928884,-15.338149],[125.038097,-15.281427],[125.08961,-15.347263],[125.049815,-15.498224],[124.920421,-15.361017],[124.797862,-15.291925],[124.697927,-15.298435],[124.698009,-15.373956],[124.629649,-15.504978],[124.504242,-15.467462],[124.403331,-15.559259],[124.37794,-15.68727],[124.404307,-15.87477],[124.515147,-15.970147],[124.609711,-15.806573],[124.590017,-16.094171],[124.520356,-16.176446],[124.429698,-16.14186],[124.378429,-16.214939],[124.413259,-16.338149],[124.596202,-16.326593],[124.592459,-16.4013],[124.473643,-16.393324],[124.400157,-16.353123],[124.342133,-16.407973],[124.222667,-16.395603],[124.126231,-16.272231],[123.986013,-16.28631],[123.835216,-16.368259],[123.732677,-16.258966],[123.771007,-16.163344],[123.594981,-16.155938],[123.539724,-16.265232],[123.651622,-16.360284],[123.654063,-16.48447],[123.566173,-16.615981],[123.693126,-16.729913],[123.768077,-16.878513],[123.902599,-16.858982],[123.794607,-17.000095],[123.837087,-17.13242],[123.635916,-16.991388],[123.5796,-17.094008],[123.644298,-17.184747],[123.567638,-17.361993],[123.553966,-17.518976],[123.399669,-17.329278],[123.260427,-17.014744],[123.143321,-16.913751],[123.15089,-16.807712],[122.959809,-16.580336],[123.006602,-16.374444],[122.916189,-16.415948],[122.886404,-16.512302],[122.7588,-16.604425],[122.704275,-16.786716],[122.570567,-16.788507],[122.530447,-16.873956],[122.582042,-16.956231],[122.412771,-16.972752],[122.276052,-17.089288],[122.279633,-17.139255],[122.172048,-17.261163],[122.149425,-17.341485],[122.14324,-17.563653],[122.205414,-17.71087],[122.196137,-17.945408],[122.360688,-18.000177],[122.323985,-18.150567],[122.220388,-18.197198],[122.022146,-18.384698],[121.91033,-18.464451],[121.823741,-18.451837],[121.773936,-18.545668],[121.769054,-18.657403],[121.643891,-18.717055],[121.642589,-18.810235],[121.519379,-19.069594],[121.311534,-19.354099],[121.193533,-19.472426],[120.954356,-19.633722],[120.650564,-19.763279],[120.238292,-19.906834],[119.802257,-19.965753],[119.566661,-20.06878],[119.376475,-19.99627],[119.212413,-19.961196],[119.068533,-19.982843],[118.831798,-20.261977],[118.701915,-20.317804],[118.606293,-20.309503],[118.368826,-20.362074],[118.13559,-20.362074],[117.940684,-20.492771],[117.839366,-20.616876],[117.674815,-20.672133],[117.602712,-20.657322],[117.513438,-20.706313],[117.35377,-20.727716],[117.062511,-20.621677],[116.879649,-20.713067],[116.743175,-20.616876],[116.587087,-20.735284],[116.434744,-20.822361],[116.26588,-20.862563],[116.218598,-20.842869],[116.151541,-20.969985],[115.936697,-21.059015],[115.806163,-21.235447],[115.602712,-21.34352],[115.4546,-21.513767],[115.223888,-21.59881],[115.105154,-21.665216],[114.928966,-21.693943],[114.646739,-21.843357],[114.522309,-22.069268],[114.497813,-22.16367],[114.391938,-22.358005],[114.367035,-22.478285],[114.286632,-22.443292],[114.179698,-22.521742],[114.11085,-22.477716],[114.171397,-22.317478],[114.077485,-22.17547],[114.15919,-21.791925],[114.011485,-21.859959],[113.89796,-22.049249],[113.803966,-22.330824],[113.731456,-22.479587],[113.646658,-22.577732],[113.658946,-22.727797],[113.759776,-22.788751],[113.807384,-22.930597],[113.811534,-23.051365],[113.748302,-23.162286],[113.782481,-23.327081],[113.737559,-23.527032],[113.599457,-23.633966],[113.459727,-23.910333],[113.414561,-24.049412],[113.433279,-24.17018],[113.385265,-24.249119],[113.391449,-24.41367],[113.439464,-24.53281],[113.60434,-24.728285],[113.610606,-24.892755],[113.713064,-25.124933],[113.802419,-25.171808],[113.928396,-25.449802],[114.155284,-25.789727],[114.258556,-25.841892],[114.258149,-25.988946],[114.191895,-26.195862],[114.234371,-26.316584],[114.103776,-26.447882],[113.969981,-26.33172],[113.935469,-26.191722],[113.84807,-26.12171],[113.795386,-26.206715],[113.70436,-26.148046],[113.760609,-25.904793],[113.532888,-25.618259],[113.422647,-25.654663],[113.420781,-25.728215],[113.557553,-25.940989],[113.577239,-26.089343],[113.684138,-26.221604],[113.781749,-26.241388],[113.884773,-26.342673],[113.886567,-26.492838],[113.8525,-26.544772],[113.694918,-26.61424],[113.598283,-26.518507],[113.552377,-26.384173],[113.495963,-26.326983],[113.45009,-26.200609],[113.24467,-26.240098],[113.297782,-26.397289],[113.590579,-26.675651],[113.764415,-26.918145],[114.012543,-27.315362],[114.074474,-27.447198],[114.143891,-27.687758],[114.097179,-27.819431],[114.166026,-28.106703],[114.310069,-28.230157],[114.422862,-28.400974],[114.531098,-28.522393],[114.589854,-28.655857],[114.577485,-28.785089],[114.652599,-28.912367],[114.832042,-29.092055],[114.97877,-29.479913],[114.946056,-29.658136],[114.967459,-29.902439],[114.942638,-30.03102],[114.988536,-30.145685],[114.974864,-30.214044],[115.101085,-30.633396],[115.180919,-30.827244],[115.312999,-30.990818],[115.4546,-31.303481],[115.680349,-31.648614],[115.743663,-31.92783],[115.727794,-32.055108],[115.756847,-32.185642],[115.714366,-32.302992],[115.745453,-32.455662],[115.714529,-32.537042],[115.769298,-32.602309],[115.600922,-32.661716],[115.674571,-33.024998],[115.66684,-33.287693],[115.5171,-33.512384],[115.434093,-33.595473],[115.282725,-33.650649],[115.118826,-33.616469],[115.045665,-33.537205],[114.956798,-33.682306],[114.971039,-34.082696],[115.017833,-34.26214],[115.108409,-34.344334],[115.183767,-34.301853],[115.334727,-34.314223],[115.612315,-34.445896],[115.745453,-34.540216],[116.019786,-34.82936],[116.248383,-34.877537],[116.465099,-35.000665],[116.899587,-35.050388],[117.171641,-35.013279],[117.359548,-35.024184],[117.538585,-35.092218],[117.684337,-35.046319],[117.809825,-35.071384],[117.849294,-35.025567],[118.119884,-34.987074],[118.264415,-34.91131],[118.385102,-34.90838],[118.38738,-34.825942],[118.479828,-34.717055],[118.705903,-34.647719],[118.727306,-34.558038],[118.875499,-34.506443],[118.931977,-34.445896],[119.116954,-34.472426],[119.382091,-34.440118],[119.483897,-34.358575],[119.474946,-34.285903],[119.572032,-34.142022],[119.806163,-33.984959],[120.002208,-33.926039],[120.178966,-33.931248],[120.422699,-33.969903],[120.572276,-33.891534],[120.970551,-33.870375],[121.097667,-33.842462],[121.166352,-33.867934],[121.333751,-33.815199],[121.532888,-33.819513],[121.812999,-33.895115],[122.015636,-33.825372],[122.105805,-33.964044],[122.187266,-34.020685],[122.312266,-33.9249],[122.390147,-33.915785],[122.560313,-33.959161],[122.574555,-33.910821],[122.787852,-33.881036],[122.877126,-33.897149],[123.084972,-33.878351],[123.146983,-34.00213],[123.266612,-33.986505],[123.343598,-33.903497],[123.566661,-33.884373],[123.73878,-33.794041],[123.756847,-33.714125],[123.891612,-33.588149],[123.952485,-33.567315],[124.008311,-33.354181],[124.116547,-33.121515],[124.201182,-33.038018],[124.356944,-32.952813],[124.708832,-32.903904],[124.901914,-32.833659],[125.000255,-32.737237],[125.337827,-32.601515],[125.537275,-32.548379],[125.87,-32.332983],[126.007579,-32.27337],[126.18572,-32.232517],[126.372325,-32.28281],[126.677745,-32.316583],[127.052989,-32.303806],[127.288748,-32.27337],[127.531993,-32.211358],[127.766287,-32.123142],[128.017345,-32.084242],[128.218923,-32.017673],[128.655284,-31.845798],[128.770681,-31.778253],[129.000092,-31.689223]]],[[[113.216645,-26.068048],[113.05128,-25.716974],[113.007823,-25.496189],[112.919444,-25.523614],[112.919599,-25.631555],[112.964529,-25.794041],[113.046153,-25.940037],[113.155699,-26.054059],[113.216645,-26.068048]]],[[[115.464529,-20.730157],[115.399425,-20.69378],[115.310557,-20.801853],[115.365245,-20.876886],[115.438487,-20.819024],[115.464529,-20.730157]]],[[[125.195079,-14.470147],[125.122813,-14.481215],[125.08961,-14.607354],[125.192882,-14.59588],[125.195079,-14.470147]]]]},"properties":{"LOCATION_TYPE":"level1","ADM0_A3":"AUS","LOCATION_ID":"AUS-WA","NAME":"Western Australia","TYPE_EN":"State"}},
{"type":"Feature","geometry":{"type":"MultiPolygon","coordinates":[[[[129.000116,-14.868151],[129.000116,-15.566595],[129.000116,-16.262056],[129.000116,-16.957621],[129.000116,-18.000916],[129.000116,-18.696585],[129.000116,-19.392046],[129.000116,-20.087714],[129.000116,-20.783176],[129.000116,-21.478792],[129.000116,-22.174305],[129.000116,-23.217652],[129.000116,-24.261051],[129.000116,-25.304347],[129.000116,-25.999911],[129.84394,-25.999911],[130.687662,-25.999911],[131.812658,-25.999911],[132.937653,-25.999911],[133.500203,-25.999911],[134.343924,-25.999911],[134.906422,-25.999911],[136.031418,-25.999911],[136.875191,-25.999911],[138.000187,-25.999911],[138.000187,-25.40956],[138.000187,-24.524084],[138.000187,-23.933629],[138.000187,-22.752926],[138.000187,-21.572378],[138.000187,-20.981975],[138.000187,-19.801427],[138.000187,-19.210972],[138.000187,-18.030269],[138.000187,-17.439969],[138.000173,-16.541599],[137.866873,-16.437107],[137.746104,-16.25213],[137.550466,-16.17197],[137.361176,-16.122166],[137.250255,-16.020603],[137.045909,-15.922296],[136.991873,-15.86419],[136.906505,-15.936212],[136.767914,-15.900811],[136.612071,-15.754653],[136.528575,-15.719008],[136.416515,-15.621515],[136.267914,-15.545017],[136.240082,-15.424086],[135.951671,-15.264418],[135.861013,-15.175958],[135.65268,-15.042413],[135.551117,-15.019138],[135.469574,-14.948012],[135.391287,-14.739923],[135.522634,-14.651544],[135.532258,-14.581084],[135.624685,-14.431573],[135.675304,-14.406183],[135.759125,-14.265395],[135.903331,-14.135837],[135.923106,-13.959649],[135.991384,-13.901056],[136.004893,-13.798028],[135.936778,-13.750177],[135.844837,-13.600186],[135.854747,-13.455987],[135.920897,-13.377495],[135.883365,-13.325764],[136.052419,-13.245294],[136.10399,-13.158805],[136.177419,-13.23561],[136.30836,-13.162774],[136.450531,-13.216404],[136.567231,-13.058201],[136.496755,-12.975193],[136.636944,-12.954941],[136.489757,-12.850763],[136.473806,-12.79225],[136.679222,-12.671292],[136.744679,-12.547828],[136.740245,-12.475763],[136.861638,-12.434679],[136.94934,-12.355869],[136.87638,-12.223414],[136.690603,-12.28281],[136.590575,-12.174278],[136.533289,-11.993246],[136.450713,-11.942333],[136.300466,-12.050714],[136.180024,-12.187758],[136.313487,-12.201593],[136.363943,-12.256443],[136.252696,-12.441095],[136.023204,-12.455662],[135.985118,-12.36297],[136.026134,-12.311456],[135.880138,-12.151625],[135.76531,-12.257094],[135.669031,-12.237138],[135.650073,-12.164576],[135.765391,-12.071873],[135.786469,-11.989353],[135.739268,-11.941502],[135.570717,-11.994575],[135.53528,-12.080621],[135.389012,-12.091452],[135.302948,-12.12831],[135.258311,-12.222101],[135.07016,-12.259942],[134.967052,-12.146091],[134.861095,-12.12656],[134.768565,-11.947686],[134.704763,-11.960626],[134.604666,-12.049493],[134.382172,-12.042657],[134.285004,-11.968194],[134.189708,-12.018243],[134.132172,-11.886407],[134.007498,-11.88128],[133.943126,-11.91367],[133.843761,-11.855239],[133.901622,-11.738865],[133.802501,-11.714939],[133.682384,-11.770196],[133.622081,-11.833266],[133.478526,-11.790785],[133.34669,-11.688246],[133.261241,-11.729587],[133.141124,-11.674574],[133.011078,-11.432794],[132.910981,-11.331801],[132.759532,-11.492364],[132.674164,-11.508396],[132.474946,-11.234145],[132.383474,-11.214451],[132.349946,-11.146254],[132.240977,-11.196466],[132.188324,-11.351251],[132.113292,-11.287042],[132.07781,-11.192478],[132.014334,-11.139581],[131.940278,-11.251397],[131.856212,-11.303399],[132.084727,-11.517999],[132.243663,-11.454848],[132.369884,-11.434991],[132.495372,-11.47617],[132.594981,-11.622003],[132.695567,-11.653497],[132.593028,-11.784438],[132.651052,-11.865818],[132.627208,-12.043878],[132.439626,-12.15488],[132.422862,-12.231622],[132.268809,-12.180841],[132.045665,-12.307387],[131.904633,-12.219822],[131.784353,-12.27044],[131.492931,-12.297784],[131.406912,-12.27044],[131.327891,-12.185317],[131.216482,-12.214939],[131.116384,-12.15488],[131.000173,-12.171319],[131.025157,-12.360528],[130.897634,-12.334242],[130.783865,-12.434991],[130.620372,-12.436944],[130.579438,-12.568455],[130.344981,-12.695001],[130.351817,-12.842462],[130.246755,-12.937758],[130.129893,-12.940525],[130.118663,-13.156183],[130.160492,-13.171482],[130.273204,-13.31878],[130.163748,-13.432875],[129.968923,-13.53045],[129.837738,-13.510512],[129.785492,-13.675714],[129.815929,-13.761977],[129.714854,-13.880548],[129.71754,-14.015558],[129.49586,-14.089125],[129.493175,-14.144464],[129.372895,-14.329278],[129.358084,-14.408787],[129.585216,-14.566339],[129.606781,-14.671563],[129.724132,-14.790704],[129.645518,-14.84059],[129.611827,-14.94256],[129.659028,-15.089939],[129.598155,-15.11712],[129.476573,-14.93377],[129.324392,-14.862074],[129.221446,-14.84352],[129.263031,-15.107599],[129.175548,-15.058526],[129.173188,-14.964776],[129.000116,-14.868151]]],[[[137.077891,-15.751235],[137.083193,-15.652196],[136.999813,-15.615178],[136.943044,-15.667657],[137.000336,-15.787042],[137.077891,-15.751235]]],[[[136.286876,-13.705824],[136.211111,-13.661391],[136.153494,-13.770685],[136.261404,-13.793552],[136.286876,-13.705824]]],[[[136.951508,-14.181573],[136.871837,-14.20794],[136.810557,-14.159112],[136.723399,-14.185479],[136.716807,-14.063653],[136.791352,-13.917739],[136.718516,-13.829034],[136.684337,-13.720473],[136.580089,-13.681899],[136.594737,-13.81227],[136.430186,-13.87713],[136.409679,-13.997247],[136.460785,-14.216404],[136.639415,-14.280206],[136.733084,-14.256117],[136.903087,-14.298923],[136.951508,-14.181573]]],[[[130.536794,-11.705011],[130.448009,-11.694513],[130.461681,-11.592055],[130.396821,-11.534601],[130.399181,-11.433038],[130.349946,-11.339451],[130.269786,-11.338149],[130.146983,-11.489028],[130.201508,-11.653497],[130.064301,-11.691339],[130.053477,-11.822849],[130.146983,-11.824802],[130.321056,-11.770196],[130.496349,-11.839044],[130.573253,-11.830987],[130.63502,-11.768162],[130.536794,-11.705011]]],[[[131.537364,-11.413263],[131.47462,-11.390558],[131.427745,-11.249688],[131.331309,-11.242608],[131.274425,-11.18963],[131.153087,-11.249282],[131.009776,-11.354913],[130.888031,-11.313165],[130.84547,-11.360284],[130.691661,-11.422784],[130.573578,-11.275323],[130.506521,-11.277032],[130.400157,-11.153253],[130.365977,-11.232354],[130.430349,-11.484308],[130.482107,-11.544203],[130.496593,-11.649509],[130.712576,-11.799493],[130.979991,-11.926446],[131.098969,-11.828383],[131.293142,-11.724054],[131.378103,-11.58408],[131.432384,-11.607029],[131.482677,-11.474786],[131.537364,-11.413263]]],[[[132.489431,-11.160089],[132.565196,-11.310805],[132.627208,-11.246026],[132.55128,-11.032403],[132.489431,-11.160089]]]]},"properties":{"LOCATION_TYPE":"level1","ADM0_A3":"AUS","LOCATION_ID":"AUS-NT","NAME":"Northern Territory","TYPE_EN":"Territory"}},
{"type":"Feature","geometry":{"type":"MultiPolygon","coordinates":[[[[129.000092,-31.689223],[129.20045,-31.656427],[129.451182,-31.643324],[130.156912,-31.573907],[130.833751,-31.601739],[131.177501,-31.477634],[131.535899,-31.605564],[131.78297,-31.727797],[132.077891,-31.90781],[132.233735,-32.032973],[132.483165,-32.026462],[132.475841,-31.955011],[132.58725,-31.934747],[132.798025,-31.956313],[132.934255,-32.0617],[133.055675,-32.108168],[133.147797,-32.19671],[133.411794,-32.211358],[133.418712,-32.133477],[133.552013,-32.172296],[133.586192,-32.103123],[133.682384,-32.122654],[133.692068,-32.189386],[133.812266,-32.247166],[133.949962,-32.389418],[133.859141,-32.45908],[133.853689,-32.529718],[134.148285,-32.456964],[134.273285,-32.588067],[134.271495,-32.73211],[134.074067,-32.713962],[134.132823,-32.835626],[134.059825,-32.910821],[134.190684,-32.946466],[134.278819,-33.162693],[134.333507,-33.205011],[134.446056,-33.153985],[134.662364,-33.225518],[134.813975,-33.352797],[134.867931,-33.54461],[134.849864,-33.63836],[135.189789,-33.892999],[135.259532,-33.997979],[135.273123,-34.115899],[135.346446,-34.275567],[135.395518,-34.472426],[135.429535,-34.71266],[135.604015,-34.880141],[135.741466,-34.861017],[136.012462,-34.979669],[135.862071,-34.698175],[135.936778,-34.534601],[136.124848,-34.452895],[136.114757,-34.383722],[136.232188,-34.308689],[136.369395,-34.073419],[136.581554,-33.948907],[136.607432,-33.902927],[136.807465,-33.808364],[136.965343,-33.684503],[137.020193,-33.730157],[137.15504,-33.705743],[137.224864,-33.653253],[137.37672,-33.389907],[137.452159,-33.140069],[137.674001,-32.955255],[137.724132,-32.989841],[137.808279,-32.858005],[137.902354,-32.78753],[137.957774,-33.004653],[138.043956,-33.125095],[137.854991,-33.190606],[137.810444,-33.259985],[137.937492,-33.52784],[137.930919,-33.616469],[137.776622,-33.693536],[137.715343,-33.787286],[137.602061,-33.876642],[137.615082,-33.941502],[137.531912,-34.015395],[137.55421,-34.072035],[137.453868,-34.163995],[137.492198,-34.260186],[137.459483,-34.447524],[137.512706,-34.617771],[137.446137,-34.917413],[137.391287,-34.954034],[137.266856,-34.905043],[137.139496,-34.926039],[137.03061,-34.899835],[136.941905,-35.03867],[136.960948,-35.096449],[136.83546,-35.247735],[136.95338,-35.283949],[137.039724,-35.227227],[137.1692,-35.242283],[137.238943,-35.172052],[137.403494,-35.1242],[137.561046,-35.131036],[137.671397,-35.180841],[137.747244,-35.132989],[137.746918,-35.058852],[137.910411,-34.623956],[137.883149,-34.589776],[137.930919,-34.414809],[138.037771,-34.308038],[138.016287,-34.227309],[138.078136,-34.128351],[138.226573,-34.320489],[138.259939,-34.438409],[138.440196,-34.675551],[138.536306,-34.740899],[138.486501,-34.873468],[138.507335,-35.056573],[138.427419,-35.352634],[138.287283,-35.469903],[138.122732,-35.555352],[138.176768,-35.668227],[138.531261,-35.645929],[138.639008,-35.567071],[138.74586,-35.538751],[138.882009,-35.560642],[138.969086,-35.475356],[138.961192,-35.413832],[139.102061,-35.389255],[139.223155,-35.31878],[139.301443,-35.356622],[139.375499,-35.463962],[139.218923,-35.507257],[139.355724,-35.593357],[139.338064,-35.687433],[139.243907,-35.694513],[139.234141,-35.54754],[139.135427,-35.498305],[139.041352,-35.604099],[139.186778,-35.690688],[139.475434,-35.896417],[139.456716,-35.95794],[139.567393,-36.075291],[139.853689,-36.621759],[139.863536,-36.767267],[139.784841,-36.902032],[139.672048,-36.953383],[139.788341,-37.126235],[139.741547,-37.180841],[139.794932,-37.268731],[139.988048,-37.487074],[140.114268,-37.517511],[140.137218,-37.59531],[140.240571,-37.665948],[140.359874,-37.882094],[140.602387,-38.037774],[140.713552,-38.070571],[140.968174,-38.059426],[140.967861,-37.064611],[140.967603,-36.06524],[140.967551,-35.565529],[140.967241,-34.566107],[140.967086,-33.986452],[141.000107,-34.018543],[141.000107,-33.397444],[141.000107,-32.769214],[141.000107,-31.826946],[141.000107,-31.198664],[141.000107,-30.570537],[141.000107,-29.942203],[141.000107,-28.999935],[141.000107,-28.249903],[141.000107,-27.124907],[141.000107,-25.999911],[139.874801,-25.999911],[138.750064,-25.999911],[138.000187,-25.999911],[136.875191,-25.999911],[136.031418,-25.999911],[134.906422,-25.999911],[134.343924,-25.999911],[133.500203,-25.999911],[132.937653,-25.999911],[131.812658,-25.999911],[130.687662,-25.999911],[129.84394,-25.999911],[129.000116,-25.999911],[129.000116,-27.06734],[129.000116,-27.778821],[129.000116,-28.490457],[129.000116,-29.202042],[129.000116,-30.269315],[129.000116,-30.980951],[129.000092,-31.689223]]],[[[138.129649,-35.816339],[138.064708,-35.761],[137.908539,-35.729099],[137.686046,-35.757501],[137.580821,-35.726821],[137.622895,-35.582127],[137.435883,-35.61061],[137.352224,-35.585626],[137.074474,-35.671645],[136.805186,-35.70794],[136.621104,-35.751235],[136.532563,-35.911879],[136.656749,-35.973891],[136.715587,-36.062758],[137.019786,-36.021742],[137.139903,-36.04225],[137.211681,-35.980157],[137.371104,-36.010837],[137.459239,-36.082696],[137.620372,-36.000095],[137.613292,-35.924249],[137.756684,-35.871515],[137.932465,-35.875258],[138.047699,-35.918634],[138.129649,-35.816339]]]]},"properties":{"LOCATION_TYPE":"level1","ADM0_A3":"AUS","LOCATION_ID":"AUS-SA","NAME":"South Australia","TYPE_EN":"State"}},
{"type":"Feature","geometry":{"type":"MultiPolygon","coordinates":[[[[138.000173,-16.541599],[138.000187,-17.439969],[138.000187,-18.030269],[138.000187,-19.210972],[138.000187,-19.801427],[138.000187,-20.981975],[138.000187,-21.572378],[138.000187,-22.752926],[138.000187,-23.933629],[138.000187,-24.524084],[138.000187,-25.40956],[138.000187,-25.999911],[138.750064,-25.999911],[139.874801,-25.999911],[141.000107,-25.999911],[141.000107,-27.124907],[141.000107,-28.249903],[141.000107,-28.999935],[141.971676,-28.999935],[142.943193,-28.999935],[143.914658,-28.999935],[144.886278,-28.999935],[145.857795,-28.999935],[146.343554,-28.999935],[147.31507,-28.999935],[148.286587,-28.999935],[148.971403,-28.999728],[149.063387,-28.936321],[149.093567,-28.84842],[149.275158,-28.739331],[149.416338,-28.68073],[149.484447,-28.58394],[149.577878,-28.572571],[149.704485,-28.627451],[149.759159,-28.606987],[150.019815,-28.600114],[150.298144,-28.53495],[150.449556,-28.646468],[150.621122,-28.658922],[150.793514,-28.635048],[151.045902,-28.734887],[151.077528,-28.836948],[151.181759,-28.856946],[151.287438,-28.920818],[151.315343,-29.099257],[151.422675,-29.154551],[151.554295,-28.955235],[151.729168,-28.888986],[151.762551,-28.947587],[151.933858,-28.924281],[152.025584,-28.875705],[152.067028,-28.703157],[151.967551,-28.536449],[152.163973,-28.437075],[152.357037,-28.376149],[152.49217,-28.26122],[152.539971,-28.317703],[152.751018,-28.35801],[152.846309,-28.325816],[153.116887,-28.350207],[153.192489,-28.259825],[153.382504,-28.237553],[153.506521,-28.149265],[153.449474,-28.073175],[153.445567,-27.810479],[153.31544,-27.65488],[153.307628,-27.578058],[153.207774,-27.46502],[153.151134,-27.352227],[153.064952,-27.310479],[153.113617,-27.242364],[153.038422,-27.173435],[153.082205,-27.110447],[153.206228,-27.046075],[153.152517,-26.924981],[153.15089,-26.684747],[153.110037,-26.646905],[153.113455,-26.457452],[153.077485,-26.280857],[153.141775,-26.061456],[153.200043,-25.948907],[153.121593,-25.93377],[152.893809,-25.688165],[152.93865,-25.475681],[152.913829,-25.287693],[152.677094,-25.241876],[152.506033,-24.999444],[152.491466,-24.847589],[152.404796,-24.748712],[152.306163,-24.724216],[152.150401,-24.619073],[152.058604,-24.51393],[151.93336,-24.211033],[151.811371,-24.142348],[151.780447,-24.022556],[151.682953,-24.062433],[151.580577,-24.05755],[151.403656,-23.949965],[151.277843,-23.823907],[151.187185,-23.804132],[151.125987,-23.675388],[151.027442,-23.579997],[150.856619,-23.519952],[150.787364,-23.30934],[150.83253,-23.275974],[150.764415,-23.158868],[150.773692,-22.966892],[150.826427,-22.697931],[150.753184,-22.610528],[150.758311,-22.482354],[150.636241,-22.342543],[150.567638,-22.323175],[150.51295,-22.535414],[150.299815,-22.418227],[150.215587,-22.394789],[150.153819,-22.26629],[150.053559,-22.141534],[149.990489,-22.162856],[149.923513,-22.298272],[150.022472,-22.553399],[149.88087,-22.46738],[149.830821,-22.388604],[149.705089,-22.383884],[149.608572,-22.244317],[149.483165,-21.951349],[149.435395,-21.789727],[149.478282,-21.718438],[149.429373,-21.583754],[149.355642,-21.494724],[149.292979,-21.319268],[149.225841,-21.273207],[149.196137,-21.180922],[149.231212,-21.089776],[149.150645,-20.996189],[149.046235,-20.979913],[148.971446,-20.870538],[148.910818,-20.873305],[148.819672,-20.760186],[148.739757,-20.718927],[148.655284,-20.555434],[148.850841,-20.421075],[148.792328,-20.287286],[148.61085,-20.213637],[148.566661,-20.059991],[148.443858,-20.104181],[148.453787,-20.193943],[148.264903,-20.083103],[148.253917,-19.963474],[148.130382,-19.936212],[148.072439,-19.877048],[147.949474,-19.90781],[147.859223,-19.824884],[147.684255,-19.828058],[147.592052,-19.722101],[147.550466,-19.520929],[147.421397,-19.412774],[147.167247,-19.399998],[146.978201,-19.283868],[146.905121,-19.30462],[146.746349,-19.172784],[146.654796,-19.18255],[146.446544,-19.059747],[146.276622,-18.874282],[146.292003,-18.710626],[146.339366,-18.527032],[146.213715,-18.49212],[146.183442,-18.380141],[146.100922,-18.349542],[146.023774,-18.263116],[146.003673,-18.156427],[146.097911,-17.931329],[146.102712,-17.705987],[146.147716,-17.632582],[146.06837,-17.515883],[146.071056,-17.392022],[145.968435,-17.242364],[145.882335,-17.039727],[145.941661,-16.929946],[145.77768,-16.885349],[145.661469,-16.72796],[145.579112,-16.67197],[145.46339,-16.481215],[145.400401,-16.443292],[145.414561,-16.334405],[145.462413,-16.273207],[145.434418,-16.200616],[145.462413,-16.060479],[145.355805,-15.903416],[145.366384,-15.749282],[145.273774,-15.53574],[145.256358,-15.388849],[145.302582,-15.284601],[145.23585,-15.165948],[145.27711,-14.947035],[145.154796,-14.837498],[145.013845,-14.784112],[144.941742,-14.726332],[144.885997,-14.609633],[144.677582,-14.555841],[144.619477,-14.483819],[144.580414,-14.36419],[144.584727,-14.264825],[144.514903,-14.172784],[144.448253,-14.243585],[144.303559,-14.312595],[144.185395,-14.262628],[144.161632,-14.373142],[144.067231,-14.452569],[143.951996,-14.498956],[143.859711,-14.474867],[143.782725,-14.402276],[143.707774,-14.209568],[143.687266,-14.014337],[143.618419,-13.956231],[143.534434,-13.76572],[143.594574,-13.435805],[143.526622,-13.329767],[143.497244,-12.856541],[143.379405,-12.852716],[143.365082,-12.804864],[143.43393,-12.613051],[143.323497,-12.557794],[143.25294,-12.38893],[143.077159,-12.32879],[143.086274,-12.149021],[143.203949,-11.982517],[143.123383,-11.910577],[142.974294,-11.925226],[142.872895,-11.850681],[142.857921,-11.605076],[142.821056,-11.477634],[142.86964,-11.39129],[142.80128,-11.277765],[142.789806,-11.084893],[142.741954,-10.97503],[142.634451,-10.930841],[142.549571,-10.837986],[142.615001,-10.745375],[142.448578,-10.714532],[142.401134,-10.820408],[142.323416,-10.901625],[142.174571,-10.930108],[142.145356,-10.983087],[142.159353,-11.151137],[142.131847,-11.338149],[141.947602,-11.896173],[141.975759,-12.041436],[141.916352,-12.066095],[141.871349,-11.966241],[141.801036,-12.055108],[141.665701,-12.441095],[141.811371,-12.58408],[141.809744,-12.667657],[141.754731,-12.818455],[141.627696,-12.910903],[141.58546,-12.977472],[141.635997,-13.160089],[141.690766,-13.259861],[141.559825,-13.491957],[141.474132,-13.7763],[141.485037,-13.9485],[141.583995,-14.076104],[141.592052,-14.245294],[141.521658,-14.483819],[141.604259,-14.877699],[141.665701,-15.011407],[141.639008,-15.141209],[141.487071,-15.478936],[141.439708,-15.648858],[141.401703,-15.903578],[141.378754,-15.937921],[141.424815,-16.08172],[141.349783,-16.224298],[141.303966,-16.44199],[141.234223,-16.573012],[141.199474,-16.703058],[140.947032,-17.018324],[140.959972,-17.073989],[140.883067,-17.346449],[140.833263,-17.450779],[140.755138,-17.478123],[140.507498,-17.636326],[140.240489,-17.702081],[139.999522,-17.70615],[139.925304,-17.621352],[139.804698,-17.568536],[139.640961,-17.532403],[139.43865,-17.375665],[139.274181,-17.348321],[139.209483,-17.286065],[139.141612,-17.116876],[139.158051,-17.032973],[139.062185,-16.977634],[139.037283,-16.915623],[138.753429,-16.841241],[138.657237,-16.779718],[138.492686,-16.794366],[138.184255,-16.697198],[138.000173,-16.541599]]],[[[153.411469,-27.339532],[153.425792,-27.180434],[153.466075,-27.060154],[153.360525,-27.066013],[153.376475,-27.247817],[153.411469,-27.339532]]],[[[153.369965,-24.989028],[153.281261,-24.858575],[153.281261,-24.693536],[153.163259,-24.812433],[153.239594,-24.913263],[153.226085,-25.02752],[153.038341,-25.183526],[153.068533,-25.329034],[152.948253,-25.552179],[152.99936,-25.728611],[153.083507,-25.665785],[153.160655,-25.463149],[153.267426,-25.255548],[153.369965,-24.989028]]],[[[151.269867,-23.666274],[151.191417,-23.513849],[151.018151,-23.453246],[150.979607,-23.487386],[151.213878,-23.77809],[151.297618,-23.748224],[151.269867,-23.666274]]],[[[149.067393,-20.315199],[148.969493,-20.164483],[148.933279,-20.277602],[149.067393,-20.315199]]],[[[146.319021,-18.382989],[146.278087,-18.287367],[146.121837,-18.245538],[146.223399,-18.465509],[146.291677,-18.492852],[146.319021,-18.382989]]],[[[139.562185,-17.039239],[139.508556,-16.992771],[139.445567,-17.107517],[139.569347,-17.100356],[139.562185,-17.039239]]],[[[139.734141,-16.443292],[139.60377,-16.39837],[139.287852,-16.470636],[139.221853,-16.525567],[139.136974,-16.697198],[139.302094,-16.724542],[139.444672,-16.664646],[139.466563,-16.56699],[139.552501,-16.483331],[139.610525,-16.553155],[139.734141,-16.443292]]],[[[142.255382,-10.666681],[142.21225,-10.597589],[142.118175,-10.653497],[142.153168,-10.755629],[142.255382,-10.666681]]],[[[142.293468,-10.13893],[142.201182,-10.220392],[142.289806,-10.260186],[142.340505,-10.190851],[142.293468,-10.13893]]]]},"properties":{"LOCATION_TYPE":"level1","ADM0_A3":"AUS","LOCATION_ID":"AUS-QLD","NAME":"Queensland","TYPE_EN":"State"}},
{"type":"Feature","geometry":{"type":"Polygon","coordinates":[[[153.506521,-28.149265],[153.382504,-28.237553],[153.192489,-28.259825],[153.116887,-28.350207],[152.846309,-28.325816],[152.751018,-28.35801],[152.539971,-28.317703],[152.49217,-28.26122],[152.357037,-28.376149],[152.163973,-28.437075],[151.967551,-28.536449],[152.067028,-28.703157],[152.025584,-28.875705],[151.933858,-28.924281],[151.762551,-28.947587],[151.729168,-28.888986],[151.554295,-28.955235],[151.422675,-29.154551],[151.315343,-29.099257],[151.287438,-28.920818],[151.181759,-28.856946],[151.077528,-28.836948],[151.045902,-28.734887],[150.793514,-28.635048],[150.621122,-28.658922],[150.449556,-28.646468],[150.298144,-28.53495],[150.019815,-28.600114],[149.759159,-28.606987],[149.704485,-28.627451],[149.577878,-28.572571],[149.484447,-28.58394],[149.416338,-28.68073],[149.275158,-28.739331],[149.093567,-28.84842],[149.063387,-28.936321],[148.971403,-28.999728],[148.286587,-28.999935],[147.31507,-28.999935],[146.343554,-28.999935],[145.857795,-28.999935],[144.886278,-28.999935],[143.914658,-28.999935],[142.943193,-28.999935],[141.971676,-28.999935],[141.000107,-28.999935],[141.000107,-29.942203],[141.000107,-30.570537],[141.000107,-31.198664],[141.000107,-31.826946],[141.000107,-32.769214],[141.000107,-33.397444],[141.000107,-34.018543],[141.045582,-34.06221],[141.241849,-34.076008],[141.567928,-34.21388],[141.748537,-34.103189],[141.887391,-34.130475],[142.025161,-34.112233],[142.094252,-34.170834],[142.235122,-34.191918],[142.25879,-34.272843],[142.406429,-34.356404],[142.385759,-34.533396],[142.458571,-34.591583],[142.556601,-34.774156],[142.642797,-34.787644],[142.7261,-34.603211],[142.779223,-34.584194],[142.934046,-34.658039],[143.142612,-34.699019],[143.36048,-34.806247],[143.331283,-34.962827],[143.406989,-35.178834],[143.581397,-35.249424],[143.595504,-35.360529],[143.77694,-35.418406],[143.998425,-35.5554],[144.100073,-35.586768],[144.180378,-35.679114],[144.324349,-35.7542],[144.422585,-35.913932],[144.602781,-36.066119],[144.740706,-36.135003],[144.890154,-36.076351],[145.008441,-35.867629],[145.217937,-35.851196],[145.334106,-35.876001],[145.450791,-35.839569],[145.572593,-35.8436],[145.744624,-35.964936],[145.959598,-35.977028],[146.216223,-36.055835],[146.38505,-36.047463],[146.43192,-35.98385],[146.624053,-35.993772],[146.931115,-36.115728],[147.079633,-36.103636],[147.124591,-36.045603],[147.306337,-36.051959],[147.396616,-35.966693],[147.483691,-35.945971],[147.556761,-35.996355],[147.713806,-35.939408],[147.996889,-36.059246],[148.031926,-36.237116],[148.161789,-36.57663],[148.214034,-36.651303],[148.12298,-36.784214],[148.216824,-36.801681],[148.893579,-37.074791],[149.972075,-37.510292],[149.95102,-37.284275],[150.019542,-37.22088],[149.903819,-36.928399],[149.930024,-36.830499],[150.065766,-36.566583],[150.079275,-36.386],[150.142345,-36.320001],[150.123057,-36.152602],[150.163422,-35.956638],[150.232432,-35.843845],[150.21811,-35.751153],[150.306895,-35.700291],[150.409353,-35.538507],[150.409923,-35.466892],[150.492035,-35.373142],[150.553966,-35.213556],[150.613048,-35.18727],[150.703783,-35.120442],[150.695567,-35.026137],[150.776215,-34.986993],[150.753429,-34.858087],[150.833751,-34.782403],[150.918868,-34.486404],[150.924918,-34.330419],[151.027957,-34.200796],[151.168956,-34.110121],[151.16033,-34.017511],[151.24936,-34.003839],[151.292491,-33.891778],[151.34311,-33.548272],[151.424164,-33.527765],[151.503829,-33.36001],[151.625987,-33.191583],[151.670584,-33.06113],[151.834033,-32.864967],[151.935188,-32.815829],[152.189464,-32.758559],[152.170746,-32.684259],[152.235862,-32.606999],[152.52156,-32.427494],[152.510083,-32.161881],[152.609255,-31.945848],[152.692882,-31.885349],[152.845381,-31.569319],[152.934502,-31.482811],[152.916435,-31.420657],[152.976736,-31.320001],[152.980615,-31.165915],[153.059501,-31.07721],[153.087901,-30.92669],[153.005001,-30.835814],[152.987796,-30.734634],[153.050548,-30.473321],[153.203787,-30.129164],[153.199229,-30.035821],[153.260102,-29.943292],[153.321625,-29.697524],[153.327485,-29.565037],[153.369965,-29.396661],[153.340343,-29.322686],[153.422699,-29.161065],[153.453787,-29.035577],[153.605968,-28.867446],[153.630626,-28.661554],[153.57602,-28.589614],[153.563487,-28.46087],[153.591075,-28.268487],[153.506521,-28.149265]],[[149.349933,-35.359495],[149.186687,-35.380682],[149.151341,-35.509977],[149.086435,-35.610022],[149.106486,-35.827425],[149.052484,-35.914862],[148.948149,-35.887887],[148.792706,-35.707278],[148.770537,-35.493285],[148.825986,-35.313348],[149.10292,-35.145865],[149.189168,-35.178524],[149.349933,-35.359495]]]},"properties":{"LOCATION_TYPE":"level1","ADM0_A3":"AUS","LOCATION_ID":"AUS-NSW","NAME":"New South Wales","TYPE_EN":"State"}},
{"type":"Feature","geometry":{"type":"Polygon","coordinates":[[[150.703783,-35.120442],[150.613048,-35.18727],[150.759451,-35.178888],[150.703783,-35.120442]]]},"properties":{"LOCATION_TYPE":"level1","ADM0_A3":"AUS","LOCATION_ID":"AUS-X02~","NAME":"Jervis Bay Territory","TYPE_EN":"Territory"}},
{"type":"Feature","geometry":{"type":"Polygon","coordinates":[[[149.972075,-37.510292],[148.893579,-37.074791],[148.216824,-36.801681],[148.12298,-36.784214],[148.214034,-36.651303],[148.161789,-36.57663],[148.031926,-36.237116],[147.996889,-36.059246],[147.713806,-35.939408],[147.556761,-35.996355],[147.483691,-35.945971],[147.396616,-35.966693],[147.306337,-36.051959],[147.124591,-36.045603],[147.079633,-36.103636],[146.931115,-36.115728],[146.624053,-35.993772],[146.43192,-35.98385],[146.38505,-36.047463],[146.216223,-36.055835],[145.959598,-35.977028],[145.744624,-35.964936],[145.572593,-35.8436],[145.450791,-35.839569],[145.334106,-35.876001],[145.217937,-35.851196],[145.008441,-35.867629],[144.890154,-36.076351],[144.740706,-36.135003],[144.602781,-36.066119],[144.422585,-35.913932],[144.324349,-35.7542],[144.180378,-35.679114],[144.100073,-35.586768],[143.998425,-35.5554],[143.77694,-35.418406],[143.595504,-35.360529],[143.581397,-35.249424],[143.406989,-35.178834],[143.331283,-34.962827],[143.36048,-34.806247],[143.142612,-34.699019],[142.934046,-34.658039],[142.779223,-34.584194],[142.7261,-34.603211],[142.642797,-34.787644],[142.556601,-34.774156],[142.458571,-34.591583],[142.385759,-34.533396],[142.406429,-34.356404],[142.25879,-34.272843],[142.235122,-34.191918],[142.094252,-34.170834],[142.025161,-34.112233],[141.887391,-34.130475],[141.748537,-34.103189],[141.567928,-34.21388],[141.241849,-34.076008],[141.045582,-34.06221],[141.000107,-34.018543],[140.967086,-33.986452],[140.967241,-34.566107],[140.967551,-35.565529],[140.967603,-36.06524],[140.967861,-37.064611],[140.968174,-38.059426],[141.134288,-38.127618],[141.374766,-38.291192],[141.434418,-38.375095],[141.60141,-38.392267],[141.672537,-38.284275],[141.761974,-38.261814],[141.946788,-38.282892],[142.090831,-38.365411],[142.22462,-38.405694],[142.397716,-38.36712],[142.653819,-38.472752],[142.810232,-38.578383],[143.060069,-38.635919],[143.241547,-38.762791],[143.334483,-38.755955],[143.536957,-38.858331],[143.7046,-38.728123],[143.8449,-38.691176],[144.052501,-38.485772],[144.249034,-38.401625],[144.401866,-38.301202],[144.652843,-38.285821],[144.725108,-38.164809],[144.653575,-38.124688],[144.523611,-38.177992],[144.523285,-38.084242],[144.804454,-37.940851],[144.82545,-37.898533],[144.982677,-37.899347],[145.02711,-37.99627],[145.110199,-38.05169],[145.119314,-38.159356],[144.982921,-38.341404],[144.803966,-38.379083],[144.886404,-38.48211],[145.024669,-38.49391],[145.29656,-38.231703],[145.476573,-38.244887],[145.556895,-38.385186],[145.431163,-38.442804],[145.44809,-38.55047],[145.570811,-38.661716],[145.809337,-38.65016],[145.915782,-38.895766],[146.003673,-38.896417],[146.091807,-38.819757],[146.181651,-38.868341],[146.263845,-38.996026],[146.434337,-39.089125],[146.454112,-38.949314],[146.402354,-38.858575],[146.286388,-38.909845],[146.26059,-38.817966],[146.182384,-38.755955],[146.255707,-38.701755],[146.411794,-38.739841],[146.878591,-38.644301],[147.395518,-38.220147],[147.589366,-38.080662],[147.916515,-37.918552],[148.306407,-37.823419],[148.604015,-37.81113],[148.724132,-37.8235],[148.943858,-37.789483],[149.299001,-37.798517],[149.479015,-37.785903],[149.666677,-37.700128],[149.78712,-37.55283],[149.972075,-37.510292]]]},"properties":{"LOCATION_TYPE":"level1","ADM0_A3":"AUS","LOCATION_ID":"AUS-VIC","NAME":"Victoria","TYPE_EN":"State"}},
{"type":"Feature","geometry":{"type":"MultiPolygon","coordinates":[[[[147.998546,-43.230401],[147.963878,-43.010512],[148.004731,-42.908868],[147.888682,-42.819513],[147.953136,-42.719985],[147.93686,-42.590916],[148.006033,-42.514093],[147.983409,-42.319024],[148.074474,-42.197361],[148.146983,-41.999282],[148.299327,-42.050551],[148.326915,-41.915785],[148.260997,-41.800388],[148.314952,-41.606541],[148.27947,-41.450372],[148.331065,-41.322524],[148.268891,-41.151625],[148.331391,-41.002211],[148.209321,-40.840753],[147.984223,-40.736505],[147.916189,-40.852716],[147.819835,-40.893487],[147.668956,-40.82586],[147.597423,-40.846856],[147.444835,-41.008396],[147.285981,-40.941339],[147.171072,-41.006524],[147.017589,-40.976658],[146.423676,-41.166192],[146.214366,-41.155369],[145.915538,-41.041274],[145.79127,-41.017022],[145.711599,-40.930434],[145.133556,-40.791681],[144.984711,-40.744806],[144.68922,-40.704522],[144.696951,-40.886895],[144.605805,-40.996515],[144.675304,-41.080743],[144.681651,-41.223077],[144.767345,-41.335545],[144.794444,-41.446466],[144.866466,-41.54461],[144.926036,-41.70908],[145.206554,-41.966567],[145.276866,-42.182061],[145.202403,-42.247491],[145.264171,-42.59531],[145.352712,-42.650811],[145.393565,-42.771091],[145.510265,-42.958429],[145.582286,-42.963556],[145.729991,-43.10003],[145.757172,-43.175877],[145.873302,-43.258396],[145.96339,-43.226983],[146.025401,-43.324884],[145.986095,-43.378676],[146.030772,-43.48268],[146.305512,-43.53045],[146.51352,-43.533949],[146.710704,-43.629002],[146.927013,-43.611749],[146.936046,-43.495212],[147.099783,-43.299412],[147.257579,-43.254327],[147.257579,-43.114353],[147.333181,-43.042657],[147.360199,-42.925226],[147.477306,-42.908868],[147.585623,-42.821222],[147.689464,-42.895278],[147.840343,-42.902032],[147.887055,-43.034438],[147.647797,-43.072849],[147.792491,-43.244073],[147.867524,-43.141697],[147.998546,-43.230401]]],[[[147.336599,-43.340265],[147.168142,-43.368259],[147.149181,-43.501153],[147.315929,-43.500665],[147.336599,-43.340265]]],[[[148.429942,-40.373305],[148.345958,-40.309503],[148.074067,-40.35117],[148.082042,-40.454278],[148.295665,-40.434666],[148.408865,-40.489435],[148.429942,-40.373305]]],[[[148.014903,-40.150567],[148.074718,-40.255141],[148.307384,-40.237726],[148.333751,-40.174737],[148.299001,-39.961847],[148.167003,-39.935642],[147.953298,-39.711684],[147.853689,-39.827732],[147.941417,-40.045099],[148.014903,-40.150567]]],[[[144.105479,-39.892999],[144.12615,-39.807712],[144.084158,-39.626153],[143.86199,-39.700616],[143.838145,-39.934503],[143.885997,-39.967869],[143.922537,-40.127374],[144.112478,-40.030857],[144.105479,-39.892999]]]]},"properties":{"LOCATION_TYPE":"level1","ADM0_A3":"AUS","LOCATION_ID":"AUS-TAS","NAME":"Tasmania","TYPE_EN":"State"}},
{"type":"Feature","geometry":{"type":"Polygon","coordinates":[[[158.893403,-54.510837],[158.832367,-54.711684],[158.892589,-54.686944],[158.955577,-54.551202],[158.893403,-54.510837]]]},"properties":{"LOCATION_TYPE":"level1","ADM0_A3":"AUS","LOCATION_ID":"AUS-X03~","NAME":"Macquarie Island","TYPE_EN":null}},
{"type":"Feature","geometry":{"type":"Polygon","coordinates":[[[159.044444,-31.51922],[159.075206,-31.539809],[159.083018,-31.558364],[159.080089,-31.576267],[159.08961,-31.589044],[159.106456,-31.567641],[159.068858,-31.520929],[159.044444,-31.51922]]]},"properties":{"LOCATION_TYPE":"level1","ADM0_A3":"AUS","LOCATION_ID":"AUS-NSW","NAME":"Lord Howe Island","TYPE_EN":"Territory"}},
{"type":"Feature","geometry":{"type":"Polygon","coordinates":[[[149.349933,-35.359495],[149.189168,-35.178524],[149.10292,-35.145865],[148.825986,-35.313348],[148.770537,-35.493285],[148.792706,-35.707278],[148.948149,-35.887887],[149.052484,-35.914862],[149.106486,-35.827425],[149.086435,-35.610022],[149.151341,-35.509977],[149.186687,-35.380682],[149.349933,-35.359495]]]},"properties":{"LOCATION_TYPE":"level1","ADM0_A3":"AUS","LOCATION_ID":"AUS-ACT","NAME":"Australian Capital Territory","TYPE_EN":"Territory"}}
]}