{"type":"FeatureCollection", "features": [
{"type":"Feature","geometry":{"type":"Polygon","coordinates":[[[17.062452,48.112722],[16.98194,48.161299],[16.950624,48.276589],[16.84448,48.365602],[16.954345,48.557399],[16.873006,48.718991],[16.661959,48.740023],[16.643149,48.778264],[16.43572,48.794542],[16.358309,48.727259],[16.032334,48.758059],[15.818497,48.872315],[15.681347,48.858466],[15.471851,48.936704],[15.262872,48.982593],[14.982062,49.007914],[14.919327,48.761573],[14.800367,48.776507],[14.703836,48.673103],[14.69114,48.586535],[14.906357,48.527064],[14.975396,48.333639],[14.968575,48.247443],[14.675466,48.182486],[14.565034,48.244239],[14.484884,48.218375],[14.445351,48.042959],[14.750707,47.901908],[14.699341,47.768919],[14.883361,47.724736],[15.339147,47.82535],[15.7261,47.690242],[15.743205,47.636731],[15.916683,47.533223],[16.080394,47.516531],[16.147883,47.443048],[16.324461,47.501339],[16.375828,47.644896],[16.289735,47.793621],[16.439286,47.928083],[16.573232,47.919763],[16.70449,48.009163],[17.062452,48.112722]],[[16.482591,48.288526],[16.556127,48.249045],[16.571371,48.153082],[16.232632,48.149154],[16.188242,48.230054],[16.446418,48.328058],[16.482591,48.288526]]]},"properties":{"LOCATION_TYPE":"level1","ADM0_A3":"AUT","LOCATION_ID":"AUT-3","NAME":"Niederösterreich","TYPE_EN":"State"}},
{"type":"Feature","geometry":{"type":"Polygon","coordinates":[[[14.69114,48.586535],[14.443593,48.636516],[14.315746,48.557916],[14.07483,48.591712],[13.98233,48.706485],[13.815725,48.76643],[13.802392,48.611711],[13.714336,48.523215],[13.520704,48.584581],[13.405569,48.376583],[13.274207,48.307104],[13.032775,48.263567],[12.745041,48.12063],[12.848246,47.982389],[12.968387,48.031642],[13.138919,47.987175],[13.30294,48.009938],[13.271314,47.912218],[13.31679,47.82504],[13.497554,47.79791],[13.525614,47.717501],[13.488872,47.535755],[13.581786,47.486404],[13.730304,47.546039],[13.687155,47.663964],[13.82327,47.720498],[13.996748,47.698588],[14.059742,47.626034],[14.195031,47.657711],[14.347269,47.625672],[14.699341,47.768919],[14.750707,47.901908],[14.445351,48.042959],[14.484884,48.218375],[14.565034,48.244239],[14.675466,48.182486],[14.968575,48.247443],[14.975396,48.333639],[14.906357,48.527064],[14.69114,48.586535]]]},"properties":{"LOCATION_TYPE":"level1","ADM0_A3":"AUT","LOCATION_ID":"AUT-4","NAME":"Oberösterreich","TYPE_EN":"State"}},
{"type":"Feature","geometry":{"type":"Polygon","coordinates":[[[16.028441,46.836947],[16.230668,46.94835],[16.274903,47.004315],[16.437167,47.031782],[16.509514,47.137537],[16.412776,47.187173],[16.469206,47.293238],[16.424971,47.351116],[16.640875,47.452919],[16.688004,47.52263],[16.63023,47.622004],[16.481919,47.638954],[16.531115,47.742978],[16.609766,47.750627],[16.797455,47.675463],[17.054804,47.702025],[17.039507,47.837365],[17.096145,47.961931],[17.062452,48.112722],[16.70449,48.009163],[16.573232,47.919763],[16.439286,47.928083],[16.289735,47.793621],[16.375828,47.644896],[16.324461,47.501339],[16.147883,47.443048],[16.020035,47.372406],[16.136256,47.024908],[16.01864,46.922847],[16.028441,46.836947]]]},"properties":{"LOCATION_TYPE":"level1","ADM0_A3":"AUT","LOCATION_ID":"AUT-1","NAME":"Burgenland","TYPE_EN":"State"}},
{"type":"Feature","geometry":{"type":"Polygon","coordinates":[[[10.174951,47.272376],[10.190881,47.379228],[9.948726,47.524232],[9.813127,47.54175],[9.612622,47.521881],[9.649519,47.409717],[9.521155,47.262801],[9.669053,47.056199],[9.857982,47.015478],[9.862426,46.939772],[10.125188,46.846751],[10.138224,47.077333],[10.202148,47.160998],[10.174951,47.272376]]]},"properties":{"LOCATION_TYPE":"level1","ADM0_A3":"AUT","LOCATION_ID":"AUT-8","NAME":"Vorarlberg","TYPE_EN":"State"}},
{"type":"Feature","geometry":{"type":"MultiPolygon","coordinates":[[[[10.125188,46.846751],[10.367925,46.995505],[10.458462,46.936619],[10.453811,46.864427],[10.662481,46.860965],[10.754775,46.790763],[10.99693,46.76911],[11.091912,46.912435],[11.31381,46.987262],[11.59648,47.00044],[11.746445,46.972457],[12.133146,47.078832],[12.084255,47.176397],[12.096037,47.279905],[12.315455,47.332822],[12.457411,47.333442],[12.613835,47.419638],[12.678844,47.498858],[12.563375,47.641761],[12.42413,47.69156],[12.202335,47.677789],[12.165645,47.603969],[11.935891,47.610738],[11.820343,47.575288],[11.620458,47.589654],[11.551212,47.51369],[11.412616,47.506094],[11.258827,47.400725],[11.083747,47.389512],[10.790328,47.516067],[10.60791,47.562266],[10.43097,47.542164],[10.451951,47.438759],[10.305913,47.302178],[10.174951,47.272376],[10.202148,47.160998],[10.138224,47.077333],[10.125188,46.846751]]],[[[12.203897,47.067012],[12.111178,46.992998],[12.269101,46.788566],[12.40501,46.690123],[12.671368,46.652466],[12.724319,46.748852],[12.945288,46.775181],[12.828757,46.875976],[12.633834,47.112034],[12.577662,47.144229],[12.379999,47.144151],[12.203897,47.067012]]]]},"properties":{"LOCATION_TYPE":"level1","ADM0_A3":"AUT","LOCATION_ID":"AUT-7","NAME":"Tirol","TYPE_EN":"State"}},
{"type":"Feature","geometry":{"type":"Polygon","coordinates":[[[12.203897,47.067012],[12.379999,47.144151],[12.577662,47.144229],[12.633834,47.112034],[12.914385,47.075964],[13.059493,47.028783],[13.308211,47.087204],[13.606178,47.044209],[13.782291,46.954189],[13.937165,47.150559],[13.796709,47.302126],[13.630672,47.30564],[13.581786,47.486404],[13.488872,47.535755],[13.525614,47.717501],[13.497554,47.79791],[13.31679,47.82504],[13.271314,47.912218],[13.30294,48.009938],[13.138919,47.987175],[12.968387,48.031642],[12.848246,47.982389],[12.991227,47.847106],[12.892009,47.723548],[13.044557,47.696573],[13.07484,47.646654],[13.037323,47.493045],[12.942548,47.470489],[12.77894,47.554825],[12.744834,47.66536],[12.563375,47.641761],[12.678844,47.498858],[12.613835,47.419638],[12.457411,47.333442],[12.315455,47.332822],[12.096037,47.279905],[12.084255,47.176397],[12.133146,47.078832],[12.203897,47.067012]]]},"properties":{"LOCATION_TYPE":"level1","ADM0_A3":"AUT","LOCATION_ID":"AUT-5","NAME":"Salzburg","TYPE_EN":"State"}},
{"type":"Feature","geometry":{"type":"Polygon","coordinates":[[[12.671368,46.652466],[12.83041,46.609637],[13.064504,46.598035],[13.231109,46.552173],[13.478019,46.563567],[13.670256,46.518712],[13.890862,46.511787],[14.149865,46.440061],[14.502194,46.418356],[14.788585,46.506646],[14.85039,46.601136],[15.105591,46.646323],[15.034669,46.703299],[14.986869,46.842206],[15.008314,46.911245],[14.849874,47.041315],[14.394605,46.998165],[14.200612,47.056715],[14.026669,47.017544],[13.843889,46.922692],[13.782291,46.954189],[13.606178,47.044209],[13.308211,47.087204],[13.059493,47.028783],[12.914385,47.075964],[12.633834,47.112034],[12.828757,46.875976],[12.945288,46.775181],[12.724319,46.748852],[12.671368,46.652466]]]},"properties":{"LOCATION_TYPE":"level1","ADM0_A3":"AUT","LOCATION_ID":"AUT-2","NAME":"Kärnten","TYPE_EN":"State"}},
{"type":"Feature","geometry":{"type":"Polygon","coordinates":[[[16.028441,46.836947],[16.01864,46.922847],[16.136256,47.024908],[16.020035,47.372406],[16.147883,47.443048],[16.080394,47.516531],[15.916683,47.533223],[15.743205,47.636731],[15.7261,47.690242],[15.339147,47.82535],[14.883361,47.724736],[14.699341,47.768919],[14.347269,47.625672],[14.195031,47.657711],[14.059742,47.626034],[13.996748,47.698588],[13.82327,47.720498],[13.687155,47.663964],[13.730304,47.546039],[13.581786,47.486404],[13.630672,47.30564],[13.796709,47.302126],[13.937165,47.150559],[13.782291,46.954189],[13.843889,46.922692],[14.026669,47.017544],[14.200612,47.056715],[14.394605,46.998165],[14.849874,47.041315],[15.008314,46.911245],[14.986869,46.842206],[15.034669,46.703299],[15.105591,46.646323],[15.388135,46.645578],[15.462653,46.614649],[15.652098,46.710819],[15.970529,46.743014],[16.028441,46.836947]]]},"properties":{"LOCATION_TYPE":"level1","ADM0_A3":"AUT","LOCATION_ID":"AUT-6","NAME":"Steiermark","TYPE_EN":"State"}},
{"type":"Feature","geometry":{"type":"Polygon","coordinates":[[[16.482591,48.288526],[16.446418,48.328058],[16.188242,48.230054],[16.232632,48.149154],[16.571371,48.153082],[16.556127,48.249045],[16.482591,48.288526]]]},"properties":{"LOCATION_TYPE":"level1","ADM0_A3":"AUT","LOCATION_ID":"AUT-9","NAME":"Wien","TYPE_EN":"State"}}
]}