{"type":"FeatureCollection", "features": [
{"type":"Feature","geometry":{"type":"Polygon","coordinates":[[[45.097833,41.349919],[45.0024,41.290452],[45.052009,41.192112],[45.186781,41.156869],[45.221611,41.014449],[45.381948,41.011448],[45.392196,41.245622],[45.275872,41.256474],[45.097833,41.349919]]]},"properties":{"LOCATION_TYPE":"level1","ADM0_A3":"AZE","LOCATION_ID":"AZE-QAZ","NAME":"Qazax","TYPE_EN":"District"}},
{"type":"Feature","geometry":{"type":"Polygon","coordinates":[[[45.442843,40.94838],[45.655022,41.162888],[45.770337,41.232102],[45.720702,41.342387],[45.464801,41.430185],[45.24962,41.4445],[45.097833,41.349919],[45.275872,41.256474],[45.392196,41.245622],[45.381948,41.011448],[45.442843,40.94838]]]},"properties":{"LOCATION_TYPE":"level1","ADM0_A3":"AZE","LOCATION_ID":"AZE-AGA","NAME":"Ağstafa","TYPE_EN":"District"}},
{"type":"Feature","geometry":{"type":"Polygon","coordinates":[[[45.478335,40.748183],[45.70179,40.614627],[45.722615,40.823219],[45.73941,40.87828],[45.896971,41.00574],[46.045231,41.003415],[46.204653,41.136663],[46.087608,41.183659],[45.969163,41.168289],[45.770337,41.232102],[45.655022,41.162888],[45.442843,40.94838],[45.58221,40.799371],[45.478335,40.748183]]]},"properties":{"LOCATION_TYPE":"level1","ADM0_A3":"AZE","LOCATION_ID":"AZE-TOV","NAME":"Tovuz","TYPE_EN":"District"}},
{"type":"Feature","geometry":{"type":"Polygon","coordinates":[[[45.478335,40.748183],[45.373643,40.675296],[45.526192,40.441047],[45.819152,40.297141],[45.856767,40.406009],[45.840386,40.523677],[45.911699,40.557189],[45.912578,40.626099],[45.722615,40.823219],[45.70179,40.614627],[45.478335,40.748183]]]},"properties":{"LOCATION_TYPE":"level1","ADM0_A3":"AZE","LOCATION_ID":"AZE-GAD","NAME":"Gədəbəy","TYPE_EN":"District"}},
{"type":"Feature","geometry":{"type":"Polygon","coordinates":[[[45.819152,40.297141],[45.888504,40.261957],[45.953661,40.315059],[46.155767,40.307514],[46.226409,40.429367],[46.133443,40.501172],[46.202379,40.580831],[46.078976,40.647157],[45.911699,40.557189],[45.840386,40.523677],[45.856767,40.406009],[45.819152,40.297141]]]},"properties":{"LOCATION_TYPE":"level1","ADM0_A3":"AZE","LOCATION_ID":"AZE-DAS","NAME":"Daşkəsən","TYPE_EN":"District"}},
{"type":"Feature","geometry":{"type":"Polygon","coordinates":[[[45.888504,40.261957],[45.97924,40.223592],[45.873768,40.009755],[45.63957,40.025413],[45.883188,39.796148],[45.977535,39.854467],[46.208839,39.893767],[46.450995,39.95813],[46.56706,39.958776],[46.697904,40.018152],[46.76157,40.032983],[46.63703,40.147937],[46.532282,40.133442],[46.499415,40.229483],[46.534452,40.313095],[46.429342,40.262995],[46.317773,40.276172],[46.155767,40.307514],[45.953661,40.315059],[45.888504,40.261957]]]},"properties":{"LOCATION_TYPE":"level1","ADM0_A3":"AZE","LOCATION_ID":"AZE-KAL","NAME":"Kəlbəcər","TYPE_EN":"District"}},
{"type":"Feature","geometry":{"type":"Polygon","coordinates":[[[45.883188,39.796148],[45.97924,39.768478],[46.045127,39.687553],[46.206461,39.587921],[46.343713,39.618616],[46.527268,39.538156],[46.478952,39.461829],[46.640699,39.483456],[46.735628,39.588798],[46.530576,39.615618],[46.540343,39.757677],[46.450995,39.95813],[46.208839,39.893767],[45.977535,39.854467],[45.883188,39.796148]]]},"properties":{"LOCATION_TYPE":"level1","ADM0_A3":"AZE","LOCATION_ID":"AZE-LAN","NAME":"Lankaran","TYPE_EN":"District"}},
{"type":"Feature","geometry":{"type":"Polygon","coordinates":[[[46.599141,39.222487],[46.681213,39.128594],[46.82291,39.227993],[46.703486,39.367623],[46.73351,39.416277],[46.640699,39.483456],[46.478952,39.461829],[46.374616,39.378838],[46.49528,39.324009],[46.599141,39.222487]]]},"properties":{"LOCATION_TYPE":"level1","ADM0_A3":"AZE","LOCATION_ID":"AZE-QBI","NAME":"Qubadli","TYPE_EN":"District"}},
{"type":"Feature","geometry":{"type":"Polygon","coordinates":[[[46.599141,39.222487],[46.479312,39.114771],[46.475798,38.975607],[46.514039,38.882176],[46.744826,39.040254],[46.866391,39.165445],[46.82291,39.227993],[46.681213,39.128594],[46.599141,39.222487]]]},"properties":{"LOCATION_TYPE":"level1","ADM0_A3":"AZE","LOCATION_ID":"AZE-ZAN","NAME":"Zəngilan","TYPE_EN":"District"}},
{"type":"Feature","geometry":{"type":"Polygon","coordinates":[[[45.16792,39.565545],[45.141255,39.684401],[45.033509,39.77039],[44.953215,39.735965],[44.823953,39.63054],[44.886438,39.605956],[44.957028,39.434493],[45.051237,39.387093],[45.128299,39.453015],[45.16792,39.565545]]]},"properties":{"LOCATION_TYPE":"level1","ADM0_A3":"AZE","LOCATION_ID":"AZE-SAR","NAME":"Şərur","TYPE_EN":"District"}},
{"type":"Feature","geometry":{"type":"Polygon","coordinates":[[[44.953215,39.735965],[44.774559,39.702797],[44.823953,39.63054],[44.953215,39.735965]]]},"properties":{"LOCATION_TYPE":"level1","ADM0_A3":"AZE","LOCATION_ID":"AZE-SAD","NAME":"Sədərək","TYPE_EN":"District"}},
{"type":"Feature","geometry":{"type":"Polygon","coordinates":[[[45.266191,39.592918],[45.16792,39.565545],[45.128299,39.453015],[45.051237,39.387093],[45.11435,39.30935],[45.231534,39.323026],[45.205179,39.471131],[45.266191,39.592918]]]},"properties":{"LOCATION_TYPE":"level1","ADM0_A3":"AZE","LOCATION_ID":"AZE-KAN","NAME":"Kangarli","TYPE_EN":"District"}},
{"type":"Feature","geometry":{"type":"Polygon","coordinates":[[[45.266191,39.592918],[45.205179,39.471131],[45.231534,39.323026],[45.11435,39.30935],[45.152727,39.213525],[45.283106,39.193061],[45.438601,39.004235],[45.535565,38.968453],[45.550843,39.032657],[45.467644,39.187841],[45.380621,39.180296],[45.350131,39.24298],[45.530896,39.245021],[45.549499,39.288197],[45.357056,39.433511],[45.423937,39.493827],[45.266191,39.592918]]]},"properties":{"LOCATION_TYPE":"level1","ADM0_A3":"AZE","LOCATION_ID":"AZE-BAB","NAME":"Babək","TYPE_EN":"District"}},
{"type":"Feature","geometry":{"type":"Polygon","coordinates":[[[45.423937,39.493827],[45.357056,39.433511],[45.549499,39.288197],[45.764371,39.359142],[45.788088,39.548957],[45.714656,39.569472],[45.423937,39.493827]]]},"properties":{"LOCATION_TYPE":"level1","ADM0_A3":"AZE","LOCATION_ID":"AZE-SAH","NAME":"Şahbuz","TYPE_EN":"District"}},
{"type":"Feature","geometry":{"type":"Polygon","coordinates":[[[45.764371,39.359142],[45.549499,39.288197],[45.530896,39.245021],[45.467644,39.187841],[45.550843,39.032657],[45.535565,38.968453],[45.768074,38.93913],[45.721272,39.008214],[45.837492,39.235021],[45.901788,39.294124],[45.764371,39.359142]]]},"properties":{"LOCATION_TYPE":"level1","ADM0_A3":"AZE","LOCATION_ID":"AZE-CUL","NAME":"Culfa","TYPE_EN":"District"}},
{"type":"Feature","geometry":{"type":"Polygon","coordinates":[[[45.901788,39.294124],[45.837492,39.235021],[45.721272,39.008214],[45.768074,38.93913],[46.135871,38.863701],[45.958104,39.151513],[45.986009,39.234686],[45.901788,39.294124]]]},"properties":{"LOCATION_TYPE":"level1","ADM0_A3":"AZE","LOCATION_ID":"AZE-ORD","NAME":"Ordubad","TYPE_EN":"District"}},
{"type":"Feature","geometry":{"type":"Polygon","coordinates":[[[46.709555,41.835066],[46.586593,41.786779],[46.525511,41.882303],[46.430892,41.890442],[46.297773,41.750812],[46.208321,41.755514],[46.192767,41.610174],[46.279871,41.571172],[46.488512,41.601079],[46.569179,41.697869],[46.702349,41.77776],[46.709555,41.835066]]]},"properties":{"LOCATION_TYPE":"level1","ADM0_A3":"AZE","LOCATION_ID":"AZE-BAL","NAME":"Balakən","TYPE_EN":"District"}},
{"type":"Feature","geometry":{"type":"Polygon","coordinates":[[[47.028262,41.557075],[46.906883,41.706939],[46.709555,41.835066],[46.702349,41.77776],[46.569179,41.697869],[46.488512,41.601079],[46.279871,41.571172],[46.29674,41.510387],[46.629841,41.346136],[46.746894,41.5108],[46.929157,41.50527],[47.028262,41.557075]]]},"properties":{"LOCATION_TYPE":"level1","ADM0_A3":"AZE","LOCATION_ID":"AZE-ZAQ","NAME":"Zaqatala","TYPE_EN":"District"}},
{"type":"Feature","geometry":{"type":"Polygon","coordinates":[[[48.462211,41.720992],[48.575464,41.483489],[48.675458,41.350551],[48.744136,41.34851],[49.078698,41.357414],[48.655447,41.800605],[48.578949,41.845282],[48.462211,41.720992]]]},"properties":{"LOCATION_TYPE":"level1","ADM0_A3":"AZE","LOCATION_ID":"AZE-XAC","NAME":"Xaçmaz","TYPE_EN":"District"}},
{"type":"Feature","geometry":{"type":"Polygon","coordinates":[[[48.462211,41.720992],[48.370153,41.58015],[48.201843,41.493489],[48.053532,41.461295],[48.001648,41.362076],[47.813491,41.197388],[47.92646,41.157695],[48.386174,41.416594],[48.575464,41.483489],[48.462211,41.720992]]]},"properties":{"LOCATION_TYPE":"level1","ADM0_A3":"AZE","LOCATION_ID":"AZE-QUS","NAME":"Qusar","TYPE_EN":"District"}},
{"type":"Feature","geometry":{"type":"Polygon","coordinates":[[[47.367292,41.261789],[47.270221,41.020391],[47.384529,40.886135],[47.569841,40.795598],[47.624411,41.006722],[47.683839,41.096665],[47.694889,41.207134],[47.567773,41.205496],[47.367292,41.261789]]]},"properties":{"LOCATION_TYPE":"level1","ADM0_A3":"AZE","LOCATION_ID":"AZE-OGU","NAME":"Oğuz","TYPE_EN":"District"}},
{"type":"Feature","geometry":{"type":"Polygon","coordinates":[[[47.179219,41.49168],[47.142735,41.415095],[46.891536,41.31058],[46.813143,41.214281],[46.812523,41.12749],[46.927038,41.02468],[46.929983,40.91094],[47.262831,40.788854],[47.525606,40.761466],[47.569841,40.795598],[47.384529,40.886135],[47.270221,41.020391],[47.367292,41.261789],[47.268411,41.302803],[47.179219,41.49168]],[[47.188946,41.155475],[47.147984,41.164009],[47.172854,41.234961],[47.219424,41.18766],[47.188946,41.155475]]]},"properties":{"LOCATION_TYPE":"level1","ADM0_A3":"AZE","LOCATION_ID":"AZE-SA","NAME":"Şəki","TYPE_EN":"District"}},
{"type":"Feature","geometry":{"type":"Polygon","coordinates":[[[47.179219,41.49168],[47.107491,41.569919],[47.028262,41.557075],[46.929157,41.50527],[46.746894,41.5108],[46.629841,41.346136],[46.688499,41.284355],[46.615539,41.108666],[46.730254,41.072429],[46.75971,40.965975],[46.929983,40.91094],[46.927038,41.02468],[46.812523,41.12749],[46.813143,41.214281],[46.891536,41.31058],[47.142735,41.415095],[47.179219,41.49168]]]},"properties":{"LOCATION_TYPE":"level1","ADM0_A3":"AZE","LOCATION_ID":"AZE-QAX","NAME":"Qax","TYPE_EN":"District"}},
{"type":"Feature","geometry":{"type":"Polygon","coordinates":[[[47.813491,41.197388],[47.694889,41.207134],[47.683839,41.096665],[47.624411,41.006722],[47.569841,40.795598],[47.525606,40.761466],[47.588599,40.639458],[47.732467,40.674959],[47.9801,40.883732],[47.948836,40.978998],[48.031105,41.063127],[47.92646,41.157695],[47.813491,41.197388]]]},"properties":{"LOCATION_TYPE":"level1","ADM0_A3":"AZE","LOCATION_ID":"AZE-QAB","NAME":"Qəbələ","TYPE_EN":"District"}},
{"type":"Feature","geometry":{"type":"Polygon","coordinates":[[[46.615539,41.108666],[46.496779,41.044834],[46.332345,41.115889],[46.228578,41.195419],[46.087608,41.183659],[46.204653,41.136663],[46.310435,41.017342],[46.27731,40.832857],[46.34073,40.724622],[46.411792,40.68544],[46.470683,40.681755],[46.541273,40.791051],[46.75971,40.965975],[46.730254,41.072429],[46.615539,41.108666]]]},"properties":{"LOCATION_TYPE":"level1","ADM0_A3":"AZE","LOCATION_ID":"AZE-SMX","NAME":"Samux","TYPE_EN":"District"}},
{"type":"Feature","geometry":{"type":"Polygon","coordinates":[[[47.957708,39.707256],[48.019426,39.71246],[48.272485,39.566526],[48.379404,39.621665],[48.348656,39.73667],[48.240963,39.785453],[48.249644,39.979679],[48.317186,40.03983],[48.086554,40.096571],[47.851167,40.10086],[47.791016,40.114012],[47.817474,40.025723],[47.748848,39.850927],[47.889718,39.76995],[47.788212,39.657651],[47.957708,39.707256]]]},"properties":{"LOCATION_TYPE":"level1","ADM0_A3":"AZE","LOCATION_ID":"AZE-IMI","NAME":"İmişli","TYPE_EN":"District"}},
{"type":"Feature","geometry":{"type":"Polygon","coordinates":[[[48.328405,39.37633],[48.377957,39.300702],[48.508492,39.382196],[48.64099,39.324938],[48.681608,39.419558],[48.763773,39.408835],[48.766977,39.605697],[48.582079,39.65174],[48.434233,39.662024],[48.379404,39.621665],[48.272485,39.566526],[48.019426,39.71246],[47.957708,39.707256],[48.052033,39.650087],[48.31672,39.415166],[48.328405,39.37633]]]},"properties":{"LOCATION_TYPE":"level1","ADM0_A3":"AZE","LOCATION_ID":"AZE-BIL","NAME":"Biləsuvar","TYPE_EN":"District"}},
{"type":"Feature","geometry":{"type":"Polygon","coordinates":[[[48.30159,39.017946],[48.477796,38.985734],[48.740519,39.147223],[48.715714,39.35504],[48.763773,39.408835],[48.681608,39.419558],[48.64099,39.324938],[48.508492,39.382196],[48.377957,39.300702],[48.328405,39.37633],[48.124587,39.297602],[48.142157,39.181201],[48.271296,39.108312],[48.30159,39.017946]]]},"properties":{"LOCATION_TYPE":"level1","ADM0_A3":"AZE","LOCATION_ID":"AZE-CAL","NAME":"Cəlilabad","TYPE_EN":"District"}},
{"type":"Feature","geometry":{"type":"Polygon","coordinates":[[[48.225635,38.713193],[48.32566,38.825641],[48.547611,38.939872],[48.477796,38.985734],[48.30159,39.017946],[48.243184,38.973875],[48.058544,38.948373],[48.012966,38.821559],[48.225635,38.713193]]]},"properties":{"LOCATION_TYPE":"level1","ADM0_A3":"AZE","LOCATION_ID":"AZE-YAR","NAME":"Yardımlı","TYPE_EN":"District"}},
{"type":"Feature","geometry":{"type":"Polygon","coordinates":[[[48.225635,38.713193],[48.310312,38.600151],[48.415267,38.618109],[48.535641,38.469154],[48.568953,38.538578],[48.698144,38.581676],[48.665278,38.735517],[48.577376,38.781277],[48.593448,38.867189],[48.547611,38.939872],[48.32566,38.825641],[48.225635,38.713193]]]},"properties":{"LOCATION_TYPE":"level1","ADM0_A3":"AZE","LOCATION_ID":"AZE-LER","NAME":"Lerik","TYPE_EN":"District"}},
{"type":"Feature","geometry":{"type":"Polygon","coordinates":[[[46.866391,39.165445],[47.020468,39.18996],[47.10222,39.308403],[47.26132,39.366384],[47.163354,39.384935],[47.053387,39.465963],[46.966622,39.377907],[46.829421,39.477436],[46.73351,39.416277],[46.703486,39.367623],[46.82291,39.227993],[46.866391,39.165445]]]},"properties":{"LOCATION_TYPE":"level1","ADM0_A3":"AZE","LOCATION_ID":"AZE-CAB","NAME":"Cəbrayıl","TYPE_EN":"District"}},
{"type":"Feature","geometry":{"type":"Polygon","coordinates":[[[47.62498,39.571411],[47.624928,39.612208],[47.46592,39.73835],[47.31151,39.708016],[47.092661,39.644841],[47.053387,39.465963],[47.163354,39.384935],[47.26132,39.366384],[47.374245,39.455577],[47.62498,39.571411]]]},"properties":{"LOCATION_TYPE":"level1","ADM0_A3":"AZE","LOCATION_ID":"AZE-FUZ","NAME":"Füzuli","TYPE_EN":"District"}},
{"type":"Feature","geometry":{"type":"Polygon","coordinates":[[[47.788212,39.657651],[47.889718,39.76995],[47.748848,39.850927],[47.817474,40.025723],[47.791016,40.114012],[47.7566,40.159487],[47.625755,39.892578],[47.446179,39.826613],[47.46592,39.73835],[47.624928,39.612208],[47.62498,39.571411],[47.788212,39.657651]]]},"properties":{"LOCATION_TYPE":"level1","ADM0_A3":"AZE","LOCATION_ID":"AZE-BEY","NAME":"Beyləqan","TYPE_EN":"District"}},
{"type":"Feature","geometry":{"type":"Polygon","coordinates":[[[48.535641,38.469154],[48.607865,38.395978],[48.777725,38.444812],[48.874278,38.434068],[48.8685,38.602498],[48.698144,38.581676],[48.568953,38.538578],[48.535641,38.469154]]]},"properties":{"LOCATION_TYPE":"level1","ADM0_A3":"AZE","LOCATION_ID":"AZE-AST","NAME":"Astara","TYPE_EN":"District"}},
{"type":"Feature","geometry":{"type":"Polygon","coordinates":[[[49.078698,41.357414],[48.744136,41.34851],[48.747237,41.239809],[48.642799,41.132063],[48.721295,41.063902],[48.663366,41.001503],[48.680057,40.895075],[48.78186,40.855052],[48.844595,40.892491],[48.823201,40.984114],[48.930791,41.062119],[48.945106,41.168702],[49.080136,41.186194],[49.171641,41.140367],[49.078698,41.357414]]]},"properties":{"LOCATION_TYPE":"level1","ADM0_A3":"AZE","LOCATION_ID":"AZE-SBN","NAME":"Dəvəçi","TYPE_EN":"District"}},
{"type":"Feature","geometry":{"type":"Polygon","coordinates":[[[49.171641,41.140367],[49.080136,41.186194],[48.945106,41.168702],[48.930791,41.062119],[48.823201,40.984114],[48.844595,40.892491],[49.057399,40.924737],[49.241625,40.869211],[49.371421,40.884683],[49.195486,41.057278],[49.171641,41.140367]]]},"properties":{"LOCATION_TYPE":"level1","ADM0_A3":"AZE","LOCATION_ID":"AZE-SIY","NAME":"Siyəzən","TYPE_EN":"District"}},
{"type":"Feature","geometry":{"type":"Polygon","coordinates":[[[49.371421,40.884683],[49.241625,40.869211],[49.057399,40.924737],[48.844595,40.892491],[48.78186,40.855052],[48.80806,40.761698],[49.263123,40.505616],[49.401254,40.529826],[49.482696,40.636848],[49.531912,40.662869],[49.538829,40.788072],[49.371421,40.884683]]]},"properties":{"LOCATION_TYPE":"level1","ADM0_A3":"AZE","LOCATION_ID":"AZE-XIZ","NAME":"Xizı","TYPE_EN":"District"}},
{"type":"Feature","geometry":{"type":"Polygon","coordinates":[[[49.531912,40.662869],[49.482696,40.636848],[49.589046,40.54383],[49.690435,40.553391],[49.709719,40.585995],[49.531912,40.662869]]]},"properties":{"LOCATION_TYPE":"level1","ADM0_A3":"AZE","LOCATION_ID":"AZE-SM","NAME":"Sumqayıt","TYPE_EN":"Municipality"}},
{"type":"Feature","geometry":{"type":"Polygon","coordinates":[[[49.709719,40.585995],[49.690435,40.553391],[49.730381,40.465437],[49.543467,40.469081],[49.41934,40.398103],[49.425645,40.236562],[49.336606,40.086727],[49.291906,39.953014],[49.356812,39.812118],[49.358735,39.666571],[49.483897,39.988674],[49.442638,40.078437],[49.577159,40.216742],[49.778331,40.275824],[49.893403,40.369045],[50.229991,40.34276],[50.335948,40.405951],[50.237559,40.496161],[50.052013,40.584296],[49.816742,40.565375],[49.709719,40.585995]]]},"properties":{"LOCATION_TYPE":"level1","ADM0_A3":"AZE","LOCATION_ID":"AZE-BA","NAME":"Bakı","TYPE_EN":"Municipality"}},
{"type":"Feature","geometry":{"type":"Polygon","coordinates":[[[49.358735,39.666571],[49.356812,39.812118],[49.264673,39.876636],[49.078586,39.8817],[48.931463,39.913895],[48.909552,39.905678],[48.968567,39.676235],[48.766977,39.605697],[48.763773,39.408835],[48.891569,39.34902],[49.052748,39.548181],[49.166591,39.47666],[49.285382,39.508339],[49.358735,39.666571]]]},"properties":{"LOCATION_TYPE":"level1","ADM0_A3":"AZE","LOCATION_ID":"AZE-SAL","NAME":"Salyan","TYPE_EN":"District"}},
{"type":"Feature","geometry":{"type":"Polygon","coordinates":[[[49.285382,39.508339],[49.166591,39.47666],[49.052748,39.548181],[48.891569,39.34902],[48.763773,39.408835],[48.715714,39.35504],[48.740519,39.147223],[48.854414,39.131643],[49.023602,39.270058],[49.103597,39.201897],[49.234302,39.156351],[49.237071,39.278957],[49.408946,39.38642],[49.285382,39.508339]]]},"properties":{"LOCATION_TYPE":"level1","ADM0_A3":"AZE","LOCATION_ID":"AZE-NEF","NAME":"Neftçala","TYPE_EN":"District"}},
{"type":"Feature","geometry":{"type":"MultiPolygon","coordinates":[[[[49.234302,39.156351],[49.103597,39.201897],[49.023602,39.270058],[48.854414,39.131643],[48.918224,38.928941],[48.967621,39.183824],[49.05893,39.172797],[49.193858,39.016343],[49.234302,39.156351]]],[[[48.896251,38.890733],[48.824958,38.897988],[48.66104,38.828354],[48.593448,38.867189],[48.577376,38.781277],[48.665278,38.735517],[48.698144,38.581676],[48.8685,38.602498],[48.863433,38.747945],[48.83402,38.72671],[48.826298,38.777971],[48.84711,38.788044],[48.896251,38.890733]]]]},"properties":{"LOCATION_TYPE":"level1","ADM0_A3":"AZE","LOCATION_ID":"AZE-LA","NAME":"Lankaran","TYPE_EN":"District"}},
{"type":"Feature","geometry":{"type":"Polygon","coordinates":[[[48.918224,38.928941],[48.854414,39.131643],[48.740519,39.147223],[48.477796,38.985734],[48.547611,38.939872],[48.593448,38.867189],[48.66104,38.828354],[48.824958,38.897988],[48.896251,38.890733],[48.918224,38.928941]]]},"properties":{"LOCATION_TYPE":"level1","ADM0_A3":"AZE","LOCATION_ID":"AZE-MAS","NAME":"Masallı","TYPE_EN":"District"}},
{"type":"Feature","geometry":{"type":"Polygon","coordinates":[[[48.84711,38.788044],[48.826298,38.777971],[48.83402,38.72671],[48.863433,38.747945],[48.84711,38.788044]]]},"properties":{"LOCATION_TYPE":"level1","ADM0_A3":"AZE","LOCATION_ID":"AZE-LA","NAME":"Lankaran","TYPE_EN":"Municipality"}},
{"type":"Feature","geometry":{"type":"Polygon","coordinates":[[[45.530896,39.245021],[45.350131,39.24298],[45.380621,39.180296],[45.467644,39.187841],[45.530896,39.245021]]]},"properties":{"LOCATION_TYPE":"level1","ADM0_A3":"AZE","LOCATION_ID":"AZE-NX","NAME":"Naxçıvan","TYPE_EN":"Municipality"}},
{"type":"Feature","geometry":{"type":"Polygon","coordinates":[[[46.740981,39.771823],[46.540343,39.757677],[46.530576,39.615618],[46.735628,39.588798],[46.789372,39.655487],[46.776931,39.756778],[46.743584,39.745133],[46.740981,39.771823]]]},"properties":{"LOCATION_TYPE":"level1","ADM0_A3":"AZE","LOCATION_ID":"AZE-SUS","NAME":"Şuşa","TYPE_EN":"District"}},
{"type":"Feature","geometry":{"type":"Polygon","coordinates":[[[46.740981,39.771823],[46.776931,39.756778],[46.789372,39.655487],[46.906057,39.668406],[46.852727,39.795272],[46.923627,39.903715],[46.8226,39.988361],[46.697904,40.018152],[46.56706,39.958776],[46.450995,39.95813],[46.540343,39.757677],[46.740981,39.771823]],[[46.759812,39.800077],[46.741086,39.831718],[46.77983,39.86336],[46.805014,39.845279],[46.759812,39.800077]]]},"properties":{"LOCATION_TYPE":"level1","ADM0_A3":"AZE","LOCATION_ID":"AZE-XCI","NAME":"Xocalı","TYPE_EN":"District"}},
{"type":"Feature","geometry":{"type":"Polygon","coordinates":[[[46.740981,39.771823],[46.743584,39.745133],[46.776931,39.756778],[46.740981,39.771823]]]},"properties":{"LOCATION_TYPE":"level1","ADM0_A3":"AZE","LOCATION_ID":"AZE-X01~","NAME":"Şuşa","TYPE_EN":"Municipality"}},
{"type":"Feature","geometry":{"type":"Polygon","coordinates":[[[46.697904,40.018152],[46.8226,39.988361],[46.923627,39.903715],[46.852727,39.795272],[47.003674,39.882966],[47.156429,39.828732],[47.248982,39.856999],[47.262986,39.929475],[47.094469,39.925574],[47.101756,40.043913],[47.22888,40.169771],[47.086305,40.166851],[47.003829,40.214057],[46.814073,40.150728],[46.76157,40.032983],[46.697904,40.018152]]]},"properties":{"LOCATION_TYPE":"level1","ADM0_A3":"AZE","LOCATION_ID":"AZE-AGM","NAME":"Ağdam","TYPE_EN":"District"}},
{"type":"Feature","geometry":{"type":"Polygon","coordinates":[[[47.086305,40.166851],[47.077726,40.301675],[46.969309,40.415725],[46.923989,40.48001],[46.79671,40.403684],[46.722037,40.403839],[46.534452,40.313095],[46.499415,40.229483],[46.532282,40.133442],[46.63703,40.147937],[46.76157,40.032983],[46.814073,40.150728],[47.003829,40.214057],[47.086305,40.166851]]]},"properties":{"LOCATION_TYPE":"level1","ADM0_A3":"AZE","LOCATION_ID":"AZE-TAR","NAME":"Tərtər","TYPE_EN":"District"}},
{"type":"Feature","geometry":{"type":"Polygon","coordinates":[[[46.534452,40.313095],[46.722037,40.403839],[46.79671,40.403684],[46.923989,40.48001],[46.890192,40.623671],[46.828026,40.714078],[46.731184,40.765316],[46.75971,40.965975],[46.541273,40.791051],[46.470683,40.681755],[46.504893,40.543314],[46.348727,40.402392],[46.317773,40.276172],[46.429342,40.262995],[46.534452,40.313095]],[[46.82137,40.495618],[46.811611,40.506628],[46.827205,40.520158],[46.839636,40.501123],[46.82137,40.495618]]]},"properties":{"LOCATION_TYPE":"level1","ADM0_A3":"AZE","LOCATION_ID":"AZE-GOR","NAME":"Goranboy","TYPE_EN":"District"}},
{"type":"Feature","geometry":{"type":"Polygon","coordinates":[[[46.852727,39.795272],[46.906057,39.668406],[46.789372,39.655487],[46.735628,39.588798],[46.640699,39.483456],[46.73351,39.416277],[46.829421,39.477436],[46.966622,39.377907],[47.053387,39.465963],[47.092661,39.644841],[47.31151,39.708016],[47.339364,39.750158],[47.248982,39.856999],[47.156429,39.828732],[47.003674,39.882966],[46.852727,39.795272]]]},"properties":{"LOCATION_TYPE":"level1","ADM0_A3":"AZE","LOCATION_ID":"AZE-XVD","NAME":"Xocavənd","TYPE_EN":"District"}},
{"type":"Feature","geometry":{"type":"Polygon","coordinates":[[[48.85059,40.328495],[48.746927,40.344721],[48.671841,40.268008],[48.473713,40.331311],[48.440072,40.27842],[48.457539,40.137783],[48.663004,40.108715],[48.668844,40.052233],[48.873379,39.981591],[48.931463,39.913895],[49.078586,39.8817],[49.264673,39.876636],[49.356812,39.812118],[49.291906,39.953014],[49.169071,40.144527],[49.004379,40.159926],[48.85059,40.328495]]]},"properties":{"LOCATION_TYPE":"level1","ADM0_A3":"AZE","LOCATION_ID":"AZE-HAC","NAME":"Hajigabul","TYPE_EN":"District"}},
{"type":"Feature","geometry":{"type":"Polygon","coordinates":[[[48.85059,40.328495],[49.004379,40.159926],[49.169071,40.144527],[49.291906,39.953014],[49.336606,40.086727],[49.425645,40.236562],[49.41934,40.398103],[49.543467,40.469081],[49.730381,40.465437],[49.690435,40.553391],[49.589046,40.54383],[49.482696,40.636848],[49.401254,40.529826],[49.263123,40.505616],[48.936269,40.29152],[48.85059,40.328495]]]},"properties":{"LOCATION_TYPE":"level1","ADM0_A3":"AZE","LOCATION_ID":"AZE-ABS","NAME":"Abşeron","TYPE_EN":"District"}},
{"type":"Feature","geometry":{"type":"Polygon","coordinates":[[[46.470683,40.681755],[46.411792,40.68544],[46.345885,40.622598],[46.298371,40.657467],[46.34073,40.724622],[46.27731,40.832857],[46.215763,40.688938],[46.078976,40.647157],[46.202379,40.580831],[46.133443,40.501172],[46.226409,40.429367],[46.155767,40.307514],[46.317773,40.276172],[46.348727,40.402392],[46.504893,40.543314],[46.470683,40.681755]]]},"properties":{"LOCATION_TYPE":"level1","ADM0_A3":"AZE","LOCATION_ID":"AZE-GYG","NAME":"Xanlar","TYPE_EN":"District"}},
{"type":"Feature","geometry":{"type":"Polygon","coordinates":[[[48.440072,40.27842],[48.325867,40.352938],[48.322043,40.430039],[48.180915,40.405544],[48.079629,40.448229],[48.108413,40.532307],[48.027229,40.512902],[47.992606,40.441666],[47.934263,40.313199],[47.94434,40.167135],[47.851167,40.10086],[48.086554,40.096571],[48.317186,40.03983],[48.457539,40.137783],[48.440072,40.27842]]]},"properties":{"LOCATION_TYPE":"level1","ADM0_A3":"AZE","LOCATION_ID":"AZE-KUR","NAME":"Kürdəmir","TYPE_EN":"District"}},
{"type":"Feature","geometry":{"type":"Polygon","coordinates":[[[47.934263,40.313199],[47.719444,40.307075],[47.523022,40.390687],[47.44282,40.298419],[47.484265,40.253719],[47.7566,40.159487],[47.791016,40.114012],[47.851167,40.10086],[47.94434,40.167135],[47.934263,40.313199]]]},"properties":{"LOCATION_TYPE":"level1","ADM0_A3":"AZE","LOCATION_ID":"AZE-ZAR","NAME":"Zərdab","TYPE_EN":"District"}},
{"type":"Feature","geometry":{"type":"Polygon","coordinates":[[[48.457539,40.137783],[48.317186,40.03983],[48.249644,39.979679],[48.409325,39.999884],[48.693597,39.85488],[48.703622,39.734681],[48.582079,39.65174],[48.766977,39.605697],[48.968567,39.676235],[48.909552,39.905678],[48.873379,39.981591],[48.668844,40.052233],[48.663004,40.108715],[48.457539,40.137783]]]},"properties":{"LOCATION_TYPE":"level1","ADM0_A3":"AZE","LOCATION_ID":"AZE-SAB","NAME":"Sabirabad","TYPE_EN":"District"}},
{"type":"Feature","geometry":{"type":"Polygon","coordinates":[[[48.909552,39.905678],[48.931463,39.913895],[48.873379,39.981591],[48.909552,39.905678]]]},"properties":{"LOCATION_TYPE":"level1","ADM0_A3":"AZE","LOCATION_ID":"AZE-SR","NAME":"Shirvan","TYPE_EN":"Municipality"}},
{"type":"Feature","geometry":{"type":"Polygon","coordinates":[[[48.582079,39.65174],[48.703622,39.734681],[48.693597,39.85488],[48.409325,39.999884],[48.249644,39.979679],[48.240963,39.785453],[48.348656,39.73667],[48.379404,39.621665],[48.434233,39.662024],[48.582079,39.65174]]]},"properties":{"LOCATION_TYPE":"level1","ADM0_A3":"AZE","LOCATION_ID":"AZE-SAT","NAME":"Saatlı","TYPE_EN":"District"}},
{"type":"Feature","geometry":{"type":"Polygon","coordinates":[[[47.22888,40.169771],[47.315593,40.161916],[47.484265,40.253719],[47.44282,40.298419],[47.352852,40.43301],[47.207692,40.562589],[47.138291,40.485901],[47.017833,40.471613],[46.969309,40.415725],[47.077726,40.301675],[47.086305,40.166851],[47.22888,40.169771]]]},"properties":{"LOCATION_TYPE":"level1","ADM0_A3":"AZE","LOCATION_ID":"AZE-BAR","NAME":"Bərdə","TYPE_EN":"District"}},
{"type":"Feature","geometry":{"type":"Polygon","coordinates":[[[46.27731,40.832857],[46.310435,41.017342],[46.204653,41.136663],[46.045231,41.003415],[45.896971,41.00574],[45.73941,40.87828],[45.722615,40.823219],[45.912578,40.626099],[45.911699,40.557189],[46.078976,40.647157],[46.215763,40.688938],[46.27731,40.832857]]]},"properties":{"LOCATION_TYPE":"level1","ADM0_A3":"AZE","LOCATION_ID":"AZE-SKR","NAME":"Şəmkir","TYPE_EN":"District"}},
{"type":"Feature","geometry":{"type":"Polygon","coordinates":[[[48.473713,40.331311],[48.521514,40.420479],[48.6521,40.486883],[48.435473,40.567085],[48.52694,40.711572],[48.461156,40.793867],[48.41134,40.703201],[48.25321,40.633127],[48.108413,40.532307],[48.079629,40.448229],[48.180915,40.405544],[48.322043,40.430039],[48.325867,40.352938],[48.440072,40.27842],[48.473713,40.331311]]]},"properties":{"LOCATION_TYPE":"level1","ADM0_A3":"AZE","LOCATION_ID":"AZE-AGU","NAME":"Ağsu","TYPE_EN":"District"}},
{"type":"Feature","geometry":{"type":"Polygon","coordinates":[[[48.746927,40.344721],[48.7122,40.575095],[48.72946,40.721081],[48.80806,40.761698],[48.78186,40.855052],[48.680057,40.895075],[48.389222,40.948457],[48.486064,40.881639],[48.461156,40.793867],[48.52694,40.711572],[48.435473,40.567085],[48.6521,40.486883],[48.521514,40.420479],[48.473713,40.331311],[48.671841,40.268008],[48.746927,40.344721]]]},"properties":{"LOCATION_TYPE":"level1","ADM0_A3":"AZE","LOCATION_ID":"AZE-SMI","NAME":"Şamaxı","TYPE_EN":"District"}},
{"type":"Feature","geometry":{"type":"Polygon","coordinates":[[[48.680057,40.895075],[48.663366,41.001503],[48.721295,41.063902],[48.642799,41.132063],[48.747237,41.239809],[48.744136,41.34851],[48.675458,41.350551],[48.575464,41.483489],[48.386174,41.416594],[47.92646,41.157695],[48.031105,41.063127],[48.389222,40.948457],[48.680057,40.895075]]]},"properties":{"LOCATION_TYPE":"level1","ADM0_A3":"AZE","LOCATION_ID":"AZE-QBA","NAME":"Quba","TYPE_EN":"District"}},
{"type":"Feature","geometry":{"type":"Polygon","coordinates":[[[47.992606,40.441666],[47.586377,40.525382],[47.480441,40.516571],[47.523022,40.390687],[47.719444,40.307075],[47.934263,40.313199],[47.992606,40.441666]]]},"properties":{"LOCATION_TYPE":"level1","ADM0_A3":"AZE","LOCATION_ID":"AZE-UCA","NAME":"Ucar","TYPE_EN":"District"}},
{"type":"Feature","geometry":{"type":"Polygon","coordinates":[[[48.746927,40.344721],[48.85059,40.328495],[48.936269,40.29152],[49.263123,40.505616],[48.80806,40.761698],[48.72946,40.721081],[48.7122,40.575095],[48.746927,40.344721]]]},"properties":{"LOCATION_TYPE":"level1","ADM0_A3":"AZE","LOCATION_ID":"AZE-QOB","NAME":"Qobustan","TYPE_EN":"District"}},
{"type":"Feature","geometry":{"type":"Polygon","coordinates":[[[48.108413,40.532307],[48.25321,40.633127],[48.41134,40.703201],[48.461156,40.793867],[48.486064,40.881639],[48.389222,40.948457],[48.031105,41.063127],[47.948836,40.978998],[47.9801,40.883732],[47.732467,40.674959],[48.00568,40.626151],[48.027229,40.512902],[48.108413,40.532307]]]},"properties":{"LOCATION_TYPE":"level1","ADM0_A3":"AZE","LOCATION_ID":"AZE-ISM","NAME":"İsmayıllı","TYPE_EN":"District"}},
{"type":"Feature","geometry":{"type":"Polygon","coordinates":[[[46.969309,40.415725],[47.017833,40.471613],[47.138291,40.485901],[47.207692,40.562589],[47.262831,40.788854],[46.929983,40.91094],[46.75971,40.965975],[46.731184,40.765316],[46.828026,40.714078],[46.890192,40.623671],[46.923989,40.48001],[46.969309,40.415725]],[[46.98936,40.769786],[46.967862,40.725318],[46.920578,40.768003],[46.98936,40.769786]],[[47.17355,40.569834],[47.107429,40.585645],[47.110783,40.639309],[47.189464,40.639228],[47.17355,40.569834]]]},"properties":{"LOCATION_TYPE":"level1","ADM0_A3":"AZE","LOCATION_ID":"AZE-YEV","NAME":"Yevlakh Rayon","TYPE_EN":"District"}},
{"type":"Feature","geometry":{"type":"Polygon","coordinates":[[[46.34073,40.724622],[46.298371,40.657467],[46.345885,40.622598],[46.411792,40.68544],[46.34073,40.724622]]]},"properties":{"LOCATION_TYPE":"level1","ADM0_A3":"AZE","LOCATION_ID":"AZE-GA","NAME":"Gəncə","TYPE_EN":"Municipality"}},
{"type":"Feature","geometry":{"type":"Polygon","coordinates":[[[46.98936,40.769786],[46.920578,40.768003],[46.967862,40.725318],[46.98936,40.769786]]]},"properties":{"LOCATION_TYPE":"level1","ADM0_A3":"AZE","LOCATION_ID":"AZE-MI","NAME":"Mingəçevir","TYPE_EN":"Municipality"}},
{"type":"Feature","geometry":{"type":"Polygon","coordinates":[[[48.027229,40.512902],[48.00568,40.626151],[47.732467,40.674959],[47.588599,40.639458],[47.586377,40.525382],[47.992606,40.441666],[48.027229,40.512902]]]},"properties":{"LOCATION_TYPE":"level1","ADM0_A3":"AZE","LOCATION_ID":"AZE-GOY","NAME":"Göyçay","TYPE_EN":"District"}},
{"type":"Feature","geometry":{"type":"Polygon","coordinates":[[[47.523022,40.390687],[47.480441,40.516571],[47.586377,40.525382],[47.588599,40.639458],[47.525606,40.761466],[47.262831,40.788854],[47.207692,40.562589],[47.352852,40.43301],[47.44282,40.298419],[47.523022,40.390687]]]},"properties":{"LOCATION_TYPE":"level1","ADM0_A3":"AZE","LOCATION_ID":"AZE-AGS","NAME":"Ağdaş","TYPE_EN":"District"}},
{"type":"Feature","geometry":{"type":"Polygon","coordinates":[[[47.22888,40.169771],[47.101756,40.043913],[47.094469,39.925574],[47.262986,39.929475],[47.248982,39.856999],[47.339364,39.750158],[47.31151,39.708016],[47.46592,39.73835],[47.446179,39.826613],[47.625755,39.892578],[47.7566,40.159487],[47.484265,40.253719],[47.315593,40.161916],[47.22888,40.169771]]]},"properties":{"LOCATION_TYPE":"level1","ADM0_A3":"AZE","LOCATION_ID":"AZE-AGC","NAME":"Ağcabədi","TYPE_EN":"District"}},
{"type":"Feature","geometry":{"type":"Polygon","coordinates":[[[46.759812,39.800077],[46.805014,39.845279],[46.77983,39.86336],[46.741086,39.831718],[46.759812,39.800077]]]},"properties":{"LOCATION_TYPE":"level1","ADM0_A3":"AZE","LOCATION_ID":"AZE-XA","NAME":"Stepanakert","TYPE_EN":"District"}},
{"type":"Feature","geometry":{"type":"Polygon","coordinates":[[[47.17355,40.569834],[47.189464,40.639228],[47.110783,40.639309],[47.107429,40.585645],[47.17355,40.569834]]]},"properties":{"LOCATION_TYPE":"level1","ADM0_A3":"AZE","LOCATION_ID":"AZE-YEV","NAME":"Yevlakh","TYPE_EN":"Municipality"}},
{"type":"Feature","geometry":{"type":"Polygon","coordinates":[[[46.82137,40.495618],[46.839636,40.501123],[46.827205,40.520158],[46.811611,40.506628],[46.82137,40.495618]]]},"properties":{"LOCATION_TYPE":"level1","ADM0_A3":"AZE","LOCATION_ID":"AZE-NA","NAME":"Naftalan","TYPE_EN":"Municipality"}},
{"type":"Feature","geometry":{"type":"Polygon","coordinates":[[[47.188946,41.155475],[47.219424,41.18766],[47.172854,41.234961],[47.147984,41.164009],[47.188946,41.155475]]]},"properties":{"LOCATION_TYPE":"level1","ADM0_A3":"AZE","LOCATION_ID":"AZE-SA","NAME":"Şəki","TYPE_EN":"Municipality"}}
]}