{"type":"FeatureCollection", "features": [
{"type":"Feature","geometry":{"type":"Polygon","coordinates":[[[30.488325,-2.94316],[30.415797,-2.851659],[30.450523,-2.741795],[30.416003,-2.645574],[30.508091,-2.463466],[30.423238,-2.317325],[30.34861,-2.322352],[30.425564,-2.456801],[30.415643,-2.576535],[30.280044,-2.680921],[30.078092,-2.780967],[30.186819,-2.897962],[30.271362,-2.924886],[30.288415,-3.000333],[30.243767,-3.109371],[30.338128,-3.145079],[30.415436,-3.010927],[30.488325,-2.94316]]]},"properties":{"LOCATION_TYPE":"level1","ADM0_A3":"BDI","LOCATION_ID":"BDI-MY","NAME":"Muyinga","TYPE_EN":"Province"}},
{"type":"Feature","geometry":{"type":"Polygon","coordinates":[[[30.34861,-2.322352],[30.20134,-2.362387],[30.139121,-2.430807],[29.931692,-2.316912],[29.903726,-2.637947],[29.97846,-2.654618],[30.078092,-2.780967],[30.280044,-2.680921],[30.415643,-2.576535],[30.425564,-2.456801],[30.34861,-2.322352]]]},"properties":{"LOCATION_TYPE":"level1","ADM0_A3":"BDI","LOCATION_ID":"BDI-KI","NAME":"Kirundo","TYPE_EN":"Province"}},
{"type":"Feature","geometry":{"type":"Polygon","coordinates":[[[29.903726,-2.637947],[29.823585,-2.763499],[29.637087,-2.791629],[29.6283,-2.872227],[29.781676,-2.905197],[29.802037,-2.984779],[29.878001,-3.058469],[29.90756,-3.086943],[30.014943,-2.997594],[30.092561,-2.979094],[30.186819,-2.897962],[30.078092,-2.780967],[29.97846,-2.654618],[29.903726,-2.637947]]]},"properties":{"LOCATION_TYPE":"level1","ADM0_A3":"BDI","LOCATION_ID":"BDI-NG","NAME":"Ngozi","TYPE_EN":"Province"}},
{"type":"Feature","geometry":{"type":"Polygon","coordinates":[[[29.444675,-2.806989],[29.339687,-2.826441],[29.306614,-2.660147],[29.129725,-2.596998],[29.032574,-2.620666],[28.994902,-2.813626],[29.08978,-2.926074],[29.234629,-3.046583],[29.241539,-3.104188],[29.371779,-2.950931],[29.494872,-2.911036],[29.444675,-2.806989]]]},"properties":{"LOCATION_TYPE":"level1","ADM0_A3":"BDI","LOCATION_ID":"BDI-CI","NAME":"Cibitoke","TYPE_EN":"Province"}},
{"type":"Feature","geometry":{"type":"Polygon","coordinates":[[[29.637087,-2.791629],[29.504121,-2.826855],[29.444675,-2.806989],[29.494872,-2.911036],[29.558744,-3.090767],[29.814749,-3.179341],[29.878001,-3.058469],[29.802037,-2.984779],[29.781676,-2.905197],[29.6283,-2.872227],[29.637087,-2.791629]]]},"properties":{"LOCATION_TYPE":"level1","ADM0_A3":"BDI","LOCATION_ID":"BDI-KY","NAME":"Kayanza","TYPE_EN":"Province"}},
{"type":"Feature","geometry":{"type":"Polygon","coordinates":[[[30.488325,-2.94316],[30.415436,-3.010927],[30.338128,-3.145079],[30.288932,-3.18518],[30.440034,-3.231172],[30.61025,-3.376359],[30.640538,-3.33287],[30.799753,-3.274579],[30.832205,-3.172777],[30.718879,-2.989532],[30.547003,-2.900339],[30.488325,-2.94316]]]},"properties":{"LOCATION_TYPE":"level1","ADM0_A3":"BDI","LOCATION_ID":"BDI-CA","NAME":"Cankuzo","TYPE_EN":"Province"}},
{"type":"Feature","geometry":{"type":"Polygon","coordinates":[[[30.61025,-3.376359],[30.440034,-3.231172],[30.288932,-3.18518],[30.156434,-3.31742],[30.038095,-3.346565],[30.08233,-3.424752],[30.103517,-3.63585],[30.22816,-3.638641],[30.373068,-3.704339],[30.46892,-3.513014],[30.612891,-3.444905],[30.61025,-3.376359]]]},"properties":{"LOCATION_TYPE":"level1","ADM0_A3":"BDI","LOCATION_ID":"BDI-RY","NAME":"Ruyigi","TYPE_EN":"Province"}},
{"type":"Feature","geometry":{"type":"Polygon","coordinates":[[[30.373068,-3.704339],[30.22816,-3.638641],[30.103517,-3.63585],[29.928334,-3.820438],[29.881618,-4.059494],[29.953138,-4.13551],[30.040575,-4.06616],[30.175852,-4.039992],[30.208781,-3.930457],[30.373068,-3.704339]]]},"properties":{"LOCATION_TYPE":"level1","ADM0_A3":"BDI","LOCATION_ID":"BDI-RT","NAME":"Rutana","TYPE_EN":"Province"}},
{"type":"Feature","geometry":{"type":"Polygon","coordinates":[[[30.175852,-4.039992],[30.040575,-4.06616],[29.953138,-4.13551],[29.881618,-4.059494],[29.781159,-4.019599],[29.531872,-4.177729],[29.367224,-4.189048],[29.404179,-4.449805],[29.728293,-4.461587],[29.80033,-4.363919],[29.900479,-4.345625],[30.003005,-4.271935],[30.051478,-4.180157],[30.175852,-4.039992]]]},"properties":{"LOCATION_TYPE":"level1","ADM0_A3":"BDI","LOCATION_ID":"BDI-MA","NAME":"Makamba","TYPE_EN":"Province"}},
{"type":"Feature","geometry":{"type":"Polygon","coordinates":[[[29.236117,-3.270704],[29.293851,-3.311064],[29.397824,-3.257165],[29.523087,-3.280006],[29.558744,-3.090767],[29.494872,-2.911036],[29.371779,-2.950931],[29.241539,-3.104188],[29.236117,-3.270704]]]},"properties":{"LOCATION_TYPE":"level1","ADM0_A3":"BDI","LOCATION_ID":"BDI-BB","NAME":"Bubanza","TYPE_EN":"Province"}},
{"type":"Feature","geometry":{"type":"Polygon","coordinates":[[[29.211937,-3.406826],[29.351814,-3.313234],[29.411234,-3.369653],[29.377701,-3.525282],[29.223899,-3.571086],[29.217123,-3.709266],[29.310077,-3.729488],[29.488257,-3.716982],[29.583962,-3.546347],[29.59254,-3.39912],[29.523087,-3.280006],[29.397824,-3.257165],[29.293851,-3.311064],[29.236117,-3.270704],[29.211937,-3.406826]]]},"properties":{"LOCATION_TYPE":"level1","ADM0_A3":"BDI","LOCATION_ID":"BDI-BL","NAME":"Bujumbura Rural","TYPE_EN":"Province"}},
{"type":"Feature","geometry":{"type":"Polygon","coordinates":[[[29.223899,-3.571086],[29.377701,-3.525282],[29.411234,-3.369653],[29.351814,-3.313234],[29.211937,-3.406826],[29.223899,-3.571086]]]},"properties":{"LOCATION_TYPE":"level1","ADM0_A3":"BDI","LOCATION_ID":"BDI-BM","NAME":"Bujumbura Mairie","TYPE_EN":"Province"}},
{"type":"Feature","geometry":{"type":"Polygon","coordinates":[[[29.367224,-4.189048],[29.531872,-4.177729],[29.781159,-4.019599],[29.881618,-4.059494],[29.928334,-3.820438],[29.766173,-3.769692],[29.726072,-3.640346],[29.642563,-3.629701],[29.583962,-3.546347],[29.488257,-3.716982],[29.310077,-3.729488],[29.217123,-3.709266],[29.215043,-3.899864],[29.33948,-4.093237],[29.367224,-4.189048]]]},"properties":{"LOCATION_TYPE":"level1","ADM0_A3":"BDI","LOCATION_ID":"BDI-BR","NAME":"Bururi","TYPE_EN":"Province"}},
{"type":"Feature","geometry":{"type":"Polygon","coordinates":[[[29.878001,-3.058469],[29.814749,-3.179341],[29.797076,-3.289773],[29.843378,-3.356126],[29.869113,-3.476377],[29.769894,-3.544435],[29.726072,-3.640346],[29.766173,-3.769692],[29.928334,-3.820438],[30.103517,-3.63585],[30.08233,-3.424752],[30.038095,-3.346565],[30.015254,-3.231844],[29.90756,-3.086943],[29.878001,-3.058469]]]},"properties":{"LOCATION_TYPE":"level1","ADM0_A3":"BDI","LOCATION_ID":"BDI-GI","NAME":"Gitega","TYPE_EN":"Province"}},
{"type":"Feature","geometry":{"type":"Polygon","coordinates":[[[29.558744,-3.090767],[29.523087,-3.280006],[29.59254,-3.39912],[29.843378,-3.356126],[29.797076,-3.289773],[29.814749,-3.179341],[29.558744,-3.090767]]]},"properties":{"LOCATION_TYPE":"level1","ADM0_A3":"BDI","LOCATION_ID":"BDI-MU","NAME":"Muramvya","TYPE_EN":"Province"}},
{"type":"Feature","geometry":{"type":"Polygon","coordinates":[[[29.843378,-3.356126],[29.59254,-3.39912],[29.583962,-3.546347],[29.642563,-3.629701],[29.726072,-3.640346],[29.769894,-3.544435],[29.869113,-3.476377],[29.843378,-3.356126]]]},"properties":{"LOCATION_TYPE":"level1","ADM0_A3":"BDI","LOCATION_ID":"BDI-MW","NAME":"Mwaro","TYPE_EN":"Province"}},
{"type":"Feature","geometry":{"type":"Polygon","coordinates":[[[29.90756,-3.086943],[30.015254,-3.231844],[30.038095,-3.346565],[30.156434,-3.31742],[30.288932,-3.18518],[30.338128,-3.145079],[30.243767,-3.109371],[30.288415,-3.000333],[30.271362,-2.924886],[30.186819,-2.897962],[30.092561,-2.979094],[30.014943,-2.997594],[29.90756,-3.086943]]]},"properties":{"LOCATION_TYPE":"level1","ADM0_A3":"BDI","LOCATION_ID":"BDI-KR","NAME":"Karuzi","TYPE_EN":"Province"}}
]}