{"type":"FeatureCollection", "features": [
{"type":"Feature","geometry":{"type":"Polygon","coordinates":[[[3.398798,51.244698],[3.349415,51.375223],[3.124848,51.329657],[2.5218,51.087541],[2.60845,50.961128],[2.576928,50.911519],[2.620439,50.816486],[2.866726,50.700091],[2.842193,50.750841],[3.023817,50.768262],[3.162811,50.749939],[3.303302,50.756423],[3.367432,50.717303],[3.457608,50.768515],[3.4438,51.049313],[3.330681,51.100137],[3.410314,51.161115],[3.398798,51.244698]]]},"properties":{"LOCATION_TYPE":"level1","ADM0_A3":"BEL","LOCATION_ID":"BEL-VWV","NAME":"West Flanders","TYPE_EN":"Province"}},
{"type":"Feature","geometry":{"type":"MultiPolygon","coordinates":[[[[2.866726,50.700091],[3.023817,50.768262],[2.842193,50.750841],[2.866726,50.700091]]],[[[3.162811,50.749939],[3.224433,50.705175],[3.271045,50.526943],[3.343599,50.49294],[3.462868,50.51914],[3.644356,50.445501],[3.661719,50.319307],[3.755047,50.346334],[3.895917,50.325301],[4.022731,50.338117],[4.157296,50.212698],[4.128151,50.146243],[4.210006,50.06015],[4.139623,49.974522],[4.427651,49.933572],[4.398368,50.126424],[4.33894,50.229777],[4.453765,50.306232],[4.587865,50.322484],[4.615977,50.425191],[4.576755,50.543427],[4.30411,50.568128],[4.251968,50.618203],[4.101125,50.636031],[4.099739,50.707123],[3.906934,50.694669],[3.894988,50.734164],[3.675321,50.771925],[3.634651,50.721851],[3.457608,50.768515],[3.367432,50.717303],[3.303302,50.756423],[3.162811,50.749939]]]]},"properties":{"LOCATION_TYPE":"level1","ADM0_A3":"BEL","LOCATION_ID":"BEL-WHT","NAME":"Hainaut","TYPE_EN":"Province"}},
{"type":"Feature","geometry":{"type":"Polygon","coordinates":[[[4.427651,49.933572],[4.656697,49.989095],[4.681915,50.083921],[4.788575,50.153374],[4.862886,50.084076],[4.788265,49.974263],[4.844593,49.931734],[4.849037,49.794171],[4.968371,49.796981],[5.10096,49.96155],[4.991148,50.030332],[5.093312,50.092007],[5.208292,50.099061],[5.279554,50.159471],[5.205863,50.219907],[5.392674,50.288068],[5.392415,50.380465],[5.236094,50.438059],[5.053366,50.541928],[4.98257,50.643369],[4.655044,50.596576],[4.576755,50.543427],[4.615977,50.425191],[4.587865,50.322484],[4.453765,50.306232],[4.33894,50.229777],[4.398368,50.126424],[4.427651,49.933572]]]},"properties":{"LOCATION_TYPE":"level1","ADM0_A3":"BEL","LOCATION_ID":"BEL-WNA","NAME":"Namur","TYPE_EN":"Province"}},
{"type":"Feature","geometry":{"type":"Polygon","coordinates":[[[4.968371,49.796981],[5.192478,49.682808],[5.259244,49.691335],[5.402078,49.602451],[5.477724,49.495224],[5.644647,49.543799],[5.790685,49.537753],[5.885459,49.643534],[5.714927,49.881866],[5.812596,49.977571],[5.872437,50.096892],[6.022967,50.15082],[6.012998,50.311761],[5.867787,50.319461],[5.720716,50.263082],[5.67028,50.35765],[5.508636,50.425966],[5.392415,50.380465],[5.392674,50.288068],[5.205863,50.219907],[5.279554,50.159471],[5.208292,50.099061],[5.093312,50.092007],[4.991148,50.030332],[5.10096,49.96155],[4.968371,49.796981]]]},"properties":{"LOCATION_TYPE":"level1","ADM0_A3":"BEL","LOCATION_ID":"BEL-WLX","NAME":"Luxembourg","TYPE_EN":"Province"}},
{"type":"Feature","geometry":{"type":"Polygon","coordinates":[[[6.022967,50.15082],[6.253396,50.256778],[6.337732,50.368089],[6.318715,50.481674],[6.199239,50.490408],[6.232932,50.587146],[6.081003,50.713495],[5.891288,50.751246],[5.818291,50.715598],[5.732777,50.758851],[5.657432,50.807641],[5.430976,50.720869],[5.101103,50.709756],[5.019103,50.751932],[4.98257,50.643369],[5.053366,50.541928],[5.236094,50.438059],[5.392415,50.380465],[5.508636,50.425966],[5.67028,50.35765],[5.720716,50.263082],[5.867787,50.319461],[6.012998,50.311761],[6.022967,50.15082]]]},"properties":{"LOCATION_TYPE":"level1","ADM0_A3":"BEL","LOCATION_ID":"BEL-WLG","NAME":"Liege","TYPE_EN":"Province"}},
{"type":"Feature","geometry":{"type":"Polygon","coordinates":[[[3.398798,51.244698],[3.410314,51.161115],[3.330681,51.100137],[3.4438,51.049313],[3.457608,50.768515],[3.634651,50.721851],[3.675321,50.771925],[3.894988,50.734164],[4.060352,50.792636],[4.073633,50.900046],[4.160191,50.929915],[4.240341,51.038074],[4.181998,51.099879],[4.315995,51.132176],[4.29865,51.269572],[4.241059,51.356594],[4.118952,51.272401],[3.927026,51.206255],[3.808687,51.205325],[3.776234,51.254521],[3.635054,51.287827],[3.398798,51.244698]]]},"properties":{"LOCATION_TYPE":"level1","ADM0_A3":"BEL","LOCATION_ID":"BEL-VOV","NAME":"East Flanders","TYPE_EN":"Province"}},
{"type":"Feature","geometry":{"type":"Polygon","coordinates":[[[5.239456,51.25693],[5.122922,51.313381],[5.012128,51.474327],[4.910325,51.391903],[4.731215,51.485618],[4.653907,51.426216],[4.525232,51.475929],[4.377128,51.442882],[4.290105,51.368752],[4.29865,51.269572],[4.315995,51.132176],[4.181998,51.099879],[4.240341,51.038074],[4.388239,51.012287],[4.818549,51.011073],[4.980916,51.036007],[5.009803,51.075126],[5.260434,51.148067],[5.239456,51.25693]]]},"properties":{"LOCATION_TYPE":"level1","ADM0_A3":"BEL","LOCATION_ID":"BEL-VAN","NAME":"Antwerp","TYPE_EN":"Province"}},
{"type":"Feature","geometry":{"type":"MultiPolygon","coordinates":[[[[5.657432,50.807641],[5.622323,50.852659],[5.722369,50.959423],[5.840501,51.138921],[5.545532,51.219924],[5.471635,51.288085],[5.239456,51.25693],[5.260434,51.148067],[5.009803,51.075126],[4.980916,51.036007],[5.081013,51.024483],[5.041481,50.943092],[5.171654,50.914309],[5.101103,50.709756],[5.430976,50.720869],[5.657432,50.807641]]],[[[5.891288,50.751246],[5.732777,50.758851],[5.818291,50.715598],[5.891288,50.751246]]]]},"properties":{"LOCATION_TYPE":"level1","ADM0_A3":"BEL","LOCATION_ID":"BEL-VLI","NAME":"Limburg","TYPE_EN":"Province"}},
{"type":"Feature","geometry":{"type":"Polygon","coordinates":[[[4.479746,50.795423],[4.377345,50.898584],[4.282829,50.839622],[4.327632,50.778979],[4.479746,50.795423]]]},"properties":{"LOCATION_TYPE":"level1","ADM0_A3":"BEL","LOCATION_ID":"BEL-BRU","NAME":"Brussels","TYPE_EN":"Capital Region"}},
{"type":"Feature","geometry":{"type":"Polygon","coordinates":[[[4.099739,50.707123],[4.239989,50.692034],[4.458012,50.754562],[4.63521,50.744072],[4.749622,50.808667],[4.832614,50.764639],[5.019103,50.751932],[5.101103,50.709756],[5.171654,50.914309],[5.041481,50.943092],[5.081013,51.024483],[4.980916,51.036007],[4.818549,51.011073],[4.388239,51.012287],[4.240341,51.038074],[4.160191,50.929915],[4.073633,50.900046],[4.060352,50.792636],[3.894988,50.734164],[3.906934,50.694669],[4.099739,50.707123]],[[4.479746,50.795423],[4.327632,50.778979],[4.282829,50.839622],[4.377345,50.898584],[4.479746,50.795423]]]},"properties":{"LOCATION_TYPE":"level1","ADM0_A3":"BEL","LOCATION_ID":"BEL-VBR","NAME":"Flemish Brabant","TYPE_EN":"Province"}},
{"type":"Feature","geometry":{"type":"Polygon","coordinates":[[[4.099739,50.707123],[4.101125,50.636031],[4.251968,50.618203],[4.30411,50.568128],[4.576755,50.543427],[4.655044,50.596576],[4.98257,50.643369],[5.019103,50.751932],[4.832614,50.764639],[4.749622,50.808667],[4.63521,50.744072],[4.458012,50.754562],[4.239989,50.692034],[4.099739,50.707123]]]},"properties":{"LOCATION_TYPE":"level1","ADM0_A3":"BEL","LOCATION_ID":"BEL-WBR","NAME":"Walloon Brabant","TYPE_EN":"Province"}}
]}