{"type":"FeatureCollection", "features": [
{"type":"Feature","geometry":{"type":"Polygon","coordinates":[[[3.837246,10.630609],[3.731276,10.825025],[3.754117,10.907139],[3.722077,11.112346],[3.662546,11.143145],[3.483332,11.392303],[3.504933,11.556557],[3.5964,11.695773],[3.503486,11.829977],[3.292749,11.918653],[3.255129,12.018751],[2.844301,12.399244],[2.628604,12.300801],[2.36123,12.218894],[2.407429,11.95121],[2.291054,11.674792],[2.015429,11.43159],[2.263976,11.012145],[2.356167,10.960081],[2.261185,10.842465],[2.254984,10.517834],[2.775004,10.552199],[2.975767,10.520857],[3.217199,10.540804],[3.458063,10.589147],[3.837246,10.630609]]]},"properties":{"LOCATION_TYPE":"level1","ADM0_A3":"BEN","LOCATION_ID":"BEN-AL","NAME":"Alibori","TYPE_EN":"Department"}},
{"type":"Feature","geometry":{"type":"Polygon","coordinates":[[[3.837246,10.630609],[3.458063,10.589147],[3.217199,10.540804],[2.975767,10.520857],[2.775004,10.552199],[2.254984,10.517834],[2.183774,10.430552],[2.262736,10.238445],[2.267593,10.134937],[2.091893,10.031533],[2.080576,9.805448],[2.161295,9.656465],[2.121866,9.399737],[1.975518,9.307727],[1.977533,9.163963],[2.050811,9.091409],[2.050966,8.871914],[2.194626,8.776674],[2.722949,8.771218],[2.769164,9.057045],[2.983104,9.060611],[3.091315,9.126421],[3.151363,9.288633],[3.128625,9.429581],[3.338638,9.678222],[3.317141,9.78173],[3.513098,9.846609],[3.599604,9.968695],[3.655621,10.174781],[3.572422,10.285704],[3.652107,10.435798],[3.756907,10.405257],[3.837246,10.630609]]]},"properties":{"LOCATION_TYPE":"level1","ADM0_A3":"BEN","LOCATION_ID":"BEN-BO","NAME":"Borgou","TYPE_EN":"Department"}},
{"type":"Feature","geometry":{"type":"Polygon","coordinates":[[[2.717641,7.658549],[2.498173,7.659068],[2.427532,7.426033],[2.480758,7.217079],[2.528094,7.184962],[2.520033,6.993165],[2.596359,6.65887],[2.718803,6.504298],[2.778569,6.698765],[2.723585,6.799715],[2.71511,6.979833],[2.773918,7.050785],[2.741155,7.408179],[2.792315,7.477633],[2.717641,7.658549]]]},"properties":{"LOCATION_TYPE":"level1","ADM0_A3":"BEN","LOCATION_ID":"BEN-PL","NAME":"Plateau","TYPE_EN":"Department"}},
{"type":"Feature","geometry":{"type":"Polygon","coordinates":[[[2.717641,7.658549],[2.727203,7.793324],[2.672219,7.889597],[2.734954,8.211903],[2.697127,8.320708],[2.744773,8.498294],[2.722949,8.771218],[2.194626,8.776674],[2.211731,8.503125],[2.060267,8.48943],[1.829687,8.614875],[1.607204,8.588617],[1.625564,8.270478],[1.622855,7.62246],[1.844725,7.632403],[2.019288,7.541555],[2.177573,7.529773],[2.427532,7.426033],[2.498173,7.659068],[2.717641,7.658549]]]},"properties":{"LOCATION_TYPE":"level1","ADM0_A3":"BEN","LOCATION_ID":"BEN-CO","NAME":"Collines","TYPE_EN":"Department"}},
{"type":"Feature","geometry":{"type":"Polygon","coordinates":[[[2.483952,6.347932],[2.703841,6.368352],[2.718803,6.504298],[2.596359,6.65887],[2.520033,6.993165],[2.384899,6.92056],[2.429082,6.824261],[2.467581,6.395837],[2.483952,6.347932]]]},"properties":{"LOCATION_TYPE":"level1","ADM0_A3":"BEN","LOCATION_ID":"BEN-OU","NAME":"Ouémé","TYPE_EN":"Department"}},
{"type":"Feature","geometry":{"type":"Polygon","coordinates":[[[2.015429,11.43159],[1.879812,11.444858],[1.601587,11.388686],[1.433845,11.459405],[1.268377,11.247893],[1.130608,11.247583],[1.035006,11.049275],[0.901474,10.992741],[0.862924,10.796086],[0.781275,10.693044],[0.768769,10.367094],[1.331009,9.996471],[1.343942,9.954756],[1.609649,9.946887],[1.807931,10.040447],[2.091893,10.031533],[2.267593,10.134937],[2.262736,10.238445],[2.183774,10.430552],[2.254984,10.517834],[2.261185,10.842465],[2.356167,10.960081],[2.263976,11.012145],[2.015429,11.43159]]]},"properties":{"LOCATION_TYPE":"level1","ADM0_A3":"BEN","LOCATION_ID":"BEN-AK","NAME":"Atakora","TYPE_EN":"Department"}},
{"type":"Feature","geometry":{"type":"Polygon","coordinates":[[[1.343942,9.954756],[1.351266,9.595074],[1.425267,9.284499],[1.567273,9.13673],[1.601173,9.049526],[1.607204,8.588617],[1.829687,8.614875],[2.060267,8.48943],[2.211731,8.503125],[2.194626,8.776674],[2.050966,8.871914],[2.050811,9.091409],[1.977533,9.163963],[1.975518,9.307727],[2.121866,9.399737],[2.161295,9.656465],[2.080576,9.805448],[2.091893,10.031533],[1.807931,10.040447],[1.609649,9.946887],[1.343942,9.954756]]]},"properties":{"LOCATION_TYPE":"level1","ADM0_A3":"BEN","LOCATION_ID":"BEN-DO","NAME":"Donga","TYPE_EN":"Department"}},
{"type":"Feature","geometry":{"type":"Polygon","coordinates":[[[1.623251,7.536385],[1.684425,7.491972],[1.880433,7.09272],[2.000529,6.941437],[2.083987,6.91932],[2.384899,6.92056],[2.520033,6.993165],[2.528094,7.184962],[2.480758,7.217079],[2.427532,7.426033],[2.177573,7.529773],[2.019288,7.541555],[1.844725,7.632403],[1.622855,7.62246],[1.623251,7.536385]]]},"properties":{"LOCATION_TYPE":"level1","ADM0_A3":"BEN","LOCATION_ID":"BEN-ZO","NAME":"Zou","TYPE_EN":"Department"}},
{"type":"Feature","geometry":{"type":"Polygon","coordinates":[[[1.623251,7.536385],[1.625668,6.996783],[1.589182,6.72046],[1.68675,6.68998],[1.898417,6.747005],[2.023629,6.70649],[2.083987,6.91932],[2.000529,6.941437],[1.880433,7.09272],[1.684425,7.491972],[1.623251,7.536385]]]},"properties":{"LOCATION_TYPE":"level1","ADM0_A3":"BEN","LOCATION_ID":"BEN-KO","NAME":"Kouffo","TYPE_EN":"Department"}},
{"type":"Feature","geometry":{"type":"Polygon","coordinates":[[[1.589182,6.72046],[1.594145,6.611045],[1.74411,6.425733],[1.782351,6.277267],[1.987709,6.286521],[1.957845,6.392349],[2.023629,6.70649],[1.898417,6.747005],[1.68675,6.68998],[1.589182,6.72046]]]},"properties":{"LOCATION_TYPE":"level1","ADM0_A3":"BEN","LOCATION_ID":"BEN-MO","NAME":"Mono","TYPE_EN":"Department"}},
{"type":"Feature","geometry":{"type":"Polygon","coordinates":[[[2.359853,6.336401],[2.467581,6.395837],[2.429082,6.824261],[2.384899,6.92056],[2.083987,6.91932],[2.023629,6.70649],[1.957845,6.392349],[1.987709,6.286521],[2.359853,6.336401]]]},"properties":{"LOCATION_TYPE":"level1","ADM0_A3":"BEN","LOCATION_ID":"BEN-AQ","NAME":"Atlantique","TYPE_EN":"Department"}},
{"type":"Feature","geometry":{"type":"Polygon","coordinates":[[[2.483952,6.347932],[2.467581,6.395837],[2.359853,6.336401],[2.483952,6.347932]]]},"properties":{"LOCATION_TYPE":"level1","ADM0_A3":"BEN","LOCATION_ID":"BEN-LI","NAME":"Littoral","TYPE_EN":"Department"}}
]}