{"type":"FeatureCollection", "features": [
{"type":"Feature","geometry":{"type":"Polygon","coordinates":[[[1.423215,11.453748],[1.601587,11.388686],[1.879812,11.444858],[2.010761,11.426901],[2.291054,11.674792],[2.390169,11.896536],[2.070912,12.306898],[2.069258,12.383328],[2.244958,12.424152],[2.203204,12.583316],[2.109049,12.705634],[1.971693,12.724237],[1.826069,12.604193],[1.535854,12.647498],[1.304806,12.838508],[1.268791,12.773717],[1.279953,12.700827],[1.199751,12.471487],[1.223729,12.178172],[1.331113,12.139311],[1.304241,11.892918],[1.22993,11.716494],[1.262177,11.572731],[1.423215,11.453748]]]},"properties":{"LOCATION_TYPE":"level1","ADM0_A3":"BFA","LOCATION_ID":"BFA-TAP","NAME":"Tapoa","TYPE_EN":"Province"}},
{"type":"Feature","geometry":{"type":"Polygon","coordinates":[[[1.423215,11.453748],[1.262177,11.572731],[1.22993,11.716494],[1.10322,11.833542],[0.863751,11.918084],[0.696526,11.737449],[0.529405,11.659702],[0.576224,11.384267],[0.497779,11.094155],[0.374779,11.025808],[0.487649,10.933236],[0.675338,10.988529],[0.901474,10.992741],[1.035006,11.049275],[1.130608,11.247583],[1.268377,11.247893],[1.423215,11.453748]]]},"properties":{"LOCATION_TYPE":"level1","ADM0_A3":"BFA","LOCATION_ID":"BFA-KMP","NAME":"Kompienga","TYPE_EN":"Province"}},
{"type":"Feature","geometry":{"type":"Polygon","coordinates":[[[-5.505602,11.047985],[-5.431421,10.844688],[-5.468111,10.58783],[-5.522578,10.425489],[-5.402534,10.300561],[-5.119882,10.293983],[-5.077256,10.377946],[-5.091932,10.570673],[-4.985039,10.585607],[-4.948607,10.782598],[-5.061856,10.832156],[-5.186655,10.810064],[-5.408011,11.041083],[-5.505602,11.047985]]]},"properties":{"LOCATION_TYPE":"level1","ADM0_A3":"BFA","LOCATION_ID":"BFA-LER","NAME":"Léraba","TYPE_EN":"Province"}},
{"type":"Feature","geometry":{"type":"Polygon","coordinates":[[[-5.119882,10.293983],[-5.048343,10.085355],[-4.974524,10.055537],[-4.966075,9.901025],[-4.83846,9.86945],[-4.70547,9.702096],[-4.604029,9.727159],[-4.50171,9.655019],[-4.322548,9.608898],[-4.270329,9.743928],[-4.13305,9.820409],[-4.059877,9.796277],[-3.891625,9.8939],[-3.981328,10.011896],[-3.967711,10.099513],[-3.817229,10.12362],[-3.749068,10.237179],[-3.777412,10.350609],[-3.697986,10.467527],[-3.694472,10.644079],[-3.725788,10.827066],[-3.911952,10.688521],[-4.102302,10.776293],[-4.26175,10.700536],[-4.401896,10.754434],[-4.530467,10.870034],[-4.662423,10.777844],[-4.793759,10.870913],[-4.964782,10.888483],[-5.061856,10.832156],[-4.948607,10.782598],[-4.985039,10.585607],[-5.091932,10.570673],[-5.077256,10.377946],[-5.119882,10.293983]]]},"properties":{"LOCATION_TYPE":"level1","ADM0_A3":"BFA","LOCATION_ID":"BFA-COM","NAME":"Komoé","TYPE_EN":"Province"}},
{"type":"Feature","geometry":{"type":"Polygon","coordinates":[[[-3.891625,9.8939],[-3.661658,9.948929],[-3.389168,9.913246],[-3.277857,9.843457],[-3.202565,9.908234],[-3.154567,10.077793],[-2.980617,10.009982],[-2.892167,10.10138],[-2.788481,10.092363],[-2.758354,10.266119],[-2.932504,10.634313],[-2.919959,10.711088],[-3.05278,10.740585],[-3.317906,10.592584],[-3.39635,10.647257],[-3.694472,10.644079],[-3.697986,10.467527],[-3.777412,10.350609],[-3.749068,10.237179],[-3.817229,10.12362],[-3.967711,10.099513],[-3.981328,10.011896],[-3.891625,9.8939]]]},"properties":{"LOCATION_TYPE":"level1","ADM0_A3":"BFA","LOCATION_ID":"BFA-PON","NAME":"Poni","TYPE_EN":"Province"}},
{"type":"Feature","geometry":{"type":"Polygon","coordinates":[[[-3.202565,9.908234],[-3.094561,9.733851],[-2.989994,9.708427],[-2.910154,9.542726],[-2.763677,9.391883],[-2.689211,9.488724],[-2.761093,9.566239],[-2.795303,9.720002],[-2.736753,9.832579],[-2.788481,10.092363],[-2.892167,10.10138],[-2.980617,10.009982],[-3.154567,10.077793],[-3.202565,9.908234]]]},"properties":{"LOCATION_TYPE":"level1","ADM0_A3":"BFA","LOCATION_ID":"BFA-NOU","NAME":"Noumbiel","TYPE_EN":"Province"}},
{"type":"Feature","geometry":{"type":"Polygon","coordinates":[[[0.202382,14.435545],[0.152941,14.54671],[0.219707,14.731221],[0.218467,14.910977],[-0.236699,15.065619],[-0.397671,15.002135],[-0.4679,15.079908],[-0.752895,15.069727],[-1.043138,14.818062],[-0.883765,14.671637],[-0.784804,14.489788],[-0.635279,14.325327],[-0.566859,14.142625],[-0.24737,14.193501],[-0.001028,14.185181],[0.202382,14.435545]]]},"properties":{"LOCATION_TYPE":"level1","ADM0_A3":"BFA","LOCATION_ID":"BFA-OUD","NAME":"Oudalan","TYPE_EN":"Province"}},
{"type":"Feature","geometry":{"type":"Polygon","coordinates":[[[-1.043138,14.818062],[-1.350275,14.714969],[-1.69692,14.496119],[-1.967033,14.483742],[-2.005015,14.444236],[-2.023412,14.198643],[-2.085008,14.159668],[-1.863783,13.994082],[-1.870604,13.89817],[-1.747045,13.729266],[-1.696868,13.825642],[-1.534836,13.902666],[-1.473135,13.791897],[-1.333091,13.738955],[-1.15194,13.761434],[-0.85188,13.851274],[-0.642022,13.97093],[-0.566859,14.142625],[-0.635279,14.325327],[-0.784804,14.489788],[-0.883765,14.671637],[-1.043138,14.818062]]]},"properties":{"LOCATION_TYPE":"level1","ADM0_A3":"BFA","LOCATION_ID":"BFA-SOM","NAME":"Soum","TYPE_EN":"Province"}},
{"type":"Feature","geometry":{"type":"Polygon","coordinates":[[[-2.085008,14.159668],[-2.151879,14.15614],[-2.46168,14.280912],[-2.676265,14.141729],[-2.568468,13.991033],[-2.419769,14.043484],[-2.270915,13.969845],[-2.115628,13.528012],[-1.878019,13.541758],[-1.747045,13.729266],[-1.870604,13.89817],[-1.863783,13.994082],[-2.085008,14.159668]]]},"properties":{"LOCATION_TYPE":"level1","ADM0_A3":"BFA","LOCATION_ID":"BFA-LOR","NAME":"Loroum","TYPE_EN":"Province"}},
{"type":"Feature","geometry":{"type":"Polygon","coordinates":[[[-2.676265,14.141729],[-2.840855,14.042994],[-2.928059,13.799624],[-2.930473,13.638523],[-2.859691,13.557777],[-2.631875,13.448017],[-2.590637,13.293142],[-2.400675,13.388356],[-2.236344,13.332778],[-2.089738,13.336137],[-2.066406,13.262938],[-2.129038,13.064345],[-2.018192,13.02936],[-1.742007,13.122403],[-1.746425,13.259268],[-1.840089,13.340607],[-1.878019,13.541758],[-2.115628,13.528012],[-2.270915,13.969845],[-2.419769,14.043484],[-2.568468,13.991033],[-2.676265,14.141729]]]},"properties":{"LOCATION_TYPE":"level1","ADM0_A3":"BFA","LOCATION_ID":"BFA-YAT","NAME":"Yatenga","TYPE_EN":"Province"}},
{"type":"Feature","geometry":{"type":"Polygon","coordinates":[[[-2.930473,13.638523],[-3.067508,13.606767],[-3.125102,13.67728],[-3.259719,13.658315],[-3.283955,13.542198],[-3.248634,13.292781],[-3.42653,13.27423],[-3.473922,13.167601],[-3.460843,12.841723],[-3.426245,12.786455],[-3.273722,12.982825],[-2.970433,12.953654],[-2.889017,12.904329],[-2.690166,12.926963],[-2.685903,12.970475],[-2.660891,13.090157],[-2.548986,13.090571],[-2.45261,13.224671],[-2.590637,13.293142],[-2.631875,13.448017],[-2.859691,13.557777],[-2.930473,13.638523]]]},"properties":{"LOCATION_TYPE":"level1","ADM0_A3":"BFA","LOCATION_ID":"BFA-SOR","NAME":"Sourou","TYPE_EN":"Province"}},
{"type":"Feature","geometry":{"type":"Polygon","coordinates":[[[-3.473922,13.167601],[-3.596882,13.199402],[-3.798626,13.347145],[-3.984042,13.39647],[-4.104267,13.382698],[-4.147106,13.299603],[-4.351073,13.118322],[-4.229324,12.948952],[-4.245472,12.728936],[-4.155529,12.679046],[-4.149586,12.442135],[-4.00869,12.401646],[-3.942286,12.534119],[-3.6961,12.534326],[-3.563705,12.481771],[-3.513501,12.674576],[-3.429294,12.749713],[-3.426245,12.786455],[-3.460843,12.841723],[-3.473922,13.167601]]]},"properties":{"LOCATION_TYPE":"level1","ADM0_A3":"BFA","LOCATION_ID":"BFA-KOS","NAME":"Kossi","TYPE_EN":"Province"}},
{"type":"Feature","geometry":{"type":"Polygon","coordinates":[[[-4.245472,12.728936],[-4.402026,12.736562],[-4.482538,12.646258],[-4.386885,12.530192],[-4.451636,12.435314],[-4.406135,12.307467],[-4.585529,12.197241],[-4.652737,12.071627],[-4.46551,12.06376],[-4.431559,11.984488],[-4.490754,11.761556],[-4.30844,11.7421],[-4.238315,11.900152],[-3.980992,11.932709],[-3.816945,12.162875],[-3.707081,12.392526],[-3.563705,12.481771],[-3.6961,12.534326],[-3.942286,12.534119],[-4.00869,12.401646],[-4.149586,12.442135],[-4.155529,12.679046],[-4.245472,12.728936]]]},"properties":{"LOCATION_TYPE":"level1","ADM0_A3":"BFA","LOCATION_ID":"BFA-BAN","NAME":"Banwa","TYPE_EN":"Province"}},
{"type":"Feature","geometry":{"type":"Polygon","coordinates":[[[-4.652737,12.071627],[-4.732281,12.037263],[-4.637618,11.982938],[-4.626017,11.759851],[-4.549717,11.492296],[-4.730171,11.398529],[-4.793836,11.247738],[-4.658186,11.111028],[-4.758128,10.993257],[-4.793759,10.870913],[-4.662423,10.777844],[-4.530467,10.870034],[-4.401896,10.754434],[-4.26175,10.700536],[-4.102302,10.776293],[-3.911952,10.688521],[-3.725788,10.827066],[-3.586132,10.972095],[-3.624889,10.968788],[-3.881747,11.199032],[-3.849062,11.35941],[-3.969571,11.540071],[-3.990681,11.63774],[-3.94903,11.851086],[-3.980992,11.932709],[-4.238315,11.900152],[-4.30844,11.7421],[-4.490754,11.761556],[-4.431559,11.984488],[-4.46551,12.06376],[-4.652737,12.071627]]]},"properties":{"LOCATION_TYPE":"level1","ADM0_A3":"BFA","LOCATION_ID":"BFA-HOU","NAME":"Houet","TYPE_EN":"Province"}},
{"type":"Feature","geometry":{"type":"Polygon","coordinates":[[[-4.732281,12.037263],[-5.167819,11.943665],[-5.268227,11.843051],[-5.307811,11.629007],[-5.233914,11.575987],[-5.218307,11.422198],[-5.322332,11.135549],[-5.505602,11.047985],[-5.408011,11.041083],[-5.186655,10.810064],[-5.061856,10.832156],[-4.964782,10.888483],[-4.793759,10.870913],[-4.758128,10.993257],[-4.658186,11.111028],[-4.793836,11.247738],[-4.730171,11.398529],[-4.549717,11.492296],[-4.626017,11.759851],[-4.637618,11.982938],[-4.732281,12.037263]]]},"properties":{"LOCATION_TYPE":"level1","ADM0_A3":"BFA","LOCATION_ID":"BFA-KEN","NAME":"Kénédougou","TYPE_EN":"Province"}},
{"type":"Feature","geometry":{"type":"Polygon","coordinates":[[[0.202382,14.435545],[-0.001028,14.185181],[-0.24737,14.193501],[-0.566859,14.142625],[-0.642022,13.97093],[-0.608329,13.922639],[-0.466452,13.817658],[-0.368292,13.651389],[-0.219645,13.616534],[-0.226286,13.496567],[-0.171922,13.571368],[0.0615,13.578241],[0.499926,13.851015],[0.339157,14.12578],[0.388792,14.251612],[0.202382,14.435545]]]},"properties":{"LOCATION_TYPE":"level1","ADM0_A3":"BFA","LOCATION_ID":"BFA-SEN","NAME":"Séno","TYPE_EN":"Province"}},
{"type":"Feature","geometry":{"type":"Polygon","coordinates":[[[0.499926,13.851015],[0.0615,13.578241],[0.069562,13.499745],[0.301977,13.208445],[0.432511,13.167569],[0.574363,12.95399],[0.796469,13.002049],[0.971661,13.085782],[0.983536,13.36841],[1.048235,13.441945],[0.95098,13.583203],[0.620665,13.679967],[0.499926,13.851015]]]},"properties":{"LOCATION_TYPE":"level1","ADM0_A3":"BFA","LOCATION_ID":"BFA-YAG","NAME":"Yagha","TYPE_EN":"Province"}},
{"type":"Feature","geometry":{"type":"Polygon","coordinates":[[[0.971661,13.085782],[0.796469,13.002049],[0.574363,12.95399],[0.473594,12.863246],[0.287921,12.911822],[0.349028,12.443892],[0.479175,12.512983],[0.724535,12.339221],[0.871399,12.579853],[0.99935,12.665377],[1.103737,12.655714],[1.156447,12.749971],[1.268791,12.773717],[1.304806,12.838508],[0.971661,13.085782]]]},"properties":{"LOCATION_TYPE":"level1","ADM0_A3":"BFA","LOCATION_ID":"BFA-KMD","NAME":"Komondjari","TYPE_EN":"Province"}},
{"type":"Feature","geometry":{"type":"Polygon","coordinates":[[[0.374779,11.025808],[0.497779,11.094155],[0.576224,11.384267],[0.529405,11.659702],[0.101886,11.785172],[0.049692,11.750007],[-0.071308,11.687737],[-0.153732,11.338688],[-0.00896,11.338611],[-0.115062,11.124658],[0.374779,11.025808]]]},"properties":{"LOCATION_TYPE":"level1","ADM0_A3":"BFA","LOCATION_ID":"BFA-KOP","NAME":"Koulpélogo","TYPE_EN":"Province"}},
{"type":"Feature","geometry":{"type":"Polygon","coordinates":[[[-0.115062,11.124658],[-0.00896,11.338611],[-0.153732,11.338688],[-0.071308,11.687737],[0.049692,11.750007],[0.014785,11.844497],[-0.110349,11.922916],[-0.252873,11.793363],[-0.381237,11.821088],[-0.464488,11.98746],[-0.596702,11.973352],[-0.694655,11.85739],[-0.79855,11.83765],[-0.923917,11.669469],[-0.745479,11.521158],[-0.562053,11.488188],[-0.577349,11.377652],[-0.735376,11.273214],[-0.776898,11.196475],[-0.703017,10.994159],[-0.516475,10.988633],[-0.301682,11.162937],[-0.115062,11.124658]]]},"properties":{"LOCATION_TYPE":"level1","ADM0_A3":"BFA","LOCATION_ID":"BFA-BLG","NAME":"Boulgou","TYPE_EN":"Province"}},
{"type":"Feature","geometry":{"type":"Polygon","coordinates":[[[-1.413553,11.01405],[-0.703017,10.994159],[-0.776898,11.196475],[-0.878933,11.194924],[-1.313764,11.5348],[-1.588089,11.322384],[-1.638628,11.141129],[-1.413553,11.01405]]]},"properties":{"LOCATION_TYPE":"level1","ADM0_A3":"BFA","LOCATION_ID":"BFA-NAO","NAME":"Nahouri","TYPE_EN":"Province"}},
{"type":"Feature","geometry":{"type":"Polygon","coordinates":[[[-1.413553,11.01405],[-1.638628,11.141129],[-1.588089,11.322384],[-1.696222,11.366903],[-1.80544,11.287993],[-1.918301,11.358687],[-1.984912,11.28665],[-2.117591,11.376515],[-2.210816,11.516093],[-2.335563,11.54529],[-2.340058,11.720422],[-2.223166,11.726261],[-2.239625,11.909532],[-2.253294,11.901884],[-2.536377,11.790624],[-2.59348,11.611824],[-2.680141,11.609938],[-2.665878,11.5163],[-2.524879,11.388995],[-2.716289,11.334838],[-2.80419,11.233449],[-2.636655,11.11033],[-2.728798,10.986057],[-1.598683,10.997133],[-1.413553,11.01405]]]},"properties":{"LOCATION_TYPE":"level1","ADM0_A3":"BFA","LOCATION_ID":"BFA-SIS","NAME":"Sissili","TYPE_EN":"Province"}},
{"type":"Feature","geometry":{"type":"Polygon","coordinates":[[[-2.728798,10.986057],[-2.636655,11.11033],[-2.80419,11.233449],[-2.858631,11.287735],[-3.005212,11.340497],[-3.228531,11.315124],[-3.302687,11.171205],[-3.119365,11.178672],[-3.191066,10.78358],[-3.05278,10.740585],[-2.919959,10.711088],[-2.864239,10.864273],[-2.728798,10.986057]]]},"properties":{"LOCATION_TYPE":"level1","ADM0_A3":"BFA","LOCATION_ID":"BFA-IOB","NAME":"Ioba","TYPE_EN":"Province"}},
{"type":"Feature","geometry":{"type":"Polygon","coordinates":[[[-2.919429,12.053011],[-3.179981,12.099701],[-3.159853,11.957953],[-3.291318,11.904467],[-3.357128,11.988132],[-3.490092,11.976789],[-3.612694,11.807755],[-3.587062,11.756957],[-3.39617,11.678383],[-3.277107,11.459353],[-3.025624,11.571439],[-2.829279,11.519039],[-2.858631,11.287735],[-2.80419,11.233449],[-2.716289,11.334838],[-2.524879,11.388995],[-2.665878,11.5163],[-2.680141,11.609938],[-2.919429,12.053011]]]},"properties":{"LOCATION_TYPE":"level1","ADM0_A3":"BFA","LOCATION_ID":"BFA-BAL","NAME":"Balé","TYPE_EN":"Province"}},
{"type":"Feature","geometry":{"type":"Polygon","coordinates":[[[-2.919429,12.053011],[-2.680141,11.609938],[-2.59348,11.611824],[-2.536377,11.790624],[-2.253294,11.901884],[-2.470593,12.003764],[-2.475683,12.155512],[-2.396127,12.225094],[-2.415325,12.444951],[-2.259391,12.533137],[-2.310293,12.648065],[-2.433438,12.703308],[-2.534956,12.811673],[-2.637069,12.736174],[-2.751274,12.59179],[-2.720371,12.511614],[-2.840648,12.366868],[-2.881912,12.259407],[-2.792511,12.115101],[-2.919429,12.053011]]]},"properties":{"LOCATION_TYPE":"level1","ADM0_A3":"BFA","LOCATION_ID":"BFA-SNG","NAME":"Sanguié","TYPE_EN":"Province"}},
{"type":"Feature","geometry":{"type":"Polygon","coordinates":[[[-3.587062,11.756957],[-3.773072,11.723703],[-3.94903,11.851086],[-3.990681,11.63774],[-3.969571,11.540071],[-3.849062,11.35941],[-3.881747,11.199032],[-3.624889,10.968788],[-3.586132,10.972095],[-3.502907,11.124567],[-3.302687,11.171205],[-3.228531,11.315124],[-3.005212,11.340497],[-2.858631,11.287735],[-2.829279,11.519039],[-3.025624,11.571439],[-3.277107,11.459353],[-3.39617,11.678383],[-3.587062,11.756957]]]},"properties":{"LOCATION_TYPE":"level1","ADM0_A3":"BFA","LOCATION_ID":"BFA-TUI","NAME":"Tuy","TYPE_EN":"Province"}},
{"type":"Feature","geometry":{"type":"Polygon","coordinates":[[[-3.302687,11.171205],[-3.502907,11.124567],[-3.586132,10.972095],[-3.725788,10.827066],[-3.694472,10.644079],[-3.39635,10.647257],[-3.317906,10.592584],[-3.05278,10.740585],[-3.191066,10.78358],[-3.119365,11.178672],[-3.302687,11.171205]]]},"properties":{"LOCATION_TYPE":"level1","ADM0_A3":"BFA","LOCATION_ID":"BFA-BGR","NAME":"Bougouriba","TYPE_EN":"Province"}},
{"type":"Feature","geometry":{"type":"Polygon","coordinates":[[[-2.840648,12.366868],[-2.956687,12.347851],[-3.239512,12.524817],[-3.248711,12.676823],[-3.360642,12.663827],[-3.429294,12.749713],[-3.513501,12.674576],[-3.563705,12.481771],[-3.707081,12.392526],[-3.816945,12.162875],[-3.980992,11.932709],[-3.94903,11.851086],[-3.773072,11.723703],[-3.587062,11.756957],[-3.612694,11.807755],[-3.490092,11.976789],[-3.357128,11.988132],[-3.291318,11.904467],[-3.159853,11.957953],[-3.179981,12.099701],[-2.919429,12.053011],[-2.792511,12.115101],[-2.881912,12.259407],[-2.840648,12.366868]]]},"properties":{"LOCATION_TYPE":"level1","ADM0_A3":"BFA","LOCATION_ID":"BFA-MOU","NAME":"Mou Houn","TYPE_EN":"Province"}},
{"type":"Feature","geometry":{"type":"Polygon","coordinates":[[[-0.464488,11.98746],[-0.381237,11.821088],[-0.252873,11.793363],[-0.110349,11.922916],[-0.082522,12.048619],[0.027678,12.12479],[-0.084615,12.230675],[-0.183523,12.272895],[-0.145154,12.387978],[-0.223908,12.436657],[-0.207424,12.560474],[-0.389092,12.468852],[-0.613652,12.505774],[-0.528179,12.416503],[-0.477433,12.206232],[-0.422863,12.153522],[-0.464488,11.98746]]]},"properties":{"LOCATION_TYPE":"level1","ADM0_A3":"BFA","LOCATION_ID":"BFA-KOT","NAME":"Kouritenga","TYPE_EN":"Province"}},
{"type":"Feature","geometry":{"type":"Polygon","coordinates":[[[-0.613652,12.505774],[-0.672641,12.676333],[-0.840021,12.524197],[-0.979237,12.524352],[-1.060085,12.447742],[-1.097757,12.25982],[-1.062333,12.183675],[-0.887951,11.885941],[-0.79855,11.83765],[-0.694655,11.85739],[-0.596702,11.973352],[-0.464488,11.98746],[-0.422863,12.153522],[-0.477433,12.206232],[-0.528179,12.416503],[-0.613652,12.505774]]]},"properties":{"LOCATION_TYPE":"level1","ADM0_A3":"BFA","LOCATION_ID":"BFA-GAN","NAME":"Ganzourgou","TYPE_EN":"Province"}},
{"type":"Feature","geometry":{"type":"Polygon","coordinates":[[[-0.887951,11.885941],[-1.07303,11.926327],[-1.225785,11.832224],[-1.347716,11.584099],[-1.313764,11.5348],[-0.878933,11.194924],[-0.776898,11.196475],[-0.735376,11.273214],[-0.577349,11.377652],[-0.562053,11.488188],[-0.745479,11.521158],[-0.923917,11.669469],[-0.79855,11.83765],[-0.887951,11.885941]]]},"properties":{"LOCATION_TYPE":"level1","ADM0_A3":"BFA","LOCATION_ID":"BFA-ZOU","NAME":"Zoundwéogo","TYPE_EN":"Province"}},
{"type":"Feature","geometry":{"type":"Polygon","coordinates":[[[-1.347716,11.584099],[-1.635037,11.772641],[-1.788903,11.926404],[-1.968996,11.904907],[-2.041808,11.98175],[-2.239625,11.909532],[-2.223166,11.726261],[-2.340058,11.720422],[-2.335563,11.54529],[-2.210816,11.516093],[-2.117591,11.376515],[-1.984912,11.28665],[-1.918301,11.358687],[-1.80544,11.287993],[-1.696222,11.366903],[-1.588089,11.322384],[-1.313764,11.5348],[-1.347716,11.584099]]]},"properties":{"LOCATION_TYPE":"level1","ADM0_A3":"BFA","LOCATION_ID":"BFA-ZIR","NAME":"Ziro","TYPE_EN":"Province"}},
{"type":"Feature","geometry":{"type":"Polygon","coordinates":[[[-2.310293,12.648065],[-2.259391,12.533137],[-2.415325,12.444951],[-2.396127,12.225094],[-2.475683,12.155512],[-2.470593,12.003764],[-2.253294,11.901884],[-2.239625,11.909532],[-2.041808,11.98175],[-1.87032,12.144944],[-1.797714,12.222665],[-1.820659,12.342606],[-2.026408,12.267985],[-2.005944,12.445365],[-1.789911,12.473141],[-1.829314,12.587139],[-1.941142,12.677263],[-2.17751,12.697649],[-2.310293,12.648065]]]},"properties":{"LOCATION_TYPE":"level1","ADM0_A3":"BFA","LOCATION_ID":"BFA-BLK","NAME":"Boulkiemdé","TYPE_EN":"Province"}},
{"type":"Feature","geometry":{"type":"Polygon","coordinates":[[[-1.097757,12.25982],[-1.269943,12.334545],[-1.248523,12.437484],[-1.395697,12.464304],[-1.595711,12.673103],[-1.722732,12.546573],[-1.680874,12.397926],[-1.820659,12.342606],[-1.797714,12.222665],[-1.87032,12.144944],[-1.714593,12.057249],[-1.459363,12.194372],[-1.411665,12.109313],[-1.062333,12.183675],[-1.097757,12.25982]]]},"properties":{"LOCATION_TYPE":"level1","ADM0_A3":"BFA","LOCATION_ID":"BFA-KAD","NAME":"Kadiogo","TYPE_EN":"Province"}},
{"type":"Feature","geometry":{"type":"Polygon","coordinates":[[[-1.097757,12.25982],[-1.060085,12.447742],[-0.979237,12.524352],[-0.840021,12.524197],[-1.030319,12.665739],[-1.372185,12.857975],[-1.552561,12.904096],[-1.731517,12.900712],[-1.664441,12.864796],[-1.595711,12.673103],[-1.395697,12.464304],[-1.248523,12.437484],[-1.269943,12.334545],[-1.097757,12.25982]]]},"properties":{"LOCATION_TYPE":"level1","ADM0_A3":"BFA","LOCATION_ID":"BFA-OUB","NAME":"Oubritenga","TYPE_EN":"Province"}},
{"type":"Feature","geometry":{"type":"Polygon","coordinates":[[[-0.110349,11.922916],[0.014785,11.844497],[0.049692,11.750007],[0.101886,11.785172],[0.529405,11.659702],[0.696526,11.737449],[0.863751,11.918084],[1.10322,11.833542],[1.22993,11.716494],[1.304241,11.892918],[1.331113,12.139311],[1.223729,12.178172],[1.199751,12.471487],[1.279953,12.700827],[1.268791,12.773717],[1.156447,12.749971],[1.103737,12.655714],[0.99935,12.665377],[0.871399,12.579853],[0.724535,12.339221],[0.479175,12.512983],[0.349028,12.443892],[0.253013,12.373018],[0.009411,12.327801],[-0.084615,12.230675],[0.027678,12.12479],[-0.082522,12.048619],[-0.110349,11.922916]]]},"properties":{"LOCATION_TYPE":"level1","ADM0_A3":"BFA","LOCATION_ID":"BFA-GOU","NAME":"Gourma","TYPE_EN":"Province"}},
{"type":"Feature","geometry":{"type":"Polygon","coordinates":[[[-0.084615,12.230675],[0.009411,12.327801],[0.253013,12.373018],[0.349028,12.443892],[0.287921,12.911822],[0.473594,12.863246],[0.574363,12.95399],[0.432511,13.167569],[0.301977,13.208445],[0.069562,13.499745],[0.0615,13.578241],[-0.171922,13.571368],[-0.226286,13.496567],[-0.294498,13.415771],[-0.301888,13.19103],[-0.365967,12.990835],[-0.304756,12.85472],[-0.198871,12.787902],[-0.207424,12.560474],[-0.223908,12.436657],[-0.145154,12.387978],[-0.183523,12.272895],[-0.084615,12.230675]]]},"properties":{"LOCATION_TYPE":"level1","ADM0_A3":"BFA","LOCATION_ID":"BFA-GNA","NAME":"Gnagna","TYPE_EN":"Province"}},
{"type":"Feature","geometry":{"type":"Polygon","coordinates":[[[-1.062333,12.183675],[-1.411665,12.109313],[-1.459363,12.194372],[-1.714593,12.057249],[-1.87032,12.144944],[-2.041808,11.98175],[-1.968996,11.904907],[-1.788903,11.926404],[-1.635037,11.772641],[-1.347716,11.584099],[-1.225785,11.832224],[-1.07303,11.926327],[-0.887951,11.885941],[-1.062333,12.183675]]]},"properties":{"LOCATION_TYPE":"level1","ADM0_A3":"BFA","LOCATION_ID":"BFA-BAZ","NAME":"Bazéga","TYPE_EN":"Province"}},
{"type":"Feature","geometry":{"type":"Polygon","coordinates":[[[-1.941142,12.677263],[-1.829314,12.587139],[-1.789911,12.473141],[-2.005944,12.445365],[-2.026408,12.267985],[-1.820659,12.342606],[-1.680874,12.397926],[-1.722732,12.546573],[-1.595711,12.673103],[-1.664441,12.864796],[-1.731517,12.900712],[-1.940651,12.797023],[-1.941142,12.677263]]]},"properties":{"LOCATION_TYPE":"level1","ADM0_A3":"BFA","LOCATION_ID":"BFA-KOW","NAME":"Kourwéogo","TYPE_EN":"Province"}},
{"type":"Feature","geometry":{"type":"Polygon","coordinates":[[[-2.637069,12.736174],[-2.710785,12.808366],[-2.690166,12.926963],[-2.889017,12.904329],[-2.970433,12.953654],[-3.273722,12.982825],[-3.426245,12.786455],[-3.429294,12.749713],[-3.360642,12.663827],[-3.248711,12.676823],[-3.239512,12.524817],[-2.956687,12.347851],[-2.840648,12.366868],[-2.720371,12.511614],[-2.751274,12.59179],[-2.637069,12.736174]]]},"properties":{"LOCATION_TYPE":"level1","ADM0_A3":"BFA","LOCATION_ID":"BFA-NAY","NAME":"Nayala","TYPE_EN":"Province"}},
{"type":"Feature","geometry":{"type":"Polygon","coordinates":[[[-2.637069,12.736174],[-2.534956,12.811673],[-2.433438,12.703308],[-2.310293,12.648065],[-2.17751,12.697649],[-1.941142,12.677263],[-1.940651,12.797023],[-1.731517,12.900712],[-1.552561,12.904096],[-1.502461,12.994039],[-1.657335,13.037189],[-1.742007,13.122403],[-2.018192,13.02936],[-2.129038,13.064345],[-2.236473,13.091294],[-2.492891,12.961276],[-2.685903,12.970475],[-2.690166,12.926963],[-2.710785,12.808366],[-2.637069,12.736174]]]},"properties":{"LOCATION_TYPE":"level1","ADM0_A3":"BFA","LOCATION_ID":"BFA-PAS","NAME":"Passoré","TYPE_EN":"Province"}},
{"type":"Feature","geometry":{"type":"Polygon","coordinates":[[[-2.129038,13.064345],[-2.066406,13.262938],[-2.089738,13.336137],[-2.236344,13.332778],[-2.400675,13.388356],[-2.590637,13.293142],[-2.45261,13.224671],[-2.548986,13.090571],[-2.660891,13.090157],[-2.685903,12.970475],[-2.492891,12.961276],[-2.236473,13.091294],[-2.129038,13.064345]]]},"properties":{"LOCATION_TYPE":"level1","ADM0_A3":"BFA","LOCATION_ID":"BFA-ZON","NAME":"Zondoma","TYPE_EN":"Province"}},
{"type":"Feature","geometry":{"type":"Polygon","coordinates":[[[-0.613652,12.505774],[-0.389092,12.468852],[-0.207424,12.560474],[-0.198871,12.787902],[-0.304756,12.85472],[-0.365967,12.990835],[-0.301888,13.19103],[-0.294498,13.415771],[-0.226286,13.496567],[-0.219645,13.616534],[-0.368292,13.651389],[-0.466452,13.817658],[-0.608329,13.922639],[-0.748605,13.584597],[-0.649981,13.254695],[-0.675845,13.022461],[-0.783797,12.89867],[-0.672641,12.676333],[-0.613652,12.505774]]]},"properties":{"LOCATION_TYPE":"level1","ADM0_A3":"BFA","LOCATION_ID":"BFA-NAM","NAME":"Namentenga","TYPE_EN":"Province"}},
{"type":"Feature","geometry":{"type":"Polygon","coordinates":[[[-0.672641,12.676333],[-0.783797,12.89867],[-0.675845,13.022461],[-0.649981,13.254695],[-0.748605,13.584597],[-0.608329,13.922639],[-0.642022,13.97093],[-0.85188,13.851274],[-1.15194,13.761434],[-1.333091,13.738955],[-1.289037,13.650072],[-1.358232,13.423315],[-1.276867,13.28676],[-1.299347,13.1354],[-1.521685,13.077858],[-1.502461,12.994039],[-1.552561,12.904096],[-1.372185,12.857975],[-1.030319,12.665739],[-0.840021,12.524197],[-0.672641,12.676333]]]},"properties":{"LOCATION_TYPE":"level1","ADM0_A3":"BFA","LOCATION_ID":"BFA-SMT","NAME":"Sanmatenga","TYPE_EN":"Province"}},
{"type":"Feature","geometry":{"type":"Polygon","coordinates":[[[-1.742007,13.122403],[-1.657335,13.037189],[-1.502461,12.994039],[-1.521685,13.077858],[-1.299347,13.1354],[-1.276867,13.28676],[-1.358232,13.423315],[-1.289037,13.650072],[-1.333091,13.738955],[-1.473135,13.791897],[-1.534836,13.902666],[-1.696868,13.825642],[-1.747045,13.729266],[-1.878019,13.541758],[-1.840089,13.340607],[-1.746425,13.259268],[-1.742007,13.122403]]]},"properties":{"LOCATION_TYPE":"level1","ADM0_A3":"BFA","LOCATION_ID":"BFA-BAM","NAME":"Bam","TYPE_EN":"Province"}}
]}