{"type":"FeatureCollection", "features": [
{"type":"Feature","geometry":{"type":"MultiPolygon","coordinates":[[[[90.702319,23.554837],[90.715017,23.498358],[90.600271,23.449937],[90.611339,23.342475],[90.667328,23.267646],[90.627208,23.086656],[90.717459,22.940619],[90.774181,22.778062],[90.954926,22.575832],[91.127343,22.527026],[91.202743,22.54322],[91.264496,22.640815],[91.243419,22.702216],[91.456309,22.784817],[91.548106,22.700344],[91.676036,22.534613],[91.743663,22.411078],[91.771658,22.260321],[91.855235,22.109198],[91.915701,21.862454],[91.908702,21.781155],[91.966563,21.778876],[91.949718,21.715969],[92.022146,21.599351],[91.959727,21.423977],[92.045258,21.299547],[92.052501,21.154771],[92.192882,20.995673],[92.265147,21.061103],[92.174973,21.175608],[92.183654,21.317201],[92.236261,21.417092],[92.322664,21.461895],[92.423123,21.363658],[92.524512,21.361126],[92.558722,21.25984],[92.642851,21.298443],[92.590245,21.495537],[92.575568,21.733972],[92.593035,21.886934],[92.537328,22.128625],[92.577015,22.168674],[92.518931,22.495372],[92.495883,22.695618],[92.442037,22.762927],[92.426327,22.87106],[92.378681,22.900438],[92.327625,23.171429],[92.356874,23.289122],[92.252797,23.609309],[92.150788,23.731653],[92.00351,23.647421],[91.91442,23.688323],[91.940775,23.495182],[91.791637,23.368342],[91.743681,23.272327],[91.795564,23.089496],[91.694692,22.988133],[91.536562,22.981854],[91.463595,23.184116],[91.300504,23.142309],[91.27725,23.303256],[91.22733,23.468775],[91.140824,23.6121],[91.141754,23.739896],[91.194981,23.755166],[91.216272,23.908387],[91.308433,23.992501],[91.287121,24.205603],[91.153434,24.256427],[91.065997,24.218031],[91.007086,24.141524],[90.952413,23.923165],[90.756197,23.846529],[90.725088,23.715504],[90.767618,23.617809],[90.702319,23.554837]]],[[[91.935557,21.759996],[91.862966,21.745592],[91.847911,21.688788],[91.871104,21.547675],[91.961111,21.506171],[91.983897,21.609198],[91.935557,21.759996]]],[[[91.148847,22.357057],[91.074801,22.38859],[91.063294,22.089848],[91.141468,22.146201],[91.186785,22.227757],[91.148847,22.357057]]],[[[91.467557,22.58631],[91.423786,22.525302],[91.507519,22.396797],[91.556361,22.47821],[91.467557,22.58631]]]]},"properties":{"LOCATION_TYPE":"level1","ADM0_A3":"BGD","LOCATION_ID":"BGD-B","NAME":"Chittagong","TYPE_EN":"Division"}},
{"type":"Feature","geometry":{"type":"Polygon","coordinates":[[[91.308433,23.992501],[91.363033,24.099848],[91.596507,24.10499],[91.666167,24.155917],[91.905945,24.260639],[91.949974,24.375387],[92.107587,24.405979],[92.110894,24.514293],[92.153165,24.544549],[92.233781,24.777533],[92.252177,24.902977],[92.380748,24.836702],[92.477693,24.86391],[92.458056,24.953284],[92.303544,25.074285],[92.220138,25.090382],[92.092911,25.164718],[92.001753,25.18296],[91.730142,25.167457],[91.662033,25.127201],[91.566121,25.159964],[91.471036,25.133919],[91.235702,25.201925],[90.934821,25.15636],[90.946676,25.069504],[90.912363,24.978941],[90.977682,24.8806],[91.12527,24.880058],[91.148266,24.699604],[91.222887,24.674153],[91.188677,24.491089],[91.248777,24.379158],[91.153434,24.256427],[91.287121,24.205603],[91.308433,23.992501]]]},"properties":{"LOCATION_TYPE":"level1","ADM0_A3":"BGD","LOCATION_ID":"BGD-G","NAME":"Sylhet","TYPE_EN":"Division"}},
{"type":"Feature","geometry":{"type":"Polygon","coordinates":[[[89.799234,25.402893],[89.736776,25.327782],[89.739877,25.248123],[89.681534,25.159524],[89.653319,24.968864],[89.701119,24.808228],[89.791088,24.737922],[89.765663,24.561886],[89.75569,24.274513],[89.832533,24.1662],[89.80008,24.055896],[89.702153,23.980035],[89.698071,23.854152],[89.555857,23.814877],[89.344914,23.920711],[89.360365,23.853015],[89.308482,23.729301],[89.421343,23.674524],[89.548416,23.505775],[89.598852,23.473193],[89.637867,23.288269],[89.681224,23.227084],[89.698071,23.096988],[89.828398,22.939169],[89.928754,22.870232],[89.981206,22.879121],[90.14347,23.06283],[90.192356,23.071615],[90.274469,22.973585],[90.359787,23.06451],[90.450125,23.049343],[90.599132,23.117499],[90.606619,23.247219],[90.569102,23.294989],[90.428477,23.326117],[90.2588,23.444566],[90.553722,23.400702],[90.603363,23.494696],[90.702319,23.554837],[90.767618,23.617809],[90.725088,23.715504],[90.756197,23.846529],[90.952413,23.923165],[91.007086,24.141524],[91.065997,24.218031],[91.153434,24.256427],[91.248777,24.379158],[91.188677,24.491089],[91.222887,24.674153],[91.148266,24.699604],[91.12527,24.880058],[90.977682,24.8806],[90.912363,24.978941],[90.946676,25.069504],[90.934821,25.15636],[90.82198,25.142291],[90.737955,25.169421],[90.50138,25.168801],[90.364644,25.149991],[90.130085,25.211589],[89.908134,25.296907],[89.807365,25.304503],[89.799234,25.402893]]]},"properties":{"LOCATION_TYPE":"level1","ADM0_A3":"BGD","LOCATION_ID":"BGD-C","NAME":"Dhaka","TYPE_EN":"Division"}},
{"type":"Feature","geometry":{"type":"Polygon","coordinates":[[[89.799234,25.402893],[89.834392,25.634767],[89.783129,25.814446],[89.830051,25.90798],[89.749849,26.083887],[89.658382,26.207859],[89.562781,26.142591],[89.602882,26.055258],[89.480615,25.999241],[89.351476,25.996864],[89.131593,26.133755],[89.043743,26.381078],[88.950157,26.43694],[88.891866,26.368779],[88.902718,26.272919],[88.807995,26.233439],[88.656273,26.415133],[88.352829,26.578689],[88.353552,26.484586],[88.461143,26.45389],[88.495456,26.378081],[88.366781,26.313434],[88.308697,26.206102],[88.163796,26.140473],[88.074396,25.908135],[88.127726,25.774914],[88.227462,25.804266],[88.41944,25.653784],[88.423781,25.592237],[88.530286,25.500202],[88.645421,25.467336],[88.772338,25.501959],[88.841998,25.332822],[88.975323,25.302643],[89.223476,25.290307],[89.283879,25.172678],[89.350641,25.207649],[89.506419,25.16632],[89.681534,25.159524],[89.739877,25.248123],[89.736776,25.327782],[89.799234,25.402893]]]},"properties":{"LOCATION_TYPE":"level1","ADM0_A3":"BGD","LOCATION_ID":"BGD-F","NAME":"Rangpur","TYPE_EN":"Division"}},
{"type":"Feature","geometry":{"type":"Polygon","coordinates":[[[88.731456,24.189771],[88.842981,24.123282],[88.977081,24.156019],[89.116401,23.955851],[89.344914,23.920711],[89.555857,23.814877],[89.698071,23.854152],[89.702153,23.980035],[89.80008,24.055896],[89.832533,24.1662],[89.75569,24.274513],[89.765663,24.561886],[89.791088,24.737922],[89.701119,24.808228],[89.653319,24.968864],[89.681534,25.159524],[89.506419,25.16632],[89.350641,25.207649],[89.283879,25.172678],[89.223476,25.290307],[88.975323,25.302643],[88.898635,25.169318],[88.784224,25.160946],[88.599119,25.19314],[88.43148,25.173038],[88.425796,25.051056],[88.322753,24.874684],[88.242758,24.880601],[88.20245,24.9453],[88.114911,24.916413],[88.140955,24.844583],[88.02179,24.645603],[88.138785,24.49525],[88.401301,24.369418],[88.475405,24.315468],[88.737508,24.287097],[88.731456,24.189771]]]},"properties":{"LOCATION_TYPE":"level1","ADM0_A3":"BGD","LOCATION_ID":"BGD-E","NAME":"Rajshahi","TYPE_EN":"Division"}},
{"type":"Feature","geometry":{"type":"Polygon","coordinates":[[[88.731456,24.189771],[88.674101,24.08264],[88.725468,24.028896],[88.71415,23.925156],[88.593589,23.866916],[88.540104,23.649953],[88.719421,23.468104],[88.767894,23.467277],[88.685935,23.293308],[88.710016,23.241218],[88.839621,23.23481],[88.954704,23.183806],[88.8513,23.07513],[88.842773,22.964568],[88.944524,22.848012],[88.908144,22.740784],[88.950312,22.561983],[89.002505,22.427986],[88.989586,22.386903],[89.078159,22.150845],[89.057384,22.06509],[89.091075,21.976793],[89.104666,21.815863],[89.189708,21.791246],[89.365896,21.828925],[89.395193,21.716376],[89.465831,21.781317],[89.668224,21.750881],[89.64975,21.826361],[89.81422,21.840806],[89.887218,21.900092],[89.835948,22.049465],[89.874278,22.108832],[89.838715,22.267768],[89.979503,22.470079],[89.952474,22.599499],[89.893356,22.716004],[89.928909,22.743108],[89.928754,22.870232],[89.828398,22.939169],[89.698071,23.096988],[89.681224,23.227084],[89.637867,23.288269],[89.598852,23.473193],[89.548416,23.505775],[89.421343,23.674524],[89.308482,23.729301],[89.360365,23.853015],[89.344914,23.920711],[89.116401,23.955851],[88.977081,24.156019],[88.842981,24.123282],[88.731456,24.189771]]]},"properties":{"LOCATION_TYPE":"level1","ADM0_A3":"BGD","LOCATION_ID":"BGD-D","NAME":"Khulna","TYPE_EN":"Division"}},
{"type":"Feature","geometry":{"type":"MultiPolygon","coordinates":[[[[90.450125,23.049343],[90.359787,23.06451],[90.274469,22.973585],[90.192356,23.071615],[90.14347,23.06283],[89.981206,22.879121],[89.928754,22.870232],[89.928909,22.743108],[89.893356,22.716004],[89.952474,22.599499],[89.979503,22.470079],[89.880382,22.288235],[89.934418,21.997707],[90.052419,21.989],[90.024425,21.862454],[90.184825,21.800971],[90.272716,21.857408],[90.332205,22.038072],[90.387462,22.102607],[90.459646,22.091946],[90.557953,22.203355],[90.613455,22.314887],[90.606619,22.465766],[90.512706,22.611477],[90.489919,22.720201],[90.406423,22.763088],[90.507009,22.942084],[90.450125,23.049343]]],[[[90.790553,22.495333],[90.671546,22.72241],[90.578624,22.757025],[90.558767,22.602932],[90.647472,22.548285],[90.687999,22.377631],[90.673513,22.266425],[90.603526,22.044013],[90.657725,21.992865],[90.77475,22.075914],[90.836192,22.178168],[90.855024,22.434665],[90.790553,22.495333]]],[[[90.645254,22.849289],[90.592296,22.881903],[90.466075,22.851752],[90.531559,22.769237],[90.645254,22.849289]]],[[[90.667328,22.95303],[90.586192,23.034898],[90.524099,22.95303],[90.667328,22.95303]]]]},"properties":{"LOCATION_TYPE":"level1","ADM0_A3":"BGD","LOCATION_ID":"BGD-A","NAME":"Barisal","TYPE_EN":"Division"}}
]}