{"type":"FeatureCollection", "features": [
{"type":"Feature","geometry":{"type":"Polygon","coordinates":[[[27.047903,42.08292],[27.273353,42.091747],[27.533182,41.908063],[27.807997,41.993484],[28.016775,41.972561],[27.986583,42.072089],[27.75115,42.277045],[27.691661,42.42829],[27.472667,42.461859],[27.511485,42.553046],[27.743175,42.716051],[27.892263,42.710517],[27.883962,42.848375],[27.801849,42.822064],[27.620568,42.909397],[27.495201,42.875678],[27.236508,42.98841],[27.1191,42.953658],[27.023705,42.928801],[26.800979,42.946914],[26.689668,42.888907],[26.572363,42.923763],[26.593137,42.675587],[26.660833,42.695844],[26.719434,42.689178],[26.870019,42.471465],[27.089541,42.337313],[27.019881,42.184454],[27.047903,42.08292]]]},"properties":{"LOCATION_TYPE":"level1","ADM0_A3":"BGR","LOCATION_ID":"BGR-02","NAME":"Burgas","TYPE_EN":"Province"}},
{"type":"Feature","geometry":{"type":"Polygon","coordinates":[[[27.047903,42.08292],[27.019881,42.184454],[27.089541,42.337313],[26.870019,42.471465],[26.719434,42.689178],[26.660833,42.695844],[26.548798,42.577556],[26.378163,42.548954],[26.245251,42.463016],[26.130116,42.157039],[26.142828,42.045703],[26.461569,41.949274],[26.552895,41.881643],[26.623573,41.969041],[26.938903,41.996223],[27.047903,42.08292]]]},"properties":{"LOCATION_TYPE":"level1","ADM0_A3":"BGR","LOCATION_ID":"BGR-28","NAME":"Yambol","TYPE_EN":"Province"}},
{"type":"Feature","geometry":{"type":"Polygon","coordinates":[[[26.552895,41.881643],[26.461569,41.949274],[26.142828,42.045703],[26.057046,42.019606],[25.949765,42.108076],[25.756599,42.061516],[25.588857,42.192748],[25.329545,42.124509],[25.310424,41.987877],[25.222574,41.903696],[25.247172,41.817034],[25.389283,41.846645],[25.5316,41.7867],[25.714741,41.621052],[25.78223,41.664641],[25.916899,41.562709],[26.05949,41.643777],[26.108359,41.727893],[26.552895,41.881643]]]},"properties":{"LOCATION_TYPE":"level1","ADM0_A3":"BGR","LOCATION_ID":"BGR-26","NAME":"Haskovo","TYPE_EN":"Province"}},
{"type":"Feature","geometry":{"type":"Polygon","coordinates":[[[23.052551,43.84282],[22.919562,43.834225],[22.850522,43.896986],[22.885869,43.994525],[23.023018,44.031629],[22.906436,44.122889],[22.69164,44.228435],[22.606196,44.174566],[22.604749,44.079378],[22.399594,43.993336],[22.349467,43.807921],[22.472871,43.635942],[22.518863,43.474247],[22.724343,43.38606],[22.797503,43.490886],[22.938063,43.581061],[23.052551,43.84282]]]},"properties":{"LOCATION_TYPE":"level1","ADM0_A3":"BGR","LOCATION_ID":"BGR-05","NAME":"Vidin","TYPE_EN":"Province"}},
{"type":"Feature","geometry":{"type":"Polygon","coordinates":[[[22.739579,42.898858],[22.506047,42.870123],[22.441318,42.632891],[22.568473,42.632385],[22.765257,42.418781],[22.850109,42.36018],[23.000074,42.396766],[23.215669,42.373176],[23.278507,42.532288],[23.059502,42.709874],[23.024879,42.762661],[22.798433,42.839117],[22.739579,42.898858]]]},"properties":{"LOCATION_TYPE":"level1","ADM0_A3":"BGR","LOCATION_ID":"BGR-14","NAME":"Pernik","TYPE_EN":"Province"}},
{"type":"Feature","geometry":{"type":"Polygon","coordinates":[[[22.739579,42.898858],[22.798433,42.839117],[23.024879,42.762661],[23.059502,42.709874],[23.177221,42.728943],[23.27365,42.898002],[23.400567,42.847773],[23.596317,42.834853],[23.502783,42.657913],[23.654401,42.43586],[23.5588,42.420796],[23.278507,42.532288],[23.215669,42.373176],[23.293907,42.37359],[23.493584,42.099084],[23.763129,42.177607],[23.848085,42.225743],[23.959396,42.392296],[23.921362,42.507509],[24.22894,42.629672],[24.408154,42.562079],[24.396682,42.75491],[24.158557,42.780852],[24.151425,42.908725],[23.977483,43.059878],[23.634351,43.053031],[23.552599,43.009158],[23.398913,43.162947],[23.127302,43.117162],[22.982902,43.187318],[22.935271,43.085562],[22.739579,42.898858]]]},"properties":{"LOCATION_TYPE":"level1","ADM0_A3":"BGR","LOCATION_ID":"BGR-23","NAME":"Sofia","TYPE_EN":"Province"}},
{"type":"Feature","geometry":{"type":"Polygon","coordinates":[[[22.982902,43.187318],[23.127302,43.117162],[23.398913,43.162947],[23.327186,43.275653],[23.410799,43.455927],[23.551049,43.583826],[23.622465,43.714102],[23.620854,43.83401],[23.325151,43.886592],[23.052551,43.84282],[22.938063,43.581061],[22.797503,43.490886],[22.724343,43.38606],[22.833159,43.274647],[22.982902,43.187318]]]},"properties":{"LOCATION_TYPE":"level1","ADM0_A3":"BGR","LOCATION_ID":"BGR-12","NAME":"Montana","TYPE_EN":"Province"}},
{"type":"Feature","geometry":{"type":"Polygon","coordinates":[[[22.441318,42.632891],[22.524857,42.507665],[22.508838,42.404932],[22.345023,42.313439],[22.531058,42.129109],[22.845621,42.007408],[22.933619,42.08601],[23.060743,42.048674],[23.200579,42.091695],[23.387234,42.062342],[23.493584,42.099084],[23.293907,42.37359],[23.215669,42.373176],[23.000074,42.396766],[22.850109,42.36018],[22.765257,42.418781],[22.568473,42.632385],[22.441318,42.632891]]]},"properties":{"LOCATION_TYPE":"level1","ADM0_A3":"BGR","LOCATION_ID":"BGR-10","NAME":"Kyustendil","TYPE_EN":"Province"}},
{"type":"Feature","geometry":{"type":"Polygon","coordinates":[[[22.845621,42.007408],[22.880804,41.872691],[23.009582,41.71637],[22.933721,41.584595],[22.940852,41.349829],[23.115209,41.312673],[23.287705,41.398198],[23.612439,41.371016],[24.047348,41.525735],[24.197698,41.547711],[24.072567,41.686345],[23.82173,41.82383],[23.766643,41.976456],[23.82049,42.045341],[23.763129,42.177607],[23.493584,42.099084],[23.387234,42.062342],[23.200579,42.091695],[23.060743,42.048674],[22.933619,42.08601],[22.845621,42.007408]]]},"properties":{"LOCATION_TYPE":"level1","ADM0_A3":"BGR","LOCATION_ID":"BGR-01","NAME":"Blagoevgrad","TYPE_EN":"Province"}},
{"type":"Feature","geometry":{"type":"Polygon","coordinates":[[[27.682515,43.987256],[27.656275,44.023877],[27.383837,44.015092],[27.251132,44.122373],[27.027476,44.177046],[26.789455,44.115965],[26.332335,44.054926],[26.39625,43.949566],[26.545698,43.944863],[26.617218,43.869364],[26.859787,43.806164],[27.000761,43.699581],[27.200128,43.668911],[27.29635,43.802469],[27.521452,43.852052],[27.682515,43.987256]]]},"properties":{"LOCATION_TYPE":"level1","ADM0_A3":"BGR","LOCATION_ID":"BGR-19","NAME":"Silistra","TYPE_EN":"Province"}},
{"type":"Feature","geometry":{"type":"Polygon","coordinates":[[[26.332335,44.054926],[26.150734,44.012405],[25.934003,43.870321],[25.781144,43.732009],[25.48245,43.669715],[25.470105,43.545869],[25.605704,43.41257],[25.935399,43.375208],[26.020459,43.318855],[25.946148,43.416575],[26.039165,43.507267],[26.18417,43.535948],[26.179932,43.661625],[26.295274,43.658369],[26.357802,43.762936],[26.253933,43.832105],[26.39625,43.949566],[26.332335,44.054926]]]},"properties":{"LOCATION_TYPE":"level1","ADM0_A3":"BGR","LOCATION_ID":"BGR-18","NAME":"Ruse","TYPE_EN":"Province"}},
{"type":"Feature","geometry":{"type":"Polygon","coordinates":[[[27.682515,43.987256],[27.521452,43.852052],[27.29635,43.802469],[27.200128,43.668911],[27.418926,43.571243],[27.519902,43.499154],[27.603824,43.541942],[27.867684,43.365415],[28.086997,43.355235],[28.321625,43.42829],[28.459483,43.380683],[28.603526,43.538153],[28.57838,43.741278],[28.221254,43.761981],[27.98101,43.84934],[27.935845,43.964398],[27.682515,43.987256]]]},"properties":{"LOCATION_TYPE":"level1","ADM0_A3":"BGR","LOCATION_ID":"BGR-08","NAME":"Dobrich","TYPE_EN":"Province"}},
{"type":"Feature","geometry":{"type":"Polygon","coordinates":[[[23.620854,43.83401],[23.622465,43.714102],[23.551049,43.583826],[23.410799,43.455927],[23.327186,43.275653],[23.398913,43.162947],[23.552599,43.009158],[23.634351,43.053031],[23.977483,43.059878],[24.026782,43.21173],[23.978619,43.294593],[24.228113,43.343065],[24.243203,43.437504],[24.120213,43.588993],[24.287541,43.665242],[24.336705,43.759251],[24.159383,43.752938],[23.620854,43.83401]]]},"properties":{"LOCATION_TYPE":"level1","ADM0_A3":"BGR","LOCATION_ID":"BGR-06","NAME":"Vratsa","TYPE_EN":"Province"}},
{"type":"Feature","geometry":{"type":"Polygon","coordinates":[[[25.285405,43.690391],[24.963675,43.749605],[24.705603,43.743765],[24.500137,43.799498],[24.336705,43.759251],[24.287541,43.665242],[24.120213,43.588993],[24.243203,43.437504],[24.228113,43.343065],[23.978619,43.294593],[24.026782,43.21173],[24.235245,43.226277],[24.392548,43.277979],[24.589848,43.205399],[24.752836,43.308726],[24.980109,43.310742],[25.111574,43.279891],[25.225675,43.336528],[25.187435,43.589123],[25.285405,43.690391]]]},"properties":{"LOCATION_TYPE":"level1","ADM0_A3":"BGR","LOCATION_ID":"BGR-15","NAME":"Pleven","TYPE_EN":"Province"}},
{"type":"Feature","geometry":{"type":"Polygon","coordinates":[[[25.285405,43.690391],[25.187435,43.589123],[25.225675,43.336528],[25.111574,43.279891],[25.072506,43.181086],[25.143716,43.109643],[25.306807,43.060111],[25.559401,43.033213],[25.627614,42.888519],[25.62007,42.766951],[25.810859,42.782815],[26.056839,42.817232],[26.171974,42.949058],[26.057252,43.098455],[26.096216,43.214882],[26.020459,43.318855],[25.935399,43.375208],[25.605704,43.41257],[25.470105,43.545869],[25.48245,43.669715],[25.285405,43.690391]]]},"properties":{"LOCATION_TYPE":"level1","ADM0_A3":"BGR","LOCATION_ID":"BGR-04","NAME":"Veliko Tarnovo","TYPE_EN":"Province"}},
{"type":"Feature","geometry":{"type":"Polygon","coordinates":[[[26.05949,41.643777],[25.916899,41.562709],[25.78223,41.664641],[25.714741,41.621052],[25.5316,41.7867],[25.389283,41.846645],[25.247172,41.817034],[25.222574,41.903696],[25.067132,41.794969],[25.090179,41.621723],[25.142063,41.523486],[25.153847,41.307535],[25.285722,41.239396],[25.551494,41.31567],[25.882017,41.304043],[26.120865,41.357787],[26.174299,41.445998],[26.05949,41.643777]]]},"properties":{"LOCATION_TYPE":"level1","ADM0_A3":"BGR","LOCATION_ID":"BGR-09","NAME":"Kardzhali","TYPE_EN":"Province"}},
{"type":"Feature","geometry":{"type":"Polygon","coordinates":[[[24.197698,41.547711],[24.286817,41.517622],[24.530936,41.547543],[24.595842,41.429772],[24.886367,41.400627],[25.153847,41.307535],[25.142063,41.523486],[25.090179,41.621723],[25.067132,41.794969],[24.80875,41.930981],[24.562563,41.885247],[24.451149,41.949429],[24.423967,41.889511],[24.214264,41.740708],[24.072567,41.686345],[24.197698,41.547711]]]},"properties":{"LOCATION_TYPE":"level1","ADM0_A3":"BGR","LOCATION_ID":"BGR-21","NAME":"Smolyan","TYPE_EN":"Province"}},
{"type":"Feature","geometry":{"type":"Polygon","coordinates":[[[28.086997,43.355235],[27.867684,43.365415],[27.603824,43.541942],[27.519902,43.499154],[27.418926,43.571243],[27.338518,43.554396],[27.248704,43.252399],[27.162714,43.120004],[27.20912,43.047399],[27.1191,42.953658],[27.236508,42.98841],[27.495201,42.875678],[27.620568,42.909397],[27.801849,42.822064],[27.883962,42.848375],[27.885427,43.008612],[27.944347,43.157131],[28.086997,43.355235]]]},"properties":{"LOCATION_TYPE":"level1","ADM0_A3":"BGR","LOCATION_ID":"BGR-03","NAME":"Varna","TYPE_EN":"Province"}},
{"type":"Feature","geometry":{"type":"Polygon","coordinates":[[[25.011528,42.74827],[25.011218,42.758527],[24.924712,42.714034],[24.70395,42.716669],[24.500035,42.792014],[24.396682,42.75491],[24.408154,42.562079],[24.394408,42.464101],[24.488769,42.240885],[24.441434,42.070869],[24.451149,41.949429],[24.562563,41.885247],[24.80875,41.930981],[25.067132,41.794969],[25.222574,41.903696],[25.310424,41.987877],[25.329545,42.124509],[25.088009,42.188045],[25.149091,42.286153],[25.10837,42.401107],[25.175859,42.489474],[25.025997,42.541331],[25.011528,42.74827]]]},"properties":{"LOCATION_TYPE":"level1","ADM0_A3":"BGR","LOCATION_ID":"BGR-16","NAME":"Plovdiv","TYPE_EN":"Province"}},
{"type":"Feature","geometry":{"type":"Polygon","coordinates":[[[25.011528,42.74827],[25.025997,42.541331],[25.175859,42.489474],[25.10837,42.401107],[25.149091,42.286153],[25.088009,42.188045],[25.329545,42.124509],[25.588857,42.192748],[25.756599,42.061516],[25.949765,42.108076],[26.057046,42.019606],[26.142828,42.045703],[26.130116,42.157039],[26.024593,42.152725],[25.872664,42.449812],[25.882999,42.568281],[25.810859,42.782815],[25.62007,42.766951],[25.394037,42.73579],[25.21627,42.772635],[25.011528,42.74827]]]},"properties":{"LOCATION_TYPE":"level1","ADM0_A3":"BGR","LOCATION_ID":"BGR-24","NAME":"Stara Zagora","TYPE_EN":"Province"}},
{"type":"Feature","geometry":{"type":"Polygon","coordinates":[[[25.810859,42.782815],[25.882999,42.568281],[25.872664,42.449812],[26.024593,42.152725],[26.130116,42.157039],[26.245251,42.463016],[26.378163,42.548954],[26.548798,42.577556],[26.660833,42.695844],[26.593137,42.675587],[26.572363,42.923763],[26.574327,42.986575],[26.335788,43.041507],[26.171974,42.949058],[26.056839,42.817232],[25.810859,42.782815]]]},"properties":{"LOCATION_TYPE":"level1","ADM0_A3":"BGR","LOCATION_ID":"BGR-20","NAME":"Sliven","TYPE_EN":"Province"}},
{"type":"Feature","geometry":{"type":"Polygon","coordinates":[[[26.572363,42.923763],[26.689668,42.888907],[26.800979,42.946914],[27.023705,42.928801],[27.1191,42.953658],[27.20912,43.047399],[27.162714,43.120004],[27.248704,43.252399],[27.338518,43.554396],[27.418926,43.571243],[27.200128,43.668911],[27.000761,43.699581],[26.723258,43.484736],[26.723051,43.410942],[26.766046,43.252192],[26.574327,42.986575],[26.572363,42.923763]]]},"properties":{"LOCATION_TYPE":"level1","ADM0_A3":"BGR","LOCATION_ID":"BGR-27","NAME":"Shumen","TYPE_EN":"Province"}},
{"type":"Feature","geometry":{"type":"Polygon","coordinates":[[[27.000761,43.699581],[26.859787,43.806164],[26.617218,43.869364],[26.545698,43.944863],[26.39625,43.949566],[26.253933,43.832105],[26.357802,43.762936],[26.295274,43.658369],[26.179932,43.661625],[26.18417,43.535948],[26.322766,43.515096],[26.373822,43.435747],[26.598408,43.342161],[26.723051,43.410942],[26.723258,43.484736],[27.000761,43.699581]]]},"properties":{"LOCATION_TYPE":"level1","ADM0_A3":"BGR","LOCATION_ID":"BGR-17","NAME":"Razgrad","TYPE_EN":"Province"}},
{"type":"Feature","geometry":{"type":"Polygon","coordinates":[[[26.171974,42.949058],[26.335788,43.041507],[26.574327,42.986575],[26.766046,43.252192],[26.723051,43.410942],[26.598408,43.342161],[26.373822,43.435747],[26.322766,43.515096],[26.18417,43.535948],[26.039165,43.507267],[25.946148,43.416575],[26.020459,43.318855],[26.096216,43.214882],[26.057252,43.098455],[26.171974,42.949058]]]},"properties":{"LOCATION_TYPE":"level1","ADM0_A3":"BGR","LOCATION_ID":"BGR-25","NAME":"Targovishte","TYPE_EN":"Province"}},
{"type":"Feature","geometry":{"type":"Polygon","coordinates":[[[25.011528,42.74827],[25.21627,42.772635],[25.394037,42.73579],[25.62007,42.766951],[25.627614,42.888519],[25.559401,43.033213],[25.306807,43.060111],[25.143716,43.109643],[25.072506,43.181086],[24.98538,43.195865],[24.867454,42.986834],[24.894843,42.888804],[25.011218,42.758527],[25.011528,42.74827]]]},"properties":{"LOCATION_TYPE":"level1","ADM0_A3":"BGR","LOCATION_ID":"BGR-07","NAME":"Gabrovo","TYPE_EN":"Province"}},
{"type":"Feature","geometry":{"type":"Polygon","coordinates":[[[24.408154,42.562079],[24.22894,42.629672],[23.921362,42.507509],[23.959396,42.392296],[23.848085,42.225743],[23.763129,42.177607],[23.82049,42.045341],[23.766643,41.976456],[23.82173,41.82383],[24.072567,41.686345],[24.214264,41.740708],[24.423967,41.889511],[24.451149,41.949429],[24.441434,42.070869],[24.488769,42.240885],[24.394408,42.464101],[24.408154,42.562079]]]},"properties":{"LOCATION_TYPE":"level1","ADM0_A3":"BGR","LOCATION_ID":"BGR-13","NAME":"Pazardzhik","TYPE_EN":"Province"}},
{"type":"Feature","geometry":{"type":"Polygon","coordinates":[[[24.396682,42.75491],[24.500035,42.792014],[24.70395,42.716669],[24.924712,42.714034],[25.011218,42.758527],[24.894843,42.888804],[24.867454,42.986834],[24.98538,43.195865],[25.072506,43.181086],[25.111574,43.279891],[24.980109,43.310742],[24.752836,43.308726],[24.589848,43.205399],[24.392548,43.277979],[24.235245,43.226277],[24.026782,43.21173],[23.977483,43.059878],[24.151425,42.908725],[24.158557,42.780852],[24.396682,42.75491]]]},"properties":{"LOCATION_TYPE":"level1","ADM0_A3":"BGR","LOCATION_ID":"BGR-11","NAME":"Lovech","TYPE_EN":"Province"}},
{"type":"Feature","geometry":{"type":"Polygon","coordinates":[[[23.278507,42.532288],[23.5588,42.420796],[23.654401,42.43586],[23.502783,42.657913],[23.596317,42.834853],[23.400567,42.847773],[23.27365,42.898002],[23.177221,42.728943],[23.059502,42.709874],[23.278507,42.532288]]]},"properties":{"LOCATION_TYPE":"level1","ADM0_A3":"BGR","LOCATION_ID":"BGR-22","NAME":"Grad Sofiya","TYPE_EN":"Province"}}
]}