{"type":"FeatureCollection", "features": [
{"type":"Feature","geometry":{"type":"Polygon","coordinates":[[[50.503917,26.242011],[50.551606,26.194241],[50.609141,26.208279],[50.586681,26.242499],[50.545421,26.227729],[50.503917,26.242011]]]},"properties":{"LOCATION_TYPE":"level1","ADM0_A3":"BHR","LOCATION_ID":"BHR-13","NAME":"Al Manāmah","TYPE_EN":"Governorate"}},
{"type":"Feature","geometry":{"type":"Polygon","coordinates":[[[50.490896,26.048],[50.539021,26.056228],[50.524486,26.128903],[50.509951,26.177794],[50.551606,26.194241],[50.503917,26.242011],[50.461192,26.225246],[50.452973,26.149563],[50.490896,26.048]]]},"properties":{"LOCATION_TYPE":"level1","ADM0_A3":"BHR","LOCATION_ID":"BHR-17","NAME":"Ash Shamālīyah","TYPE_EN":"Governorate"}},
{"type":"Feature","geometry":{"type":"Polygon","coordinates":[[[50.616289,26.095932],[50.581305,26.122296],[50.524486,26.128903],[50.539021,26.056228],[50.490896,26.048],[50.46046,25.985297],[50.547211,25.852932],[50.56544,25.7897],[50.603526,25.85456],[50.618419,25.964748],[50.616289,26.095932]]]},"properties":{"LOCATION_TYPE":"level1","ADM0_A3":"BHR","LOCATION_ID":"BHR-14","NAME":"Al Janūbīyah","TYPE_EN":"Governorate"}},
{"type":"Feature","geometry":{"type":"Polygon","coordinates":[[[50.551606,26.194241],[50.509951,26.177794],[50.524486,26.128903],[50.581305,26.122296],[50.616289,26.095932],[50.635507,26.134382],[50.551606,26.194241]]]},"properties":{"LOCATION_TYPE":"level1","ADM0_A3":"BHR","LOCATION_ID":"BHR-16","NAME":"Al Wusţá","TYPE_EN":"Governorate"}},
{"type":"Feature","geometry":{"type":"Polygon","coordinates":[[[50.60165,26.278852],[50.612384,26.241283],[50.647807,26.239136],[50.65532,26.276705],[50.60165,26.278852]]]},"properties":{"LOCATION_TYPE":"level1","ADM0_A3":"BHR","LOCATION_ID":"BHR-15","NAME":"Al Muḩarraq","TYPE_EN":"Governorate"}}
]}