{"type":"FeatureCollection", "features": [
{"type":"Feature","geometry":{"type":"MultiPolygon","coordinates":[[[[-72.999572,21.451708],[-72.91465,21.485062],[-72.991526,21.561998],[-73.076234,21.506796],[-72.999572,21.451708]]],[[[-73.647071,21.061555],[-73.703209,21.019766],[-73.676141,20.935162],[-73.600819,20.946519],[-73.492614,20.924457],[-73.346922,20.963827],[-73.225564,20.952463],[-73.129821,20.993663],[-73.097594,21.0814],[-73.03393,21.156731],[-73.005727,21.291449],[-73.053049,21.329291],[-73.160961,21.169863],[-73.255152,21.13506],[-73.343834,21.165413],[-73.398183,21.22484],[-73.514604,21.186867],[-73.552887,21.130204],[-73.647071,21.061555]]]]},"properties":{"LOCATION_TYPE":"level1","ADM0_A3":"BHS","LOCATION_ID":"BHS-IN","NAME":"Inagua","TYPE_EN":"District"}},
{"type":"Feature","geometry":{"type":"Polygon","coordinates":[[[-73.13915,22.363349],[-73.07372,22.342231],[-72.988352,22.370185],[-72.879994,22.358222],[-72.797231,22.293647],[-72.754994,22.349677],[-72.892812,22.404283],[-72.963735,22.39765],[-73.06314,22.444729],[-73.114573,22.438544],[-73.13915,22.363349]]]},"properties":{"LOCATION_TYPE":"level1","ADM0_A3":"BHS","LOCATION_ID":"BHS-MG","NAME":"Mayaguana","TYPE_EN":"District"}},
{"type":"Feature","geometry":{"type":"Polygon","coordinates":[[[-73.995717,22.657538],[-73.984527,22.595608],[-73.913442,22.594468],[-73.858632,22.657172],[-73.844879,22.720201],[-73.954742,22.720201],[-73.995717,22.657538]]]},"properties":{"LOCATION_TYPE":"level1","ADM0_A3":"BHS","LOCATION_ID":"BHS-AK","NAME":"Acklins","TYPE_EN":"District"}},
{"type":"Feature","geometry":{"type":"Polygon","coordinates":[[[-74.286855,22.733303],[-74.222279,22.695624],[-74.090688,22.657538],[-74.016225,22.720201],[-74.167063,22.746894],[-74.228505,22.815823],[-74.310414,22.843166],[-74.351959,22.822659],[-74.286855,22.733303]]]},"properties":{"LOCATION_TYPE":"level1","ADM0_A3":"BHS","LOCATION_ID":"BHS-CK","NAME":"Crooked Island and Long Cay","TYPE_EN":"District"}},
{"type":"Feature","geometry":{"type":"Polygon","coordinates":[[[-75.798207,23.538642],[-75.856313,23.567288],[-75.982249,23.682685],[-75.987701,23.600816],[-75.873362,23.528388],[-75.798207,23.538642]]]},"properties":{"LOCATION_TYPE":"level1","ADM0_A3":"BHS","LOCATION_ID":"BHS-EX","NAME":"Exuma","TYPE_EN":"District"}},
{"type":"Feature","geometry":{"type":"Polygon","coordinates":[[[-74.85912,22.980292],[-74.844838,23.000149],[-74.94636,23.093736],[-75.031606,23.123358],[-75.076894,23.171698],[-75.094065,23.305325],[-75.182729,23.446438],[-75.194895,23.514106],[-75.250071,23.49018],[-75.196889,23.410142],[-75.131663,23.35578],[-75.112945,23.281317],[-75.132192,23.185981],[-75.075103,23.127387],[-74.990549,23.078559],[-74.924428,23.011705],[-74.85912,22.980292]]]},"properties":{"LOCATION_TYPE":"level1","ADM0_A3":"BHS","LOCATION_ID":"BHS-LI","NAME":"Long Island","TYPE_EN":"District"}},
{"type":"Feature","geometry":{"type":"Polygon","coordinates":[[[-74.900054,23.706488],[-74.890859,23.66474],[-74.793691,23.671332],[-74.812367,23.719672],[-74.900054,23.706488]]]},"properties":{"LOCATION_TYPE":"level1","ADM0_A3":"BHS","LOCATION_ID":"BHS-RC","NAME":"Rum Cay","TYPE_EN":"District"}},
{"type":"Feature","geometry":{"type":"Polygon","coordinates":[[[-76.325185,23.974026],[-76.318959,23.980211],[-76.37678,24.101386],[-76.374989,24.046576],[-76.325185,23.974026]]]},"properties":{"LOCATION_TYPE":"level1","ADM0_A3":"BHS","LOCATION_ID":"BHS-BP","NAME":"Black Point","TYPE_EN":"District"}},
{"type":"Feature","geometry":{"type":"Polygon","coordinates":[[[-74.468658,24.021796],[-74.427113,24.083238],[-74.45816,24.141303],[-74.529693,24.100409],[-74.529652,24.011054],[-74.468658,24.021796]]]},"properties":{"LOCATION_TYPE":"level1","ADM0_A3":"BHS","LOCATION_ID":"BHS-SS","NAME":"San Salvador","TYPE_EN":"District"}},
{"type":"Feature","geometry":{"type":"Polygon","coordinates":[[[-77.741811,24.634711],[-77.834052,24.648993],[-77.942443,24.638504],[-78.071814,24.596546],[-78.134429,24.501614],[-78.134145,24.403957],[-78.080149,24.379462],[-78.063303,24.31623],[-77.908559,24.350775],[-77.804107,24.448798],[-77.718739,24.499823],[-77.741811,24.634711]]]},"properties":{"LOCATION_TYPE":"level1","ADM0_A3":"BHS","LOCATION_ID":"BHS-CS","NAME":"Central Andros","TYPE_EN":"District"}},
{"type":"Feature","geometry":{"type":"Polygon","coordinates":[[[-77.822581,23.980211],[-77.744049,24.035468],[-77.704823,24.094672],[-77.73998,24.164496],[-77.640736,24.237291],[-77.67516,24.302965],[-77.83967,24.206732],[-77.853912,24.165839],[-77.942047,24.096869],[-77.879628,24.073961],[-77.822581,23.980211]]]},"properties":{"LOCATION_TYPE":"level1","ADM0_A3":"BHS","LOCATION_ID":"BHS-MC","NAME":"Mangrove Cay","TYPE_EN":"District"}},
{"type":"Feature","geometry":{"type":"Polygon","coordinates":[[[-77.744049,24.035468],[-77.822581,23.980211],[-77.812856,23.876654],[-77.642974,23.754869],[-77.565907,23.740668],[-77.517486,23.864163],[-77.545481,24.004381],[-77.549469,24.125922],[-77.607533,24.218248],[-77.709584,24.043687],[-77.744049,24.035468]]]},"properties":{"LOCATION_TYPE":"level1","ADM0_A3":"BHS","LOCATION_ID":"BHS-SA","NAME":"South Andros","TYPE_EN":"District"}},
{"type":"Feature","geometry":{"type":"Polygon","coordinates":[[[-75.314687,24.217353],[-75.40038,24.323472],[-75.476064,24.370592],[-75.61262,24.562445],[-75.626332,24.645006],[-75.708852,24.700181],[-75.756581,24.660305],[-75.65274,24.588365],[-75.647369,24.528957],[-75.571523,24.488756],[-75.534006,24.389228],[-75.405751,24.240302],[-75.463612,24.185614],[-75.42512,24.14997],[-75.335805,24.158515],[-75.314687,24.217353]]]},"properties":{"LOCATION_TYPE":"level1","ADM0_A3":"BHS","LOCATION_ID":"BHS-CI","NAME":"Cat Island","TYPE_EN":"District"}},
{"type":"Feature","geometry":{"type":"Polygon","coordinates":[[[-77.47997,24.99136],[-77.379506,25.001532],[-77.32608,25.079332],[-77.456044,25.076972],[-77.52717,25.054389],[-77.47997,24.99136]]]},"properties":{"LOCATION_TYPE":"level1","ADM0_A3":"BHS","LOCATION_ID":"BHS-X01~","NAME":"New Providence","TYPE_EN":"Capital"}},
{"type":"Feature","geometry":{"type":"Polygon","coordinates":[[[-78.134429,24.501614],[-78.071814,24.596546],[-77.942443,24.638504],[-77.834052,24.648993],[-77.741811,24.634711],[-77.737213,24.700181],[-77.873362,24.838568],[-77.934193,24.976223],[-77.986562,25.012885],[-77.976877,25.138414],[-78.045155,25.183092],[-78.149566,25.19953],[-78.214345,25.184638],[-78.157704,25.00019],[-78.208119,24.861802],[-78.292144,24.775336],[-78.302358,24.720689],[-78.222239,24.666083],[-78.228261,24.569485],[-78.335072,24.672838],[-78.442983,24.624498],[-78.351633,24.530463],[-78.22643,24.465481],[-78.134429,24.501614]]]},"properties":{"LOCATION_TYPE":"level1","ADM0_A3":"BHS","LOCATION_ID":"BHS-NS","NAME":"North Andros","TYPE_EN":"District"}},
{"type":"Feature","geometry":{"type":"Polygon","coordinates":[[[-76.314,25.299597],[-76.332553,25.285283],[-76.263743,25.193671],[-76.164947,25.129828],[-76.147043,25.083808],[-76.170319,24.988852],[-76.154449,24.981391],[-76.112904,25.114895],[-76.314,25.299597]]]},"properties":{"LOCATION_TYPE":"level1","ADM0_A3":"BHS","LOCATION_ID":"BHS-CE","NAME":"Central Eleuthera","TYPE_EN":"District"}},
{"type":"Feature","geometry":{"type":"Polygon","coordinates":[[[-76.332553,25.285283],[-76.314,25.299597],[-76.368276,25.342719],[-76.460927,25.35456],[-76.624582,25.46247],[-76.729848,25.563625],[-76.712758,25.446926],[-76.591217,25.422553],[-76.489613,25.351304],[-76.371571,25.322496],[-76.332553,25.285283]]]},"properties":{"LOCATION_TYPE":"level1","ADM0_A3":"BHS","LOCATION_ID":"BHS-NE","NAME":"North Eleuthera","TYPE_EN":"District"}},
{"type":"Feature","geometry":{"type":"Polygon","coordinates":[[[-76.154449,24.981391],[-76.170319,24.988852],[-76.210927,24.901028],[-76.136952,24.902167],[-76.154449,24.981391]]]},"properties":{"LOCATION_TYPE":"level1","ADM0_A3":"BHS","LOCATION_ID":"BHS-SE","NAME":"South Eleuthera","TYPE_EN":"District"}},
{"type":"Feature","geometry":{"type":"Polygon","coordinates":[[[-77.819203,25.707587],[-77.858266,25.777289],[-77.887318,25.78144],[-77.831451,25.708686],[-77.819203,25.707587]]]},"properties":{"LOCATION_TYPE":"level1","ADM0_A3":"BHS","LOCATION_ID":"BHS-BY","NAME":"Berry Islands","TYPE_EN":"District"}},
{"type":"Feature","geometry":{"type":"Polygon","coordinates":[[[-77.537994,26.306586],[-77.570383,26.332709],[-77.579335,26.31802],[-77.567047,26.291002],[-77.537994,26.306586]]]},"properties":{"LOCATION_TYPE":"level1","ADM0_A3":"BHS","LOCATION_ID":"BHS-MI","NAME":"Moore's Island","TYPE_EN":"District"}},
{"type":"Feature","geometry":{"type":"Polygon","coordinates":[[[-78.59813,26.531396],[-78.63593,26.546215],[-78.64644,26.504853],[-78.59813,26.531396]]]},"properties":{"LOCATION_TYPE":"level1","ADM0_A3":"BHS","LOCATION_ID":"BHS-FP","NAME":"City of Freeport","TYPE_EN":"District"}},
{"type":"Feature","geometry":{"type":"Polygon","coordinates":[[[-78.411177,26.594248],[-78.474403,26.712768],[-78.575942,26.69477],[-78.637979,26.609731],[-78.714289,26.57052],[-78.766839,26.508104],[-78.64644,26.504853],[-78.63593,26.546215],[-78.59813,26.531396],[-78.540151,26.565009],[-78.411177,26.594248]]]},"properties":{"LOCATION_TYPE":"level1","ADM0_A3":"BHS","LOCATION_ID":"BHS-WG","NAME":"West Grand Bahama","TYPE_EN":"District"}},
{"type":"Feature","geometry":{"type":"Polygon","coordinates":[[[-78.474403,26.712768],[-78.411177,26.594248],[-77.902943,26.681586],[-77.971669,26.72956],[-78.055409,26.72602],[-78.287082,26.685492],[-78.474403,26.712768]]]},"properties":{"LOCATION_TYPE":"level1","ADM0_A3":"BHS","LOCATION_ID":"BHS-EG","NAME":"East Grand Bahama","TYPE_EN":"District"}},
{"type":"Feature","geometry":{"type":"Polygon","coordinates":[[[-77.23058,26.285102],[-77.031565,26.355292],[-77.058827,26.529364],[-77.182769,26.600287],[-77.269887,26.625067],[-77.327952,26.709133],[-77.375356,26.69953],[-77.312164,26.594672],[-77.160715,26.564195],[-77.196197,26.462877],[-77.230133,26.447455],[-77.23058,26.285102]]]},"properties":{"LOCATION_TYPE":"level1","ADM0_A3":"BHS","LOCATION_ID":"BHS-CO","NAME":"Central Abaco","TYPE_EN":"District"}},
{"type":"Feature","geometry":{"type":"Polygon","coordinates":[[[-77.031565,26.355292],[-77.23058,26.285102],[-77.256418,26.203925],[-77.223297,26.145819],[-77.34789,26.070624],[-77.388173,26.005439],[-77.315053,25.990953],[-77.226674,25.885077],[-77.190745,25.916327],[-77.192209,26.068996],[-77.164947,26.245429],[-77.031565,26.355292]]]},"properties":{"LOCATION_TYPE":"level1","ADM0_A3":"BHS","LOCATION_ID":"BHS-SO","NAME":"South Abaco","TYPE_EN":"District"}},
{"type":"Feature","geometry":{"type":"Polygon","coordinates":[[[-77.375356,26.69953],[-77.327952,26.709133],[-77.511301,26.869534],[-77.774485,26.927232],[-77.754628,26.879462],[-77.517486,26.8522],[-77.444692,26.755072],[-77.375356,26.69953]]]},"properties":{"LOCATION_TYPE":"level1","ADM0_A3":"BHS","LOCATION_ID":"BHS-NO","NAME":"North Abaco","TYPE_EN":"District"}},
{"type":"Feature","geometry":{"type":"Polygon","coordinates":[[[-79.250071,25.774726],[-79.280344,25.757229],[-79.266957,25.732489],[-79.243235,25.742906],[-79.250071,25.774726]]]},"properties":{"LOCATION_TYPE":"level1","ADM0_A3":"BHS","LOCATION_ID":"BHS-BI","NAME":"Bimini","TYPE_EN":"District"}},
{"type":"Feature","geometry":{"type":"Polygon","coordinates":[[[-75.722076,22.202582],[-75.749745,22.204535],[-75.734364,22.175035],[-75.714711,22.182929],[-75.722076,22.202582]]]},"properties":{"LOCATION_TYPE":"level1","ADM0_A3":"BHS","LOCATION_ID":"BHS-RI","NAME":"Ragged Island","TYPE_EN":"District"}},
{"type":"Feature","geometry":{"type":"Polygon","coordinates":[[[-76.770186,25.551304],[-76.787424,25.541901],[-76.749813,25.539551],[-76.770186,25.551304]]]},"properties":{"LOCATION_TYPE":"level1","ADM0_A3":"BHS","LOCATION_ID":"BHS-HI","NAME":"Harbour Island","TYPE_EN":"District"}},
{"type":"Feature","geometry":{"type":"Polygon","coordinates":[[[-76.828954,25.531715],[-76.857162,25.523879],[-76.848543,25.516827],[-76.828954,25.516827],[-76.828954,25.531715]]]},"properties":{"LOCATION_TYPE":"level1","ADM0_A3":"BHS","LOCATION_ID":"BHS-SW","NAME":"Spanish Wells","TYPE_EN":"District"}}
]}