{"type":"FeatureCollection", "features": [
{"type":"Feature","geometry":{"type":"Polygon","coordinates":[[[17.598025,43.072902],[17.701586,42.9195],[17.826229,42.888649],[17.858475,42.816974],[18.224138,42.628071],[18.369783,42.574393],[18.346156,42.649088],[18.03992,42.885072],[18.014135,42.966562],[18.055621,43.108938],[18.029948,43.445086],[18.356078,43.43811],[18.382734,43.588347],[18.19768,43.604574],[18.058722,43.6809],[18.006891,43.774744],[17.890464,43.836808],[17.716314,43.813915],[17.459327,43.860372],[17.391476,43.744875],[17.530538,43.650359],[17.547694,43.548867],[17.705307,43.425903],[17.750317,43.284128],[17.598025,43.072902]]]},"properties":{"LOCATION_TYPE":"level1","ADM0_A3":"BIH","LOCATION_ID":"BIH-BIH","NAME":"Herzegovina-Neretva","TYPE_EN":"Canton"}},
{"type":"Feature","geometry":{"type":"Polygon","coordinates":[[[18.369783,42.574393],[18.538434,42.618304],[18.46743,42.769199],[18.452754,42.993398],[18.638996,43.020243],[18.664318,43.233176],[18.506881,43.321466],[18.348714,43.3458],[18.356078,43.43811],[18.029948,43.445086],[18.055621,43.108938],[18.014135,42.966562],[18.03992,42.885072],[18.346156,42.649088],[18.369783,42.574393]]]},"properties":{"LOCATION_TYPE":"level1","ADM0_A3":"BIH","LOCATION_ID":"BIH-X07~","NAME":"Trebinje","TYPE_EN":null}},
{"type":"Feature","geometry":{"type":"Polygon","coordinates":[[[18.664318,43.233176],[18.899135,43.351903],[19.069668,43.30883],[18.911021,43.507268],[19.217462,43.532796],[19.363396,43.601577],[19.481735,43.560831],[19.505713,43.67364],[19.461685,43.762136],[19.241027,43.952357],[19.224962,43.921512],[19.220662,43.751357],[19.070606,43.783802],[18.949737,43.741967],[19.057069,43.673289],[18.8854,43.591744],[18.69368,43.583165],[18.58298,43.636717],[18.390391,43.593888],[18.382734,43.588347],[18.356078,43.43811],[18.348714,43.3458],[18.506881,43.321466],[18.664318,43.233176]]]},"properties":{"LOCATION_TYPE":"level1","ADM0_A3":"BIH","LOCATION_ID":"BIH-X06~","NAME":"Foča","TYPE_EN":null}},
{"type":"Feature","geometry":{"type":"Polygon","coordinates":[[[17.765737,45.110992],[17.684739,45.163963],[17.572395,45.120399],[17.382432,45.139623],[17.268951,45.189543],[17.187095,45.148563],[16.93264,45.278788],[16.786293,45.178846],[16.587028,45.220858],[16.481919,45.199516],[16.346019,45.02001],[16.333153,44.890011],[16.703724,44.855697],[16.828155,44.766976],[16.878226,44.662544],[16.881078,44.513754],[16.753747,44.455102],[16.566368,44.502334],[16.525733,44.455268],[16.799532,44.286301],[17.107104,44.153261],[17.248961,44.067887],[17.263062,44.181896],[17.152896,44.324929],[17.151449,44.457996],[17.407557,44.441511],[17.50197,44.365702],[17.732808,44.375339],[17.91688,44.47014],[17.835335,44.638966],[17.888252,44.719788],[17.779853,44.719447],[17.723263,44.815983],[17.762818,44.929276],[17.765737,45.110992]]]},"properties":{"LOCATION_TYPE":"level1","ADM0_A3":"BIH","LOCATION_ID":"BIH-X02~","NAME":"Banja Luka","TYPE_EN":null}},
{"type":"Feature","geometry":{"type":"Polygon","coordinates":[[[16.346019,45.02001],[16.212994,45.031464],[15.997504,45.218533],[15.824801,45.210988],[15.780049,45.160294],[15.717314,44.786466],[15.805681,44.696653],[15.895598,44.718564],[16.116463,44.52147],[16.205644,44.350531],[16.479439,44.406592],[16.525733,44.455268],[16.566368,44.502334],[16.753747,44.455102],[16.881078,44.513754],[16.878226,44.662544],[16.828155,44.766976],[16.703724,44.855697],[16.333153,44.890011],[16.346019,45.02001]]]},"properties":{"LOCATION_TYPE":"level1","ADM0_A3":"BIH","LOCATION_ID":"BIH-BIH","NAME":"Una-Sana","TYPE_EN":"Canton"}},
{"type":"Feature","geometry":{"type":"Polygon","coordinates":[[[17.765737,45.110992],[17.762818,44.929276],[17.723263,44.815983],[17.779853,44.719447],[17.888252,44.719788],[18.015582,44.719788],[18.137177,44.57959],[18.287184,44.575301],[18.357474,44.653953],[18.13573,44.712605],[18.085655,44.787019],[18.2874,44.801334],[18.347448,44.898589],[18.49482,44.90934],[18.748038,44.844952],[18.769128,44.892233],[18.527954,44.985922],[18.481708,45.066921],[18.45183,45.084959],[18.256084,44.990547],[18.143698,45.0977],[17.988493,45.143809],[17.835738,45.064434],[17.765737,45.110992]]]},"properties":{"LOCATION_TYPE":"level1","ADM0_A3":"BIH","LOCATION_ID":"BIH-X01~","NAME":"Doboj","TYPE_EN":null}},
{"type":"Feature","geometry":{"type":"MultiPolygon","coordinates":[[[[18.481708,45.066921],[18.527954,44.985922],[18.769128,44.892233],[18.842129,44.876239],[18.804568,44.973845],[18.689019,45.080247],[18.481708,45.066921]]],[[[18.45183,45.084959],[18.237884,45.157451],[18.143698,45.0977],[18.256084,44.990547],[18.45183,45.084959]]]]},"properties":{"LOCATION_TYPE":"level1","ADM0_A3":"BIH","LOCATION_ID":"BIH-SRP","NAME":"Posavina","TYPE_EN":"Canton"}},
{"type":"Feature","geometry":{"type":"Polygon","coordinates":[[[18.842129,44.876239],[18.769128,44.892233],[18.748038,44.844952],[18.803846,44.7448],[18.974916,44.862757],[18.842129,44.876239]]]},"properties":{"LOCATION_TYPE":"level1","ADM0_A3":"BIH","LOCATION_ID":"BIH-BRC","NAME":"Brčko Distrikt","TYPE_EN":null}},
{"type":"Feature","geometry":{"type":"Polygon","coordinates":[[[18.974916,44.862757],[18.803846,44.7448],[18.73946,44.624664],[18.848193,44.54166],[18.951184,44.63323],[19.031075,44.567549],[19.179635,44.538264],[19.32836,44.733963],[19.368667,44.887132],[19.174261,44.925424],[18.974916,44.862757]]]},"properties":{"LOCATION_TYPE":"level1","ADM0_A3":"BIH","LOCATION_ID":"BIH-X03~","NAME":"Bijeljina","TYPE_EN":null}},
{"type":"Feature","geometry":{"type":"Polygon","coordinates":[[[16.205644,44.350531],[16.215785,44.208155],[16.326889,44.082375],[16.403991,44.058759],[16.678599,43.840684],[16.712602,43.771515],[17.062314,43.527747],[17.29882,43.538273],[17.498705,43.587236],[17.530538,43.650359],[17.391476,43.744875],[17.459327,43.860372],[17.327966,43.944656],[17.248961,44.067887],[17.107104,44.153261],[16.799532,44.286301],[16.525733,44.455268],[16.479439,44.406592],[16.205644,44.350531]]]},"properties":{"LOCATION_TYPE":"level1","ADM0_A3":"BIH","LOCATION_ID":"BIH-BIH","NAME":"West Bosnia","TYPE_EN":"Canton"}},
{"type":"Feature","geometry":{"type":"Polygon","coordinates":[[[17.062314,43.527747],[17.239495,43.478407],[17.267607,43.353324],[17.442067,43.152432],[17.598025,43.072902],[17.750317,43.284128],[17.705307,43.425903],[17.547694,43.548867],[17.530538,43.650359],[17.498705,43.587236],[17.29882,43.538273],[17.062314,43.527747]]]},"properties":{"LOCATION_TYPE":"level1","ADM0_A3":"BIH","LOCATION_ID":"BIH-BIH","NAME":"West Herzegovina","TYPE_EN":"Canton"}},
{"type":"Feature","geometry":{"type":"Polygon","coordinates":[[[19.179635,44.538264],[19.031075,44.567549],[19.019862,44.475876],[18.75378,44.357847],[18.763072,44.14883],[18.736572,44.120342],[18.908383,44.092025],[19.127384,43.998747],[19.224962,43.921512],[19.241027,43.952357],[19.552222,43.983415],[19.618885,44.035711],[19.362363,44.191206],[19.324329,44.263966],[19.177155,44.286962],[19.107185,44.382718],[19.179635,44.538264]]]},"properties":{"LOCATION_TYPE":"level1","ADM0_A3":"BIH","LOCATION_ID":"BIH-X04~","NAME":"Vlasenica","TYPE_EN":null}},
{"type":"Feature","geometry":{"type":"Polygon","coordinates":[[[17.248961,44.067887],[17.327966,43.944656],[17.459327,43.860372],[17.716314,43.813915],[17.890464,43.836808],[18.006891,43.774744],[18.165021,43.851329],[18.146521,43.906571],[17.984825,44.056949],[17.793674,44.192393],[17.732808,44.375339],[17.50197,44.365702],[17.407557,44.441511],[17.151449,44.457996],[17.152896,44.324929],[17.263062,44.181896],[17.248961,44.067887]]]},"properties":{"LOCATION_TYPE":"level1","ADM0_A3":"BIH","LOCATION_ID":"BIH-BIH","NAME":"Central Bosnia","TYPE_EN":"Canton"}},
{"type":"Feature","geometry":{"type":"Polygon","coordinates":[[[17.732808,44.375339],[17.793674,44.192393],[17.984825,44.056949],[18.146521,43.906571],[18.195303,43.986773],[18.498851,44.108936],[18.586804,44.049146],[18.736572,44.120342],[18.763072,44.14883],[18.530321,44.205726],[18.507325,44.304893],[18.295659,44.446435],[18.287184,44.575301],[18.137177,44.57959],[18.015582,44.719788],[17.888252,44.719788],[17.835335,44.638966],[17.91688,44.47014],[17.732808,44.375339]]]},"properties":{"LOCATION_TYPE":"level1","ADM0_A3":"BIH","LOCATION_ID":"BIH-BIH","NAME":"Zenica-Doboj","TYPE_EN":"Canton"}},
{"type":"Feature","geometry":{"type":"Polygon","coordinates":[[[18.287184,44.575301],[18.295659,44.446435],[18.507325,44.304893],[18.530321,44.205726],[18.763072,44.14883],[18.75378,44.357847],[19.019862,44.475876],[19.031075,44.567549],[18.951184,44.63323],[18.848193,44.54166],[18.73946,44.624664],[18.803846,44.7448],[18.748038,44.844952],[18.49482,44.90934],[18.347448,44.898589],[18.2874,44.801334],[18.085655,44.787019],[18.13573,44.712605],[18.357474,44.653953],[18.287184,44.575301]]]},"properties":{"LOCATION_TYPE":"level1","ADM0_A3":"BIH","LOCATION_ID":"BIH-BIH","NAME":"Tuzla","TYPE_EN":"Canton"}},
{"type":"Feature","geometry":{"type":"MultiPolygon","coordinates":[[[[18.586804,44.049146],[18.509144,43.992288],[18.50625,43.856379],[18.383208,43.837801],[18.416126,43.737678],[18.608759,43.683685],[18.739466,43.766281],[18.949737,43.741967],[19.070606,43.783802],[19.220662,43.751357],[19.224962,43.921512],[19.127384,43.998747],[18.908383,44.092025],[18.736572,44.120342],[18.586804,44.049146]]],[[[18.390391,43.593888],[18.58298,43.636717],[18.413284,43.690446],[18.390391,43.593888]]]]},"properties":{"LOCATION_TYPE":"level1","ADM0_A3":"BIH","LOCATION_ID":"BIH-X05~","NAME":"Sarajevo-romanija","TYPE_EN":null}},
{"type":"Feature","geometry":{"type":"Polygon","coordinates":[[[18.586804,44.049146],[18.498851,44.108936],[18.195303,43.986773],[18.146521,43.906571],[18.165021,43.851329],[18.006891,43.774744],[18.058722,43.6809],[18.19768,43.604574],[18.382734,43.588347],[18.390391,43.593888],[18.413284,43.690446],[18.58298,43.636717],[18.608759,43.683685],[18.416126,43.737678],[18.383208,43.837801],[18.50625,43.856379],[18.509144,43.992288],[18.586804,44.049146]]]},"properties":{"LOCATION_TYPE":"level1","ADM0_A3":"BIH","LOCATION_ID":"BIH-BIH","NAME":"Sarajevo","TYPE_EN":"Canton"}},
{"type":"Feature","geometry":{"type":"Polygon","coordinates":[[[18.608759,43.683685],[18.58298,43.636717],[18.69368,43.583165],[18.8854,43.591744],[19.057069,43.673289],[18.949737,43.741967],[18.739466,43.766281],[18.608759,43.683685]]]},"properties":{"LOCATION_TYPE":"level1","ADM0_A3":"BIH","LOCATION_ID":"BIH-BIH","NAME":"Bosnian Podrinje","TYPE_EN":"Canton"}}
]}