{"type":"FeatureCollection", "features": [
{"type":"Feature","geometry":{"type":"Polygon","coordinates":[[[27.512426,51.623099],[27.705161,51.568352],[27.812545,51.602019],[28.070824,51.557629],[28.21004,51.651965],[28.346879,51.525151],[28.488369,51.572021],[28.603918,51.553547],[28.630893,51.46363],[28.703963,51.442623],[28.799875,51.532618],[28.954594,51.563262],[29.043581,51.626178],[29.160421,51.603311],[29.221038,51.466963],[29.297002,51.373713],[29.466294,51.385056],[29.505465,51.437456],[29.618016,51.485644],[29.828649,51.429963],[29.886268,51.464793],[30.14863,51.48443],[30.329032,51.388622],[30.355129,51.305267],[30.555323,51.243462],[30.638315,51.33586],[30.587879,51.427353],[30.584004,51.542256],[30.534136,51.553263],[30.570309,51.69992],[30.661983,51.819422],[30.80306,51.939131],[30.940519,52.020082],[30.959329,52.074678],[31.134823,52.076667],[31.252438,52.044499],[31.304425,52.097493],[31.474854,52.117776],[31.764345,52.100568],[31.68342,52.257199],[31.567354,52.311382],[31.608075,52.372463],[31.579033,52.577825],[31.480641,52.682522],[31.570248,52.725258],[31.505136,52.848894],[31.387934,52.887987],[31.322615,52.977129],[31.247064,53.014388],[31.361573,53.120038],[31.214043,53.10557],[31.109295,53.129574],[31.101699,53.202024],[30.99075,53.303517],[30.872824,53.280521],[30.639608,53.279358],[30.487835,53.317883],[30.378901,53.261969],[30.173435,53.239231],[30.14615,53.285585],[29.982129,53.342584],[29.818108,53.35248],[29.751084,53.299124],[29.761781,53.171122],[29.631918,53.102392],[29.635122,53.02343],[29.690726,52.942479],[29.543758,52.955993],[29.391984,52.920853],[29.170241,52.942454],[29.082907,52.875739],[28.968702,52.865507],[28.960331,52.798483],[28.819099,52.771172],[28.830416,52.721537],[28.580922,52.679188],[28.469198,52.680118],[28.406204,52.632369],[28.404499,52.514831],[28.34073,52.480621],[28.134335,52.46641],[27.987677,52.518965],[27.928559,52.440934],[27.705885,52.437781],[27.519075,52.537465],[27.343892,52.477986],[27.27139,52.360732],[27.396499,52.282029],[27.523106,52.236812],[27.526672,52.072687],[27.590285,52.026437],[27.525586,51.942566],[27.503055,51.844484],[27.555042,51.750278],[27.512426,51.623099]]]},"properties":{"LOCATION_TYPE":"level1","ADM0_A3":"BLR","LOCATION_ID":"BLR-HO","NAME":"Gomel","TYPE_EN":"Region"}},
{"type":"Feature","geometry":{"type":"Polygon","coordinates":[[[23.920426,52.772625],[23.908752,52.699859],[23.736153,52.614903],[23.569031,52.585887],[23.392298,52.509638],[23.165645,52.289393],[23.212257,52.231671],[23.395812,52.19958],[23.637451,52.084471],[23.676415,51.994088],[23.56035,51.754542],[23.539886,51.607109],[23.749692,51.644472],[23.981306,51.586],[24.244132,51.718214],[24.296119,51.808131],[24.39079,51.880013],[24.721829,51.882338],[25.002742,51.910476],[25.1833,51.94975],[25.351971,51.921483],[25.767915,51.928511],[26.080764,51.900657],[26.175332,51.856707],[26.407773,51.850609],[26.4456,51.805599],[26.665741,51.801387],[26.854774,51.749349],[27.021585,51.764542],[27.177855,51.747075],[27.254026,51.595379],[27.388385,51.590728],[27.512426,51.623099],[27.555042,51.750278],[27.503055,51.844484],[27.525586,51.942566],[27.590285,52.026437],[27.526672,52.072687],[27.523106,52.236812],[27.396499,52.282029],[27.27139,52.360732],[27.128195,52.416232],[27.142767,52.472715],[27.059775,52.519534],[27.053884,52.681177],[27.020966,52.744791],[26.799688,52.773187],[26.738709,52.830057],[26.577944,52.886178],[26.44219,52.889278],[26.383382,52.967852],[26.463274,53.112624],[26.382297,53.117895],[26.293982,53.225201],[26.39873,53.26538],[26.376509,53.364547],[26.273053,53.350646],[26.08247,53.37359],[25.720167,53.394726],[25.568858,53.244244],[25.599296,53.127248],[25.524778,53.024516],[25.405147,52.942014],[25.326806,52.937286],[25.258955,52.865146],[25.052766,52.841116],[24.928949,52.960489],[24.80136,52.932738],[24.685915,52.959765],[24.570935,52.865352],[24.552641,52.74784],[24.388155,52.774893],[23.920426,52.772625]]]},"properties":{"LOCATION_TYPE":"level1","ADM0_A3":"BLR","LOCATION_ID":"BLR-BR","NAME":"Brest","TYPE_EN":"Region"}},
{"type":"Feature","geometry":{"type":"Polygon","coordinates":[[[31.179017,54.453353],[31.064646,54.492282],[31.167947,54.621577],[31.10516,54.668292],[30.770607,54.786011],[30.814842,54.928018],[30.936075,54.973235],[31.006407,55.04243],[30.959795,55.162577],[30.794275,55.285515],[30.918608,55.407627],[30.887189,55.468088],[30.912821,55.571596],[30.742185,55.594385],[30.693713,55.65216],[30.596354,55.665286],[30.569586,55.729519],[30.468817,55.793521],[30.217773,55.855145],[30.106255,55.821917],[29.988226,55.846799],[29.869474,55.830547],[29.805705,55.771455],[29.684162,55.770602],[29.461023,55.6873],[29.343614,55.786984],[29.391983,55.888373],[29.377411,55.954028],[29.030765,56.024178],[28.859716,55.976455],[28.706392,55.959841],[28.620713,56.082986],[28.389771,56.088567],[28.289828,56.046606],[28.110976,56.156806],[27.911453,56.100246],[27.64501,55.922841],[27.592713,55.794244],[27.282448,55.791867],[27.110779,55.836283],[26.981071,55.826878],[26.822838,55.70611],[26.594531,55.666991],[26.595565,55.56803],[26.532106,55.516251],[26.445496,55.337502],[26.768629,55.300243],[26.80072,55.27332],[26.633909,55.192188],[26.578925,55.118549],[26.473402,55.145679],[26.309484,55.144645],[26.233003,55.111624],[26.170325,54.99326],[26.348139,54.943313],[26.370153,54.979797],[26.730028,54.943882],[26.896994,54.975404],[27.059465,54.950858],[27.10618,55.002069],[27.251701,54.948326],[27.3164,54.877219],[27.414482,54.871354],[27.623823,54.765986],[27.756322,54.638732],[27.924528,54.614703],[28.227249,54.64961],[28.347862,54.565739],[28.424963,54.554655],[28.475244,54.638707],[28.565523,54.660902],[28.66469,54.582457],[28.824215,54.576514],[28.884573,54.623746],[29.014178,54.609794],[29.218971,54.631291],[29.439165,54.547239],[29.411673,54.403269],[29.414515,54.231264],[29.596829,54.315677],[29.826014,54.315238],[30.033805,54.273948],[30.107806,54.358801],[30.424996,54.34043],[30.508763,54.288676],[30.589172,54.378826],[30.708028,54.421898],[30.870809,54.402726],[30.926361,54.434766],[31.179017,54.453353]]]},"properties":{"LOCATION_TYPE":"level1","ADM0_A3":"BLR","LOCATION_ID":"BLR-VI","NAME":"Vitebsk","TYPE_EN":"Region"}},
{"type":"Feature","geometry":{"type":"Polygon","coordinates":[[[26.170325,54.99326],[26.102572,54.957008],[25.907855,54.948068],[25.782695,54.869675],[25.7243,54.78012],[25.709521,54.67563],[25.740423,54.568505],[25.646165,54.520394],[25.612576,54.421796],[25.529997,54.346141],[25.564,54.303146],[25.695981,54.320975],[25.786829,54.231781],[25.74001,54.146257],[25.631593,54.128325],[25.493307,54.157522],[25.553975,54.231265],[25.472068,54.297152],[25.369748,54.247904],[25.193532,54.243667],[25.071989,54.132201],[24.855981,54.146722],[24.782497,54.092875],[24.821358,54.019908],[24.528663,53.958361],[24.377871,53.886841],[24.257051,53.894024],[24.201137,53.95247],[24.045385,53.930869],[23.919811,53.947768],[23.642618,53.898985],[23.486866,53.909992],[23.564794,53.742405],[23.590942,53.611251],[23.782972,53.270936],[23.893663,53.151951],[23.860693,53.087484],[23.909682,53.012734],[23.920426,52.772625],[24.388155,52.774893],[24.552641,52.74784],[24.570935,52.865352],[24.685915,52.959765],[24.80136,52.932738],[24.928949,52.960489],[25.052766,52.841116],[25.258955,52.865146],[25.326806,52.937286],[25.405147,52.942014],[25.524778,53.024516],[25.599296,53.127248],[25.568858,53.244244],[25.720167,53.394726],[26.08247,53.37359],[26.273053,53.350646],[26.376509,53.364547],[26.559495,53.401185],[26.547972,53.481955],[26.462034,53.631094],[26.356976,53.655769],[26.253313,53.734085],[26.302664,53.803124],[26.218431,53.866015],[26.419194,53.951798],[26.333566,54.057218],[26.203342,54.034506],[26.178537,54.129409],[26.113218,54.199302],[26.216726,54.230695],[26.406327,54.241082],[26.500378,54.314437],[26.682382,54.57946],[26.594842,54.6362],[26.54177,54.747485],[26.337597,54.863473],[26.348139,54.943313],[26.170325,54.99326]]]},"properties":{"LOCATION_TYPE":"level1","ADM0_A3":"BLR","LOCATION_ID":"BLR-HR","NAME":"Grodno","TYPE_EN":"Region"}},
{"type":"Feature","geometry":{"type":"Polygon","coordinates":[[[31.179017,54.453353],[30.926361,54.434766],[30.870809,54.402726],[30.708028,54.421898],[30.589172,54.378826],[30.508763,54.288676],[30.424996,54.34043],[30.107806,54.358801],[30.033805,54.273948],[29.826014,54.315238],[29.596829,54.315677],[29.414515,54.231264],[29.421336,54.059491],[29.350695,54.01492],[29.354312,53.890871],[29.433429,53.733155],[29.210135,53.654038],[29.122905,53.671401],[29.045804,53.584223],[28.955783,53.579676],[28.630739,53.614609],[28.564489,53.527172],[28.402329,53.468106],[28.366775,53.365942],[28.438451,53.290417],[28.216087,53.266594],[28.117592,53.237836],[28.421397,53.138204],[28.509092,53.153655],[28.533277,53.014697],[28.409305,52.837912],[28.292,52.765668],[28.469198,52.680118],[28.580922,52.679188],[28.830416,52.721537],[28.819099,52.771172],[28.960331,52.798483],[28.968702,52.865507],[29.082907,52.875739],[29.170241,52.942454],[29.391984,52.920853],[29.543758,52.955993],[29.690726,52.942479],[29.635122,53.02343],[29.631918,53.102392],[29.761781,53.171122],[29.751084,53.299124],[29.818108,53.35248],[29.982129,53.342584],[30.14615,53.285585],[30.173435,53.239231],[30.378901,53.261969],[30.487835,53.317883],[30.639608,53.279358],[30.872824,53.280521],[30.99075,53.303517],[31.101699,53.202024],[31.109295,53.129574],[31.214043,53.10557],[31.361573,53.120038],[31.416356,53.199984],[31.614018,53.209751],[31.738558,53.192542],[31.780468,53.127869],[31.907179,53.091928],[32.082775,53.081955],[32.20592,53.100352],[32.405546,53.192672],[32.479133,53.274915],[32.579954,53.324369],[32.717465,53.334937],[32.719532,53.439478],[32.650286,53.487641],[32.452933,53.546397],[32.399087,53.635384],[32.48058,53.66241],[32.290411,53.760854],[32.083602,53.809637],[31.873175,53.777132],[31.753803,53.81961],[31.84651,53.992313],[31.748119,54.086312],[31.506376,54.143931],[31.324682,54.229249],[31.284788,54.347381],[31.179017,54.453353]]]},"properties":{"LOCATION_TYPE":"level1","ADM0_A3":"BLR","LOCATION_ID":"BLR-MA","NAME":"Mogilev","TYPE_EN":"Region"}},
{"type":"Feature","geometry":{"type":"Polygon","coordinates":[[[29.414515,54.231264],[29.411673,54.403269],[29.439165,54.547239],[29.218971,54.631291],[29.014178,54.609794],[28.884573,54.623746],[28.824215,54.576514],[28.66469,54.582457],[28.565523,54.660902],[28.475244,54.638707],[28.424963,54.554655],[28.347862,54.565739],[28.227249,54.64961],[27.924528,54.614703],[27.756322,54.638732],[27.623823,54.765986],[27.414482,54.871354],[27.3164,54.877219],[27.251701,54.948326],[27.10618,55.002069],[27.059465,54.950858],[26.896994,54.975404],[26.730028,54.943882],[26.370153,54.979797],[26.348139,54.943313],[26.337597,54.863473],[26.54177,54.747485],[26.594842,54.6362],[26.682382,54.57946],[26.500378,54.314437],[26.406327,54.241082],[26.216726,54.230695],[26.113218,54.199302],[26.178537,54.129409],[26.203342,54.034506],[26.333566,54.057218],[26.419194,53.951798],[26.218431,53.866015],[26.302664,53.803124],[26.253313,53.734085],[26.356976,53.655769],[26.462034,53.631094],[26.547972,53.481955],[26.559495,53.401185],[26.376509,53.364547],[26.39873,53.26538],[26.293982,53.225201],[26.382297,53.117895],[26.463274,53.112624],[26.383382,52.967852],[26.44219,52.889278],[26.577944,52.886178],[26.738709,52.830057],[26.799688,52.773187],[27.020966,52.744791],[27.053884,52.681177],[27.059775,52.519534],[27.142767,52.472715],[27.128195,52.416232],[27.27139,52.360732],[27.343892,52.477986],[27.519075,52.537465],[27.705885,52.437781],[27.928559,52.440934],[27.987677,52.518965],[28.134335,52.46641],[28.34073,52.480621],[28.404499,52.514831],[28.406204,52.632369],[28.469198,52.680118],[28.292,52.765668],[28.409305,52.837912],[28.533277,53.014697],[28.509092,53.153655],[28.421397,53.138204],[28.117592,53.237836],[28.216087,53.266594],[28.438451,53.290417],[28.366775,53.365942],[28.402329,53.468106],[28.564489,53.527172],[28.630739,53.614609],[28.955783,53.579676],[29.045804,53.584223],[29.122905,53.671401],[29.210135,53.654038],[29.433429,53.733155],[29.354312,53.890871],[29.350695,54.01492],[29.421336,54.059491],[29.414515,54.231264]],[[27.76076,53.804248],[27.51566,53.809251],[27.383106,53.836762],[27.408116,53.996827],[27.503155,54.016835],[27.68823,53.989324],[27.780768,53.9318],[27.830788,53.834261],[27.76076,53.804248]]]},"properties":{"LOCATION_TYPE":"level1","ADM0_A3":"BLR","LOCATION_ID":"BLR-MI","NAME":"Minsk","TYPE_EN":"Municipality"}},
{"type":"Feature","geometry":{"type":"Polygon","coordinates":[[[27.76076,53.804248],[27.830788,53.834261],[27.780768,53.9318],[27.68823,53.989324],[27.503155,54.016835],[27.408116,53.996827],[27.383106,53.836762],[27.51566,53.809251],[27.76076,53.804248]]]},"properties":{"LOCATION_TYPE":"level1","ADM0_A3":"BLR","LOCATION_ID":"BLR-HM","NAME":"City of Minsk","TYPE_EN":"Region"}}
]}