{"type":"FeatureCollection", "features": [
{"type":"Feature","geometry":{"type":"Polygon","coordinates":[[[-89.19314,16.392626],[-89.146775,16.456774],[-89.07063,16.476643],[-89.026886,16.512946],[-88.939088,16.54204],[-88.819353,16.61356],[-88.774188,16.681023],[-88.755404,16.751588],[-88.680525,16.809724],[-88.663084,16.91194],[-88.567069,17.045058],[-88.602442,17.104486],[-88.548466,17.174017],[-88.57004,17.234271],[-88.5788,17.470303],[-88.6289,17.453974],[-88.769667,17.411082],[-88.877567,17.414183],[-88.921776,17.384624],[-89.079027,17.371343],[-89.150728,17.321032],[-89.149205,17.036271],[-89.19314,16.392626]]]},"properties":{"LOCATION_TYPE":"level1","ADM0_A3":"BLZ","LOCATION_ID":"BLZ-CY","NAME":"Cayo","TYPE_EN":"District"}},
{"type":"Feature","geometry":{"type":"Polygon","coordinates":[[[-89.150728,17.321032],[-89.079027,17.371343],[-88.921776,17.384624],[-88.877567,17.414183],[-88.769667,17.411082],[-88.6289,17.453974],[-88.640605,17.616832],[-88.616317,17.668896],[-88.568542,17.688404],[-88.568645,17.852632],[-88.506246,17.91764],[-88.284347,17.972288],[-88.421781,18.091428],[-88.494438,18.186048],[-88.614059,18.247028],[-88.696623,18.178065],[-88.736388,18.051923],[-88.880332,17.88847],[-89.049444,17.999213],[-89.132565,17.970274],[-89.161375,17.901441],[-89.150728,17.321032]]]},"properties":{"LOCATION_TYPE":"level1","ADM0_A3":"BLZ","LOCATION_ID":"BLZ-OW","NAME":"Orange Walk","TYPE_EN":"District"}},
{"type":"Feature","geometry":{"type":"Polygon","coordinates":[[[-88.16686,17.959946],[-88.091542,18.118394],[-88.083567,18.21011],[-88.10851,18.373928],[-88.194651,18.340644],[-88.383697,18.384955],[-88.306264,18.4383],[-88.309515,18.482284],[-88.489245,18.484506],[-88.533041,18.44332],[-88.554797,18.352214],[-88.614059,18.247028],[-88.494438,18.186048],[-88.421781,18.091428],[-88.284347,17.972288],[-88.16686,17.959946]]]},"properties":{"LOCATION_TYPE":"level1","ADM0_A3":"BLZ","LOCATION_ID":"BLZ-CZL","NAME":"Corozal","TYPE_EN":"District"}},
{"type":"Feature","geometry":{"type":"Polygon","coordinates":[[[-89.19314,16.392626],[-89.236512,15.893915],[-89.040323,15.901718],[-88.951878,15.879652],[-88.913971,15.893948],[-88.927642,15.983873],[-88.745717,16.154853],[-88.740061,16.23017],[-88.535959,16.274115],[-88.526682,16.308824],[-88.447825,16.394761],[-88.390061,16.497658],[-88.552781,16.516512],[-88.549525,16.567129],[-88.598101,16.667329],[-88.670241,16.69185],[-88.774188,16.681023],[-88.819353,16.61356],[-88.939088,16.54204],[-89.026886,16.512946],[-89.07063,16.476643],[-89.146775,16.456774],[-89.19314,16.392626]]]},"properties":{"LOCATION_TYPE":"level1","ADM0_A3":"BLZ","LOCATION_ID":"BLZ-TOL","NAME":"Toledo","TYPE_EN":"District"}},
{"type":"Feature","geometry":{"type":"Polygon","coordinates":[[[-88.289377,17.135769],[-88.337522,17.109189],[-88.602442,17.104486],[-88.567069,17.045058],[-88.663084,16.91194],[-88.680525,16.809724],[-88.755404,16.751588],[-88.774188,16.681023],[-88.670241,16.69185],[-88.598101,16.667329],[-88.549525,16.567129],[-88.552781,16.516512],[-88.390061,16.497658],[-88.393178,16.551825],[-88.306223,16.652899],[-88.301625,16.771715],[-88.259348,16.843411],[-88.283315,16.891343],[-88.215077,16.967108],[-88.248606,17.079413],[-88.289377,17.135769]]]},"properties":{"LOCATION_TYPE":"level1","ADM0_A3":"BLZ","LOCATION_ID":"BLZ-SC","NAME":"Stann Creek","TYPE_EN":"District"}},
{"type":"Feature","geometry":{"type":"MultiPolygon","coordinates":[[[[-88.16686,17.959946],[-88.284347,17.972288],[-88.506246,17.91764],[-88.568645,17.852632],[-88.568542,17.688404],[-88.616317,17.668896],[-88.640605,17.616832],[-88.6289,17.453974],[-88.5788,17.470303],[-88.57004,17.234271],[-88.548466,17.174017],[-88.602442,17.104486],[-88.337522,17.109189],[-88.289377,17.135769],[-88.300526,17.177924],[-88.286285,17.339667],[-88.230784,17.496527],[-88.283315,17.580268],[-88.214345,17.773098],[-88.208323,17.881985],[-88.16686,17.959946]]],[[[-87.913442,18.025946],[-87.848988,18.133775],[-87.904856,18.153225],[-87.913442,18.025946]]]]},"properties":{"LOCATION_TYPE":"level1","ADM0_A3":"BLZ","LOCATION_ID":"BLZ-BZ","NAME":"Belize","TYPE_EN":"District"}}
]}