{"type":"FeatureCollection", "features": [
{"type":"Feature","geometry":{"type":"MultiPolygon","coordinates":[[[[-64.705381,32.336059],[-64.694916,32.339934],[-64.708094,32.351562],[-64.72202,32.352512],[-64.705381,32.336059]]],[[[-64.713907,32.32947],[-64.707289,32.321186],[-64.698404,32.326369],[-64.705381,32.336059],[-64.713907,32.32947]]]]},"properties":{"LOCATION_TYPE":"level1","ADM0_A3":"BMU","LOCATION_ID":"BMU-HAM","NAME":"Hamilton","TYPE_EN":null}},
{"type":"Feature","geometry":{"type":"Polygon","coordinates":[[[-64.731231,32.323093],[-64.742671,32.321752],[-64.748161,32.316527],[-64.73793,32.302142],[-64.707289,32.321186],[-64.713907,32.32947],[-64.731231,32.323093]]]},"properties":{"LOCATION_TYPE":"level1","ADM0_A3":"BMU","LOCATION_ID":"BMU-SMI","NAME":"Smith's","TYPE_EN":null}},
{"type":"Feature","geometry":{"type":"Polygon","coordinates":[[[-64.780141,32.303412],[-64.779021,32.291099],[-64.760819,32.286175],[-64.73793,32.302142],[-64.748161,32.316527],[-64.780141,32.303412]]]},"properties":{"LOCATION_TYPE":"level1","ADM0_A3":"BMU","LOCATION_ID":"BMU-DEV","NAME":"Devonshire","TYPE_EN":null}},
{"type":"Feature","geometry":{"type":"Polygon","coordinates":[[[-64.794525,32.289549],[-64.793824,32.296369],[-64.784432,32.29734],[-64.784425,32.290559],[-64.779021,32.291099],[-64.780141,32.303412],[-64.810834,32.307559],[-64.794525,32.289549]]]},"properties":{"LOCATION_TYPE":"level1","ADM0_A3":"BMU","LOCATION_ID":"BMU-PEM","NAME":"Pembroke","TYPE_EN":null}},
{"type":"Feature","geometry":{"type":"Polygon","coordinates":[[[-64.784425,32.290559],[-64.784432,32.29734],[-64.793824,32.296369],[-64.794525,32.289549],[-64.784425,32.290559]]]},"properties":{"LOCATION_TYPE":"level1","ADM0_A3":"BMU","LOCATION_ID":"BMU-HA","NAME":"City of Hamilton","TYPE_EN":null}},
{"type":"Feature","geometry":{"type":"Polygon","coordinates":[[[-64.797093,32.279095],[-64.788306,32.265283],[-64.760819,32.286175],[-64.779021,32.291099],[-64.797093,32.279095]]]},"properties":{"LOCATION_TYPE":"level1","ADM0_A3":"BMU","LOCATION_ID":"BMU-PAG","NAME":"Paget","TYPE_EN":null}},
{"type":"Feature","geometry":{"type":"Polygon","coordinates":[[[-64.832895,32.259705],[-64.815152,32.254281],[-64.788306,32.265283],[-64.797093,32.279095],[-64.832895,32.259705]]]},"properties":{"LOCATION_TYPE":"level1","ADM0_A3":"BMU","LOCATION_ID":"BMU-WAR","NAME":"Warwick","TYPE_EN":null}},
{"type":"Feature","geometry":{"type":"Polygon","coordinates":[[[-64.863131,32.269008],[-64.88016,32.265932],[-64.860801,32.248853],[-64.815152,32.254281],[-64.832895,32.259705],[-64.8577,32.254666],[-64.863131,32.269008]]]},"properties":{"LOCATION_TYPE":"level1","ADM0_A3":"BMU","LOCATION_ID":"BMU-SOU","NAME":"Southampton","TYPE_EN":null}},
{"type":"Feature","geometry":{"type":"Polygon","coordinates":[[[-64.88016,32.265932],[-64.863131,32.269008],[-64.872041,32.276371],[-64.858088,32.297688],[-64.86894,32.308928],[-64.877977,32.286074],[-64.88016,32.265932]]]},"properties":{"LOCATION_TYPE":"level1","ADM0_A3":"BMU","LOCATION_ID":"BMU-SAN","NAME":"Sandys","TYPE_EN":null}},
{"type":"Feature","geometry":{"type":"MultiPolygon","coordinates":[[[[-64.694916,32.339934],[-64.705381,32.336059],[-64.698404,32.326369],[-64.694916,32.339934]]],[[[-64.72202,32.352512],[-64.708094,32.351562],[-64.691428,32.363965],[-64.655382,32.359314],[-64.647631,32.368228],[-64.676096,32.388658],[-64.713132,32.364352],[-64.72202,32.352512]],[[-64.676996,32.369778],[-64.681024,32.376045],[-64.672072,32.380969],[-64.668491,32.374255],[-64.676996,32.369778]]]]},"properties":{"LOCATION_TYPE":"level1","ADM0_A3":"BMU","LOCATION_ID":"BMU-SGE","NAME":"Saint George's","TYPE_EN":null}},
{"type":"Feature","geometry":{"type":"Polygon","coordinates":[[[-64.676996,32.369778],[-64.668491,32.374255],[-64.672072,32.380969],[-64.681024,32.376045],[-64.676996,32.369778]]]},"properties":{"LOCATION_TYPE":"level1","ADM0_A3":"BMU","LOCATION_ID":"BMU-SG","NAME":"City of Saint George","TYPE_EN":null}}
]}