{"type":"FeatureCollection", "features": [
{"type":"Feature","geometry":{"type":"Polygon","coordinates":[[[-68.689463,-12.493418],[-68.980953,-12.867947],[-68.962788,-13.283581],[-69.015964,-13.753113],[-68.982968,-13.972221],[-68.883724,-14.211483],[-69.01015,-14.245899],[-68.990254,-14.379018],[-69.2475,-14.593682],[-69.267628,-14.750675],[-69.36142,-14.787985],[-69.390669,-14.964408],[-69.1481,-15.233333],[-69.291166,-15.350845],[-69.424337,-15.656253],[-69.219646,-16.15276],[-68.982038,-16.210017],[-68.843648,-16.302001],[-69.001727,-16.422821],[-69.037073,-16.670247],[-69.191663,-16.743008],[-69.427437,-17.086863],[-69.6228,-17.185565],[-69.511385,-17.398678],[-69.506114,-17.585127],[-69.334239,-17.805785],[-69.302406,-17.976214],[-69.082284,-18.039078],[-68.867703,-17.966758],[-68.542348,-17.688377],[-68.170355,-17.649982],[-67.809318,-17.860357],[-67.755859,-17.738659],[-67.30245,-17.445136],[-67.150805,-17.401005],[-66.989936,-17.55128],[-66.841935,-17.468081],[-66.897229,-17.174972],[-67.015206,-17.046866],[-66.932291,-16.835148],[-66.761423,-16.757788],[-66.8162,-16.482973],[-66.799612,-16.283295],[-66.945598,-16.075298],[-66.934462,-15.844717],[-66.784419,-15.6993],[-67.118611,-15.378493],[-67.11551,-15.289816],[-67.292709,-15.015362],[-67.417559,-14.968492],[-67.436318,-14.738067],[-67.535976,-14.598592],[-67.560651,-14.369097],[-67.507941,-14.274736],[-67.535976,-13.99837],[-67.471664,-13.710532],[-67.369552,-13.590901],[-67.395596,-13.402489],[-67.052258,-13.015898],[-66.94857,-12.670803],[-66.927821,-12.382241],[-67.955536,-11.909299],[-68.184515,-12.005572],[-68.246165,-12.153676],[-68.390161,-12.242457],[-68.458426,-12.387047],[-68.689463,-12.493418]]]},"properties":{"LOCATION_TYPE":"level1","ADM0_A3":"BOL","LOCATION_ID":"BOL-L","NAME":"La Paz","TYPE_EN":"Department"}},
{"type":"Feature","geometry":{"type":"Polygon","coordinates":[[[-69.082284,-18.039078],[-69.155438,-18.140235],[-69.034386,-18.478303],[-69.042835,-18.600466],[-68.954649,-18.856987],[-68.989609,-18.946491],[-68.663324,-19.273603],[-68.493205,-19.376956],[-68.576736,-19.564607],[-67.831926,-19.807886],[-67.551892,-19.782358],[-66.728118,-19.4415],[-66.430074,-19.232883],[-66.097097,-19.20906],[-66.299436,-18.754462],[-66.503041,-18.698393],[-66.690575,-18.494271],[-66.68458,-18.237388],[-66.734758,-18.053936],[-66.62492,-17.991253],[-66.826071,-17.671169],[-66.989936,-17.55128],[-67.150805,-17.401005],[-67.30245,-17.445136],[-67.755859,-17.738659],[-67.809318,-17.860357],[-68.170355,-17.649982],[-68.542348,-17.688377],[-68.867703,-17.966758],[-69.082284,-18.039078]]]},"properties":{"LOCATION_TYPE":"level1","ADM0_A3":"BOL","LOCATION_ID":"BOL-O","NAME":"Oruro","TYPE_EN":"Department"}},
{"type":"Feature","geometry":{"type":"Polygon","coordinates":[[[-68.576736,-19.564607],[-68.698412,-19.746339],[-68.553511,-19.857857],[-68.588341,-20.055571],[-68.775539,-20.089677],[-68.678516,-20.328629],[-68.685544,-20.516834],[-68.481629,-20.643028],[-68.57196,-20.872368],[-68.41631,-20.959805],[-68.207537,-21.284333],[-68.198442,-21.57186],[-68.107595,-21.789625],[-68.096226,-21.953956],[-67.990186,-22.057619],[-67.94528,-22.354242],[-67.858721,-22.566838],[-67.876343,-22.833592],[-67.547113,-22.892503],[-67.193904,-22.822223],[-67.037686,-22.654585],[-67.032725,-22.524567],[-66.796461,-22.434857],[-66.735896,-22.225051],[-66.377468,-22.127072],[-66.297163,-22.050281],[-66.240009,-21.792415],[-66.094488,-21.83293],[-65.744613,-22.11405],[-65.579894,-22.086454],[-65.190478,-22.098474],[-65.211492,-21.946464],[-65.328539,-21.802907],[-65.234927,-21.535378],[-65.458454,-21.33508],[-65.471993,-21.101296],[-65.422719,-20.836816],[-65.295957,-20.533785],[-65.366056,-20.269047],[-65.316628,-20.04844],[-64.86774,-19.868399],[-64.746921,-19.732439],[-64.963704,-19.350446],[-65.154984,-19.371375],[-65.372826,-19.254225],[-65.540516,-19.018684],[-65.469978,-18.904996],[-65.457446,-18.683045],[-65.607773,-18.674105],[-65.62865,-18.458253],[-65.343939,-18.422648],[-65.64237,-18.129074],[-66.018523,-17.862165],[-66.175154,-17.866816],[-66.335532,-17.982881],[-66.62492,-17.991253],[-66.734758,-18.053936],[-66.68458,-18.237388],[-66.690575,-18.494271],[-66.503041,-18.698393],[-66.299436,-18.754462],[-66.097097,-19.20906],[-66.430074,-19.232883],[-66.728118,-19.4415],[-67.551892,-19.782358],[-67.831926,-19.807886],[-68.576736,-19.564607]]]},"properties":{"LOCATION_TYPE":"level1","ADM0_A3":"BOL","LOCATION_ID":"BOL-P","NAME":"Potosí","TYPE_EN":"Department"}},
{"type":"Feature","geometry":{"type":"Polygon","coordinates":[[[-65.190478,-22.098474],[-65.020368,-22.096583],[-64.58688,-22.212752],[-64.572023,-22.343183],[-64.293978,-22.690862],[-63.947591,-22.007596],[-63.74042,-22.050591],[-63.639392,-21.997468],[-62.804353,-22.004082],[-62.790917,-22.113223],[-62.627516,-22.184536],[-62.275703,-21.066568],[-62.271886,-21.000424],[-63.869248,-20.999338],[-64.185818,-20.923632],[-64.225583,-21.14088],[-64.545951,-21.076491],[-64.71744,-20.935879],[-64.829577,-21.097523],[-65.06592,-20.963526],[-65.174285,-20.968229],[-65.234927,-21.535378],[-65.328539,-21.802907],[-65.211492,-21.946464],[-65.190478,-22.098474]]]},"properties":{"LOCATION_TYPE":"level1","ADM0_A3":"BOL","LOCATION_ID":"BOL-T","NAME":"Tarija","TYPE_EN":"Department"}},
{"type":"Feature","geometry":{"type":"Polygon","coordinates":[[[-62.210573,-20.471305],[-61.94425,-20.104146],[-61.761213,-19.657765],[-60.833931,-19.467906],[-60.006384,-19.298097],[-59.089541,-19.286729],[-58.175282,-19.821373],[-58.158797,-20.165125],[-57.859745,-19.980123],[-58.124639,-19.729906],[-57.789,-19.059249],[-57.782334,-18.910421],[-57.551082,-18.183643],[-57.730089,-17.846093],[-57.790757,-17.555775],[-58.010175,-17.49676],[-58.38116,-17.267214],[-58.466272,-16.887289],[-58.480276,-16.683683],[-58.356097,-16.509534],[-58.339561,-16.289289],[-58.464721,-16.33125],[-60.129839,-16.273062],[-60.17981,-16.222006],[-60.237972,-15.50267],[-60.529479,-15.143726],[-60.274972,-15.09515],[-60.291716,-14.630062],[-60.473513,-14.117225],[-60.389694,-13.974908],[-60.465271,-13.816572],[-60.896743,-13.552918],[-61.347724,-13.493697],[-61.59306,-13.506794],[-63.012867,-14.305483],[-63.570404,-14.618539],[-63.963015,-14.737395],[-63.949786,-15.085642],[-63.863176,-15.298084],[-63.623811,-15.627366],[-63.498677,-15.692065],[-63.340909,-15.917633],[-64.657521,-15.850453],[-64.684237,-16.388353],[-64.80715,-16.717377],[-64.647444,-16.996017],[-64.375677,-17.17461],[-64.233671,-17.318581],[-64.339504,-17.420693],[-64.564322,-17.745687],[-64.704159,-17.883249],[-64.589308,-18.114915],[-64.313562,-18.489362],[-64.340202,-18.656949],[-64.199125,-18.928767],[-64.064663,-18.999822],[-64.016294,-19.160587],[-63.860929,-19.026177],[-63.741349,-19.044367],[-63.767653,-19.271278],[-63.725304,-19.962967],[-63.651897,-20.450121],[-63.497436,-20.457511],[-63.368478,-20.357413],[-63.285873,-20.475132],[-62.210573,-20.471305]]]},"properties":{"LOCATION_TYPE":"level1","ADM0_A3":"BOL","LOCATION_ID":"BOL-S","NAME":"Santa Cruz","TYPE_EN":"Department"}},
{"type":"Feature","geometry":{"type":"Polygon","coordinates":[[[-62.210573,-20.471305],[-63.285873,-20.475132],[-63.368478,-20.357413],[-63.497436,-20.457511],[-63.651897,-20.450121],[-63.725304,-19.962967],[-63.767653,-19.271278],[-63.741349,-19.044367],[-63.860929,-19.026177],[-64.016294,-19.160587],[-64.064663,-18.999822],[-64.199125,-18.928767],[-64.340202,-18.656949],[-64.583753,-18.661238],[-64.703203,-18.528068],[-64.83875,-18.486882],[-65.093877,-18.650748],[-65.244513,-18.601397],[-65.343939,-18.422648],[-65.62865,-18.458253],[-65.607773,-18.674105],[-65.457446,-18.683045],[-65.469978,-18.904996],[-65.540516,-19.018684],[-65.372826,-19.254225],[-65.154984,-19.371375],[-64.963704,-19.350446],[-64.746921,-19.732439],[-64.86774,-19.868399],[-65.316628,-20.04844],[-65.366056,-20.269047],[-65.295957,-20.533785],[-65.422719,-20.836816],[-65.471993,-21.101296],[-65.458454,-21.33508],[-65.234927,-21.535378],[-65.174285,-20.968229],[-65.06592,-20.963526],[-64.829577,-21.097523],[-64.71744,-20.935879],[-64.545951,-21.076491],[-64.225583,-21.14088],[-64.185818,-20.923632],[-63.869248,-20.999338],[-62.271886,-21.000424],[-62.277305,-20.579776],[-62.210573,-20.471305]]]},"properties":{"LOCATION_TYPE":"level1","ADM0_A3":"BOL","LOCATION_ID":"BOL-H","NAME":"Chuquisaca","TYPE_EN":"Department"}},
{"type":"Feature","geometry":{"type":"Polygon","coordinates":[[[-65.394646,-10.39207],[-65.288077,-10.216223],[-65.333294,-9.926835],[-65.304381,-9.825652],[-65.45184,-9.681372],[-65.583977,-9.837228],[-65.788564,-9.733048],[-65.874424,-9.781314],[-66.190658,-9.800848],[-66.452864,-9.888698],[-66.631871,-9.904304],[-66.902656,-10.09313],[-67.0643,-10.256944],[-67.337823,-10.326087],[-67.58463,-10.501787],[-67.755782,-10.714177],[-67.862649,-10.65878],[-68.09788,-10.697744],[-68.29332,-10.978967],[-68.61573,-11.112499],[-68.787011,-11.126038],[-68.884034,-11.016381],[-69.39594,-10.935042],[-69.577635,-10.952302],[-69.13159,-11.726001],[-68.689463,-12.493418],[-68.458426,-12.387047],[-68.390161,-12.242457],[-68.246165,-12.153676],[-68.184515,-12.005572],[-67.955536,-11.909299],[-66.927821,-12.382241],[-66.877437,-12.065],[-66.917615,-11.841809],[-66.720857,-11.58353],[-66.656081,-11.44018],[-66.316877,-11.38592],[-66.217839,-11.09772],[-66.078054,-10.951114],[-66.011676,-10.789419],[-65.856233,-10.723014],[-65.394646,-10.39207]]]},"properties":{"LOCATION_TYPE":"level1","ADM0_A3":"BOL","LOCATION_ID":"BOL-N","NAME":"Pando","TYPE_EN":"Department"}},
{"type":"Feature","geometry":{"type":"Polygon","coordinates":[[[-65.394646,-10.39207],[-65.856233,-10.723014],[-66.011676,-10.789419],[-66.078054,-10.951114],[-66.217839,-11.09772],[-66.316877,-11.38592],[-66.656081,-11.44018],[-66.720857,-11.58353],[-66.917615,-11.841809],[-66.877437,-12.065],[-66.927821,-12.382241],[-66.94857,-12.670803],[-67.052258,-13.015898],[-67.395596,-13.402489],[-67.369552,-13.590901],[-67.471664,-13.710532],[-67.535976,-13.99837],[-67.507941,-14.274736],[-67.560651,-14.369097],[-67.535976,-14.598592],[-67.436318,-14.738067],[-67.417559,-14.968492],[-67.292709,-15.015362],[-67.11551,-15.289816],[-67.118611,-15.378493],[-66.784419,-15.6993],[-66.503532,-15.971945],[-66.460796,-16.074212],[-66.239233,-16.316937],[-65.991625,-16.444991],[-65.804376,-16.465713],[-65.45556,-16.368871],[-65.330865,-16.279109],[-65.273245,-16.071887],[-65.163898,-15.907142],[-64.657521,-15.850453],[-63.340909,-15.917633],[-63.498677,-15.692065],[-63.623811,-15.627366],[-63.863176,-15.298084],[-63.949786,-15.085642],[-63.963015,-14.737395],[-63.570404,-14.618539],[-63.012867,-14.305483],[-61.59306,-13.506794],[-61.847977,-13.530801],[-61.868596,-13.463932],[-62.22165,-13.121265],[-62.381846,-13.139869],[-62.492692,-13.065041],[-62.807402,-12.98887],[-62.975299,-12.852858],[-63.075034,-12.652663],[-63.247323,-12.701342],[-63.393309,-12.664549],[-63.496145,-12.553341],[-63.801398,-12.454949],[-63.921236,-12.544349],[-64.395729,-12.457326],[-64.469058,-12.261059],[-64.716278,-12.146544],[-64.7925,-12.032546],[-64.997449,-11.996269],[-65.065559,-11.75308],[-65.196197,-11.741814],[-65.195447,-11.59216],[-65.353009,-11.390621],[-65.360011,-11.218849],[-65.302986,-10.990749],[-65.404737,-10.799236],[-65.44998,-10.468094],[-65.394646,-10.39207]]]},"properties":{"LOCATION_TYPE":"level1","ADM0_A3":"BOL","LOCATION_ID":"BOL-B","NAME":"El Beni","TYPE_EN":"Department"}},
{"type":"Feature","geometry":{"type":"Polygon","coordinates":[[[-66.989936,-17.55128],[-66.826071,-17.671169],[-66.62492,-17.991253],[-66.335532,-17.982881],[-66.175154,-17.866816],[-66.018523,-17.862165],[-65.64237,-18.129074],[-65.343939,-18.422648],[-65.244513,-18.601397],[-65.093877,-18.650748],[-64.83875,-18.486882],[-64.703203,-18.528068],[-64.583753,-18.661238],[-64.340202,-18.656949],[-64.313562,-18.489362],[-64.589308,-18.114915],[-64.704159,-17.883249],[-64.564322,-17.745687],[-64.339504,-17.420693],[-64.233671,-17.318581],[-64.375677,-17.17461],[-64.647444,-16.996017],[-64.80715,-16.717377],[-64.684237,-16.388353],[-64.657521,-15.850453],[-65.163898,-15.907142],[-65.273245,-16.071887],[-65.330865,-16.279109],[-65.45556,-16.368871],[-65.804376,-16.465713],[-65.991625,-16.444991],[-66.239233,-16.316937],[-66.460796,-16.074212],[-66.503532,-15.971945],[-66.784419,-15.6993],[-66.934462,-15.844717],[-66.945598,-16.075298],[-66.799612,-16.283295],[-66.8162,-16.482973],[-66.761423,-16.757788],[-66.932291,-16.835148],[-67.015206,-17.046866],[-66.897229,-17.174972],[-66.841935,-17.468081],[-66.989936,-17.55128]]]},"properties":{"LOCATION_TYPE":"level1","ADM0_A3":"BOL","LOCATION_ID":"BOL-C","NAME":"Cochabamba","TYPE_EN":"Department"}}
]}