{"type":"FeatureCollection", "features": [
{"type":"Feature","geometry":{"type":"Polygon","coordinates":[[[-53.842006,-27.163509],[-53.964117,-27.154],[-54.091758,-27.285155],[-54.18953,-27.260867],[-54.286888,-27.428402],[-54.460831,-27.412589],[-54.605319,-27.467986],[-54.69968,-27.553046],[-54.827527,-27.545088],[-54.898272,-27.623636],[-54.913207,-27.736911],[-55.02581,-27.84016],[-55.197737,-27.860624],[-55.329874,-27.928113],[-55.440746,-28.078905],[-55.604741,-28.116939],[-55.772534,-28.231971],[-55.6636,-28.326539],[-55.684064,-28.388034],[-55.842349,-28.346382],[-55.898056,-28.460691],[-56.011589,-28.496554],[-56.021899,-28.585748],[-56.184705,-28.744188],[-56.286146,-28.780154],[-56.301003,-28.88144],[-56.391618,-28.952237],[-56.415751,-29.051352],[-56.617289,-29.160906],[-56.677027,-29.313352],[-56.819034,-29.474996],[-56.965795,-29.600879],[-57.094159,-29.751981],[-57.219629,-29.778336],[-57.308513,-29.848513],[-57.325153,-29.981011],[-57.586842,-30.204047],[-57.535992,-30.27443],[-57.212601,-30.287349],[-57.102272,-30.121158],[-56.831281,-30.102037],[-56.673745,-30.211281],[-56.372601,-30.48589],[-56.23509,-30.565368],[-56.011357,-30.798222],[-56.011357,-31.082133],[-55.86426,-31.076758],[-55.731891,-30.945397],[-55.591873,-30.848348],[-55.353852,-31.056294],[-55.259981,-31.228687],[-55.087253,-31.326769],[-54.969637,-31.340825],[-54.819776,-31.435289],[-54.591521,-31.471049],[-54.483155,-31.583911],[-54.463725,-31.671864],[-54.135063,-31.908956],[-54.068814,-31.879913],[-53.771829,-32.047087],[-53.670595,-32.226404],[-53.648684,-32.338645],[-53.5613,-32.449543],[-53.415624,-32.564161],[-53.186129,-32.64674],[-53.126856,-32.754847],[-53.298835,-32.889102],[-53.327309,-32.973645],[-53.511535,-33.099219],[-53.536857,-33.170842],[-53.514016,-33.394911],[-53.539647,-33.649263],[-53.379095,-33.740676],[-53.266347,-33.67669],[-52.819488,-33.322524],[-52.621693,-33.101983],[-52.470855,-32.800958],[-52.375315,-32.498712],[-52.253407,-32.282485],[-52.127431,-32.177504],[-52.258616,-32.053643],[-52.169789,-31.936456],[-52.245595,-31.840997],[-52.203725,-31.727309],[-52.095774,-31.691095],[-52.089955,-31.606134],[-52.000803,-31.551202],[-52.001617,-31.429132],[-51.92276,-31.306899],[-51.652821,-31.25921],[-51.623606,-31.135349],[-51.443023,-31.080987],[-51.484202,-31.012953],[-51.455434,-30.889418],[-51.361887,-30.879164],[-51.38329,-30.658868],[-51.290191,-30.624444],[-51.200429,-30.399835],[-51.292144,-30.271661],[-51.313954,-30.154555],[-51.122548,-30.256036],[-51.014801,-30.278578],[-51.034088,-30.375665],[-50.936391,-30.431573],[-50.897532,-30.310479],[-50.671986,-30.288995],[-50.537262,-30.320408],[-50.731068,-30.792413],[-50.93932,-30.896091],[-50.98766,-31.045587],[-51.176137,-31.149347],[-51.179596,-31.358982],[-51.334543,-31.51922],[-51.434967,-31.496515],[-51.512563,-31.615981],[-51.666168,-31.769708],[-51.786041,-31.792087],[-51.92276,-31.868748],[-52.087961,-31.858575],[-52.032623,-32.108982],[-51.863515,-31.931736],[-51.563344,-31.777439],[-51.151845,-31.481541],[-51.034576,-31.378025],[-50.721425,-31.044529],[-50.315663,-30.461521],[-50.045318,-29.814548],[-49.810658,-29.443129],[-49.713531,-29.324477],[-49.870594,-29.217855],[-50.078979,-29.243331],[-50.165098,-29.19615],[-50.069677,-29.092643],[-50.00565,-29.103133],[-49.946842,-28.951359],[-49.954103,-28.794728],[-49.796025,-28.623886],[-49.736597,-28.511386],[-49.883306,-28.450873],[-50.161765,-28.484049],[-50.217007,-28.449943],[-50.621065,-28.374185],[-50.774311,-28.156059],[-50.867484,-28.127172],[-50.886165,-28.025214],[-51.012385,-27.934677],[-51.080494,-27.821092],[-51.226868,-27.767814],[-51.334561,-27.669112],[-51.605682,-27.501732],[-51.892253,-27.513928],[-51.915844,-27.449384],[-52.179058,-27.268154],[-52.2605,-27.29637],[-52.550921,-27.237562],[-52.738248,-27.250119],[-52.868576,-27.161391],[-52.964178,-27.188056],[-53.069546,-27.150539],[-53.217418,-27.161391],[-53.368856,-27.071991],[-53.653438,-27.216013],[-53.686537,-27.154466],[-53.842006,-27.163509]]]},"properties":{"LOCATION_TYPE":"level1","ADM0_A3":"BRA","LOCATION_ID":"BRA-RS","NAME":"Rio Grande do Sul","TYPE_EN":"State"}},
{"type":"Feature","geometry":{"type":"Polygon","coordinates":[[[-58.972025,1.312311],[-59.242141,1.377798],[-59.572716,1.727157],[-59.682476,1.765604],[-59.764539,1.92053],[-59.741698,2.263791],[-59.903135,2.359599],[-59.906778,2.458766],[-60.00008,2.694049],[-59.959385,3.066481],[-59.828488,3.383412],[-59.837661,3.60929],[-59.680125,3.701687],[-59.52923,3.931906],[-59.663253,4.079726],[-59.738468,4.202768],[-59.68674,4.381181],[-59.943313,4.503912],[-60.055606,4.491587],[-60.087697,4.607523],[-60.034522,4.787797],[-59.983104,5.085944],[-60.091237,5.158239],[-60.131725,5.243402],[-60.213426,5.267225],[-60.333083,5.193767],[-60.601774,5.206583],[-60.664303,5.170254],[-60.598674,4.99688],[-60.612626,4.900581],[-60.763677,4.755086],[-60.903435,4.699585],[-60.9478,4.573598],[-61.011956,4.518304],[-61.151198,4.492053],[-61.297262,4.52373],[-61.333228,4.423865],[-61.458182,4.419137],[-61.516421,4.374773],[-61.542104,4.263023],[-61.71889,4.254651],[-61.931486,4.146415],[-62.035046,4.159876],[-62.192659,4.094738],[-62.384172,4.173467],[-62.536979,4.125408],[-62.560957,4.037791],[-62.766216,4.020712],[-62.788798,3.899401],[-62.749576,3.660372],[-62.889412,3.560817],[-62.997054,3.599135],[-63.285977,3.920821],[-63.4254,3.968364],[-63.510666,3.854546],[-63.622804,3.935213],[-63.87514,3.949812],[-63.996425,3.880798],[-64.063811,3.911597],[-64.125099,4.088485],[-64.240596,4.142022],[-64.364981,4.151867],[-64.58967,4.118871],[-64.660984,4.227469],[-64.74594,4.287621],[-64.80126,4.188531],[-64.727104,4.140782],[-64.662896,3.996992],[-64.531431,3.853513],[-64.324157,3.724115],[-64.202976,3.594717],[-64.245609,3.41894],[-64.216308,3.251431],[-64.222923,3.123996],[-64.105953,2.947211],[-63.997872,2.705986],[-64.047972,2.471323],[-63.831319,2.428638],[-63.704091,2.437578],[-63.384834,2.420577],[-63.386546,2.235889],[-63.252955,2.156665],[-63.148052,2.177542],[-63.122498,2.114342],[-63.003927,2.020756],[-62.848432,2.019102],[-62.707097,1.94722],[-62.713272,1.736638],[-62.786808,1.603313],[-62.720404,1.49624],[-62.622916,1.415935],[-62.514654,1.05854],[-62.509745,0.961905],[-62.446338,0.804602],[-62.536203,0.732359],[-62.486206,0.540432],[-62.530519,0.428553],[-62.566744,0.175597],[-62.526049,0.095395],[-62.578113,0.016847],[-62.477783,-0.222777],[-62.372131,-0.341633],[-62.37058,-0.46793],[-62.318671,-0.52033],[-62.311643,-0.640891],[-62.377737,-0.715822],[-62.477473,-0.693652],[-62.505714,-0.772924],[-62.419595,-0.827339],[-62.205009,-1.044742],[-62.027604,-1.144271],[-61.937403,-1.244885],[-61.879396,-1.369322],[-61.760824,-1.359038],[-61.601583,-1.399501],[-61.620161,-1.274444],[-61.561017,-1.022315],[-61.580241,-0.9448],[-61.532233,-0.728534],[-61.458698,-0.63841],[-61.107246,-0.492786],[-60.931237,-0.554901],[-60.814758,-0.686211],[-60.736726,-0.849509],[-60.515086,-0.828941],[-60.46881,-0.740833],[-60.3398,-0.704143],[-60.317243,-0.620737],[-60.392665,-0.519141],[-60.310654,-0.235282],[-60.126841,0.129863],[-60.024548,0.223656],[-59.769912,0.230064],[-58.87051,0.225361],[-58.972025,1.312311]]]},"properties":{"LOCATION_TYPE":"level1","ADM0_A3":"BRA","LOCATION_ID":"BRA-RR","NAME":"Roraima","TYPE_EN":"State"}},
{"type":"Feature","geometry":{"type":"MultiPolygon","coordinates":[[[[-54.775494,2.457335],[-54.880289,2.447345],[-55.017748,2.590592],[-55.112471,2.527805],[-55.354523,2.494888],[-55.399585,2.430189],[-55.608306,2.433961],[-55.724294,2.396909],[-55.783128,2.445175],[-55.989239,2.520829],[-56.013346,2.398821],[-56.116803,2.333089],[-56.03133,2.163487],[-55.925806,2.061684],[-55.916763,1.922235],[-56.019651,1.833507],[-56.367175,1.928876],[-56.639561,1.93686],[-56.806476,1.873582],[-57.011167,1.918566],[-57.104494,2.021454],[-57.238439,1.948539],[-57.341482,1.968847],[-57.429487,1.900299],[-57.561159,1.708967],[-57.790757,1.704936],[-57.905376,1.648557],[-57.991003,1.650417],[-58.027229,1.516859],[-58.148616,1.519082],[-58.18727,1.567606],[-58.331913,1.593392],[-58.413458,1.47203],[-58.513659,1.43888],[-58.481103,1.333873],[-58.51893,1.267262],[-58.682589,1.282455],[-58.771938,1.201271],[-58.897873,1.217808],[-58.972025,1.312311],[-58.87051,0.225361],[-58.849348,-0.082785],[-58.853741,-0.35202],[-58.740466,-0.430619],[-58.749768,-0.621822],[-58.627605,-0.765121],[-58.570812,-0.764501],[-58.440975,-0.861859],[-58.389505,-1.04898],[-58.254475,-1.130318],[-58.081721,-1.298422],[-57.901499,-1.423272],[-57.827292,-1.443374],[-57.655881,-1.58998],[-57.337477,-1.729248],[-57.087854,-1.811827],[-57.005171,-1.934869],[-56.742629,-2.053983],[-56.748985,-2.175526],[-56.635246,-2.222396],[-56.521583,-2.164829],[-56.485074,-2.248648],[-56.396888,-2.272212],[-56.389653,-2.390551],[-56.756659,-3.18611],[-58.294421,-6.496864],[-58.4664,-6.701606],[-58.466632,-6.783307],[-58.391805,-6.955854],[-58.216958,-7.110005],[-58.13549,-7.339138],[-58.058957,-7.410969],[-57.893696,-7.692553],[-57.781196,-8.046382],[-57.640326,-8.22942],[-57.680608,-8.435816],[-57.579555,-8.756313],[-57.481938,-8.792693],[-57.297763,-8.957489],[-57.103098,-9.051282],[-57.045479,-9.230392],[-56.837094,-9.273129],[-56.770095,-9.397876],[-56.678189,-9.377308],[-56.461613,-9.466864],[-55.09273,-9.565101],[-51.297716,-9.789376],[-50.235719,-9.843983],[-50.150241,-9.70039],[-50.053658,-9.319121],[-49.818168,-9.028182],[-49.755123,-8.922969],[-49.581309,-8.830727],[-49.38083,-8.436797],[-49.310525,-8.382175],[-49.198645,-8.058578],[-49.163376,-7.803554],[-49.309646,-7.713586],[-49.390649,-7.597572],[-49.374888,-7.50011],[-49.218308,-7.309269],[-49.185003,-7.225295],[-49.221073,-6.964226],[-49.198542,-6.902627],[-49.010543,-6.780723],[-48.683405,-6.662745],[-48.667773,-6.541461],[-48.60633,-6.435007],[-48.500755,-6.351137],[-48.389883,-6.362402],[-48.428796,-6.171251],[-48.284153,-6.097612],[-48.333401,-5.976172],[-48.222736,-5.914264],[-48.296788,-5.807035],[-48.288572,-5.727195],[-48.142405,-5.646115],[-48.209222,-5.538525],[-48.270536,-5.53408],[-48.397144,-5.39011],[-48.55561,-5.412899],[-48.723015,-5.355332],[-48.732601,-5.33864],[-48.253535,-4.952721],[-47.800669,-4.595843],[-47.654424,-4.605558],[-47.581354,-4.547061],[-47.456297,-4.338495],[-47.381366,-4.274933],[-47.310931,-4.06678],[-47.263156,-4.053137],[-47.065804,-3.841729],[-47.022938,-3.559679],[-46.968316,-3.525521],[-46.944623,-3.398242],[-46.817989,-3.319074],[-46.666681,-3.094178],[-46.645984,-2.892278],[-46.59839,-2.83409],[-46.666681,-2.738489],[-46.509016,-2.614982],[-46.426851,-2.510492],[-46.447573,-2.361148],[-46.280296,-2.140696],[-46.214176,-1.929133],[-46.215339,-1.806608],[-46.314041,-1.731884],[-46.201154,-1.679277],[-46.201154,-1.484095],[-46.084584,-1.210382],[-46.093902,-1.07586],[-46.221181,-1.141534],[-46.221181,-1.011163],[-46.406728,-1.039158],[-46.480092,-1.022231],[-46.613796,-0.813236],[-46.769887,-0.86712],[-46.858632,-0.76572],[-47.084543,-0.750584],[-47.294016,-0.592869],[-47.414703,-0.66131],[-47.584514,-0.578247],[-47.652821,-0.723891],[-47.725168,-0.644138],[-47.946116,-0.740492],[-48.02359,-0.72324],[-48.154042,-0.781834],[-48.140289,-0.84295],[-48.160797,-0.960056],[-48.27066,-1.134698],[-48.339711,-1.316013],[-48.482753,-1.2813],[-48.503285,-1.4485],[-48.407216,-1.456231],[-48.443023,-1.570001],[-48.535024,-1.581476],[-48.642121,-1.385675],[-48.811879,-1.62127],[-48.965589,-1.599719],[-49.008864,-1.681124],[-49.123006,-1.768008],[-49.145569,-1.856758],[-49.232004,-1.948175],[-49.331614,-2.204767],[-49.426829,-2.367283],[-49.435699,-2.470392],[-49.527415,-2.628351],[-49.551747,-2.412774],[-49.503,-2.258396],[-49.445546,-2.18377],[-49.379221,-1.896417],[-49.447581,-1.869887],[-49.485219,-1.76393],[-49.676096,-1.908624],[-49.810455,-1.900567],[-49.976918,-1.826104],[-50.28077,-1.893829],[-50.372841,-1.973728],[-50.565338,-1.89072],[-50.654693,-1.73797],[-50.68928,-1.612074],[-50.819203,-1.436293],[-50.819936,-1.231703],[-50.901763,-1.121026],[-50.824452,-1.030938],[-50.839589,-0.912774],[-50.942738,-0.908787],[-51.032948,-1.038018],[-51.161488,-1.103611],[-51.2683,-1.220392],[-51.399648,-1.251072],[-51.437489,-1.312677],[-51.669545,-1.401625],[-51.914622,-1.570977],[-52.123769,-1.619073],[-52.200347,-1.684747],[-52.279124,-1.518243],[-52.423085,-1.566095],[-52.558095,-1.518731],[-52.401967,-1.422052],[-52.195383,-1.344985],[-52.065785,-1.405043],[-51.921457,-1.325779],[-51.908315,-1.157973],[-52.094412,-1.17662],[-52.240527,-1.144633],[-52.358168,-1.069805],[-52.399148,-0.868887],[-52.499555,-0.881186],[-52.526582,-0.647505],[-52.631872,-0.556865],[-52.626937,-0.397185],[-52.826667,-0.179782],[-52.915369,-0.192029],[-53.015906,0.055397],[-53.041537,0.24722],[-53.128431,0.386953],[-53.139645,0.538675],[-53.112179,0.72006],[-53.264366,0.780831],[-53.416243,0.941803],[-53.466085,1.155072],[-53.537476,1.242405],[-53.555459,1.365808],[-53.660595,1.419345],[-53.882106,1.401775],[-54.005535,1.523318],[-54.084678,1.540681],[-54.20157,1.655351],[-54.366469,1.762167],[-54.496125,1.747801],[-54.577671,1.782114],[-54.688413,1.763614],[-54.753267,1.805006],[-54.787374,2.128449],[-54.71606,2.26596],[-54.73469,2.414737],[-54.775494,2.457335]]],[[[-49.287953,-1.758477],[-49.338124,-1.71266],[-49.452992,-1.850193],[-49.367421,-1.895115],[-49.287953,-1.758477]]],[[[-48.338979,-1.066502],[-48.421498,-1.079522],[-48.462066,-1.164483],[-48.379872,-1.217218],[-48.297353,-1.128513],[-48.338979,-1.066502]]],[[[-48.194936,-0.819431],[-48.319081,-0.973728],[-48.207387,-1.017836],[-48.155873,-0.866306],[-48.194936,-0.819431]]],[[[-50.819203,-0.620212],[-50.95641,-0.60711],[-51.100413,-0.730645],[-51.100413,-0.826267],[-50.934316,-0.731703],[-50.843129,-0.715997],[-50.819203,-0.620212]]],[[[-51.186025,-0.613946],[-51.308339,-0.518731],[-51.505116,-0.60711],[-51.675771,-0.846775],[-51.717885,-1.129653],[-51.872467,-1.243259],[-51.954091,-1.422459],[-51.892486,-1.483657],[-51.785634,-1.449965],[-51.434804,-1.1867],[-51.331451,-1.009942],[-51.271148,-1.017673],[-51.230702,-0.839288],[-51.155629,-0.681573],[-51.186025,-0.613946]]],[[[-51.165273,-0.140313],[-51.264272,-0.219496],[-51.3756,-0.460545],[-51.201283,-0.343683],[-51.148834,-0.263849],[-51.165273,-0.140313]]],[[[-48.462514,-0.576104],[-48.454701,-0.48561],[-48.373118,-0.373712],[-48.427235,-0.259942],[-48.60143,-0.22617],[-48.891957,-0.215916],[-48.927049,-0.158809],[-49.215403,-0.141209],[-49.38683,-0.184747],[-49.42516,-0.230401],[-49.653472,-0.241143],[-50.095774,-0.132257],[-50.368153,-0.105645],[-50.411488,-0.164483],[-50.583363,-0.192153],[-50.69636,-0.36004],[-50.779897,-0.660577],[-50.769276,-0.807306],[-50.798166,-0.91131],[-50.778228,-1.17254],[-50.804189,-1.424981],[-50.74234,-1.531183],[-50.58788,-1.684503],[-50.559722,-1.799493],[-50.405181,-1.830987],[-50.296986,-1.803481],[-50.287221,-1.73089],[-50.155019,-1.778985],[-50.052073,-1.703871],[-49.823557,-1.816583],[-49.558705,-1.724216],[-49.556549,-1.64544],[-49.372439,-1.646635],[-49.222768,-1.621189],[-49.181874,-1.401625],[-49.065785,-1.531915],[-48.91808,-1.504571],[-48.839223,-1.44256],[-48.79308,-1.279718],[-48.84203,-1.213311],[-48.642812,-1.083591],[-48.612945,-0.932875],[-48.537506,-0.894464],[-48.462514,-0.576104]]],[[[-50.973744,-0.291192],[-50.923411,-0.330499],[-50.627431,-0.085707],[-50.766004,0.046367],[-50.947266,-0.011974],[-51.032786,-0.168227],[-50.973744,-0.291192]]],[[[-49.832346,-0.103123],[-49.686879,-0.135431],[-49.43871,-0.120538],[-49.347524,-0.009698],[-49.428212,0.071275],[-49.628082,0.057603],[-49.740468,-0.000339],[-49.832346,-0.103123]]],[[[-50.634267,0.071275],[-50.559722,-0.003839],[-50.447499,-0.015151],[-50.446497,0.125851],[-50.610585,0.183417],[-50.634267,0.071275]]],[[[-50.036888,0.299741],[-50.107289,0.222154],[-50.366811,0.214504],[-50.383656,0.129869],[-50.297597,0.01203],[-50.206695,0.039293],[-50.069447,0.016588],[-50.004506,-0.052789],[-49.829701,0.011298],[-49.692372,0.205024],[-49.52895,0.300815],[-49.560157,0.385757],[-49.650227,0.386373],[-49.921622,0.292786],[-50.036888,0.299741]]],[[[-50.378021,0.24499],[-50.323285,0.28696],[-50.355051,0.412543],[-50.34732,0.571275],[-50.430776,0.548],[-50.407094,0.43065],[-50.516754,0.208645],[-50.426259,0.168402],[-50.378021,0.24499]]],[[[-50.312123,0.413967],[-50.281446,0.356552],[-50.042714,0.510321],[-50.038442,0.60635],[-50.242096,0.592963],[-50.302887,0.530992],[-50.312123,0.413967]]]]},"properties":{"LOCATION_TYPE":"level1","ADM0_A3":"BRA","LOCATION_ID":"BRA-PA","NAME":"Pará","TYPE_EN":"State"}},
{"type":"Feature","geometry":{"type":"Polygon","coordinates":[[[-73.806762,-7.117879],[-73.734539,-7.225088],[-73.760764,-7.337432],[-73.979433,-7.374536],[-73.944319,-7.448743],[-73.969382,-7.584652],[-73.838796,-7.720561],[-73.712163,-7.788154],[-73.778799,-7.954139],[-73.668031,-8.013773],[-73.526541,-8.372408],[-73.356422,-8.479791],[-73.350583,-8.598337],[-73.174573,-8.720707],[-73.068636,-8.89372],[-72.976084,-8.985394],[-72.959392,-9.085646],[-73.214984,-9.409037],[-72.813303,-9.410897],[-72.430225,-9.482211],[-72.344546,-9.532854],[-72.261657,-9.667419],[-72.265223,-9.762194],[-72.160423,-9.887664],[-72.195666,-10.00559],[-71.391426,-10.00683],[-71.196502,-9.939857],[-71.161052,-9.875572],[-71.015428,-9.817487],[-70.875488,-9.660494],[-70.680849,-9.527686],[-70.624418,-9.565823],[-70.543415,-9.72695],[-70.638448,-9.851801],[-70.641342,-11.0108],[-70.534114,-10.938143],[-70.437272,-11.036741],[-70.2894,-11.06475],[-70.198734,-11.041185],[-69.956113,-10.919332],[-69.72021,-10.964911],[-69.39594,-10.935042],[-69.071309,-10.969975],[-68.884034,-11.016381],[-68.804659,-10.994677],[-68.787011,-11.126038],[-68.61573,-11.112499],[-68.29332,-10.978967],[-68.09788,-10.697744],[-68.043775,-10.666945],[-67.862649,-10.65878],[-67.755782,-10.714177],[-67.58463,-10.501787],[-67.488201,-10.464786],[-67.337823,-10.326087],[-67.201759,-10.32681],[-67.0643,-10.256944],[-66.902656,-10.09313],[-66.648925,-9.915879],[-66.830515,-9.837952],[-69.806767,-8.454522],[-70.371487,-8.15728],[-72.663699,-7.591578],[-73.806762,-7.117879]]]},"properties":{"LOCATION_TYPE":"level1","ADM0_A3":"BRA","LOCATION_ID":"BRA-AC","NAME":"Acre","TYPE_EN":"State"}},
{"type":"Feature","geometry":{"type":"MultiPolygon","coordinates":[[[[-51.908315,-1.157973],[-51.724192,-1.039158],[-51.697499,-0.747166],[-51.44518,-0.471449],[-51.322499,-0.215265],[-51.201568,-0.049086],[-51.069163,-0.019342],[-50.928944,0.155422],[-50.790639,0.169501],[-50.608957,0.373928],[-50.465891,0.64643],[-50.34557,0.736274],[-50.312489,0.817206],[-49.978831,1.072211],[-49.890045,1.165229],[-49.921522,1.218481],[-49.873046,1.35985],[-49.910159,1.664263],[-50.004051,1.751601],[-50.183156,1.818863],[-50.466542,1.815416],[-50.712618,2.236803],[-50.742421,2.378485],[-50.902803,2.793755],[-50.94454,2.822201],[-51.040627,3.150937],[-51.036004,3.229214],[-51.092742,3.376329],[-51.079385,3.492087],[-51.079905,3.88227],[-51.180231,3.804444],[-51.179433,4.025214],[-51.224435,4.165043],[-51.38923,4.358902],[-51.516498,4.441122],[-51.561025,4.357123],[-51.631744,4.067816],[-51.783191,3.980947],[-51.83541,3.867543],[-51.988424,3.704555],[-52.012764,3.619108],[-52.227918,3.260112],[-52.361838,3.131955],[-52.353208,3.058419],[-52.571593,2.6386],[-52.553454,2.573384],[-52.707708,2.358927],[-52.880153,2.26038],[-52.959683,2.175217],[-53.234188,2.250975],[-53.344104,2.349625],[-53.531792,2.247047],[-53.748162,2.319343],[-53.866811,2.304925],[-53.946134,2.221984],[-54.069279,2.188343],[-54.134908,2.110673],[-54.476644,2.21413],[-54.564649,2.314847],[-54.704124,2.32482],[-54.703194,2.445847],[-54.775494,2.457335],[-54.73469,2.414737],[-54.71606,2.26596],[-54.787374,2.128449],[-54.753267,1.805006],[-54.688413,1.763614],[-54.577671,1.782114],[-54.496125,1.747801],[-54.366469,1.762167],[-54.20157,1.655351],[-54.084678,1.540681],[-54.005535,1.523318],[-53.882106,1.401775],[-53.660595,1.419345],[-53.555459,1.365808],[-53.537476,1.242405],[-53.466085,1.155072],[-53.416243,0.941803],[-53.264366,0.780831],[-53.112179,0.72006],[-53.139645,0.538675],[-53.128431,0.386953],[-53.041537,0.24722],[-53.015906,0.055397],[-52.915369,-0.192029],[-52.826667,-0.179782],[-52.626937,-0.397185],[-52.631872,-0.556865],[-52.526582,-0.647505],[-52.499555,-0.881186],[-52.399148,-0.868887],[-52.358168,-1.069805],[-52.240527,-1.144633],[-52.094412,-1.17662],[-51.908315,-1.157973]]],[[[-50.202416,0.749692],[-50.103383,0.755683],[-50.015723,0.892493],[-50.132123,0.914214],[-50.274952,0.809114],[-50.202416,0.749692]]],[[[-50.454358,2.110941],[-50.523813,2.001482],[-50.458608,1.881008],[-50.376578,1.878332],[-50.312496,1.947065],[-50.399578,2.115108],[-50.454358,2.110941]]]]},"properties":{"LOCATION_TYPE":"level1","ADM0_A3":"BRA","LOCATION_ID":"BRA-AP","NAME":"Amapá","TYPE_EN":"State"}},
{"type":"Feature","geometry":{"type":"Polygon","coordinates":[[[-57.724456,-17.736642],[-57.730089,-17.846093],[-57.551082,-18.183643],[-57.56674,-18.256094],[-57.782334,-18.910421],[-57.715826,-19.044573],[-57.789,-19.059249],[-58.124639,-19.729906],[-58.116939,-19.758018],[-57.859745,-19.980123],[-58.158797,-20.165125],[-58.082987,-20.376171],[-57.989401,-20.433119],[-57.990952,-20.620601],[-57.86021,-20.730258],[-57.908683,-20.881567],[-57.82538,-20.998562],[-57.855559,-21.330738],[-57.929922,-21.453108],[-57.939017,-21.623744],[-57.895609,-21.688442],[-57.955915,-21.85112],[-57.925374,-21.904967],[-57.986818,-22.035295],[-57.939999,-22.11839],[-57.843881,-22.143712],[-57.654486,-22.104541],[-57.614075,-22.176991],[-57.384994,-22.213268],[-57.21379,-22.188154],[-56.842856,-22.289026],[-56.808285,-22.247995],[-56.654703,-22.23735],[-56.5113,-22.091415],[-56.421797,-22.074465],[-56.316842,-22.207687],[-56.196798,-22.279311],[-55.89294,-22.306803],[-55.751579,-22.416253],[-55.74127,-22.537176],[-55.631199,-22.626783],[-55.659001,-22.818296],[-55.637814,-23.000714],[-55.535236,-23.229124],[-55.555596,-23.330306],[-55.530533,-23.603468],[-55.445319,-23.735449],[-55.430178,-23.928564],[-55.398035,-23.97683],[-55.200864,-24.019515],[-54.943644,-23.969182],[-54.827424,-23.887016],[-54.612553,-23.811155],[-54.422901,-23.913785],[-54.24575,-24.050393],[-54.077185,-23.949236],[-54.06778,-23.816479],[-53.947658,-23.424461],[-53.725139,-23.296355],[-53.641346,-23.10598],[-53.596775,-22.920151],[-53.47965,-22.830751],[-53.167964,-22.701715],[-52.96702,-22.458887],[-52.842635,-22.420647],[-52.676185,-22.293781],[-52.518908,-22.223346],[-52.36933,-22.098909],[-52.313726,-21.940056],[-52.208255,-21.853549],[-52.152651,-21.739345],[-52.043614,-21.666119],[-52.106349,-21.550261],[-52.070537,-21.480291],[-51.965169,-21.466648],[-51.851584,-21.298648],[-51.874864,-21.171731],[-51.631985,-20.876968],[-51.620229,-20.69977],[-51.326422,-20.362426],[-51.137209,-20.297262],[-51.029102,-20.189258],[-50.993962,-20.101667],[-51.027603,-19.754091],[-50.961173,-19.47354],[-51.138191,-19.284352],[-51.31079,-19.252933],[-51.406676,-19.169217],[-51.643121,-19.128806],[-51.842076,-19.048139],[-51.913001,-18.988298],[-52.059763,-18.944683],[-52.173606,-18.848823],[-52.365842,-18.803813],[-52.496403,-18.70506],[-52.615568,-18.722629],[-52.869558,-18.680513],[-52.892864,-18.637828],[-52.786462,-18.461974],[-52.783439,-18.39159],[-52.909401,-18.346115],[-52.987639,-18.38787],[-53.056704,-18.293147],[-53.053836,-18.016626],[-53.146647,-18.031612],[-53.307568,-17.997454],[-53.728162,-18.007996],[-53.988818,-17.902163],[-53.858645,-17.689049],[-53.750641,-17.642799],[-53.681576,-17.256569],[-53.821541,-17.306075],[-53.950965,-17.4579],[-54.143563,-17.627348],[-54.393134,-17.672203],[-54.420523,-17.580942],[-54.526072,-17.513608],[-54.697095,-17.516657],[-54.898737,-17.64962],[-55.180502,-17.685794],[-55.339123,-17.584611],[-55.53601,-17.501464],[-55.60859,-17.393305],[-55.787545,-17.35155],[-55.983063,-17.265871],[-56.102642,-17.187374],[-56.248706,-17.218639],[-56.328882,-17.286386],[-56.756349,-17.318167],[-56.83867,-17.397026],[-56.852106,-17.485237],[-56.968662,-17.577376],[-56.978868,-17.656751],[-57.131288,-17.786563],[-57.418169,-17.864077],[-57.602292,-17.818085],[-57.634022,-17.741191],[-57.724456,-17.736642]]]},"properties":{"LOCATION_TYPE":"level1","ADM0_A3":"BRA","LOCATION_ID":"BRA-MS","NAME":"Mato Grosso do Sul","TYPE_EN":"State"}},
{"type":"Feature","geometry":{"type":"Polygon","coordinates":[[[-54.24575,-24.050393],[-54.334637,-24.148912],[-54.26105,-24.32947],[-54.334792,-24.527287],[-54.321305,-24.628366],[-54.407294,-24.821223],[-54.462278,-25.03723],[-54.429722,-25.130558],[-54.609814,-25.432762],[-54.591469,-25.524746],[-54.460573,-25.642051],[-54.321718,-25.555132],[-54.2148,-25.531464],[-53.90996,-25.629236],[-53.837303,-25.809173],[-53.826193,-25.972677],[-53.765008,-26.028074],[-53.661552,-26.259791],[-53.459961,-26.287852],[-53.355213,-26.241602],[-53.126028,-26.364489],[-52.914568,-26.364127],[-52.81584,-26.336583],[-52.456999,-26.432598],[-52.199676,-26.451615],[-52.00651,-26.581581],[-51.874399,-26.600185],[-51.502458,-26.59972],[-51.399028,-26.68049],[-51.238598,-26.607316],[-51.288518,-26.424537],[-51.249864,-26.348417],[-51.072252,-26.235143],[-50.967995,-26.26527],[-50.733048,-26.2323],[-50.646515,-26.070191],[-50.541586,-26.023993],[-50.384516,-26.060528],[-50.19184,-26.054068],[-49.951002,-26.013709],[-49.594306,-26.22367],[-49.295409,-26.107708],[-49.214484,-26.028488],[-48.946645,-26.006836],[-48.919308,-25.978517],[-48.582749,-25.980902],[-48.517568,-25.770196],[-48.432729,-25.622491],[-48.524037,-25.514825],[-48.460194,-25.47088],[-48.407216,-25.283868],[-48.247304,-25.410903],[-48.082104,-25.307319],[-48.149536,-25.222646],[-48.230229,-25.013563],[-48.414249,-24.959872],[-48.51109,-25.083533],[-48.566177,-25.057695],[-48.543517,-24.810217],[-48.487603,-24.745673],[-48.613151,-24.680354],[-48.780841,-24.695547],[-48.829288,-24.662267],[-49.218127,-24.68981],[-49.300603,-24.591935],[-49.227791,-24.338462],[-49.410338,-24.085868],[-49.601825,-23.864435],[-49.552629,-23.711679],[-49.654354,-23.506162],[-49.615286,-23.408235],[-49.638127,-23.259252],[-49.769721,-23.096316],[-49.908524,-23.035803],[-49.969968,-22.912141],[-50.291292,-22.953276],[-50.627757,-22.921598],[-50.785525,-22.94356],[-50.880145,-22.822069],[-51.110725,-22.767189],[-51.355051,-22.650142],[-51.547003,-22.685333],[-51.74451,-22.617947],[-51.874942,-22.610351],[-52.066661,-22.521726],[-52.139706,-22.54157],[-52.217143,-22.643837],[-52.614742,-22.569526],[-52.693858,-22.603685],[-52.947228,-22.570767],[-53.167964,-22.701715],[-53.47965,-22.830751],[-53.596775,-22.920151],[-53.641346,-23.10598],[-53.725139,-23.296355],[-53.947658,-23.424461],[-54.06778,-23.816479],[-54.077185,-23.949236],[-54.24575,-24.050393]]]},"properties":{"LOCATION_TYPE":"level1","ADM0_A3":"BRA","LOCATION_ID":"BRA-PR","NAME":"Paraná","TYPE_EN":"State"}},
{"type":"Feature","geometry":{"type":"MultiPolygon","coordinates":[[[[-53.661552,-26.259791],[-53.724442,-26.376063],[-53.746043,-26.693873],[-53.710696,-26.873811],[-53.842006,-27.163509],[-53.686537,-27.154466],[-53.653438,-27.216013],[-53.368856,-27.071991],[-53.217418,-27.161391],[-53.069546,-27.150539],[-52.964178,-27.188056],[-52.868576,-27.161391],[-52.738248,-27.250119],[-52.550921,-27.237562],[-52.2605,-27.29637],[-52.179058,-27.268154],[-51.915844,-27.449384],[-51.892253,-27.513928],[-51.605682,-27.501732],[-51.334561,-27.669112],[-51.226868,-27.767814],[-51.080494,-27.821092],[-51.012385,-27.934677],[-50.886165,-28.025214],[-50.867484,-28.127172],[-50.774311,-28.156059],[-50.621065,-28.374185],[-50.217007,-28.449943],[-50.161765,-28.484049],[-49.883306,-28.450873],[-49.736597,-28.511386],[-49.796025,-28.623886],[-49.954103,-28.794728],[-49.946842,-28.951359],[-50.00565,-29.103133],[-50.069677,-29.092643],[-50.165098,-29.19615],[-50.078979,-29.243331],[-49.870594,-29.217855],[-49.713531,-29.324477],[-49.552317,-29.127374],[-49.342763,-28.923517],[-48.940582,-28.64544],[-48.815338,-28.610447],[-48.780873,-28.487481],[-48.655263,-28.212823],[-48.565541,-27.860284],[-48.629221,-27.767511],[-48.64745,-27.647393],[-48.577504,-27.594008],[-48.64745,-27.479587],[-48.55484,-27.342462],[-48.612904,-27.299493],[-48.575185,-27.016209],[-48.620107,-26.982599],[-48.626943,-26.770929],[-48.6822,-26.719171],[-48.664459,-26.556085],[-48.614247,-26.456801],[-48.643625,-26.384861],[-48.798248,-26.304864],[-48.582631,-26.157159],[-48.582749,-25.980902],[-48.919308,-25.978517],[-48.946645,-26.006836],[-49.214484,-26.028488],[-49.295409,-26.107708],[-49.594306,-26.22367],[-49.951002,-26.013709],[-50.19184,-26.054068],[-50.384516,-26.060528],[-50.541586,-26.023993],[-50.646515,-26.070191],[-50.733048,-26.2323],[-50.967995,-26.26527],[-51.072252,-26.235143],[-51.249864,-26.348417],[-51.288518,-26.424537],[-51.238598,-26.607316],[-51.399028,-26.68049],[-51.502458,-26.59972],[-51.874399,-26.600185],[-52.00651,-26.581581],[-52.199676,-26.451615],[-52.456999,-26.432598],[-52.81584,-26.336583],[-52.914568,-26.364127],[-53.126028,-26.364489],[-53.355213,-26.241602],[-53.459961,-26.287852],[-53.661552,-26.259791]]],[[[-48.43456,-27.404718],[-48.534901,-27.484145],[-48.496571,-27.702732],[-48.41454,-27.595147],[-48.377309,-27.458185],[-48.43456,-27.404718]]],[[[-48.544423,-26.341892],[-48.489125,-26.236017],[-48.630035,-26.239679],[-48.699696,-26.316664],[-48.611318,-26.412774],[-48.544423,-26.341892]]]]},"properties":{"LOCATION_TYPE":"level1","ADM0_A3":"BRA","LOCATION_ID":"BRA-SC","NAME":"Santa Catarina","TYPE_EN":"State"}},
{"type":"Feature","geometry":{"type":"Polygon","coordinates":[[[-63.386546,2.235889],[-63.411758,2.149379],[-63.617533,2.101165],[-63.762641,1.985668],[-63.99503,1.958021],[-64.053605,1.89371],[-64.080864,1.647394],[-64.129724,1.57807],[-64.301523,1.446657],[-64.40901,1.507506],[-64.551197,1.419527],[-64.604217,1.331289],[-64.730876,1.247574],[-64.839293,1.270828],[-65.022486,1.139983],[-65.136769,1.126909],[-65.203044,0.923821],[-65.327196,0.910281],[-65.45122,0.69014],[-65.56049,0.656033],[-65.587336,0.739129],[-65.517004,0.862791],[-65.582943,0.977668],[-65.74544,0.974154],[-65.871969,0.90899],[-65.974082,0.80698],[-66.156345,0.733031],[-66.346204,0.759386],[-66.407079,0.802071],[-66.875061,1.22251],[-67.06523,1.172694],[-67.098199,1.253361],[-67.073601,1.541199],[-67.117165,1.709793],[-67.264753,1.932545],[-67.340614,2.090106],[-67.439729,2.13956],[-67.59295,2.054811],[-67.790457,1.812578],[-67.86053,1.761522],[-67.998248,1.749972],[-68.101239,1.924121],[-68.200819,2.007837],[-68.260816,1.858208],[-68.238957,1.770281],[-68.163302,1.721291],[-69.352403,1.720206],[-69.580296,1.770229],[-69.746358,1.735167],[-69.848807,1.668892],[-69.852192,1.05942],[-69.762559,1.091097],[-69.370851,1.062985],[-69.288815,1.038439],[-69.204324,0.943664],[-69.137455,0.650142],[-69.226183,0.614796],[-69.362557,0.640944],[-69.503712,0.729621],[-69.619157,0.650659],[-69.694682,0.668746],[-69.805321,0.606941],[-70.054246,0.588131],[-70.073806,-0.124901],[-69.944356,-0.305458],[-69.858108,-0.341425],[-69.746462,-0.453046],[-69.632076,-0.506893],[-69.584223,-0.644559],[-69.628381,-0.733442],[-69.539239,-0.920615],[-69.449968,-0.996786],[-69.399454,-1.182717],[-69.565697,-2.105969],[-69.771163,-3.234168],[-69.947199,-4.201138],[-69.989392,-4.314619],[-70.096621,-4.265733],[-70.231316,-4.303664],[-70.306996,-4.260256],[-70.311104,-4.170855],[-70.429934,-4.134165],[-70.585273,-4.194523],[-70.832235,-4.179434],[-70.842751,-4.238138],[-70.968687,-4.385313],[-71.506147,-4.448565],[-71.665207,-4.507579],[-71.774348,-4.481534],[-72.071126,-4.605144],[-72.251063,-4.75883],[-72.396842,-4.805649],[-72.404129,-4.860219],[-72.627268,-5.022431],[-72.917948,-5.132089],[-72.896657,-5.271615],[-72.9735,-5.466125],[-72.960477,-5.559246],[-73.001353,-5.708798],[-73.140001,-5.878503],[-73.234776,-6.077561],[-73.177673,-6.202411],[-73.131785,-6.435265],[-73.198964,-6.545646],[-73.370685,-6.583886],[-73.685084,-6.811883],[-73.765493,-6.904177],[-73.806762,-7.117879],[-72.663699,-7.591578],[-70.371487,-8.15728],[-69.806767,-8.454522],[-66.830515,-9.837952],[-66.743647,-9.748707],[-66.504204,-9.634915],[-66.403719,-9.524173],[-66.396691,-9.405317],[-65.930621,-9.414154],[-65.767866,-9.566393],[-65.676244,-9.532544],[-65.632836,-9.448777],[-65.419541,-9.390176],[-65.223403,-9.256541],[-65.143538,-9.416272],[-65.037084,-9.399839],[-64.904172,-9.214476],[-64.925411,-9.120373],[-64.841851,-9.022136],[-64.752709,-8.984878],[-64.597473,-9.025857],[-64.474845,-8.951753],[-64.117037,-8.938007],[-64.138018,-8.713318],[-63.99875,-8.679728],[-63.921545,-8.534983],[-63.992807,-8.439898],[-63.917902,-8.334271],[-63.750599,-8.284765],[-63.725691,-8.192213],[-63.592935,-8.165496],[-63.538261,-8.000493],[-62.904243,-8.008296],[-62.723737,-8.063073],[-62.540182,-8.362745],[-62.373422,-8.383519],[-62.306786,-8.57157],[-62.171238,-8.610999],[-62.13354,-8.768508],[-61.87552,-8.856927],[-61.837796,-8.744582],[-61.732221,-8.691666],[-61.611298,-8.76856],[-58.545232,-8.748251],[-58.47211,-8.68965],[-58.418728,-8.541546],[-58.437074,-8.412613],[-58.34124,-8.256188],[-58.307934,-8.116093],[-58.378602,-7.818075],[-58.209775,-7.590906],[-58.208379,-7.417635],[-58.13549,-7.339138],[-58.216958,-7.110005],[-58.391805,-6.955854],[-58.466632,-6.783307],[-58.4664,-6.701606],[-58.294421,-6.496864],[-56.756659,-3.18611],[-56.389653,-2.390551],[-56.396888,-2.272212],[-56.485074,-2.248648],[-56.521583,-2.164829],[-56.635246,-2.222396],[-56.748985,-2.175526],[-56.742629,-2.053983],[-57.005171,-1.934869],[-57.087854,-1.811827],[-57.337477,-1.729248],[-57.655881,-1.58998],[-57.827292,-1.443374],[-57.901499,-1.423272],[-58.081721,-1.298422],[-58.254475,-1.130318],[-58.389505,-1.04898],[-58.440975,-0.861859],[-58.570812,-0.764501],[-58.627605,-0.765121],[-58.749768,-0.621822],[-58.740466,-0.430619],[-58.853741,-0.35202],[-58.849348,-0.082785],[-58.87051,0.225361],[-59.769912,0.230064],[-60.024548,0.223656],[-60.126841,0.129863],[-60.310654,-0.235282],[-60.392665,-0.519141],[-60.317243,-0.620737],[-60.3398,-0.704143],[-60.46881,-0.740833],[-60.515086,-0.828941],[-60.736726,-0.849509],[-60.814758,-0.686211],[-60.931237,-0.554901],[-61.107246,-0.492786],[-61.458698,-0.63841],[-61.532233,-0.728534],[-61.580241,-0.9448],[-61.561017,-1.022315],[-61.620161,-1.274444],[-61.601583,-1.399501],[-61.760824,-1.359038],[-61.879396,-1.369322],[-61.937403,-1.244885],[-62.027604,-1.144271],[-62.205009,-1.044742],[-62.419595,-0.827339],[-62.505714,-0.772924],[-62.477473,-0.693652],[-62.377737,-0.715822],[-62.311643,-0.640891],[-62.318671,-0.52033],[-62.37058,-0.46793],[-62.372131,-0.341633],[-62.477783,-0.222777],[-62.578113,0.016847],[-62.526049,0.095395],[-62.566744,0.175597],[-62.530519,0.428553],[-62.486206,0.540432],[-62.536203,0.732359],[-62.446338,0.804602],[-62.509745,0.961905],[-62.514654,1.05854],[-62.622916,1.415935],[-62.720404,1.49624],[-62.786808,1.603313],[-62.713272,1.736638],[-62.707097,1.94722],[-62.848432,2.019102],[-63.003927,2.020756],[-63.122498,2.114342],[-63.148052,2.177542],[-63.252955,2.156665],[-63.386546,2.235889]]]},"properties":{"LOCATION_TYPE":"level1","ADM0_A3":"BRA","LOCATION_ID":"BRA-AM","NAME":"Amazonas","TYPE_EN":"State"}},
{"type":"Feature","geometry":{"type":"Polygon","coordinates":[[[-66.648925,-9.915879],[-66.452864,-9.888698],[-66.190658,-9.800848],[-65.874424,-9.781314],[-65.788564,-9.733048],[-65.583977,-9.837228],[-65.45184,-9.681372],[-65.370501,-9.710621],[-65.304381,-9.825652],[-65.333294,-9.926835],[-65.288077,-10.216223],[-65.44998,-10.468094],[-65.435691,-10.62581],[-65.381069,-10.698054],[-65.404737,-10.799236],[-65.31898,-10.865382],[-65.302986,-10.990749],[-65.360011,-11.218849],[-65.353009,-11.390621],[-65.29247,-11.504723],[-65.195447,-11.59216],[-65.196197,-11.741814],[-65.065559,-11.75308],[-64.997449,-11.996269],[-64.7925,-12.032546],[-64.716278,-12.146544],[-64.469058,-12.261059],[-64.48978,-12.373611],[-64.395729,-12.457326],[-64.215223,-12.473759],[-64.144788,-12.520372],[-63.921236,-12.544349],[-63.801398,-12.454949],[-63.657738,-12.475413],[-63.496145,-12.553341],[-63.393309,-12.664549],[-63.247323,-12.701342],[-63.136684,-12.63375],[-63.075034,-12.652663],[-62.975299,-12.852858],[-62.92047,-12.862263],[-62.807402,-12.98887],[-62.686634,-12.964996],[-62.641676,-13.030005],[-62.492692,-13.065041],[-62.381846,-13.139869],[-62.22165,-13.121265],[-62.114679,-13.150204],[-62.112457,-13.231801],[-62.003265,-13.360475],[-61.868596,-13.463932],[-61.847977,-13.530801],[-61.588071,-13.50765],[-61.45875,-13.54372],[-61.347724,-13.493697],[-60.896743,-13.552918],[-60.725572,-13.662845],[-60.660685,-13.601598],[-60.383751,-13.420266],[-60.351169,-13.272058],[-60.270579,-13.068814],[-60.195157,-12.972024],[-60.083381,-12.928513],[-60.002017,-12.729404],[-59.909103,-12.618351],[-59.824069,-12.386634],[-59.889517,-12.243645],[-59.887192,-12.129699],[-59.983387,-11.916688],[-60.060127,-11.904906],[-60.101313,-11.744554],[-60.101416,-11.599757],[-59.911195,-11.384059],[-60.001629,-11.144332],[-60.278305,-11.081029],[-60.382459,-11.101648],[-60.441241,-11.003462],[-61.470299,-10.996848],[-61.521846,-10.952458],[-61.520038,-10.7904],[-61.471049,-10.434763],[-61.563239,-10.261647],[-61.5705,-10.060626],[-61.52027,-9.861827],[-61.542052,-9.75837],[-61.481358,-9.638068],[-61.561973,-9.374621],[-61.611298,-9.320051],[-61.530838,-9.224553],[-61.556496,-9.129417],[-61.486009,-8.914339],[-61.611298,-8.76856],[-61.732221,-8.691666],[-61.837796,-8.744582],[-61.87552,-8.856927],[-62.13354,-8.768508],[-62.171238,-8.610999],[-62.306786,-8.57157],[-62.373422,-8.383519],[-62.540182,-8.362745],[-62.723737,-8.063073],[-62.904243,-8.008296],[-63.538261,-8.000493],[-63.592935,-8.165496],[-63.725691,-8.192213],[-63.750599,-8.284765],[-63.917902,-8.334271],[-63.992807,-8.439898],[-63.921545,-8.534983],[-63.99875,-8.679728],[-64.138018,-8.713318],[-64.117037,-8.938007],[-64.474845,-8.951753],[-64.597473,-9.025857],[-64.752709,-8.984878],[-64.841851,-9.022136],[-64.925411,-9.120373],[-64.904172,-9.214476],[-65.037084,-9.399839],[-65.143538,-9.416272],[-65.223403,-9.256541],[-65.419541,-9.390176],[-65.632836,-9.448777],[-65.676244,-9.532544],[-65.767866,-9.566393],[-65.930621,-9.414154],[-66.396691,-9.405317],[-66.403719,-9.524173],[-66.504204,-9.634915],[-66.743647,-9.748707],[-66.830515,-9.837952],[-66.648925,-9.915879]]]},"properties":{"LOCATION_TYPE":"level1","ADM0_A3":"BRA","LOCATION_ID":"BRA-RO","NAME":"Rondônia","TYPE_EN":"State"}},
{"type":"Feature","geometry":{"type":"Polygon","coordinates":[[[-60.725572,-13.662845],[-60.465271,-13.816572],[-60.389694,-13.974908],[-60.473513,-14.117225],[-60.464341,-14.278352],[-60.399926,-14.340777],[-60.291716,-14.630062],[-60.274972,-15.09515],[-60.529479,-15.143726],[-60.260451,-15.456058],[-60.237972,-15.50267],[-60.17981,-16.222006],[-60.129839,-16.273062],[-59.108248,-16.308719],[-58.464721,-16.33125],[-58.339561,-16.289289],[-58.356097,-16.509534],[-58.480276,-16.683683],[-58.466272,-16.887289],[-58.38116,-17.267214],[-58.231557,-17.329742],[-58.010175,-17.49676],[-57.854113,-17.508543],[-57.790757,-17.555775],[-57.777941,-17.695508],[-57.724456,-17.736642],[-57.634022,-17.741191],[-57.602292,-17.818085],[-57.418169,-17.864077],[-57.131288,-17.786563],[-56.978868,-17.656751],[-56.968662,-17.577376],[-56.852106,-17.485237],[-56.83867,-17.397026],[-56.756349,-17.318167],[-56.328882,-17.286386],[-56.248706,-17.218639],[-56.102642,-17.187374],[-55.983063,-17.265871],[-55.787545,-17.35155],[-55.60859,-17.393305],[-55.53601,-17.501464],[-55.339123,-17.584611],[-55.180502,-17.685794],[-54.898737,-17.64962],[-54.697095,-17.516657],[-54.526072,-17.513608],[-54.420523,-17.580942],[-54.393134,-17.672203],[-54.143563,-17.627348],[-53.950965,-17.4579],[-53.821541,-17.306075],[-53.681576,-17.256569],[-53.750641,-17.642799],[-53.858645,-17.689049],[-53.988818,-17.902163],[-53.728162,-18.007996],[-53.307568,-17.997454],[-53.146647,-18.031612],[-53.053836,-18.016626],[-53.148611,-17.778656],[-53.230957,-17.652101],[-53.243334,-17.563269],[-53.189642,-17.362557],[-53.203259,-17.282046],[-53.046757,-17.057822],[-53.01942,-16.867859],[-52.809252,-16.745386],[-52.632415,-16.528913],[-52.615543,-16.426077],[-52.669519,-16.291305],[-52.546916,-16.241127],[-52.539113,-16.169452],[-52.328558,-16.038091],[-52.250061,-15.913344],[-52.053019,-15.874793],[-51.966771,-15.800741],[-51.882745,-15.804771],[-51.773914,-15.610571],[-51.679191,-15.378854],[-51.657358,-15.209717],[-51.513698,-15.06275],[-51.350736,-14.981359],[-51.255238,-15.015362],[-51.10026,-14.887876],[-51.033494,-14.647116],[-50.969907,-14.518545],[-50.997709,-14.399483],[-50.959649,-14.235823],[-50.856193,-14.10348],[-50.846064,-13.859567],[-50.863298,-13.711928],[-50.795835,-13.675909],[-50.758085,-13.541137],[-50.663129,-13.423573],[-50.569027,-13.228391],[-50.587914,-13.078633],[-50.495465,-12.95094],[-50.484019,-12.844797],[-50.595278,-12.807487],[-50.665662,-12.631218],[-50.612228,-12.431127],[-50.625354,-12.272532],[-50.67256,-12.191969],[-50.677392,-11.862738],[-50.707209,-11.711585],[-50.6499,-11.608232],[-50.742659,-11.501623],[-50.670855,-11.259312],[-50.66437,-11.142937],[-50.612926,-11.031213],[-50.635121,-10.936076],[-50.586312,-10.711594],[-50.481642,-10.40076],[-50.425986,-10.341022],[-50.377798,-10.104861],[-50.303952,-10.020835],[-50.235719,-9.843983],[-51.297716,-9.789376],[-55.09273,-9.565101],[-56.461613,-9.466864],[-56.678189,-9.377308],[-56.770095,-9.397876],[-56.837094,-9.273129],[-57.045479,-9.230392],[-57.103098,-9.051282],[-57.297763,-8.957489],[-57.481938,-8.792693],[-57.579555,-8.756313],[-57.680608,-8.435816],[-57.640326,-8.22942],[-57.781196,-8.046382],[-57.893696,-7.692553],[-58.058957,-7.410969],[-58.13549,-7.339138],[-58.208379,-7.417635],[-58.209775,-7.590906],[-58.378602,-7.818075],[-58.307934,-8.116093],[-58.34124,-8.256188],[-58.437074,-8.412613],[-58.418728,-8.541546],[-58.47211,-8.68965],[-58.545232,-8.748251],[-61.611298,-8.76856],[-61.486009,-8.914339],[-61.556496,-9.129417],[-61.530838,-9.224553],[-61.611298,-9.320051],[-61.561973,-9.374621],[-61.481358,-9.638068],[-61.542052,-9.75837],[-61.52027,-9.861827],[-61.5705,-10.060626],[-61.563239,-10.261647],[-61.471049,-10.434763],[-61.520038,-10.7904],[-61.521846,-10.952458],[-61.470299,-10.996848],[-60.441241,-11.003462],[-60.382459,-11.101648],[-60.278305,-11.081029],[-60.001629,-11.144332],[-59.911195,-11.384059],[-60.101416,-11.599757],[-60.101313,-11.744554],[-60.060127,-11.904906],[-59.983387,-11.916688],[-59.887192,-12.129699],[-59.889517,-12.243645],[-59.824069,-12.386634],[-59.909103,-12.618351],[-60.002017,-12.729404],[-60.083381,-12.928513],[-60.195157,-12.972024],[-60.270579,-13.068814],[-60.351169,-13.272058],[-60.383751,-13.420266],[-60.660685,-13.601598],[-60.725572,-13.662845]]]},"properties":{"LOCATION_TYPE":"level1","ADM0_A3":"BRA","LOCATION_ID":"BRA-MT","NAME":"Mato Grosso","TYPE_EN":"State"}},
{"type":"Feature","geometry":{"type":"MultiPolygon","coordinates":[[[[-46.084584,-1.210382],[-46.201154,-1.484095],[-46.201154,-1.679277],[-46.314041,-1.731884],[-46.215339,-1.806608],[-46.214176,-1.929133],[-46.280296,-2.140696],[-46.447573,-2.361148],[-46.426851,-2.510492],[-46.509016,-2.614982],[-46.666681,-2.738489],[-46.59839,-2.83409],[-46.645984,-2.892278],[-46.666681,-3.094178],[-46.817989,-3.319074],[-46.944623,-3.398242],[-46.968316,-3.525521],[-47.022938,-3.559679],[-47.065804,-3.841729],[-47.263156,-4.053137],[-47.310931,-4.06678],[-47.381366,-4.274933],[-47.456297,-4.338495],[-47.581354,-4.547061],[-47.654424,-4.605558],[-47.800669,-4.595843],[-48.253535,-4.952721],[-48.732601,-5.33864],[-48.723015,-5.355332],[-48.581835,-5.30071],[-48.498094,-5.186505],[-48.337845,-5.163767],[-48.153308,-5.257353],[-47.999597,-5.232445],[-47.864876,-5.280866],[-47.838521,-5.383237],[-47.723051,-5.391505],[-47.53686,-5.478838],[-47.468596,-5.588702],[-47.482858,-5.742957],[-47.413974,-5.869874],[-47.425549,-6.103813],[-47.37302,-6.233624],[-47.410201,-6.349845],[-47.407152,-6.479397],[-47.487639,-6.698351],[-47.482368,-6.888261],[-47.513787,-7.008823],[-47.639903,-7.158426],[-47.660419,-7.263484],[-47.512676,-7.280537],[-47.475417,-7.339965],[-47.514924,-7.444713],[-47.313463,-7.640774],[-47.208302,-7.81389],[-47.078955,-7.975895],[-46.983328,-8.040336],[-46.870415,-7.959824],[-46.57387,-7.906907],[-46.491446,-7.964061],[-46.466254,-8.06881],[-46.542967,-8.318355],[-46.501161,-8.397265],[-46.660144,-8.397317],[-46.791118,-8.436281],[-46.881655,-8.581698],[-46.921911,-8.742567],[-46.905013,-8.831037],[-47.063918,-8.976816],[-47.05751,-9.056191],[-46.94085,-9.070557],[-46.845688,-9.167761],[-46.829513,-9.308424],[-46.752748,-9.410846],[-46.558936,-9.497508],[-46.53612,-9.55523],[-46.660066,-9.757957],[-46.507621,-9.857641],[-46.47031,-10.00435],[-46.347553,-10.16956],[-46.087336,-10.208369],[-45.946053,-10.317716],[-45.949076,-10.16341],[-45.860244,-10.001095],[-45.837067,-9.533423],[-45.79645,-9.461179],[-45.895849,-9.328423],[-45.905694,-9.179388],[-45.981426,-8.929584],[-45.928328,-8.788817],[-45.82066,-8.699365],[-45.766322,-8.605883],[-45.735006,-8.432715],[-45.655141,-8.255568],[-45.577368,-8.151543],[-45.556904,-7.961891],[-45.472413,-7.674157],[-45.298392,-7.557781],[-45.025076,-7.492772],[-44.908106,-7.444403],[-44.816406,-7.363891],[-44.713984,-7.397998],[-44.655718,-7.32038],[-44.450485,-7.147729],[-44.306179,-7.110005],[-44.161614,-6.886659],[-44.038056,-6.767545],[-43.815537,-6.710133],[-43.674796,-6.701038],[-43.461321,-6.841649],[-43.198443,-6.754574],[-43.017937,-6.76739],[-42.926315,-6.68631],[-42.878979,-6.56115],[-42.85004,-6.254088],[-42.96422,-6.187374],[-43.07597,-6.054824],[-43.107906,-5.770965],[-43.10186,-5.623326],[-43.023182,-5.566688],[-42.91151,-5.39011],[-42.832315,-5.313525],[-42.805004,-5.160822],[-42.853296,-4.936443],[-42.946572,-4.794281],[-42.86296,-4.498692],[-42.965718,-4.372549],[-42.990626,-4.240103],[-42.89102,-4.142486],[-42.85004,-4.040735],[-42.733355,-3.923378],[-42.665091,-3.786849],[-42.675245,-3.698792],[-42.500604,-3.451055],[-42.455362,-3.478237],[-42.216565,-3.433847],[-42.004485,-3.233136],[-41.842712,-3.034026],[-41.815349,-2.936513],[-41.867852,-2.853624],[-41.842844,-2.765313],[-41.995623,-2.721435],[-42.004018,-2.812595],[-42.222239,-2.812433],[-42.264272,-2.759047],[-42.452992,-2.752211],[-42.630483,-2.642348],[-42.70995,-2.560317],[-43.311766,-2.346467],[-43.454401,-2.341449],[-43.476959,-2.537693],[-43.621978,-2.505304],[-43.738564,-2.517207],[-44.01415,-2.634698],[-44.062856,-2.777032],[-44.255442,-2.765313],[-44.137196,-2.67018],[-44.032704,-2.513279],[-44.072987,-2.399509],[-44.368072,-2.549574],[-44.370961,-2.667576],[-44.432973,-2.950291],[-44.613596,-3.111993],[-44.693593,-2.994887],[-44.64623,-2.768243],[-44.473948,-2.402114],[-44.395375,-2.402114],[-44.362457,-2.310317],[-44.398793,-2.197361],[-44.497304,-2.147882],[-44.554026,-2.216404],[-44.655426,-2.231134],[-44.490224,-1.995375],[-44.521718,-1.847263],[-44.707875,-1.813165],[-44.724965,-1.723403],[-44.919789,-1.580336],[-44.885365,-1.504571],[-45.091379,-1.464125],[-45.163197,-1.482843],[-45.247467,-1.579278],[-45.227895,-1.683038],[-45.284413,-1.732192],[-45.36559,-1.684747],[-45.340199,-1.583185],[-45.401275,-1.437921],[-45.496165,-1.48089],[-45.515452,-1.312188],[-45.598012,-1.271905],[-45.696034,-1.160577],[-45.809804,-1.275079],[-45.891835,-1.172052],[-45.955719,-1.219985],[-46.084584,-1.210382]]],[[[-43.627309,-2.252048],[-43.736608,-2.334071],[-43.634805,-2.399895],[-43.627309,-2.252048]]]]},"properties":{"LOCATION_TYPE":"level1","ADM0_A3":"BRA","LOCATION_ID":"BRA-MA","NAME":"Maranhão","TYPE_EN":"State"}},
{"type":"Feature","geometry":{"type":"Polygon","coordinates":[[[-41.842844,-2.765313],[-41.867852,-2.853624],[-41.815349,-2.936513],[-41.842712,-3.034026],[-42.004485,-3.233136],[-42.216565,-3.433847],[-42.455362,-3.478237],[-42.500604,-3.451055],[-42.675245,-3.698792],[-42.665091,-3.786849],[-42.733355,-3.923378],[-42.85004,-4.040735],[-42.89102,-4.142486],[-42.990626,-4.240103],[-42.965718,-4.372549],[-42.86296,-4.498692],[-42.946572,-4.794281],[-42.853296,-4.936443],[-42.805004,-5.160822],[-42.832315,-5.313525],[-42.91151,-5.39011],[-43.023182,-5.566688],[-43.10186,-5.623326],[-43.107906,-5.770965],[-43.07597,-6.054824],[-42.96422,-6.187374],[-42.85004,-6.254088],[-42.878979,-6.56115],[-42.926315,-6.68631],[-43.017937,-6.76739],[-43.198443,-6.754574],[-43.461321,-6.841649],[-43.674796,-6.701038],[-43.815537,-6.710133],[-44.038056,-6.767545],[-44.161614,-6.886659],[-44.306179,-7.110005],[-44.450485,-7.147729],[-44.655718,-7.32038],[-44.713984,-7.397998],[-44.816406,-7.363891],[-44.908106,-7.444403],[-45.025076,-7.492772],[-45.298392,-7.557781],[-45.472413,-7.674157],[-45.556904,-7.961891],[-45.577368,-8.151543],[-45.655141,-8.255568],[-45.735006,-8.432715],[-45.766322,-8.605883],[-45.82066,-8.699365],[-45.928328,-8.788817],[-45.981426,-8.929584],[-45.905694,-9.179388],[-45.895849,-9.328423],[-45.79645,-9.461179],[-45.837067,-9.533423],[-45.860244,-10.001095],[-45.949076,-10.16341],[-45.946053,-10.317716],[-45.757692,-10.33079],[-45.603387,-10.331565],[-45.471069,-10.486388],[-45.4381,-10.620385],[-45.315316,-10.781564],[-45.043989,-10.896234],[-44.783721,-10.856753],[-44.752689,-10.782701],[-44.647321,-10.735313],[-44.538025,-10.629635],[-44.419299,-10.590309],[-44.217347,-10.629583],[-44.118981,-10.588966],[-43.991754,-10.452953],[-43.914601,-10.430526],[-43.7512,-10.105016],[-43.701797,-10.0367],[-43.68278,-9.802089],[-43.724845,-9.749172],[-43.812979,-9.429088],[-43.695751,-9.446038],[-43.658182,-9.364803],[-43.536303,-9.360617],[-43.45003,-9.30398],[-43.379569,-9.412603],[-43.128551,-9.373278],[-42.941999,-9.448467],[-42.85048,-9.548874],[-42.752785,-9.521847],[-42.613517,-9.560553],[-42.575148,-9.485571],[-42.487711,-9.499988],[-42.431616,-9.409038],[-42.309815,-9.308424],[-42.149592,-9.295091],[-42.042648,-9.20781],[-41.85005,-9.252613],[-41.732667,-9.133292],[-41.742511,-8.988598],[-41.499968,-8.935475],[-41.370803,-8.711871],[-41.210916,-8.635028],[-41.082216,-8.524492],[-41.016406,-8.420519],[-40.923207,-8.434162],[-40.748928,-8.24544],[-40.590514,-8.124155],[-40.544109,-8.029432],[-40.545349,-7.832338],[-40.660458,-7.76025],[-40.620926,-7.637983],[-40.688183,-7.513546],[-40.689888,-7.429572],[-40.537701,-7.390195],[-40.581109,-7.195271],[-40.416339,-6.810747],[-40.478325,-6.735299],[-40.616456,-6.709048],[-40.720765,-6.639698],[-40.772028,-6.49366],[-40.805023,-6.255483],[-40.891064,-6.011157],[-40.948503,-5.41662],[-41.070304,-5.307066],[-41.055628,-5.206504],[-41.122678,-5.007601],[-41.185465,-4.91541],[-41.181331,-4.812781],[-41.227375,-4.724776],[-41.235746,-4.538431],[-41.07356,-4.326299],[-41.120508,-4.176902],[-41.229468,-4.044146],[-41.283934,-3.809586],[-41.35517,-3.709024],[-41.449377,-3.436792],[-41.426355,-3.319487],[-41.255538,-3.077073],[-41.248118,-3.012058],[-41.343088,-2.920343],[-41.675038,-2.879571],[-41.694056,-2.832882],[-41.842844,-2.765313]]]},"properties":{"LOCATION_TYPE":"level1","ADM0_A3":"BRA","LOCATION_ID":"BRA-PI","NAME":"Piauí","TYPE_EN":"State"}},
{"type":"Feature","geometry":{"type":"Polygon","coordinates":[[[-41.248118,-3.012058],[-41.255538,-3.077073],[-41.426355,-3.319487],[-41.449377,-3.436792],[-41.35517,-3.709024],[-41.283934,-3.809586],[-41.229468,-4.044146],[-41.120508,-4.176902],[-41.07356,-4.326299],[-41.235746,-4.538431],[-41.227375,-4.724776],[-41.181331,-4.812781],[-41.185465,-4.91541],[-41.122678,-5.007601],[-41.055628,-5.206504],[-41.070304,-5.307066],[-40.948503,-5.41662],[-40.891064,-6.011157],[-40.805023,-6.255483],[-40.772028,-6.49366],[-40.720765,-6.639698],[-40.616456,-6.709048],[-40.478325,-6.735299],[-40.416339,-6.810747],[-40.581109,-7.195271],[-40.537701,-7.390195],[-40.06357,-7.407351],[-39.847536,-7.34906],[-39.654241,-7.373348],[-39.535152,-7.474531],[-39.351236,-7.547549],[-39.246023,-7.680823],[-39.109235,-7.752911],[-39.073475,-7.853991],[-38.968029,-7.847944],[-38.818839,-7.666095],[-38.697141,-7.620206],[-38.638256,-7.533493],[-38.531829,-7.294386],[-38.676523,-7.157496],[-38.727501,-6.890277],[-38.618723,-6.75845],[-38.648669,-6.692356],[-38.525757,-6.381626],[-38.587045,-6.285456],[-38.493381,-6.126396],[-38.41566,-6.061749],[-38.299698,-6.074151],[-38.13901,-5.89473],[-38.077954,-5.76063],[-38.047543,-5.614024],[-37.915225,-5.46349],[-37.721258,-5.062895],[-37.540933,-4.930138],[-37.236392,-4.82989],[-37.324818,-4.696466],[-37.607249,-4.608087],[-37.710805,-4.515395],[-37.768625,-4.396417],[-37.854237,-4.375909],[-38.106679,-4.157892],[-38.251332,-3.961847],[-38.378041,-3.869724],[-38.457346,-3.718438],[-38.659657,-3.676446],[-38.807485,-3.547296],[-38.916331,-3.50506],[-38.985178,-3.395929],[-39.080556,-3.377048],[-39.358266,-3.183526],[-39.485463,-3.145766],[-39.985707,-2.848403],[-40.499623,-2.78631],[-40.581614,-2.827325],[-41.137766,-2.885837],[-41.256907,-2.875177],[-41.248118,-3.012058]]]},"properties":{"LOCATION_TYPE":"level1","ADM0_A3":"BRA","LOCATION_ID":"BRA-CE","NAME":"Ceará","TYPE_EN":"State"}},
{"type":"Feature","geometry":{"type":"Polygon","coordinates":[[[-37.236392,-4.82989],[-37.540933,-4.930138],[-37.721258,-5.062895],[-37.915225,-5.46349],[-38.047543,-5.614024],[-38.077954,-5.76063],[-38.13901,-5.89473],[-38.299698,-6.074151],[-38.41566,-6.061749],[-38.493381,-6.126396],[-38.587045,-6.285456],[-38.525757,-6.381626],[-38.282231,-6.505442],[-38.130251,-6.519757],[-37.792287,-6.291554],[-37.758465,-6.175798],[-37.474064,-6.085571],[-37.424454,-6.097509],[-37.260666,-6.0248],[-37.175426,-6.116836],[-37.395205,-6.390876],[-37.430242,-6.517948],[-37.507007,-6.553708],[-37.515379,-6.680522],[-37.335571,-6.699436],[-37.218963,-6.823976],[-37.043806,-6.754368],[-36.790953,-6.768579],[-36.742635,-6.824493],[-36.771368,-6.930894],[-36.711397,-6.976008],[-36.575204,-6.926709],[-36.501513,-6.783203],[-36.534974,-6.638303],[-36.442757,-6.6228],[-36.51513,-6.480121],[-36.507844,-6.405914],[-36.383484,-6.302819],[-36.277031,-6.327779],[-36.252019,-6.413665],[-35.92514,-6.465807],[-35.669988,-6.425861],[-35.466383,-6.464411],[-35.306031,-6.528438],[-35.256886,-6.506321],[-35.047829,-6.536035],[-34.963285,-6.503335],[-35.038197,-6.236505],[-35.092844,-6.185805],[-35.105051,-5.995538],[-35.14745,-5.921075],[-35.195668,-5.689548],[-35.262278,-5.483331],[-35.420522,-5.211521],[-35.510569,-5.143731],[-35.997182,-5.04754],[-36.131215,-5.09588],[-36.422353,-5.080987],[-36.589996,-5.10296],[-36.790883,-5.051202],[-36.898752,-4.938246],[-37.134918,-4.93141],[-37.236392,-4.82989]]]},"properties":{"LOCATION_TYPE":"level1","ADM0_A3":"BRA","LOCATION_ID":"BRA-RN","NAME":"Rio Grande do Norte","TYPE_EN":"State"}},
{"type":"Feature","geometry":{"type":"Polygon","coordinates":[[[-34.963285,-6.503335],[-35.047829,-6.536035],[-35.256886,-6.506321],[-35.306031,-6.528438],[-35.466383,-6.464411],[-35.669988,-6.425861],[-35.92514,-6.465807],[-36.252019,-6.413665],[-36.277031,-6.327779],[-36.383484,-6.302819],[-36.507844,-6.405914],[-36.51513,-6.480121],[-36.442757,-6.6228],[-36.534974,-6.638303],[-36.501513,-6.783203],[-36.575204,-6.926709],[-36.711397,-6.976008],[-36.771368,-6.930894],[-36.742635,-6.824493],[-36.790953,-6.768579],[-37.043806,-6.754368],[-37.218963,-6.823976],[-37.335571,-6.699436],[-37.515379,-6.680522],[-37.507007,-6.553708],[-37.430242,-6.517948],[-37.395205,-6.390876],[-37.175426,-6.116836],[-37.260666,-6.0248],[-37.424454,-6.097509],[-37.474064,-6.085571],[-37.758465,-6.175798],[-37.792287,-6.291554],[-38.130251,-6.519757],[-38.282231,-6.505442],[-38.525757,-6.381626],[-38.648669,-6.692356],[-38.618723,-6.75845],[-38.727501,-6.890277],[-38.676523,-7.157496],[-38.531829,-7.294386],[-38.638256,-7.533493],[-38.697141,-7.620206],[-38.525627,-7.767691],[-38.353958,-7.699685],[-38.255308,-7.84965],[-38.06395,-7.758958],[-37.977909,-7.773014],[-37.897449,-7.684285],[-37.790969,-7.637156],[-37.707434,-7.54879],[-37.552069,-7.477941],[-37.436159,-7.346528],[-37.254387,-7.26984],[-37.022773,-7.394432],[-37.014092,-7.507345],[-37.196975,-7.573077],[-37.21426,-7.646768],[-37.166434,-7.763195],[-37.341049,-7.999873],[-37.150182,-7.977962],[-37.128581,-8.165134],[-36.9627,-8.283525],[-36.782039,-8.222547],[-36.628766,-8.083021],[-36.653235,-7.998995],[-36.568512,-7.924581],[-36.44746,-7.909336],[-36.424283,-7.826085],[-36.26605,-7.824897],[-36.122157,-7.782057],[-36.055675,-7.830478],[-35.556015,-7.653899],[-35.498422,-7.456185],[-35.374089,-7.458201],[-35.26996,-7.381048],[-35.064082,-7.408436],[-34.978402,-7.510911],[-34.893381,-7.542901],[-34.8155,-7.542576],[-34.797353,-7.158461],[-34.859364,-7.071466],[-34.860097,-6.914646],[-34.904164,-6.887302],[-34.96996,-6.617283],[-34.963285,-6.503335]]]},"properties":{"LOCATION_TYPE":"level1","ADM0_A3":"BRA","LOCATION_ID":"BRA-PB","NAME":"Paraíba","TYPE_EN":"State"}},
{"type":"Feature","geometry":{"type":"Polygon","coordinates":[[[-34.893381,-7.542901],[-34.978402,-7.510911],[-35.064082,-7.408436],[-35.26996,-7.381048],[-35.374089,-7.458201],[-35.498422,-7.456185],[-35.556015,-7.653899],[-36.055675,-7.830478],[-36.122157,-7.782057],[-36.26605,-7.824897],[-36.424283,-7.826085],[-36.44746,-7.909336],[-36.568512,-7.924581],[-36.653235,-7.998995],[-36.628766,-8.083021],[-36.782039,-8.222547],[-36.9627,-8.283525],[-37.128581,-8.165134],[-37.150182,-7.977962],[-37.341049,-7.999873],[-37.166434,-7.763195],[-37.21426,-7.646768],[-37.196975,-7.573077],[-37.014092,-7.507345],[-37.022773,-7.394432],[-37.254387,-7.26984],[-37.436159,-7.346528],[-37.552069,-7.477941],[-37.707434,-7.54879],[-37.790969,-7.637156],[-37.897449,-7.684285],[-37.977909,-7.773014],[-38.06395,-7.758958],[-38.255308,-7.84965],[-38.353958,-7.699685],[-38.525627,-7.767691],[-38.697141,-7.620206],[-38.818839,-7.666095],[-38.968029,-7.847944],[-39.073475,-7.853991],[-39.109235,-7.752911],[-39.246023,-7.680823],[-39.351236,-7.547549],[-39.535152,-7.474531],[-39.654241,-7.373348],[-39.847536,-7.34906],[-40.06357,-7.407351],[-40.537701,-7.390195],[-40.689888,-7.429572],[-40.688183,-7.513546],[-40.620926,-7.637983],[-40.660458,-7.76025],[-40.545349,-7.832338],[-40.544109,-8.029432],[-40.590514,-8.124155],[-40.748928,-8.24544],[-40.923207,-8.434162],[-41.016406,-8.420519],[-41.082216,-8.524492],[-41.210916,-8.635028],[-41.370803,-8.711871],[-41.159679,-8.708615],[-41.101129,-8.773831],[-40.997027,-8.774865],[-40.889127,-8.856927],[-40.893028,-9.036244],[-40.853134,-9.151792],[-40.705029,-9.216956],[-40.693893,-9.353124],[-40.742417,-9.42237],[-40.621546,-9.486346],[-40.406701,-9.357516],[-40.328179,-9.351315],[-40.273014,-9.104043],[-40.211493,-9.063322],[-40.113928,-9.103372],[-39.968511,-9.042859],[-39.89619,-8.974594],[-39.89619,-8.830572],[-39.689975,-8.782409],[-39.69075,-8.658644],[-39.605432,-8.641798],[-39.403248,-8.534052],[-39.272404,-8.576685],[-39.221218,-8.677351],[-39.028697,-8.733213],[-38.967668,-8.789386],[-38.855297,-8.768508],[-38.706107,-8.841217],[-38.656395,-8.966481],[-38.527849,-8.819151],[-38.512062,-8.946637],[-38.409665,-9.034022],[-38.287399,-9.013455],[-38.314064,-9.131587],[-38.235196,-9.330374],[-38.090564,-9.184814],[-37.968168,-9.142491],[-37.814198,-8.97754],[-37.74875,-8.862094],[-37.68188,-8.977695],[-37.5191,-8.943743],[-37.181575,-9.241761],[-36.998434,-9.306408],[-36.831002,-9.263982],[-36.578718,-9.292973],[-36.438416,-9.208792],[-36.34576,-9.20104],[-36.237395,-9.086629],[-36.121846,-9.015005],[-36.014179,-8.894496],[-35.801143,-8.870208],[-35.740371,-8.91651],[-35.472455,-8.834137],[-35.391994,-8.883643],[-35.148339,-8.91357],[-35.127349,-8.806248],[-34.939931,-8.350763],[-34.932118,-8.24212],[-34.851186,-8.068617],[-34.811635,-7.905857],[-34.893525,-7.804927],[-34.899998,-7.718045],[-34.805304,-7.622716],[-34.893381,-7.542901]]]},"properties":{"LOCATION_TYPE":"level1","ADM0_A3":"BRA","LOCATION_ID":"BRA-PE","NAME":"Pernambuco","TYPE_EN":"State"}},
{"type":"Feature","geometry":{"type":"Polygon","coordinates":[[[-35.148339,-8.91357],[-35.391994,-8.883643],[-35.472455,-8.834137],[-35.740371,-8.91651],[-35.801143,-8.870208],[-36.014179,-8.894496],[-36.121846,-9.015005],[-36.237395,-9.086629],[-36.34576,-9.20104],[-36.438416,-9.208792],[-36.578718,-9.292973],[-36.831002,-9.263982],[-36.998434,-9.306408],[-37.181575,-9.241761],[-37.5191,-8.943743],[-37.68188,-8.977695],[-37.74875,-8.862094],[-37.814198,-8.97754],[-37.968168,-9.142491],[-38.090564,-9.184814],[-38.235196,-9.330374],[-38.197895,-9.412758],[-38.012403,-9.477974],[-37.997107,-9.526808],[-37.76955,-9.63166],[-37.676299,-9.646129],[-37.566125,-9.727468],[-37.46993,-9.734909],[-37.29702,-9.804673],[-37.215113,-9.896605],[-36.982983,-9.966678],[-36.936112,-10.10145],[-36.823897,-10.213847],[-36.687109,-10.274153],[-36.620395,-10.253637],[-36.558745,-10.351874],[-36.463169,-10.406496],[-36.40807,-10.50213],[-36.291982,-10.351983],[-36.251047,-10.248224],[-36.036285,-10.064142],[-35.949371,-9.913181],[-35.88268,-9.855645],[-35.853179,-9.731215],[-35.58259,-9.532892],[-35.482045,-9.367852],[-35.305084,-9.193048],[-35.148339,-8.91357]]]},"properties":{"LOCATION_TYPE":"level1","ADM0_A3":"BRA","LOCATION_ID":"BRA-AL","NAME":"Alagoas","TYPE_EN":"State"}},
{"type":"Feature","geometry":{"type":"Polygon","coordinates":[[[-36.40807,-10.50213],[-36.463169,-10.406496],[-36.558745,-10.351874],[-36.620395,-10.253637],[-36.687109,-10.274153],[-36.823897,-10.213847],[-36.936112,-10.10145],[-36.982983,-9.966678],[-37.215113,-9.896605],[-37.29702,-9.804673],[-37.46993,-9.734909],[-37.566125,-9.727468],[-37.676299,-9.646129],[-37.76955,-9.63166],[-37.997107,-9.526808],[-38.045062,-9.605873],[-38.029999,-9.726538],[-37.963905,-9.873557],[-37.780841,-10.08078],[-37.783916,-10.305004],[-37.83616,-10.422929],[-37.815671,-10.677901],[-37.971036,-10.753245],[-38.109374,-10.70653],[-38.191152,-10.715935],[-38.233061,-10.897526],[-38.109425,-11.02806],[-38.069273,-11.158595],[-37.980829,-11.237763],[-38.005969,-11.357394],[-37.849183,-11.440852],[-37.795905,-11.523741],[-37.659453,-11.559139],[-37.482776,-11.518331],[-37.316029,-11.406427],[-37.285756,-11.317071],[-37.172475,-11.203546],[-37.039662,-10.949151],[-36.903066,-10.772882],[-36.576568,-10.55047],[-36.40807,-10.50213]]]},"properties":{"LOCATION_TYPE":"level1","ADM0_A3":"BRA","LOCATION_ID":"BRA-SE","NAME":"Sergipe","TYPE_EN":"State"}},
{"type":"Feature","geometry":{"type":"Polygon","coordinates":[[[-37.482776,-11.518331],[-37.659453,-11.559139],[-37.795905,-11.523741],[-37.849183,-11.440852],[-38.005969,-11.357394],[-37.980829,-11.237763],[-38.069273,-11.158595],[-38.109425,-11.02806],[-38.233061,-10.897526],[-38.191152,-10.715935],[-38.109374,-10.70653],[-37.971036,-10.753245],[-37.815671,-10.677901],[-37.83616,-10.422929],[-37.783916,-10.305004],[-37.780841,-10.08078],[-37.963905,-9.873557],[-38.029999,-9.726538],[-38.045062,-9.605873],[-37.997107,-9.526808],[-38.012403,-9.477974],[-38.197895,-9.412758],[-38.235196,-9.330374],[-38.314064,-9.131587],[-38.287399,-9.013455],[-38.409665,-9.034022],[-38.512062,-8.946637],[-38.527849,-8.819151],[-38.656395,-8.966481],[-38.706107,-8.841217],[-38.855297,-8.768508],[-38.967668,-8.789386],[-39.028697,-8.733213],[-39.221218,-8.677351],[-39.272404,-8.576685],[-39.403248,-8.534052],[-39.605432,-8.641798],[-39.69075,-8.658644],[-39.689975,-8.782409],[-39.89619,-8.830572],[-39.89619,-8.974594],[-39.968511,-9.042859],[-40.113928,-9.103372],[-40.211493,-9.063322],[-40.273014,-9.104043],[-40.328179,-9.351315],[-40.406701,-9.357516],[-40.621546,-9.486346],[-40.742417,-9.42237],[-40.693893,-9.353124],[-40.705029,-9.216956],[-40.853134,-9.151792],[-40.893028,-9.036244],[-40.889127,-8.856927],[-40.997027,-8.774865],[-41.101129,-8.773831],[-41.159679,-8.708615],[-41.370803,-8.711871],[-41.499968,-8.935475],[-41.742511,-8.988598],[-41.732667,-9.133292],[-41.85005,-9.252613],[-42.042648,-9.20781],[-42.149592,-9.295091],[-42.309815,-9.308424],[-42.431616,-9.409038],[-42.487711,-9.499988],[-42.575148,-9.485571],[-42.613517,-9.560553],[-42.752785,-9.521847],[-42.85048,-9.548874],[-42.941999,-9.448467],[-43.128551,-9.373278],[-43.379569,-9.412603],[-43.45003,-9.30398],[-43.536303,-9.360617],[-43.658182,-9.364803],[-43.695751,-9.446038],[-43.812979,-9.429088],[-43.724845,-9.749172],[-43.68278,-9.802089],[-43.701797,-10.0367],[-43.7512,-10.105016],[-43.914601,-10.430526],[-43.991754,-10.452953],[-44.118981,-10.588966],[-44.217347,-10.629583],[-44.419299,-10.590309],[-44.538025,-10.629635],[-44.647321,-10.735313],[-44.752689,-10.782701],[-44.783721,-10.856753],[-45.043989,-10.896234],[-45.315316,-10.781564],[-45.4381,-10.620385],[-45.471069,-10.486388],[-45.603387,-10.331565],[-45.757692,-10.33079],[-45.857996,-10.46825],[-46.088809,-10.58571],[-46.30244,-10.758258],[-46.234252,-10.882281],[-46.370291,-10.969769],[-46.463748,-11.179266],[-46.570692,-11.316105],[-46.427419,-11.499918],[-46.190793,-11.544825],[-46.085166,-11.600997],[-46.104803,-11.666058],[-46.244588,-11.725951],[-46.249988,-11.843721],[-46.157074,-11.83566],[-46.076846,-11.928057],[-46.214331,-12.000559],[-46.33913,-12.130164],[-46.345228,-12.342037],[-46.317064,-12.423582],[-46.159554,-12.503009],[-46.160097,-12.602641],[-46.234046,-12.712195],[-46.233529,-12.796635],[-46.087181,-12.916317],[-46.15095,-13.027835],[-46.175548,-13.215989],[-46.083151,-13.251594],[-46.097878,-13.350296],[-46.186555,-13.404815],[-46.272441,-13.656892],[-46.259651,-13.868559],[-46.223039,-13.99775],[-46.128523,-14.18394],[-45.920473,-14.350752],[-45.963571,-14.535237],[-45.912463,-14.691403],[-46.022999,-14.868808],[-45.977266,-14.983788],[-46.038089,-15.147344],[-45.714646,-15.124658],[-45.553312,-14.935677],[-45.461897,-14.939915],[-45.320458,-14.855837],[-45.22434,-14.740444],[-45.102099,-14.71905],[-44.881725,-14.598333],[-44.836302,-14.51901],[-44.562778,-14.345481],[-44.320803,-14.245693],[-43.837706,-14.315818],[-43.823754,-14.394418],[-43.882768,-14.561695],[-43.866516,-14.659622],[-43.706371,-14.736413],[-43.49243,-14.788554],[-43.385848,-14.701221],[-43.228286,-14.637246],[-42.953006,-14.679465],[-42.890891,-14.749487],[-42.630752,-14.939088],[-42.580445,-14.931181],[-42.429575,-15.032519],[-42.260076,-15.107811],[-42.176955,-15.105899],[-42.087296,-15.18176],[-41.938339,-15.17096],[-41.801422,-15.10962],[-41.360596,-15.49523],[-41.330986,-15.716818],[-41.15756,-15.781052],[-40.944911,-15.673513],[-40.830758,-15.68235],[-40.761822,-15.738005],[-40.669373,-15.71656],[-40.535505,-15.797743],[-40.236867,-15.818156],[-40.00471,-15.993804],[-39.93505,-16.00109],[-39.865571,-16.110954],[-39.94058,-16.313216],[-40.057188,-16.394968],[-40.137441,-16.544261],[-40.252628,-16.565449],[-40.295416,-16.879176],[-40.470832,-16.869099],[-40.525169,-16.930542],[-40.574107,-17.134458],[-40.563229,-17.261788],[-40.49127,-17.548696],[-40.207049,-17.76584],[-40.206843,-17.978541],[-40.184493,-18.00934],[-39.672609,-18.32322],[-39.624989,-18.192641],[-39.499094,-18.005629],[-39.382395,-17.903253],[-39.275054,-17.866876],[-39.137115,-17.67962],[-39.183746,-17.600844],[-39.217356,-17.295099],[-39.208608,-17.162205],[-39.123606,-16.897882],[-39.135976,-16.800226],[-39.054067,-16.436456],[-38.864369,-15.843357],[-38.923899,-15.71559],[-39.00182,-15.232029],[-39.022694,-14.815851],[-39.067128,-14.674981],[-38.985178,-14.312595],[-38.989247,-14.212335],[-38.923695,-14.004083],[-38.929921,-13.897638],[-39.01122,-13.832452],[-38.967844,-13.674005],[-39.062489,-13.399998],[-38.841786,-13.161228],[-38.889272,-13.069757],[-38.800893,-13.024021],[-38.736318,-12.882745],[-38.827504,-12.866957],[-38.738149,-12.736586],[-38.62621,-12.702407],[-38.508901,-12.722914],[-38.475657,-12.851658],[-38.509674,-13.021417],[-38.320424,-12.935235],[-38.050893,-12.641046],[-37.78671,-12.264634],[-37.654652,-12.049737],[-37.434722,-11.569268],[-37.482776,-11.518331]]]},"properties":{"LOCATION_TYPE":"level1","ADM0_A3":"BRA","LOCATION_ID":"BRA-BA","NAME":"Bahia","TYPE_EN":"State"}},
{"type":"Feature","geometry":{"type":"Polygon","coordinates":[[[-39.672609,-18.32322],[-40.184493,-18.00934],[-40.206843,-17.978541],[-40.427191,-17.893946],[-40.666194,-17.956475],[-40.911063,-17.971771],[-40.777247,-18.093572],[-40.912639,-18.102822],[-41.058909,-18.178838],[-41.142987,-18.296919],[-41.002375,-18.452723],[-41.028679,-18.638242],[-40.926928,-18.693381],[-40.931889,-18.807379],[-41.09082,-18.829393],[-41.029686,-18.968971],[-41.050796,-19.03429],[-40.943103,-19.145704],[-40.925946,-19.295721],[-40.957055,-19.460156],[-41.156836,-19.660453],[-41.185284,-19.865092],[-41.304993,-19.953614],[-41.366203,-20.186778],[-41.405503,-20.212926],[-41.715924,-20.207707],[-41.855863,-20.358344],[-41.796306,-20.426918],[-41.811473,-20.647318],[-41.86439,-20.776871],[-41.74171,-20.82183],[-41.725432,-21.084191],[-41.566346,-21.165995],[-41.389458,-21.187544],[-41.264685,-21.231934],[-41.067927,-21.214105],[-40.965119,-21.274029],[-40.814613,-21.036612],[-40.801109,-20.930996],[-40.731725,-20.843838],[-40.583424,-20.801972],[-40.483632,-20.648207],[-40.348744,-20.500095],[-40.28246,-20.314223],[-40.190989,-20.189874],[-40.146474,-20.023045],[-40.026845,-19.764418],[-39.834869,-19.657159],[-39.709788,-19.416111],[-39.698069,-19.239923],[-39.741078,-18.902114],[-39.744862,-18.681736],[-39.672609,-18.32322]]]},"properties":{"LOCATION_TYPE":"level1","ADM0_A3":"BRA","LOCATION_ID":"BRA-ES","NAME":"Espírito Santo","TYPE_EN":"State"}},
{"type":"Feature","geometry":{"type":"MultiPolygon","coordinates":[[[[-40.965119,-21.274029],[-41.067927,-21.214105],[-41.264685,-21.231934],[-41.389458,-21.187544],[-41.566346,-21.165995],[-41.725432,-21.084191],[-41.74171,-20.82183],[-41.86439,-20.776871],[-41.961697,-20.908491],[-42.096133,-20.922547],[-42.095332,-21.001198],[-42.181115,-21.163101],[-42.220751,-21.337147],[-42.295397,-21.406135],[-42.366582,-21.59372],[-42.280256,-21.71361],[-42.887092,-21.959848],[-42.951533,-22.005943],[-43.131341,-22.027751],[-43.343059,-22.001499],[-43.462329,-22.056121],[-43.813754,-22.064131],[-44.09353,-22.172186],[-44.21727,-22.249804],[-44.443328,-22.25523],[-44.831341,-22.406074],[-44.771654,-22.423179],[-44.637141,-22.599395],[-44.540377,-22.621203],[-44.215461,-22.590559],[-44.166291,-22.667143],[-44.273597,-22.820261],[-44.35907,-22.857623],[-44.585645,-22.877208],[-44.795296,-22.988106],[-44.805037,-23.13714],[-44.862166,-23.205198],[-44.816923,-23.29558],[-44.727569,-23.352065],[-44.583811,-23.353204],[-44.510569,-23.27337],[-44.714101,-23.186619],[-44.673207,-23.05934],[-44.435658,-22.996759],[-44.302602,-22.995294],[-44.190989,-23.048761],[-44.056223,-22.939548],[-43.864369,-22.896173],[-43.734039,-22.939548],[-43.542226,-23.049412],[-43.220123,-22.995294],[-43.162099,-22.895685],[-43.24059,-22.843927],[-43.270172,-22.747003],[-43.075551,-22.665704],[-43.034535,-22.775567],[-43.121449,-22.929946],[-43.031402,-22.974298],[-42.695668,-22.966892],[-42.624257,-22.939548],[-42.058217,-22.95379],[-41.989613,-22.826349],[-41.966298,-22.535414],[-41.666493,-22.281834],[-41.465728,-22.202569],[-41.243695,-22.145213],[-40.995269,-22.014255],[-40.967275,-21.947524],[-41.024729,-21.71919],[-41.018544,-21.608087],[-41.071868,-21.523339],[-40.963503,-21.364503],[-40.965119,-21.274029]]],[[[-44.100901,-23.149021],[-44.2412,-23.069757],[-44.230824,-23.193536],[-44.100901,-23.149021]]]]},"properties":{"LOCATION_TYPE":"level1","ADM0_A3":"BRA","LOCATION_ID":"BRA-RJ","NAME":"Rio de Janeiro","TYPE_EN":"State"}},
{"type":"Feature","geometry":{"type":"MultiPolygon","coordinates":[[[[-44.727569,-23.352065],[-44.816923,-23.29558],[-44.862166,-23.205198],[-44.805037,-23.13714],[-44.795296,-22.988106],[-44.585645,-22.877208],[-44.35907,-22.857623],[-44.273597,-22.820261],[-44.166291,-22.667143],[-44.215461,-22.590559],[-44.540377,-22.621203],[-44.637141,-22.599395],[-44.771654,-22.423179],[-44.831341,-22.406074],[-45.057477,-22.465864],[-45.411021,-22.647661],[-45.583129,-22.616759],[-45.80402,-22.700113],[-45.725395,-22.750549],[-45.780404,-22.846047],[-45.963106,-22.8338],[-46.122373,-22.892918],[-46.359878,-22.844187],[-46.41295,-22.556659],[-46.641359,-22.41088],[-46.697997,-22.322513],[-46.60069,-22.132551],[-46.690995,-22.059997],[-46.618286,-21.984601],[-46.668541,-21.812518],[-46.560382,-21.673922],[-46.492402,-21.524836],[-46.507621,-21.458948],[-46.813855,-21.35973],[-46.89354,-21.405825],[-46.994749,-21.344692],[-47.055494,-21.196845],[-47.124922,-21.130751],[-47.147478,-20.976394],[-47.220936,-20.914434],[-47.210472,-20.807774],[-47.110116,-20.632177],[-47.15337,-20.524948],[-47.286953,-20.445677],[-47.234631,-20.20595],[-47.30411,-20.12027],[-47.438649,-20.036038],[-47.468596,-19.958885],[-47.65259,-20.029216],[-47.715196,-19.975111],[-47.841622,-19.9794],[-48.083442,-20.148382],[-48.168114,-20.102907],[-48.620334,-20.153033],[-48.843886,-20.16404],[-48.888509,-20.260778],[-48.867012,-20.407333],[-48.969434,-20.400512],[-48.970933,-20.230548],[-49.041652,-20.143421],[-49.149268,-20.295247],[-49.216448,-20.294058],[-49.291637,-20.16466],[-49.272982,-19.968393],[-49.384784,-19.98002],[-49.546738,-19.929894],[-49.882221,-19.931135],[-50.338421,-19.869278],[-50.42547,-19.791918],[-50.557503,-19.807938],[-50.655636,-19.915373],[-50.87136,-19.994438],[-50.993962,-20.101667],[-51.029102,-20.189258],[-51.137209,-20.297262],[-51.326422,-20.362426],[-51.620229,-20.69977],[-51.631985,-20.876968],[-51.874864,-21.171731],[-51.851584,-21.298648],[-51.965169,-21.466648],[-52.070537,-21.480291],[-52.106349,-21.550261],[-52.043614,-21.666119],[-52.152651,-21.739345],[-52.208255,-21.853549],[-52.313726,-21.940056],[-52.36933,-22.098909],[-52.518908,-22.223346],[-52.676185,-22.293781],[-52.842635,-22.420647],[-52.96702,-22.458887],[-53.167964,-22.701715],[-52.947228,-22.570767],[-52.693858,-22.603685],[-52.614742,-22.569526],[-52.217143,-22.643837],[-52.139706,-22.54157],[-52.066661,-22.521726],[-51.874942,-22.610351],[-51.74451,-22.617947],[-51.547003,-22.685333],[-51.355051,-22.650142],[-51.110725,-22.767189],[-50.880145,-22.822069],[-50.785525,-22.94356],[-50.627757,-22.921598],[-50.291292,-22.953276],[-49.969968,-22.912141],[-49.908524,-23.035803],[-49.769721,-23.096316],[-49.638127,-23.259252],[-49.615286,-23.408235],[-49.654354,-23.506162],[-49.552629,-23.711679],[-49.601825,-23.864435],[-49.410338,-24.085868],[-49.227791,-24.338462],[-49.300603,-24.591935],[-49.218127,-24.68981],[-48.829288,-24.662267],[-48.780841,-24.695547],[-48.613151,-24.680354],[-48.487603,-24.745673],[-48.543517,-24.810217],[-48.566177,-25.057695],[-48.51109,-25.083533],[-48.414249,-24.959872],[-48.230229,-25.013563],[-48.149536,-25.222646],[-48.082104,-25.307319],[-47.951772,-25.201349],[-47.887074,-25.057306],[-47.8933,-24.961114],[-47.825551,-24.894138],[-47.540761,-24.703383],[-47.442047,-24.680434],[-47.181386,-24.53338],[-47.049794,-24.42783],[-46.966461,-24.299086],[-46.593414,-24.089532],[-46.406728,-24.008966],[-46.363759,-23.89422],[-46.23412,-23.986017],[-46.079742,-23.827813],[-45.864369,-23.756443],[-45.717519,-23.770766],[-45.509267,-23.837579],[-45.406606,-23.820408],[-45.433502,-23.664727],[-45.301747,-23.574151],[-45.251943,-23.59059],[-45.08019,-23.497654],[-44.919301,-23.34881],[-44.844472,-23.385186],[-44.727569,-23.352065]]],[[[-45.213735,-23.906508],[-45.228098,-23.772393],[-45.324696,-23.725274],[-45.447377,-23.877211],[-45.385732,-23.938084],[-45.213735,-23.906508]]]]},"properties":{"LOCATION_TYPE":"level1","ADM0_A3":"BRA","LOCATION_ID":"BRA-SP","NAME":"São Paulo","TYPE_EN":"State"}},
{"type":"Feature","geometry":{"type":"Polygon","coordinates":[[[-46.233529,-12.796635],[-46.434059,-12.845521],[-46.646501,-12.924792],[-46.827653,-13.069279],[-47.092236,-13.095479],[-47.441724,-13.249113],[-47.555645,-13.243222],[-47.640291,-13.113618],[-47.720906,-13.15284],[-47.681348,-13.354223],[-48.002517,-13.24932],[-48.173152,-13.172064],[-48.225087,-13.094136],[-48.36681,-13.188032],[-48.656637,-13.177645],[-48.684594,-13.337532],[-48.773167,-13.352001],[-48.768,-13.097185],[-48.824017,-12.873581],[-49.06116,-12.680104],[-49.137822,-12.734933],[-49.296495,-13.002824],[-49.383543,-13.24808],[-49.684481,-13.175836],[-50.239538,-12.933164],[-50.275117,-12.787746],[-50.2006,-12.654628],[-50.203209,-12.571687],[-50.136934,-12.478049],[-50.150318,-12.399863],[-50.351159,-12.542387],[-50.446476,-12.700413],[-50.484019,-12.844797],[-50.495465,-12.95094],[-50.587914,-13.078633],[-50.569027,-13.228391],[-50.663129,-13.423573],[-50.758085,-13.541137],[-50.795835,-13.675909],[-50.863298,-13.711928],[-50.846064,-13.859567],[-50.856193,-14.10348],[-50.959649,-14.235823],[-50.997709,-14.399483],[-50.969907,-14.518545],[-51.033494,-14.647116],[-51.10026,-14.887876],[-51.255238,-15.015362],[-51.350736,-14.981359],[-51.513698,-15.06275],[-51.657358,-15.209717],[-51.679191,-15.378854],[-51.773914,-15.610571],[-51.882745,-15.804771],[-51.966771,-15.800741],[-52.053019,-15.874793],[-52.250061,-15.913344],[-52.328558,-16.038091],[-52.539113,-16.169452],[-52.546916,-16.241127],[-52.669519,-16.291305],[-52.615543,-16.426077],[-52.632415,-16.528913],[-52.809252,-16.745386],[-53.01942,-16.867859],[-53.046757,-17.057822],[-53.203259,-17.282046],[-53.189642,-17.362557],[-53.243334,-17.563269],[-53.230957,-17.652101],[-53.148611,-17.778656],[-53.053836,-18.016626],[-53.056704,-18.293147],[-52.987639,-18.38787],[-52.909401,-18.346115],[-52.783439,-18.39159],[-52.786462,-18.461974],[-52.892864,-18.637828],[-52.869558,-18.680513],[-52.615568,-18.722629],[-52.496403,-18.70506],[-52.365842,-18.803813],[-52.173606,-18.848823],[-52.059763,-18.944683],[-51.913001,-18.988298],[-51.842076,-19.048139],[-51.643121,-19.128806],[-51.406676,-19.169217],[-51.31079,-19.252933],[-51.138191,-19.284352],[-50.961173,-19.47354],[-50.881152,-19.410856],[-50.843997,-19.294791],[-50.653828,-19.110254],[-50.545359,-19.109169],[-50.493062,-19.038889],[-50.502054,-18.930575],[-50.323486,-18.714568],[-49.99162,-18.613799],[-49.797808,-18.622791],[-49.488783,-18.499646],[-49.361452,-18.624444],[-49.131879,-18.407197],[-48.952329,-18.326323],[-48.818048,-18.351954],[-48.614236,-18.340792],[-48.216225,-18.359758],[-48.128659,-18.408023],[-47.899112,-18.449054],[-47.650238,-18.321052],[-47.552079,-18.207777],[-47.432681,-18.165816],[-47.277703,-18.059931],[-47.347337,-17.88051],[-47.326537,-17.743878],[-47.270313,-17.670497],[-47.288245,-17.548128],[-47.530504,-17.454903],[-47.500093,-17.329795],[-47.31274,-17.143139],[-47.210472,-17.075702],[-47.151225,-16.977516],[-47.266515,-16.661825],[-47.404052,-16.569014],[-47.453093,-16.492585],[-47.34881,-16.301434],[-47.302482,-16.040054],[-48.182402,-16.039486],[-48.2779,-15.839395],[-48.179353,-15.489855],[-47.422965,-15.49833],[-47.307055,-15.590159],[-47.307288,-15.710152],[-47.349533,-15.832263],[-47.358809,-15.98383],[-47.302482,-16.040054],[-47.22967,-16.032716],[-47.129288,-15.921302],[-47.078077,-15.937632],[-46.862948,-15.881201],[-46.831916,-15.84389],[-46.867857,-15.590728],[-46.930463,-15.545717],[-46.936587,-15.431771],[-46.854809,-15.323767],[-46.929921,-15.228631],[-46.890905,-15.049469],[-46.735126,-15.018825],[-46.636709,-15.068951],[-46.547722,-15.039185],[-46.581001,-14.795634],[-46.516819,-14.713313],[-46.387086,-14.772948],[-46.296497,-14.909374],[-46.077363,-14.9225],[-46.022999,-14.868808],[-45.912463,-14.691403],[-45.963571,-14.535237],[-45.920473,-14.350752],[-46.128523,-14.18394],[-46.223039,-13.99775],[-46.259651,-13.868559],[-46.272441,-13.656892],[-46.186555,-13.404815],[-46.097878,-13.350296],[-46.083151,-13.251594],[-46.175548,-13.215989],[-46.15095,-13.027835],[-46.087181,-12.916317],[-46.233529,-12.796635]]]},"properties":{"LOCATION_TYPE":"level1","ADM0_A3":"BRA","LOCATION_ID":"BRA-GO","NAME":"Goiás","TYPE_EN":"State"}},
{"type":"Feature","geometry":{"type":"Polygon","coordinates":[[[-47.302482,-16.040054],[-47.358809,-15.98383],[-47.349533,-15.832263],[-47.307288,-15.710152],[-47.307055,-15.590159],[-47.422965,-15.49833],[-48.179353,-15.489855],[-48.2779,-15.839395],[-48.182402,-16.039486],[-47.302482,-16.040054]]]},"properties":{"LOCATION_TYPE":"level1","ADM0_A3":"BRA","LOCATION_ID":"BRA-DF","NAME":"Distrito Federal","TYPE_EN":"Federal District"}},
{"type":"Feature","geometry":{"type":"Polygon","coordinates":[[[-46.022999,-14.868808],[-46.077363,-14.9225],[-46.296497,-14.909374],[-46.387086,-14.772948],[-46.516819,-14.713313],[-46.581001,-14.795634],[-46.547722,-15.039185],[-46.636709,-15.068951],[-46.735126,-15.018825],[-46.890905,-15.049469],[-46.929921,-15.228631],[-46.854809,-15.323767],[-46.936587,-15.431771],[-46.930463,-15.545717],[-46.867857,-15.590728],[-46.831916,-15.84389],[-46.862948,-15.881201],[-47.078077,-15.937632],[-47.129288,-15.921302],[-47.22967,-16.032716],[-47.302482,-16.040054],[-47.34881,-16.301434],[-47.453093,-16.492585],[-47.404052,-16.569014],[-47.266515,-16.661825],[-47.151225,-16.977516],[-47.210472,-17.075702],[-47.31274,-17.143139],[-47.500093,-17.329795],[-47.530504,-17.454903],[-47.288245,-17.548128],[-47.270313,-17.670497],[-47.326537,-17.743878],[-47.347337,-17.88051],[-47.277703,-18.059931],[-47.432681,-18.165816],[-47.552079,-18.207777],[-47.650238,-18.321052],[-47.899112,-18.449054],[-48.128659,-18.408023],[-48.216225,-18.359758],[-48.614236,-18.340792],[-48.818048,-18.351954],[-48.952329,-18.326323],[-49.131879,-18.407197],[-49.361452,-18.624444],[-49.488783,-18.499646],[-49.797808,-18.622791],[-49.99162,-18.613799],[-50.323486,-18.714568],[-50.502054,-18.930575],[-50.493062,-19.038889],[-50.545359,-19.109169],[-50.653828,-19.110254],[-50.843997,-19.294791],[-50.881152,-19.410856],[-50.961173,-19.47354],[-51.027603,-19.754091],[-50.993962,-20.101667],[-50.87136,-19.994438],[-50.655636,-19.915373],[-50.557503,-19.807938],[-50.42547,-19.791918],[-50.338421,-19.869278],[-49.882221,-19.931135],[-49.546738,-19.929894],[-49.384784,-19.98002],[-49.272982,-19.968393],[-49.291637,-20.16466],[-49.216448,-20.294058],[-49.149268,-20.295247],[-49.041652,-20.143421],[-48.970933,-20.230548],[-48.969434,-20.400512],[-48.867012,-20.407333],[-48.888509,-20.260778],[-48.843886,-20.16404],[-48.620334,-20.153033],[-48.168114,-20.102907],[-48.083442,-20.148382],[-47.841622,-19.9794],[-47.715196,-19.975111],[-47.65259,-20.029216],[-47.468596,-19.958885],[-47.438649,-20.036038],[-47.30411,-20.12027],[-47.234631,-20.20595],[-47.286953,-20.445677],[-47.15337,-20.524948],[-47.110116,-20.632177],[-47.210472,-20.807774],[-47.220936,-20.914434],[-47.147478,-20.976394],[-47.124922,-21.130751],[-47.055494,-21.196845],[-46.994749,-21.344692],[-46.89354,-21.405825],[-46.813855,-21.35973],[-46.507621,-21.458948],[-46.492402,-21.524836],[-46.560382,-21.673922],[-46.668541,-21.812518],[-46.618286,-21.984601],[-46.690995,-22.059997],[-46.60069,-22.132551],[-46.697997,-22.322513],[-46.641359,-22.41088],[-46.41295,-22.556659],[-46.359878,-22.844187],[-46.122373,-22.892918],[-45.963106,-22.8338],[-45.780404,-22.846047],[-45.725395,-22.750549],[-45.80402,-22.700113],[-45.583129,-22.616759],[-45.411021,-22.647661],[-45.057477,-22.465864],[-44.831341,-22.406074],[-44.443328,-22.25523],[-44.21727,-22.249804],[-44.09353,-22.172186],[-43.813754,-22.064131],[-43.462329,-22.056121],[-43.343059,-22.001499],[-43.131341,-22.027751],[-42.951533,-22.005943],[-42.887092,-21.959848],[-42.280256,-21.71361],[-42.366582,-21.59372],[-42.295397,-21.406135],[-42.220751,-21.337147],[-42.181115,-21.163101],[-42.095332,-21.001198],[-42.096133,-20.922547],[-41.961697,-20.908491],[-41.86439,-20.776871],[-41.811473,-20.647318],[-41.796306,-20.426918],[-41.855863,-20.358344],[-41.715924,-20.207707],[-41.405503,-20.212926],[-41.366203,-20.186778],[-41.304993,-19.953614],[-41.185284,-19.865092],[-41.156836,-19.660453],[-40.957055,-19.460156],[-40.925946,-19.295721],[-40.943103,-19.145704],[-41.050796,-19.03429],[-41.029686,-18.968971],[-41.09082,-18.829393],[-40.931889,-18.807379],[-40.926928,-18.693381],[-41.028679,-18.638242],[-41.002375,-18.452723],[-41.142987,-18.296919],[-41.058909,-18.178838],[-40.912639,-18.102822],[-40.777247,-18.093572],[-40.911063,-17.971771],[-40.666194,-17.956475],[-40.427191,-17.893946],[-40.206843,-17.978541],[-40.207049,-17.76584],[-40.49127,-17.548696],[-40.563229,-17.261788],[-40.574107,-17.134458],[-40.525169,-16.930542],[-40.470832,-16.869099],[-40.295416,-16.879176],[-40.252628,-16.565449],[-40.137441,-16.544261],[-40.057188,-16.394968],[-39.94058,-16.313216],[-39.865571,-16.110954],[-39.93505,-16.00109],[-40.00471,-15.993804],[-40.236867,-15.818156],[-40.535505,-15.797743],[-40.669373,-15.71656],[-40.761822,-15.738005],[-40.830758,-15.68235],[-40.944911,-15.673513],[-41.15756,-15.781052],[-41.330986,-15.716818],[-41.360596,-15.49523],[-41.801422,-15.10962],[-41.938339,-15.17096],[-42.087296,-15.18176],[-42.176955,-15.105899],[-42.260076,-15.107811],[-42.429575,-15.032519],[-42.580445,-14.931181],[-42.630752,-14.939088],[-42.890891,-14.749487],[-42.953006,-14.679465],[-43.228286,-14.637246],[-43.385848,-14.701221],[-43.49243,-14.788554],[-43.706371,-14.736413],[-43.866516,-14.659622],[-43.882768,-14.561695],[-43.823754,-14.394418],[-43.837706,-14.315818],[-44.320803,-14.245693],[-44.562778,-14.345481],[-44.836302,-14.51901],[-44.881725,-14.598333],[-45.102099,-14.71905],[-45.22434,-14.740444],[-45.320458,-14.855837],[-45.461897,-14.939915],[-45.553312,-14.935677],[-45.714646,-15.124658],[-46.038089,-15.147344],[-45.977266,-14.983788],[-46.022999,-14.868808]]]},"properties":{"LOCATION_TYPE":"level1","ADM0_A3":"BRA","LOCATION_ID":"BRA-MG","NAME":"Minas Gerais","TYPE_EN":"State"}},
{"type":"Feature","geometry":{"type":"Polygon","coordinates":[[[-45.757692,-10.33079],[-45.946053,-10.317716],[-46.087336,-10.208369],[-46.347553,-10.16956],[-46.47031,-10.00435],[-46.507621,-9.857641],[-46.660066,-9.757957],[-46.53612,-9.55523],[-46.558936,-9.497508],[-46.752748,-9.410846],[-46.829513,-9.308424],[-46.845688,-9.167761],[-46.94085,-9.070557],[-47.05751,-9.056191],[-47.063918,-8.976816],[-46.905013,-8.831037],[-46.921911,-8.742567],[-46.881655,-8.581698],[-46.791118,-8.436281],[-46.660144,-8.397317],[-46.501161,-8.397265],[-46.542967,-8.318355],[-46.466254,-8.06881],[-46.491446,-7.964061],[-46.57387,-7.906907],[-46.870415,-7.959824],[-46.983328,-8.040336],[-47.078955,-7.975895],[-47.208302,-7.81389],[-47.313463,-7.640774],[-47.514924,-7.444713],[-47.475417,-7.339965],[-47.512676,-7.280537],[-47.660419,-7.263484],[-47.639903,-7.158426],[-47.513787,-7.008823],[-47.482368,-6.888261],[-47.487639,-6.698351],[-47.407152,-6.479397],[-47.410201,-6.349845],[-47.37302,-6.233624],[-47.425549,-6.103813],[-47.413974,-5.869874],[-47.482858,-5.742957],[-47.468596,-5.588702],[-47.53686,-5.478838],[-47.723051,-5.391505],[-47.838521,-5.383237],[-47.864876,-5.280866],[-47.999597,-5.232445],[-48.153308,-5.257353],[-48.337845,-5.163767],[-48.498094,-5.186505],[-48.581835,-5.30071],[-48.723015,-5.355332],[-48.55561,-5.412899],[-48.397144,-5.39011],[-48.270536,-5.53408],[-48.209222,-5.538525],[-48.142405,-5.646115],[-48.288572,-5.727195],[-48.296788,-5.807035],[-48.222736,-5.914264],[-48.333401,-5.976172],[-48.284153,-6.097612],[-48.428796,-6.171251],[-48.389883,-6.362402],[-48.500755,-6.351137],[-48.60633,-6.435007],[-48.667773,-6.541461],[-48.683405,-6.662745],[-49.010543,-6.780723],[-49.198542,-6.902627],[-49.221073,-6.964226],[-49.185003,-7.225295],[-49.218308,-7.309269],[-49.374888,-7.50011],[-49.390649,-7.597572],[-49.309646,-7.713586],[-49.163376,-7.803554],[-49.198645,-8.058578],[-49.310525,-8.382175],[-49.38083,-8.436797],[-49.581309,-8.830727],[-49.755123,-8.922969],[-49.818168,-9.028182],[-50.053658,-9.319121],[-50.150241,-9.70039],[-50.235719,-9.843983],[-50.303952,-10.020835],[-50.377798,-10.104861],[-50.425986,-10.341022],[-50.481642,-10.40076],[-50.586312,-10.711594],[-50.635121,-10.936076],[-50.612926,-11.031213],[-50.66437,-11.142937],[-50.670855,-11.259312],[-50.742659,-11.501623],[-50.6499,-11.608232],[-50.707209,-11.711585],[-50.677392,-11.862738],[-50.67256,-12.191969],[-50.625354,-12.272532],[-50.612228,-12.431127],[-50.665662,-12.631218],[-50.595278,-12.807487],[-50.484019,-12.844797],[-50.446476,-12.700413],[-50.351159,-12.542387],[-50.150318,-12.399863],[-50.136934,-12.478049],[-50.203209,-12.571687],[-50.2006,-12.654628],[-50.275117,-12.787746],[-50.239538,-12.933164],[-49.684481,-13.175836],[-49.383543,-13.24808],[-49.296495,-13.002824],[-49.137822,-12.734933],[-49.06116,-12.680104],[-48.824017,-12.873581],[-48.768,-13.097185],[-48.773167,-13.352001],[-48.684594,-13.337532],[-48.656637,-13.177645],[-48.36681,-13.188032],[-48.225087,-13.094136],[-48.173152,-13.172064],[-48.002517,-13.24932],[-47.681348,-13.354223],[-47.720906,-13.15284],[-47.640291,-13.113618],[-47.555645,-13.243222],[-47.441724,-13.249113],[-47.092236,-13.095479],[-46.827653,-13.069279],[-46.646501,-12.924792],[-46.434059,-12.845521],[-46.233529,-12.796635],[-46.234046,-12.712195],[-46.160097,-12.602641],[-46.159554,-12.503009],[-46.317064,-12.423582],[-46.345228,-12.342037],[-46.33913,-12.130164],[-46.214331,-12.000559],[-46.076846,-11.928057],[-46.157074,-11.83566],[-46.249988,-11.843721],[-46.244588,-11.725951],[-46.104803,-11.666058],[-46.085166,-11.600997],[-46.190793,-11.544825],[-46.427419,-11.499918],[-46.570692,-11.316105],[-46.463748,-11.179266],[-46.370291,-10.969769],[-46.234252,-10.882281],[-46.30244,-10.758258],[-46.088809,-10.58571],[-45.857996,-10.46825],[-45.757692,-10.33079]]]},"properties":{"LOCATION_TYPE":"level1","ADM0_A3":"BRA","LOCATION_ID":"BRA-TO","NAME":"Tocantins","TYPE_EN":"State"}}
]}