{"type":"FeatureCollection", "features": [
{"type":"Feature","geometry":{"type":"Polygon","coordinates":[[[-59.545818,13.24381],[-59.567547,13.23821],[-59.580983,13.20984],[-59.554292,13.180074],[-59.54021,13.182503],[-59.53928,13.198161],[-59.518056,13.217515],[-59.545818,13.24381]]]},"properties":{"LOCATION_TYPE":"level1","ADM0_A3":"BRB","LOCATION_ID":"BRB-06","NAME":"Saint Joseph","TYPE_EN":"Parish"}},
{"type":"Feature","geometry":{"type":"Polygon","coordinates":[[[-59.568965,13.289672],[-59.605452,13.275831],[-59.606046,13.242086],[-59.601033,13.216351],[-59.580983,13.20984],[-59.567547,13.23821],[-59.545818,13.24381],[-59.568965,13.289672]]]},"properties":{"LOCATION_TYPE":"level1","ADM0_A3":"BRB","LOCATION_ID":"BRB-02","NAME":"Saint Andrew","TYPE_EN":"Parish"}},
{"type":"Feature","geometry":{"type":"Polygon","coordinates":[[[-59.575919,13.304393],[-59.630489,13.286786],[-59.652921,13.273861],[-59.650806,13.238839],[-59.606046,13.242086],[-59.605452,13.275831],[-59.568965,13.289672],[-59.575919,13.304393]]]},"properties":{"LOCATION_TYPE":"level1","ADM0_A3":"BRB","LOCATION_ID":"BRB-09","NAME":"Saint Peter","TYPE_EN":"Parish"}},
{"type":"Feature","geometry":{"type":"Polygon","coordinates":[[[-59.652921,13.273861],[-59.630489,13.286786],[-59.575919,13.304393],[-59.594472,13.334784],[-59.63093,13.337958],[-59.652211,13.310614],[-59.652921,13.273861]]]},"properties":{"LOCATION_TYPE":"level1","ADM0_A3":"BRB","LOCATION_ID":"BRB-07","NAME":"Saint Lucy","TYPE_EN":"Parish"}},
{"type":"Feature","geometry":{"type":"Polygon","coordinates":[[[-59.640607,13.141621],[-59.611085,13.150257],[-59.623513,13.182193],[-59.617131,13.204311],[-59.601033,13.216351],[-59.606046,13.242086],[-59.650806,13.238839],[-59.646067,13.160386],[-59.640607,13.141621]]]},"properties":{"LOCATION_TYPE":"level1","ADM0_A3":"BRB","LOCATION_ID":"BRB-04","NAME":"Saint James","TYPE_EN":"Parish"}},
{"type":"Feature","geometry":{"type":"Polygon","coordinates":[[[-59.600269,13.084119],[-59.570467,13.108192],[-59.587107,13.161316],[-59.611085,13.150257],[-59.640607,13.141621],[-59.621571,13.09398],[-59.600269,13.084119]]]},"properties":{"LOCATION_TYPE":"level1","ADM0_A3":"BRB","LOCATION_ID":"BRB-08","NAME":"Saint Michael","TYPE_EN":"Parish"}},
{"type":"Feature","geometry":{"type":"Polygon","coordinates":[[[-59.475779,13.086493],[-59.513106,13.129431],[-59.570467,13.108192],[-59.600269,13.084119],[-59.564443,13.07803],[-59.536122,13.051174],[-59.50886,13.057318],[-59.475779,13.086493]]]},"properties":{"LOCATION_TYPE":"level1","ADM0_A3":"BRB","LOCATION_ID":"BRB-01","NAME":"Christ Church","TYPE_EN":"Parish"}},
{"type":"Feature","geometry":{"type":"Polygon","coordinates":[[[-59.467681,13.186538],[-59.508714,13.145761],[-59.513106,13.129431],[-59.475779,13.086493],[-59.430043,13.125922],[-59.42691,13.160386],[-59.438629,13.174872],[-59.467681,13.186538]]]},"properties":{"LOCATION_TYPE":"level1","ADM0_A3":"BRB","LOCATION_ID":"BRB-10","NAME":"Saint Philip","TYPE_EN":"Parish"}},
{"type":"Feature","geometry":{"type":"Polygon","coordinates":[[[-59.518056,13.217515],[-59.53928,13.198161],[-59.54021,13.182503],[-59.508714,13.145761],[-59.467681,13.186538],[-59.518056,13.217515]]]},"properties":{"LOCATION_TYPE":"level1","ADM0_A3":"BRB","LOCATION_ID":"BRB-05","NAME":"Saint John","TYPE_EN":"Parish"}},
{"type":"Feature","geometry":{"type":"Polygon","coordinates":[[[-59.54021,13.182503],[-59.554292,13.180074],[-59.587107,13.161316],[-59.570467,13.108192],[-59.513106,13.129431],[-59.508714,13.145761],[-59.54021,13.182503]]]},"properties":{"LOCATION_TYPE":"level1","ADM0_A3":"BRB","LOCATION_ID":"BRB-03","NAME":"Saint George","TYPE_EN":"Parish"}},
{"type":"Feature","geometry":{"type":"Polygon","coordinates":[[[-59.580983,13.20984],[-59.601033,13.216351],[-59.617131,13.204311],[-59.623513,13.182193],[-59.611085,13.150257],[-59.587107,13.161316],[-59.554292,13.180074],[-59.580983,13.20984]]]},"properties":{"LOCATION_TYPE":"level1","ADM0_A3":"BRB","LOCATION_ID":"BRB-11","NAME":"Saint Thomas","TYPE_EN":"Parish"}}
]}