{"type":"FeatureCollection", "features": [
{"type":"Feature","geometry":{"type":"Polygon","coordinates":[[[115.146169,4.908515],[115.022777,4.741365],[115.113004,4.382369],[115.324361,4.314596],[115.272478,4.474663],[115.272684,4.636772],[115.146169,4.908515]]]},"properties":{"LOCATION_TYPE":"level1","ADM0_A3":"BRN","LOCATION_ID":"BRN-TE","NAME":"Temburong","TYPE_EN":"District"}},
{"type":"Feature","geometry":{"type":"Polygon","coordinates":[[[114.743192,4.730585],[114.948363,4.818932],[115.057791,5.054104],[114.760183,4.898749],[114.743192,4.730585]]]},"properties":{"LOCATION_TYPE":"level1","ADM0_A3":"BRN","LOCATION_ID":"BRN-BM","NAME":"Brunei and Muara","TYPE_EN":"District"}},
{"type":"Feature","geometry":{"type":"Polygon","coordinates":[[[114.743192,4.730585],[114.760183,4.898749],[114.494443,4.681252],[114.596809,4.522334],[114.794163,4.30024],[114.836432,4.357229],[114.782172,4.497789],[114.743192,4.730585]]]},"properties":{"LOCATION_TYPE":"level1","ADM0_A3":"BRN","LOCATION_ID":"BRN-TU","NAME":"Tutong","TYPE_EN":"District"}},
{"type":"Feature","geometry":{"type":"Polygon","coordinates":[[[114.494443,4.681252],[114.326671,4.606879],[114.118956,4.561635],[114.245564,4.481433],[114.296723,4.316663],[114.41992,4.260129],[114.586628,4.021435],[114.766875,4.131816],[114.794163,4.30024],[114.596809,4.522334],[114.494443,4.681252]]]},"properties":{"LOCATION_TYPE":"level1","ADM0_A3":"BRN","LOCATION_ID":"BRN-BE","NAME":"Belait","TYPE_EN":"District"}}
]}