{"type":"FeatureCollection", "features": [
{"type":"Feature","geometry":{"type":"Polygon","coordinates":[[[91.436483,27.989375],[91.323139,27.91672],[91.300143,27.733837],[91.3096,27.581314],[91.397295,27.46928],[91.392644,27.401842],[91.524212,27.36926],[91.727092,27.459942],[91.59506,27.546382],[91.579867,27.657977],[91.626686,27.716423],[91.621725,27.950724],[91.436483,27.989375]]]},"properties":{"LOCATION_TYPE":"level1","ADM0_A3":"BTN","LOCATION_ID":"BTN-TY","NAME":"Tashi Yangtse","TYPE_EN":"District"}},
{"type":"Feature","geometry":{"type":"Polygon","coordinates":[[[90.755278,28.055173],[90.796763,27.838275],[90.870454,27.790139],[90.883683,27.721357],[90.945436,27.685649],[90.946676,27.507675],[90.969776,27.389982],[91.076643,27.423882],[91.164234,27.389982],[91.244901,27.428688],[91.244901,27.502198],[91.3096,27.581314],[91.300143,27.733837],[91.323139,27.91672],[91.436483,27.989375],[91.269705,28.072861],[91.175861,28.057487],[91.092558,27.971679],[90.975149,27.982092],[90.90952,28.032657],[90.755278,28.055173]]]},"properties":{"LOCATION_TYPE":"level1","ADM0_A3":"BTN","LOCATION_ID":"BTN-44","NAME":"Lhuntshi","TYPE_EN":"District"}},
{"type":"Feature","geometry":{"type":"Polygon","coordinates":[[[90.475232,28.072344],[90.429137,28.025215],[90.47916,27.922146],[90.465,27.776238],[90.524532,27.735749],[90.512956,27.64175],[90.567578,27.449875],[90.724158,27.349003],[90.833247,27.326162],[90.931639,27.369079],[90.969776,27.389982],[90.946676,27.507675],[90.945436,27.685649],[90.883683,27.721357],[90.870454,27.790139],[90.796763,27.838275],[90.755278,28.055173],[90.683901,28.087072],[90.475232,28.072344]]]},"properties":{"LOCATION_TYPE":"level1","ADM0_A3":"BTN","LOCATION_ID":"BTN-33","NAME":"Bumthang","TYPE_EN":"District"}},
{"type":"Feature","geometry":{"type":"Polygon","coordinates":[[[88.876116,27.280486],[88.925094,27.267457],[89.028912,27.158704],[89.190556,27.126252],[89.329307,27.119094],[89.329928,27.210665],[89.370907,27.314173],[89.246263,27.478142],[89.216188,27.556484],[89.124655,27.614852],[89.050954,27.608282],[88.972955,27.517659],[88.95106,27.433144],[88.997019,27.330869],[88.91516,27.330869],[88.876116,27.280486]]]},"properties":{"LOCATION_TYPE":"level1","ADM0_A3":"BTN","LOCATION_ID":"BTN-13","NAME":"Ha","TYPE_EN":"District"}},
{"type":"Feature","geometry":{"type":"Polygon","coordinates":[[[88.876116,27.280486],[88.801174,27.256425],[88.730067,27.150954],[88.827632,27.097882],[88.88644,26.978975],[88.954549,26.912622],[89.060693,26.881461],[89.096504,26.821413],[89.184613,26.810561],[89.273599,26.843892],[89.368895,26.837359],[89.301661,26.952076],[89.344449,27.021245],[89.329307,27.119094],[89.190556,27.126252],[89.028912,27.158704],[88.925094,27.267457],[88.876116,27.280486]]]},"properties":{"LOCATION_TYPE":"level1","ADM0_A3":"BTN","LOCATION_ID":"BTN-14","NAME":"Samchi","TYPE_EN":"District"}},
{"type":"Feature","geometry":{"type":"Polygon","coordinates":[[[89.75467,26.700989],[89.761943,26.800096],[89.780856,26.937736],[89.743132,27.030366],[89.680449,27.030702],[89.623501,27.141109],[89.538804,27.170099],[89.614975,27.237588],[89.531517,27.30699],[89.506506,27.188883],[89.329928,27.210665],[89.329307,27.119094],[89.344449,27.021245],[89.301661,26.952076],[89.368895,26.837359],[89.50542,26.803688],[89.75467,26.700989]]]},"properties":{"LOCATION_TYPE":"level1","ADM0_A3":"BTN","LOCATION_ID":"BTN-12","NAME":"Chhukha","TYPE_EN":"District"}},
{"type":"Feature","geometry":{"type":"Polygon","coordinates":[[[89.75467,26.700989],[90.089157,26.741728],[90.17742,26.832058],[90.382627,26.891796],[90.587783,26.780072],[90.717077,26.767049],[90.944493,26.77887],[90.807925,26.825081],[90.775214,26.900555],[90.680388,26.952903],[90.667365,27.044629],[90.516832,27.125683],[90.336688,27.209321],[90.312762,27.170487],[90.236901,26.996699],[90.069004,26.809087],[90.00446,26.855183],[89.951543,26.82025],[89.761943,26.800096],[89.75467,26.700989]]]},"properties":{"LOCATION_TYPE":"level1","ADM0_A3":"BTN","LOCATION_ID":"BTN-31","NAME":"Geylegphug","TYPE_EN":"District"}},
{"type":"Feature","geometry":{"type":"Polygon","coordinates":[[[91.012781,26.784348],[91.023726,26.84955],[91.145269,26.88407],[91.184233,26.942154],[91.086926,26.979465],[90.99055,27.113384],[91.003624,27.210975],[90.931639,27.369079],[90.833247,27.326162],[90.724158,27.349003],[90.706433,27.254357],[90.60463,27.205704],[90.516832,27.125683],[90.667365,27.044629],[90.680388,26.952903],[90.775214,26.900555],[90.807925,26.825081],[90.944493,26.77887],[91.012781,26.784348]]]},"properties":{"LOCATION_TYPE":"level1","ADM0_A3":"BTN","LOCATION_ID":"BTN-34","NAME":"Shemgang","TYPE_EN":"District"}},
{"type":"Feature","geometry":{"type":"Polygon","coordinates":[[[91.012781,26.784348],[91.198185,26.802344],[91.27601,26.774077],[91.358382,26.806169],[91.406338,26.869524],[91.475067,26.865545],[91.520646,26.79759],[91.702133,26.803481],[91.795254,26.853504],[92.03586,26.854848],[92.083919,26.937323],[91.987697,27.104031],[92.005788,27.176112],[91.809725,27.137129],[91.76673,27.084781],[91.490984,27.017576],[91.416054,26.901692],[91.338022,26.892312],[91.264952,26.942852],[91.184233,26.942154],[91.145269,26.88407],[91.023726,26.84955],[91.012781,26.784348]]]},"properties":{"LOCATION_TYPE":"level1","ADM0_A3":"BTN","LOCATION_ID":"BTN-45","NAME":"Samdrup Jongkhar","TYPE_EN":"District"}},
{"type":"Feature","geometry":{"type":"Polygon","coordinates":[[[91.727092,27.459942],[91.524212,27.36926],[91.392644,27.401842],[91.471141,27.295233],[91.392076,27.243144],[91.379518,27.16289],[91.490984,27.017576],[91.76673,27.084781],[91.809725,27.137129],[92.005788,27.176112],[92.084849,27.304226],[92.023598,27.44678],[91.975088,27.472433],[91.727092,27.459942]]]},"properties":{"LOCATION_TYPE":"level1","ADM0_A3":"BTN","LOCATION_ID":"BTN-41","NAME":"Tashigang","TYPE_EN":"District"}},
{"type":"Feature","geometry":{"type":"Polygon","coordinates":[[[89.205843,27.747435],[89.278716,27.720143],[89.385325,27.748203],[89.389666,27.648364],[89.47426,27.544753],[89.462271,27.426647],[89.531517,27.30699],[89.614975,27.237588],[89.538804,27.170099],[89.623501,27.141109],[89.709646,27.260869],[89.742512,27.459409],[89.814498,27.522248],[89.75693,27.570126],[89.689027,27.538862],[89.630478,27.619736],[89.608309,27.715285],[89.551361,27.77784],[89.486352,27.763913],[89.515033,27.915351],[89.417364,27.988654],[89.336025,27.869075],[89.22492,27.807813],[89.205843,27.747435]]]},"properties":{"LOCATION_TYPE":"level1","ADM0_A3":"BTN","LOCATION_ID":"BTN-15","NAME":"Thimphu","TYPE_EN":"District"}},
{"type":"Feature","geometry":{"type":"Polygon","coordinates":[[[89.124655,27.614852],[89.216188,27.556484],[89.246263,27.478142],[89.370907,27.314173],[89.329928,27.210665],[89.506506,27.188883],[89.531517,27.30699],[89.462271,27.426647],[89.47426,27.544753],[89.389666,27.648364],[89.385325,27.748203],[89.278716,27.720143],[89.205843,27.747435],[89.124655,27.614852]]]},"properties":{"LOCATION_TYPE":"level1","ADM0_A3":"BTN","LOCATION_ID":"BTN-11","NAME":"Paro","TYPE_EN":"District"}},
{"type":"Feature","geometry":{"type":"Polygon","coordinates":[[[89.417364,27.988654],[89.515033,27.915351],[89.486352,27.763913],[89.551361,27.77784],[89.608309,27.715285],[89.768299,27.759908],[89.832067,27.839231],[89.893769,27.852848],[90.002445,27.801223],[90.080786,27.859308],[90.163055,27.9739],[90.212199,27.976613],[90.275555,27.895171],[90.349555,27.913361],[90.34816,27.984675],[90.408282,28.056832],[90.475232,28.072344],[90.587726,28.233298],[90.261804,28.335354],[90.07086,28.34523],[89.862918,28.295793],[89.755844,28.184379],[89.561489,28.13464],[89.417364,27.988654]]]},"properties":{"LOCATION_TYPE":"level1","ADM0_A3":"BTN","LOCATION_ID":"BTN-GA","NAME":"Gasa","TYPE_EN":"District"}},
{"type":"Feature","geometry":{"type":"Polygon","coordinates":[[[90.312762,27.170487],[90.056912,27.172114],[90.058307,27.10323],[90.049935,26.931819],[90.00446,26.855183],[90.069004,26.809087],[90.236901,26.996699],[90.312762,27.170487]]]},"properties":{"LOCATION_TYPE":"level1","ADM0_A3":"BTN","LOCATION_ID":"BTN-21","NAME":"Chirang","TYPE_EN":"District"}},
{"type":"Feature","geometry":{"type":"Polygon","coordinates":[[[90.058307,27.10323],[90.056912,27.172114],[90.312762,27.170487],[90.336688,27.209321],[90.360252,27.262962],[90.238141,27.468272],[90.341804,27.499691],[90.289352,27.613509],[90.312452,27.671102],[90.455234,27.71557],[90.465,27.776238],[90.47916,27.922146],[90.429137,28.025215],[90.475232,28.072344],[90.408282,28.056832],[90.34816,27.984675],[90.349555,27.913361],[90.275555,27.895171],[90.212199,27.976613],[90.163055,27.9739],[90.080786,27.859308],[90.002445,27.801223],[89.960225,27.692651],[90.035983,27.653299],[89.907929,27.530645],[89.814498,27.522248],[89.742512,27.459409],[89.709646,27.260869],[89.841679,27.252032],[89.936661,27.139558],[90.058307,27.10323]]]},"properties":{"LOCATION_TYPE":"level1","ADM0_A3":"BTN","LOCATION_ID":"BTN-24","NAME":"Wangdi Phodrang","TYPE_EN":"District"}},
{"type":"Feature","geometry":{"type":"Polygon","coordinates":[[[90.058307,27.10323],[89.936661,27.139558],[89.841679,27.252032],[89.709646,27.260869],[89.623501,27.141109],[89.680449,27.030702],[89.743132,27.030366],[89.780856,26.937736],[89.761943,26.800096],[89.951543,26.82025],[90.00446,26.855183],[90.049935,26.931819],[90.058307,27.10323]]]},"properties":{"LOCATION_TYPE":"level1","ADM0_A3":"BTN","LOCATION_ID":"BTN-22","NAME":"Daga","TYPE_EN":"District"}},
{"type":"Feature","geometry":{"type":"Polygon","coordinates":[[[90.002445,27.801223],[89.893769,27.852848],[89.832067,27.839231],[89.768299,27.759908],[89.608309,27.715285],[89.630478,27.619736],[89.689027,27.538862],[89.75693,27.570126],[89.814498,27.522248],[89.907929,27.530645],[90.035983,27.653299],[89.960225,27.692651],[90.002445,27.801223]]]},"properties":{"LOCATION_TYPE":"level1","ADM0_A3":"BTN","LOCATION_ID":"BTN-23","NAME":"Punakha","TYPE_EN":"District"}},
{"type":"Feature","geometry":{"type":"Polygon","coordinates":[[[91.3096,27.581314],[91.244901,27.502198],[91.244901,27.428688],[91.164234,27.389982],[91.076643,27.423882],[90.969776,27.389982],[90.931639,27.369079],[91.003624,27.210975],[90.99055,27.113384],[91.086926,26.979465],[91.184233,26.942154],[91.219838,27.012744],[91.345257,27.08783],[91.379518,27.16289],[91.392076,27.243144],[91.471141,27.295233],[91.392644,27.401842],[91.397295,27.46928],[91.3096,27.581314]]]},"properties":{"LOCATION_TYPE":"level1","ADM0_A3":"BTN","LOCATION_ID":"BTN-42","NAME":"Mongar","TYPE_EN":"District"}},
{"type":"Feature","geometry":{"type":"Polygon","coordinates":[[[90.465,27.776238],[90.455234,27.71557],[90.312452,27.671102],[90.289352,27.613509],[90.341804,27.499691],[90.238141,27.468272],[90.360252,27.262962],[90.336688,27.209321],[90.516832,27.125683],[90.60463,27.205704],[90.706433,27.254357],[90.724158,27.349003],[90.567578,27.449875],[90.512956,27.64175],[90.524532,27.735749],[90.465,27.776238]]]},"properties":{"LOCATION_TYPE":"level1","ADM0_A3":"BTN","LOCATION_ID":"BTN-32","NAME":"Tongsa","TYPE_EN":"District"}},
{"type":"Feature","geometry":{"type":"Polygon","coordinates":[[[91.379518,27.16289],[91.345257,27.08783],[91.219838,27.012744],[91.184233,26.942154],[91.264952,26.942852],[91.338022,26.892312],[91.416054,26.901692],[91.490984,27.017576],[91.379518,27.16289]]]},"properties":{"LOCATION_TYPE":"level1","ADM0_A3":"BTN","LOCATION_ID":"BTN-43","NAME":"Pemagatsel","TYPE_EN":"District"}}
]}