{"type":"FeatureCollection", "features": [
{"type":"Feature","geometry":{"type":"Polygon","coordinates":[[[25.967449,-18.999925],[25.815251,-18.813993],[25.761921,-18.630335],[25.508499,-18.399134],[25.387525,-18.138995],[25.226088,-17.931876],[25.259781,-17.794107],[24.958094,-17.800928],[24.725343,-17.895909],[24.577755,-18.044427],[24.421589,-17.956474],[24.183051,-18.029441],[23.645409,-18.466004],[23.57916,-18.467864],[23.501542,-18.23749],[23.359535,-18.119151],[23.311476,-18.009804],[22.981367,-18.020036],[21.475722,-18.299502],[20.975081,-18.319346],[20.976735,-19.500876],[20.981486,-20.999958],[23.881364,-20.999958],[23.879039,-20.316486],[24.15711,-20.198818],[24.378285,-20.394259],[25.14506,-20.342324],[25.162165,-20.067044],[24.992098,-19.995523],[24.990702,-18.999925],[25.967449,-18.999925]]]},"properties":{"LOCATION_TYPE":"level1","ADM0_A3":"BWA","LOCATION_ID":"BWA-NW","NAME":"North-West","TYPE_EN":"District"}},
{"type":"Feature","geometry":{"type":"Polygon","coordinates":[[[25.967449,-18.999925],[24.990702,-18.999925],[24.992098,-19.995523],[25.162165,-20.067044],[25.14506,-20.342324],[24.378285,-20.394259],[24.15711,-20.198818],[23.879039,-20.316486],[23.881364,-20.999958],[25.439305,-22.95188],[25.731639,-23.310308],[25.840728,-23.349117],[26.020407,-23.566261],[26.71747,-23.947892],[26.964542,-23.74714],[27.127419,-23.525023],[27.349989,-23.391491],[27.548892,-23.360795],[27.608009,-23.216721],[27.895537,-23.079469],[27.937498,-22.963817],[28.338559,-22.584615],[28.623865,-22.562808],[28.912529,-22.453667],[29.047818,-22.220296],[29.222071,-22.182159],[29.239331,-22.072605],[29.021567,-21.982791],[29.038723,-21.797893],[28.629704,-21.651339],[28.464598,-21.660331],[28.284867,-21.596872],[27.990415,-21.551913],[27.491151,-21.468024],[27.406257,-21.347758],[27.307214,-21.064778],[27.229395,-20.944512],[27.215246,-20.774724],[27.268392,-20.49575],[27.283998,-20.35147],[27.214907,-20.110451],[27.02665,-20.010095],[26.730957,-19.935888],[26.566316,-19.800806],[26.312171,-19.651358],[26.292638,-19.572499],[26.13027,-19.501082],[25.956534,-19.122088],[25.967449,-18.999925]],[[27.843491,-21.99605],[27.807944,-21.96545],[27.882886,-21.960686],[27.843491,-21.99605]],[[26.194763,-20.558522],[26.256001,-20.559367],[26.2522,-20.598644],[26.200253,-20.594421],[26.194763,-20.558522]]]},"properties":{"LOCATION_TYPE":"level1","ADM0_A3":"BWA","LOCATION_ID":"BWA-CE","NAME":"Central","TYPE_EN":"District"}},
{"type":"Feature","geometry":{"type":"Polygon","coordinates":[[[27.990415,-21.551913],[27.884995,-21.310171],[27.674775,-21.090133],[27.707332,-20.716719],[27.698133,-20.509083],[27.590853,-20.473323],[27.268392,-20.49575],[27.215246,-20.774724],[27.229395,-20.944512],[27.307214,-21.064778],[27.406257,-21.347758],[27.491151,-21.468024],[27.990415,-21.551913]],[[27.538655,-21.215799],[27.458828,-21.155864],[27.534319,-21.145663],[27.538655,-21.215799]]]},"properties":{"LOCATION_TYPE":"level1","ADM0_A3":"BWA","LOCATION_ID":"BWA-NE","NAME":"North-East","TYPE_EN":"District"}},
{"type":"Feature","geometry":{"type":"Polygon","coordinates":[[[26.964542,-23.74714],[26.71747,-23.947892],[26.020407,-23.566261],[25.956638,-24.176508],[25.886203,-24.430653],[25.951212,-24.507444],[26.033354,-24.558915],[26.165911,-24.660846],[26.404362,-24.632811],[26.531176,-24.458661],[26.84971,-24.248131],[26.964542,-23.74714]]]},"properties":{"LOCATION_TYPE":"level1","ADM0_A3":"BWA","LOCATION_ID":"BWA-KL","NAME":"Kgatleng","TYPE_EN":"District"}},
{"type":"Feature","geometry":{"type":"Polygon","coordinates":[[[26.165911,-24.660846],[26.033354,-24.558915],[25.957418,-24.707293],[25.834928,-24.622704],[25.687249,-24.769082],[25.598831,-25.001006],[25.656708,-25.038213],[25.542348,-25.401963],[25.652838,-25.463319],[25.695465,-25.309979],[25.876746,-24.886025],[25.868374,-24.748152],[26.165911,-24.660846]],[[25.687437,-25.183117],[25.705597,-25.192711],[25.699087,-25.233827],[25.667907,-25.225261],[25.687437,-25.183117]]]},"properties":{"LOCATION_TYPE":"level1","ADM0_A3":"BWA","LOCATION_ID":"BWA-SE","NAME":"South-East","TYPE_EN":"District"}},
{"type":"Feature","geometry":{"type":"Polygon","coordinates":[[[25.652838,-25.463319],[25.542348,-25.401963],[25.656708,-25.038213],[25.598831,-25.001006],[25.687249,-24.769082],[24.81361,-24.511855],[24.820578,-24.652038],[24.637647,-24.660326],[24.639661,-24.461185],[23.053353,-23.999103],[23.049322,-24.823239],[23.085186,-24.850576],[24.044145,-24.845305],[24.234366,-25.025759],[24.250334,-25.501441],[24.500851,-25.757848],[24.79862,-25.829223],[25.051731,-25.737859],[25.386491,-25.743544],[25.587254,-25.61952],[25.652838,-25.463319]]]},"properties":{"LOCATION_TYPE":"level1","ADM0_A3":"BWA","LOCATION_ID":"BWA-SO","NAME":"Southern","TYPE_EN":"District"}},
{"type":"Feature","geometry":{"type":"Polygon","coordinates":[[[19.979855,-23.308551],[19.981447,-24.752493],[20.118906,-24.887369],[20.364886,-25.0332],[20.79411,-25.893922],[20.841446,-26.131324],[20.622544,-26.427533],[20.608902,-26.686122],[20.693548,-26.889004],[20.851884,-26.806528],[21.122462,-26.865336],[21.380844,-26.823995],[21.687182,-26.855207],[21.767487,-26.704312],[22.057702,-26.617599],[22.257277,-26.340923],[22.545114,-26.207391],[22.719367,-25.984253],[22.746446,-25.755326],[22.844631,-25.481131],[23.006998,-25.310805],[23.265691,-25.263987],[23.45927,-25.282177],[23.924772,-25.629236],[24.227699,-25.648976],[24.296739,-25.723493],[24.500851,-25.757848],[24.250334,-25.501441],[24.234366,-25.025759],[24.044145,-24.845305],[23.085186,-24.850576],[23.049322,-24.823239],[23.053353,-23.999103],[23.050097,-23.642691],[22.956666,-23.558613],[22.959043,-23.424926],[23.057539,-23.311342],[19.979855,-23.308551]]]},"properties":{"LOCATION_TYPE":"level1","ADM0_A3":"BWA","LOCATION_ID":"BWA-KG","NAME":"Kgalagadi","TYPE_EN":"District"}},
{"type":"Feature","geometry":{"type":"Polygon","coordinates":[[[19.979855,-23.308551],[23.057539,-23.311342],[25.241746,-23.318525],[25.439305,-22.95188],[23.881364,-20.999958],[20.981486,-20.999958],[20.984796,-21.963981],[20.97198,-22.000671],[19.978346,-22.000671],[19.979855,-23.308551]]]},"properties":{"LOCATION_TYPE":"level1","ADM0_A3":"BWA","LOCATION_ID":"BWA-GH","NAME":"Ghanzi","TYPE_EN":"District"}},
{"type":"Feature","geometry":{"type":"Polygon","coordinates":[[[25.439305,-22.95188],[25.241746,-23.318525],[23.057539,-23.311342],[22.959043,-23.424926],[22.956666,-23.558613],[23.050097,-23.642691],[23.053353,-23.999103],[24.639661,-24.461185],[24.81361,-24.511855],[25.687249,-24.769082],[25.834928,-24.622704],[25.951212,-24.507444],[25.886203,-24.430653],[25.956638,-24.176508],[26.020407,-23.566261],[25.840728,-23.349117],[25.731639,-23.310308],[25.439305,-22.95188]]]},"properties":{"LOCATION_TYPE":"level1","ADM0_A3":"BWA","LOCATION_ID":"BWA-KW","NAME":"Kweneng","TYPE_EN":"District"}},
{"type":"Feature","geometry":{"type":"Polygon","coordinates":[[[25.834928,-24.622704],[25.957418,-24.707293],[26.033354,-24.558915],[25.951212,-24.507444],[25.834928,-24.622704]]]},"properties":{"LOCATION_TYPE":"level1","ADM0_A3":"BWA","LOCATION_ID":"BWA-GA","NAME":"Gaborone","TYPE_EN":"City"}},
{"type":"Feature","geometry":{"type":"Polygon","coordinates":[[[24.639661,-24.461185],[24.637647,-24.660326],[24.820578,-24.652038],[24.81361,-24.511855],[24.639661,-24.461185]]]},"properties":{"LOCATION_TYPE":"level1","ADM0_A3":"BWA","LOCATION_ID":"BWA-JW","NAME":"Jwaneng","TYPE_EN":"Town"}},
{"type":"Feature","geometry":{"type":"Polygon","coordinates":[[[27.538655,-21.215799],[27.534319,-21.145663],[27.458828,-21.155864],[27.538655,-21.215799]]]},"properties":{"LOCATION_TYPE":"level1","ADM0_A3":"BWA","LOCATION_ID":"BWA-FR","NAME":"Francistown","TYPE_EN":"City"}},
{"type":"Feature","geometry":{"type":"Polygon","coordinates":[[[25.687437,-25.183117],[25.667907,-25.225261],[25.699087,-25.233827],[25.705597,-25.192711],[25.687437,-25.183117]]]},"properties":{"LOCATION_TYPE":"level1","ADM0_A3":"BWA","LOCATION_ID":"BWA-LO","NAME":"Lobatse","TYPE_EN":"Town"}},
{"type":"Feature","geometry":{"type":"Polygon","coordinates":[[[27.843491,-21.99605],[27.882886,-21.960686],[27.807944,-21.96545],[27.843491,-21.99605]]]},"properties":{"LOCATION_TYPE":"level1","ADM0_A3":"BWA","LOCATION_ID":"BWA-SP","NAME":"Selebi-Phikwe","TYPE_EN":"Town"}},
{"type":"Feature","geometry":{"type":"Polygon","coordinates":[[[26.194763,-20.558522],[26.200253,-20.594421],[26.2522,-20.598644],[26.256001,-20.559367],[26.194763,-20.558522]]]},"properties":{"LOCATION_TYPE":"level1","ADM0_A3":"BWA","LOCATION_ID":"BWA-ST","NAME":"Sowa","TYPE_EN":"Township"}}
]}