{"type":"FeatureCollection", "features": [
{"type":"Feature","geometry":{"type":"Polygon","coordinates":[[[23.462821,9.153725],[23.63218,9.277574],[23.646856,9.418393],[23.606135,9.537171],[23.674038,9.69034],[23.624015,9.907768],[23.291219,10.439726],[23.005551,10.686817],[22.863234,10.891817],[22.719884,10.964655],[22.460468,11.000828],[22.253039,10.915304],[22.176351,10.816214],[22.048607,10.836988],[22.003855,10.743273],[21.863606,10.667929],[21.722632,10.636716],[21.705476,10.571811],[21.751054,10.41182],[21.65628,10.233666],[21.485437,10.164316],[21.374333,9.973113],[21.256924,9.975749],[21.09311,9.77434],[21.017352,9.743592],[20.996062,9.648301],[20.813884,9.418847],[20.890591,9.380461],[21.105616,9.551304],[21.253049,9.583033],[21.356247,9.691424],[21.494792,9.76465],[21.520423,9.609879],[21.61711,9.588924],[21.768987,9.41064],[21.860557,9.177166],[22.086797,8.968626],[22.113927,8.802435],[22.212164,8.705515],[22.359132,8.673321],[22.391223,8.591698],[22.527338,8.592654],[22.647124,8.685207],[23.072938,8.785588],[23.08193,8.870622],[23.182906,8.968083],[23.285018,8.998883],[23.348064,9.167787],[23.462821,9.153725]]]},"properties":{"LOCATION_TYPE":"level1","ADM0_A3":"CAF","LOCATION_ID":"CAF-VK","NAME":"Vakaga","TYPE_EN":"Prefecture"}},
{"type":"Feature","geometry":{"type":"Polygon","coordinates":[[[23.462821,9.153725],[23.348064,9.167787],[23.285018,8.998883],[23.182906,8.968083],[23.08193,8.870622],[23.072938,8.785588],[22.647124,8.685207],[22.527338,8.592654],[22.391223,8.591698],[22.349365,8.567023],[22.00489,8.604979],[21.959104,8.500076],[21.997552,8.381918],[21.9898,8.23296],[21.880401,8.199112],[21.741392,8.329389],[21.526159,8.25606],[21.392576,8.163352],[21.419396,8.017805],[21.153262,7.985301],[21.104996,7.838333],[21.130938,7.703432],[21.245608,7.608373],[21.385599,7.544217],[21.447198,7.305343],[21.582022,7.272657],[21.605896,7.002519],[21.652612,6.881234],[21.609772,6.772093],[21.709714,6.58828],[21.792758,6.555776],[21.807951,6.362506],[21.744182,6.229594],[21.822369,6.056582],[21.892855,6.020279],[21.939829,5.910647],[21.902157,5.68185],[21.772087,5.675778],[21.662843,5.549248],[21.900968,5.474524],[22.085867,5.642653],[22.051709,5.708153],[22.107416,5.979609],[22.234695,6.058054],[22.400525,6.047125],[22.494576,6.127482],[22.56005,6.244658],[22.809285,6.271814],[22.905197,6.185308],[23.241713,6.09521],[23.315146,6.204609],[23.396433,6.215254],[23.45214,6.301605],[24.260928,6.753076],[24.328107,6.843536],[24.321906,6.9326],[24.540084,7.007402],[24.560083,7.205168],[24.515072,7.254596],[24.594396,7.484556],[24.496779,7.634056],[24.453009,7.933082],[24.47306,8.073745],[24.406759,8.1656],[24.263186,8.268505],[24.121556,8.372307],[24.243719,8.570176],[24.217674,8.691512],[23.922291,8.713449],[23.72127,8.702002],[23.482318,8.783393],[23.567481,8.974828],[23.451416,8.974182],[23.462821,9.153725]]]},"properties":{"LOCATION_TYPE":"level1","ADM0_A3":"CAF","LOCATION_ID":"CAF-HK","NAME":"Haute-Kotto","TYPE_EN":"Prefecture"}},
{"type":"Feature","geometry":{"type":"Polygon","coordinates":[[[24.263186,8.268505],[24.406759,8.1656],[24.47306,8.073745],[24.453009,7.933082],[24.496779,7.634056],[24.594396,7.484556],[24.515072,7.254596],[24.560083,7.205168],[24.540084,7.007402],[24.321906,6.9326],[24.328107,6.843536],[24.260928,6.753076],[24.542409,6.446919],[24.611604,6.390902],[24.712321,6.412322],[24.811127,6.489268],[24.899907,6.484385],[25.070904,6.348528],[24.991012,6.236028],[24.86301,6.200965],[25.043619,6.057977],[25.181233,5.896204],[25.044394,5.762388],[25.019383,5.518527],[24.965846,5.443802],[24.691651,5.260325],[24.604008,5.271642],[24.480844,5.102335],[24.610105,5.016723],[24.664365,4.924403],[24.789422,4.919856],[24.958094,4.99135],[25.084804,4.954221],[25.129453,5.018635],[25.307633,5.032278],[25.307736,5.185292],[25.36365,5.310556],[25.58126,5.374919],[25.732775,5.258879],[26.026917,5.189969],[26.12996,5.258879],[26.291811,5.150979],[26.390616,5.149015],[26.462653,5.059641],[26.760619,5.088114],[26.867073,5.037549],[26.961641,5.151185],[27.11636,5.200304],[27.391382,5.092223],[27.2378,5.32319],[27.220126,5.440883],[27.260744,5.550257],[27.170413,5.72035],[27.029543,5.78988],[26.981071,5.859204],[26.81891,5.894628],[26.705016,6.009789],[26.527972,6.043172],[26.452008,6.28029],[26.28964,6.387208],[26.277031,6.477358],[26.378007,6.65329],[26.236207,6.72003],[26.080971,6.842348],[26.026091,6.99668],[25.800781,7.104942],[25.786209,7.142666],[25.592422,7.211241],[25.360033,7.335574],[25.316211,7.417223],[25.190431,7.501197],[25.165213,7.5799],[25.279418,7.659482],[25.216889,7.864069],[25.089559,7.884895],[24.952616,7.996567],[24.832107,8.16573],[24.614859,8.217148],[24.51285,8.207149],[24.431097,8.271408],[24.263186,8.268505]]]},"properties":{"LOCATION_TYPE":"level1","ADM0_A3":"CAF","LOCATION_ID":"CAF-HM","NAME":"Haut-Mbomou","TYPE_EN":"Prefecture"}},
{"type":"Feature","geometry":{"type":"Polygon","coordinates":[[[19.858163,5.060305],[19.933595,5.132839],[19.962172,5.346289],[19.946359,5.486565],[19.521786,5.489975],[19.558424,5.582295],[19.651235,5.657639],[19.655266,5.751122],[19.596458,5.904446],[19.838975,6.12004],[19.870963,6.322767],[19.743064,6.476168],[19.533723,6.502162],[19.151576,6.440408],[18.976237,6.543115],[18.751962,6.514254],[18.864306,6.342404],[18.908696,6.207167],[18.748706,6.065186],[18.626905,6.001029],[18.634501,5.730632],[18.686953,5.668414],[18.853764,5.635599],[18.886527,5.512403],[19.024607,5.333551],[18.998562,5.162243],[19.091476,5.036256],[19.106741,4.931518],[19.408975,5.130386],[19.71955,5.135967],[19.858163,5.060305]]]},"properties":{"LOCATION_TYPE":"level1","ADM0_A3":"CAF","LOCATION_ID":"CAF-KG","NAME":"Kémo","TYPE_EN":"Prefecture"}},
{"type":"Feature","geometry":{"type":"Polygon","coordinates":[[[20.456713,4.524816],[20.548545,4.573132],[20.699388,4.735758],[20.903613,4.832031],[20.935084,5.014681],[20.904854,5.13625],[20.957305,5.231051],[20.95715,5.530696],[21.093369,5.697275],[21.232275,5.649785],[21.390974,5.726912],[21.481769,5.630406],[21.518253,5.509897],[21.662843,5.549248],[21.772087,5.675778],[21.902157,5.68185],[21.939829,5.910647],[21.892855,6.020279],[21.822369,6.056582],[21.744182,6.229594],[21.807951,6.362506],[21.792758,6.555776],[21.709714,6.58828],[21.609772,6.772093],[21.652612,6.881234],[21.605896,7.002519],[21.582022,7.272657],[21.447198,7.305343],[21.385599,7.544217],[21.245608,7.608373],[21.130938,7.703432],[21.061278,7.594808],[21.077711,7.514425],[20.876276,7.271107],[20.698458,7.246845],[20.633449,7.124553],[20.462762,7.026807],[20.24014,7.033705],[20.155597,7.097242],[20.113481,6.900561],[19.921193,6.691556],[19.860369,6.581459],[19.878095,6.469657],[19.743064,6.476168],[19.870963,6.322767],[19.838975,6.12004],[19.596458,5.904446],[19.655266,5.751122],[19.651235,5.657639],[19.558424,5.582295],[19.521786,5.489975],[19.946359,5.486565],[19.962172,5.346289],[19.933595,5.132839],[19.858163,5.060305],[20.338944,4.771906],[20.463071,4.600935],[20.456713,4.524816]]]},"properties":{"LOCATION_TYPE":"level1","ADM0_A3":"CAF","LOCATION_ID":"CAF-UK","NAME":"Ouaka","TYPE_EN":"Prefecture"}},
{"type":"Feature","geometry":{"type":"Polygon","coordinates":[[[20.456713,4.524816],[20.603114,4.409732],[20.871521,4.453373],[21.084222,4.388235],[21.158119,4.310203],[21.298886,4.330228],[21.358313,4.285553],[21.538147,4.244652],[21.722942,4.295139],[21.86774,4.241551],[22.036613,4.229439],[22.131704,4.534271],[22.000911,4.519363],[21.8742,4.663204],[21.742632,4.697956],[21.781803,4.929338],[21.875389,5.156817],[21.900968,5.474524],[21.662843,5.549248],[21.518253,5.509897],[21.481769,5.630406],[21.390974,5.726912],[21.232275,5.649785],[21.093369,5.697275],[20.95715,5.530696],[20.957305,5.231051],[20.904854,5.13625],[20.935084,5.014681],[20.903613,4.832031],[20.699388,4.735758],[20.548545,4.573132],[20.456713,4.524816]]]},"properties":{"LOCATION_TYPE":"level1","ADM0_A3":"CAF","LOCATION_ID":"CAF-BK","NAME":"Basse-Kotto","TYPE_EN":"Prefecture"}},
{"type":"Feature","geometry":{"type":"Polygon","coordinates":[[[22.036613,4.229439],[22.207254,4.150316],[22.422641,4.134787],[22.492714,4.174036],[22.609297,4.363352],[22.586972,4.449394],[22.689498,4.491665],[22.78603,4.724648],[22.853829,4.711264],[22.898374,4.823583],[23.017334,4.750512],[23.168746,4.73811],[23.264864,4.635067],[23.38837,4.587266],[23.566551,4.724441],[23.816665,4.820611],[23.948336,4.817692],[24.08962,4.920218],[24.162897,4.907789],[24.296635,5.003262],[24.368466,5.012434],[24.396371,5.122298],[24.480844,5.102335],[24.604008,5.271642],[24.691651,5.260325],[24.965846,5.443802],[25.019383,5.518527],[25.044394,5.762388],[25.181233,5.896204],[25.043619,6.057977],[24.86301,6.200965],[24.991012,6.236028],[25.070904,6.348528],[24.899907,6.484385],[24.811127,6.489268],[24.712321,6.412322],[24.611604,6.390902],[24.542409,6.446919],[24.260928,6.753076],[23.45214,6.301605],[23.396433,6.215254],[23.315146,6.204609],[23.241713,6.09521],[22.905197,6.185308],[22.809285,6.271814],[22.56005,6.244658],[22.494576,6.127482],[22.400525,6.047125],[22.234695,6.058054],[22.107416,5.979609],[22.051709,5.708153],[22.085867,5.642653],[21.900968,5.474524],[21.875389,5.156817],[21.781803,4.929338],[21.742632,4.697956],[21.8742,4.663204],[22.000911,4.519363],[22.131704,4.534271],[22.036613,4.229439]]]},"properties":{"LOCATION_TYPE":"level1","ADM0_A3":"CAF","LOCATION_ID":"CAF-MB","NAME":"Mbomou","TYPE_EN":"Prefecture"}},
{"type":"Feature","geometry":{"type":"Polygon","coordinates":[[[19.106741,4.931518],[19.091476,5.036256],[18.998562,5.162243],[19.024607,5.333551],[18.886527,5.512403],[18.853764,5.635599],[18.686953,5.668414],[18.634501,5.730632],[18.590628,5.644049],[18.422731,5.565139],[18.37276,5.686423],[18.256075,5.796907],[18.026838,5.801093],[17.89558,5.897599],[17.583092,5.720866],[17.099711,5.712882],[17.020905,5.725904],[16.978995,5.858816],[16.749035,5.779363],[16.600827,5.619916],[16.515044,5.56811],[16.497164,5.412306],[16.525741,5.274898],[16.672967,5.363342],[16.931504,5.362257],[17.033152,5.287636],[17.11847,5.165189],[16.996203,5.083023],[17.037493,5.024216],[17.120175,5.035946],[17.320214,4.874173],[17.464805,4.794023],[17.541493,4.590676],[17.653217,4.511069],[17.764632,4.534349],[17.845454,4.466524],[18.110967,4.452958],[18.189825,4.360303],[18.304961,4.301727],[18.337672,4.099931],[18.490376,3.919864],[18.612024,3.866611],[18.645301,3.982445],[18.619669,4.169566],[18.53709,4.306069],[18.492577,4.388129],[18.560524,4.438224],[18.595795,4.371259],[18.721058,4.377357],[18.828235,4.559981],[19.011583,4.765033],[19.106741,4.931518]]]},"properties":{"LOCATION_TYPE":"level1","ADM0_A3":"CAF","LOCATION_ID":"CAF-MP","NAME":"Ombella-M'Poko","TYPE_EN":"Prefecture"}},
{"type":"Feature","geometry":{"type":"Polygon","coordinates":[[[18.595795,4.371259],[18.560524,4.438224],[18.492577,4.388129],[18.53709,4.306069],[18.595795,4.371259]]]},"properties":{"LOCATION_TYPE":"level1","ADM0_A3":"CAF","LOCATION_ID":"CAF-BGF","NAME":"Bangui","TYPE_EN":"Autonomous Commune"}},
{"type":"Feature","geometry":{"type":"Polygon","coordinates":[[[18.612024,3.866611],[18.490376,3.919864],[18.337672,4.099931],[18.304961,4.301727],[18.189825,4.360303],[18.110967,4.452958],[17.845454,4.466524],[17.764632,4.534349],[17.653217,4.511069],[17.541493,4.590676],[17.464805,4.794023],[17.320214,4.874173],[17.120175,5.035946],[17.037493,5.024216],[17.017804,4.964323],[16.830477,4.867894],[16.830477,4.738316],[16.934295,4.514092],[16.737718,4.244702],[16.831097,4.146104],[16.93414,3.976579],[17.219342,3.86718],[17.337268,3.801551],[17.414489,3.683415],[17.808349,3.608592],[17.856408,3.537305],[18.082028,3.563453],[18.181556,3.477386],[18.248529,3.574899],[18.513422,3.592237],[18.626387,3.476869],[18.593004,3.709775],[18.612024,3.866611]]]},"properties":{"LOCATION_TYPE":"level1","ADM0_A3":"CAF","LOCATION_ID":"CAF-LB","NAME":"Lobaye","TYPE_EN":"Prefecture"}},
{"type":"Feature","geometry":{"type":"Polygon","coordinates":[[[20.813884,9.418847],[20.496144,9.270882],[20.435166,9.138126],[20.359408,9.116421],[20.068676,9.138126],[19.889463,9.046374],[19.369391,9.000382],[19.263248,9.028261],[19.10057,9.015265],[18.892727,8.897933],[18.929108,8.796544],[19.048687,8.745669],[19.072261,8.631872],[19.064346,8.582861],[19.153746,8.404733],[19.356059,8.121727],[19.331875,7.944787],[19.356989,7.756116],[19.499461,7.739967],[19.593099,7.657259],[19.576873,7.585532],[19.73309,7.537783],[19.763321,7.447556],[19.885278,7.353402],[19.920883,7.246509],[20.155597,7.097242],[20.24014,7.033705],[20.462762,7.026807],[20.633449,7.124553],[20.698458,7.246845],[20.876276,7.271107],[21.077711,7.514425],[21.061278,7.594808],[21.130938,7.703432],[21.104996,7.838333],[21.153262,7.985301],[21.419396,8.017805],[21.392576,8.163352],[21.526159,8.25606],[21.741392,8.329389],[21.880401,8.199112],[21.9898,8.23296],[21.997552,8.381918],[21.959104,8.500076],[22.00489,8.604979],[22.349365,8.567023],[22.391223,8.591698],[22.359132,8.673321],[22.212164,8.705515],[22.113927,8.802435],[22.086797,8.968626],[21.860557,9.177166],[21.768987,9.41064],[21.61711,9.588924],[21.520423,9.609879],[21.494792,9.76465],[21.356247,9.691424],[21.253049,9.583033],[21.105616,9.551304],[20.890591,9.380461],[20.813884,9.418847]]]},"properties":{"LOCATION_TYPE":"level1","ADM0_A3":"CAF","LOCATION_ID":"CAF-BB","NAME":"Bamingui-Bangoran","TYPE_EN":"Prefecture"}},
{"type":"Feature","geometry":{"type":"Polygon","coordinates":[[[19.072261,8.631872],[18.813042,8.276421],[18.672586,8.20751],[18.589283,8.047882],[18.508255,8.030674],[18.070452,8.019202],[17.897853,7.967473],[17.679778,7.985198],[17.466355,7.884119],[17.250864,7.822831],[17.101932,7.677724],[16.880654,7.632869],[16.815071,7.549544],[16.754461,7.186151],[16.760507,7.092746],[16.679323,6.985982],[16.725109,6.875575],[16.763608,6.614351],[16.918792,6.453663],[17.040903,6.487718],[17.097851,6.411392],[16.961477,6.304396],[16.90794,6.106475],[16.978995,5.858816],[17.020905,5.725904],[17.099711,5.712882],[17.583092,5.720866],[17.89558,5.897599],[18.026838,5.801093],[18.256075,5.796907],[18.37276,5.686423],[18.422731,5.565139],[18.590628,5.644049],[18.634501,5.730632],[18.626905,6.001029],[18.748706,6.065186],[18.908696,6.207167],[18.864306,6.342404],[18.751962,6.514254],[18.85547,6.690703],[18.752168,6.750441],[18.655172,6.953013],[18.739404,7.074504],[18.720491,7.126568],[18.839192,7.263898],[18.732428,7.57052],[18.792786,7.646407],[18.981043,7.77503],[19.055509,8.067234],[19.064346,8.582861],[19.072261,8.631872]]]},"properties":{"LOCATION_TYPE":"level1","ADM0_A3":"CAF","LOCATION_ID":"CAF-AC","NAME":"Ouham","TYPE_EN":"Prefecture"}},
{"type":"Feature","geometry":{"type":"Polygon","coordinates":[[[16.815071,7.549544],[16.624546,7.66868],[16.548685,7.870012],[16.407401,7.796063],[16.370814,7.672504],[16.0652,7.591217],[15.92526,7.488175],[15.793899,7.457996],[15.668532,7.516287],[15.481049,7.523263],[15.432784,7.389731],[15.223908,7.247517],[15.042213,6.790775],[14.921874,6.686414],[15.175436,6.755324],[15.300648,6.578669],[15.329638,6.427205],[15.423999,6.301838],[15.540943,6.311372],[15.750646,6.419376],[15.705481,6.278248],[15.788835,6.153165],[15.824492,5.924522],[16.001225,5.799233],[16.104888,5.797838],[16.195219,5.906229],[16.436651,5.691384],[16.515044,5.56811],[16.600827,5.619916],[16.749035,5.779363],[16.978995,5.858816],[16.90794,6.106475],[16.961477,6.304396],[17.097851,6.411392],[17.040903,6.487718],[16.918792,6.453663],[16.763608,6.614351],[16.725109,6.875575],[16.679323,6.985982],[16.760507,7.092746],[16.754461,7.186151],[16.815071,7.549544]]]},"properties":{"LOCATION_TYPE":"level1","ADM0_A3":"CAF","LOCATION_ID":"CAF-OP","NAME":"Ouham-Pendé","TYPE_EN":"Prefecture"}},
{"type":"Feature","geometry":{"type":"Polygon","coordinates":[[[17.414489,3.683415],[17.337268,3.801551],[17.219342,3.86718],[16.93414,3.976579],[16.831097,4.146104],[16.737718,4.244702],[16.678393,4.258681],[16.598191,4.126777],[16.585324,3.999549],[16.431845,3.835761],[16.373347,3.889298],[16.050731,3.99092],[15.88733,3.969215],[15.731578,3.907204],[15.519756,3.741787],[15.458623,3.782534],[15.262306,3.662589],[15.78563,3.107977],[15.913995,3.097952],[15.982001,2.976719],[16.092382,2.863289],[16.062616,2.703195],[16.111502,2.5862],[16.090315,2.510494],[16.196665,2.236454],[16.479128,2.836314],[16.445538,2.95765],[16.490807,3.067824],[16.567701,3.464389],[16.639428,3.528597],[16.968607,3.533481],[17.334373,3.618514],[17.414489,3.683415]]]},"properties":{"LOCATION_TYPE":"level1","ADM0_A3":"CAF","LOCATION_ID":"CAF-SE","NAME":"Sangha-Mbaéré","TYPE_EN":"Economic Prefecture"}},
{"type":"Feature","geometry":{"type":"Polygon","coordinates":[[[14.921874,6.686414],[14.719029,6.257862],[14.534957,6.190088],[14.397705,6.019169],[14.482144,5.90964],[14.584773,5.923412],[14.631075,5.738049],[14.592835,5.62387],[14.597279,5.41148],[14.523899,5.279679],[14.624461,5.224049],[14.660132,5.01144],[14.958653,4.999928],[15.018546,4.942515],[15.138487,5.000083],[15.420434,5.00538],[15.498207,5.052689],[15.691838,5.020107],[15.666052,5.161391],[15.763359,5.233479],[15.787285,5.113668],[16.058999,5.081861],[16.525741,5.274898],[16.497164,5.412306],[16.515044,5.56811],[16.436651,5.691384],[16.195219,5.906229],[16.104888,5.797838],[16.001225,5.799233],[15.824492,5.924522],[15.788835,6.153165],[15.705481,6.278248],[15.750646,6.419376],[15.540943,6.311372],[15.423999,6.301838],[15.329638,6.427205],[15.300648,6.578669],[15.175436,6.755324],[14.921874,6.686414]]]},"properties":{"LOCATION_TYPE":"level1","ADM0_A3":"CAF","LOCATION_ID":"CAF-NM","NAME":"Nana-Mambéré","TYPE_EN":"Prefecture"}},
{"type":"Feature","geometry":{"type":"Polygon","coordinates":[[[14.660132,5.01144],[14.717272,4.622019],[14.779697,4.545047],[15.000562,4.403195],[15.072806,4.265942],[15.102571,4.112412],[15.084898,3.885836],[15.262306,3.662589],[15.458623,3.782534],[15.519756,3.741787],[15.731578,3.907204],[15.88733,3.969215],[16.050731,3.99092],[16.373347,3.889298],[16.431845,3.835761],[16.585324,3.999549],[16.598191,4.126777],[16.678393,4.258681],[16.737718,4.244702],[16.934295,4.514092],[16.830477,4.738316],[16.830477,4.867894],[17.017804,4.964323],[17.037493,5.024216],[16.996203,5.083023],[17.11847,5.165189],[17.033152,5.287636],[16.931504,5.362257],[16.672967,5.363342],[16.525741,5.274898],[16.058999,5.081861],[15.787285,5.113668],[15.763359,5.233479],[15.666052,5.161391],[15.691838,5.020107],[15.498207,5.052689],[15.420434,5.00538],[15.138487,5.000083],[15.018546,4.942515],[14.958653,4.999928],[14.660132,5.01144]]]},"properties":{"LOCATION_TYPE":"level1","ADM0_A3":"CAF","LOCATION_ID":"CAF-HS","NAME":"Mambéré-Kadéï","TYPE_EN":"Prefecture"}},
{"type":"Feature","geometry":{"type":"Polygon","coordinates":[[[19.064346,8.582861],[19.055509,8.067234],[18.981043,7.77503],[18.792786,7.646407],[18.732428,7.57052],[18.839192,7.263898],[18.720491,7.126568],[18.739404,7.074504],[18.655172,6.953013],[18.752168,6.750441],[18.85547,6.690703],[18.751962,6.514254],[18.976237,6.543115],[19.151576,6.440408],[19.533723,6.502162],[19.743064,6.476168],[19.878095,6.469657],[19.860369,6.581459],[19.921193,6.691556],[20.113481,6.900561],[20.155597,7.097242],[19.920883,7.246509],[19.885278,7.353402],[19.763321,7.447556],[19.73309,7.537783],[19.576873,7.585532],[19.593099,7.657259],[19.499461,7.739967],[19.356989,7.756116],[19.331875,7.944787],[19.356059,8.121727],[19.153746,8.404733],[19.064346,8.582861]]]},"properties":{"LOCATION_TYPE":"level1","ADM0_A3":"CAF","LOCATION_ID":"CAF-KB","NAME":"Nana-Grébizi","TYPE_EN":"Economic Prefecture"}}
]}