{"type":"FeatureCollection", "features": [
{"type":"Feature","geometry":{"type":"Polygon","coordinates":[[[6.788107,46.405008],[6.750368,46.345518],[6.827676,46.269477],[6.774346,46.134808],[6.853927,46.122612],[6.85093,46.049645],[6.915112,46.048612],[6.982808,45.995385],[7.066938,45.890223],[7.183726,45.880456],[7.286666,45.913426],[7.361803,45.907845],[7.541121,45.984119],[7.643027,45.966343],[7.69398,45.928671],[7.831232,45.91446],[7.898205,45.981949],[7.985848,45.999312],[8.018197,46.080858],[8.110595,46.126953],[8.129509,46.196044],[8.077315,46.262035],[8.192554,46.309164],[8.291462,46.378359],[8.316267,46.433653],[8.385907,46.450206],[8.395953,46.490858],[8.47693,46.531837],[8.40758,46.593177],[8.409441,46.655654],[8.338696,46.566254],[8.190332,46.521915],[8.003057,46.557443],[7.966108,46.515714],[7.844927,46.481298],[7.723126,46.420164],[7.624424,46.443367],[7.494716,46.373991],[7.404231,46.378565],[7.227807,46.331436],[7.184192,46.270639],[7.044873,46.189868],[6.8546,46.397737],[6.788107,46.405008]]]},"properties":{"LOCATION_TYPE":"level1","ADM0_A3":"CHE","LOCATION_ID":"CHE-VS","NAME":"Valais","TYPE_EN":"Canton"}},
{"type":"Feature","geometry":{"type":"Polygon","coordinates":[[[8.385907,46.450206],[8.441634,46.434945],[8.427165,46.251442],[8.51026,46.207878],[8.601831,46.122819],[8.71769,46.107523],[8.834375,46.066388],[8.767919,45.983086],[8.870962,45.947067],[8.939588,45.834826],[9.002427,45.820718],[9.059271,45.881955],[9.001703,45.93606],[9.002117,46.03931],[9.059168,46.061789],[9.072087,46.118892],[9.163788,46.172989],[9.087539,46.22059],[9.056998,46.298983],[9.097771,46.416134],[9.077307,46.482331],[9.015243,46.533465],[9.038498,46.590722],[8.95597,46.630642],[8.898093,46.58925],[8.788384,46.56814],[8.6779,46.583591],[8.548657,46.584986],[8.47693,46.531837],[8.395953,46.490858],[8.385907,46.450206]]]},"properties":{"LOCATION_TYPE":"level1","ADM0_A3":"CHE","LOCATION_ID":"CHE-TI","NAME":"Ticino","TYPE_EN":"Canton"}},
{"type":"Feature","geometry":{"type":"Polygon","coordinates":[[[9.163788,46.172989],[9.268974,46.309371],[9.263186,46.485122],[9.330986,46.501504],[9.437852,46.492047],[9.451598,46.370375],[9.559705,46.292731],[9.674324,46.291801],[9.709257,46.342392],[9.768065,46.33862],[9.899013,46.372158],[9.964022,46.356086],[9.977561,46.298105],[10.042673,46.220487],[10.158945,46.262449],[10.091766,46.328956],[10.133417,46.414016],[10.026344,46.446262],[10.032752,46.532975],[10.09745,46.608035],[10.192122,46.626819],[10.295371,46.551087],[10.425906,46.535326],[10.466627,46.604288],[10.369165,46.672398],[10.428696,46.755648],[10.458462,46.936619],[10.367925,46.995505],[10.235116,46.923313],[10.201423,46.86683],[10.1113,46.847116],[9.862426,46.939772],[9.857982,47.015478],[9.669053,47.056199],[9.477023,47.063898],[9.531956,46.983334],[9.461211,46.893779],[9.240863,46.92034],[9.115031,46.863961],[9.042373,46.871765],[9.003151,46.819623],[8.871686,46.815437],[8.785283,46.733272],[8.67945,46.694644],[8.653508,46.644285],[8.6779,46.583591],[8.788384,46.56814],[8.898093,46.58925],[8.95597,46.630642],[9.038498,46.590722],[9.015243,46.533465],[9.077307,46.482331],[9.097771,46.416134],[9.056998,46.298983],[9.087539,46.22059],[9.163788,46.172989]]]},"properties":{"LOCATION_TYPE":"level1","ADM0_A3":"CHE","LOCATION_ID":"CHE-GR","NAME":"Graubünden","TYPE_EN":"Canton"}},
{"type":"Feature","geometry":{"type":"Polygon","coordinates":[[[8.851935,47.671282],[8.635007,47.784604],[8.558216,47.801166],[8.463648,47.763907],[8.390991,47.692129],[8.458274,47.639884],[8.593589,47.658169],[8.640021,47.696314],[8.748645,47.646136],[8.788539,47.662621],[8.851935,47.671282]]]},"properties":{"LOCATION_TYPE":"level1","ADM0_A3":"CHE","LOCATION_ID":"CHE-SH","NAME":"Schaffhausen","TYPE_EN":"Canton"}},
{"type":"Feature","geometry":{"type":"Polygon","coordinates":[[[8.851935,47.671282],[8.788539,47.662621],[8.835874,47.548778],[8.891117,47.524903],[8.892512,47.408579],[8.932354,47.379951],[9.031211,47.496378],[9.255745,47.477412],[9.342975,47.507514],[9.387365,47.490693],[9.553059,47.516891],[9.547482,47.534547],[9.273211,47.65009],[9.183398,47.670425],[9.016586,47.6789],[8.906205,47.651795],[8.851935,47.671282]]]},"properties":{"LOCATION_TYPE":"level1","ADM0_A3":"CHE","LOCATION_ID":"CHE-TG","NAME":"Thurgau","TYPE_EN":"Canton"}},
{"type":"Feature","geometry":{"type":"Polygon","coordinates":[[[8.593589,47.658169],[8.576305,47.595023],[8.551719,47.596863],[8.522353,47.621901],[8.4211,47.581112],[8.352648,47.487644],[8.403549,47.41044],[8.407425,47.245514],[8.484526,47.213501],[8.570826,47.217325],[8.683481,47.165364],[8.775361,47.220581],[8.807607,47.253602],[8.920727,47.269105],[8.969148,47.317267],[8.932354,47.379951],[8.892512,47.408579],[8.891117,47.524903],[8.835874,47.548778],[8.788539,47.662621],[8.748645,47.646136],[8.640021,47.696314],[8.593589,47.658169]]]},"properties":{"LOCATION_TYPE":"level1","ADM0_A3":"CHE","LOCATION_ID":"CHE-ZH","NAME":"Zürich","TYPE_EN":"Canton"}},
{"type":"Feature","geometry":{"type":"Polygon","coordinates":[[[8.4211,47.581112],[8.179015,47.615803],[8.087237,47.567382],[7.912157,47.560561],[7.819657,47.595339],[7.72732,47.550423],[7.796196,47.514154],[7.849423,47.545341],[7.954946,47.457724],[8.029102,47.37915],[7.981611,47.328274],[7.901875,47.338299],[7.822913,47.268976],[7.839346,47.231846],[8.02042,47.243008],[8.089305,47.26125],[8.199789,47.23213],[8.288569,47.268071],[8.336835,47.173348],[8.405565,47.142317],[8.407425,47.245514],[8.403549,47.41044],[8.352648,47.487644],[8.4211,47.581112]]]},"properties":{"LOCATION_TYPE":"level1","ADM0_A3":"CHE","LOCATION_ID":"CHE-AG","NAME":"Aargau","TYPE_EN":"Canton"}},
{"type":"Feature","geometry":{"type":"Polygon","coordinates":[[[7.646901,47.551445],[7.637032,47.594977],[7.520867,47.563416],[7.58887,47.534877],[7.646901,47.551445]]]},"properties":{"LOCATION_TYPE":"level1","ADM0_A3":"CHE","LOCATION_ID":"CHE-BS","NAME":"Basel-Stadt","TYPE_EN":"Canton"}},
{"type":"Feature","geometry":{"type":"MultiPolygon","coordinates":[[[[7.72732,47.550423],[7.646901,47.551445],[7.58887,47.534877],[7.520867,47.563416],[7.485776,47.498768],[7.445996,47.486884],[7.420563,47.450857],[7.384232,47.413101],[7.437148,47.379279],[7.506808,47.388581],[7.713359,47.467336],[7.653776,47.368065],[7.805343,47.363595],[7.928901,47.407753],[7.954946,47.457724],[7.849423,47.545341],[7.796196,47.514154],[7.72732,47.550423]]],[[[7.388219,47.433289],[7.33693,47.431854],[7.384232,47.413101],[7.388219,47.433289]]]]},"properties":{"LOCATION_TYPE":"level1","ADM0_A3":"CHE","LOCATION_ID":"CHE-BL","NAME":"Basel-Landschaft","TYPE_EN":"Canton"}},
{"type":"Feature","geometry":{"type":"Polygon","coordinates":[[[9.553059,47.516891],[9.387365,47.490693],[9.342975,47.507514],[9.255745,47.477412],[9.031211,47.496378],[8.932354,47.379951],[8.969148,47.317267],[8.920727,47.269105],[8.807607,47.253602],[8.775361,47.220581],[8.924138,47.220451],[8.985116,47.16893],[9.179884,47.12224],[9.157819,47.031238],[9.237762,46.992326],[9.240863,46.92034],[9.461211,46.893779],[9.531956,46.983334],[9.477023,47.063898],[9.51237,47.10803],[9.484981,47.176346],[9.504618,47.243732],[9.649519,47.409717],[9.650346,47.452092],[9.553059,47.516891]],[[9.488186,47.353389],[9.43775,47.260992],[9.331503,47.253111],[9.217402,47.271534],[9.186086,47.357704],[9.22598,47.400311],[9.415426,47.416434],[9.526375,47.468343],[9.608437,47.449766],[9.581462,47.424392],[9.540483,47.397236],[9.486636,47.393619],[9.488186,47.353389]]]},"properties":{"LOCATION_TYPE":"level1","ADM0_A3":"CHE","LOCATION_ID":"CHE-SG","NAME":"Sankt Gallen","TYPE_EN":"Canton"}},
{"type":"Feature","geometry":{"type":"MultiPolygon","coordinates":[[[[7.388219,47.433289],[7.384232,47.413101],[7.420563,47.450857],[7.388219,47.433289]]],[[[7.55895,47.320652],[7.556314,47.318171],[7.533473,47.293574],[7.348833,47.216576],[7.437614,47.124282],[7.564531,47.166165],[7.676875,47.178774],[7.583444,47.277554],[7.686332,47.294219],[7.72018,47.266573],[7.822913,47.268976],[7.901875,47.338299],[7.981611,47.328274],[8.029102,47.37915],[7.954946,47.457724],[7.928901,47.407753],[7.805343,47.363595],[7.653776,47.368065],[7.713359,47.467336],[7.506808,47.388581],[7.437148,47.379279],[7.554454,47.344036],[7.55895,47.320652]]]]},"properties":{"LOCATION_TYPE":"level1","ADM0_A3":"CHE","LOCATION_ID":"CHE-SO","NAME":"Solothurn","TYPE_EN":"Canton"}},
{"type":"Feature","geometry":{"type":"Polygon","coordinates":[[[7.33693,47.431854],[7.244808,47.417727],[7.168327,47.443565],[7.103731,47.496275],[6.9733,47.489092],[6.990973,47.452221],[6.898783,47.395713],[7.044303,47.340497],[6.958624,47.290551],[6.956247,47.245231],[6.838076,47.168132],[6.849794,47.16508],[6.993506,47.184355],[7.074328,47.243163],[7.154737,47.247504],[7.174891,47.297113],[7.259175,47.285486],[7.387177,47.312616],[7.556314,47.318171],[7.55895,47.320652],[7.554454,47.344036],[7.437148,47.379279],[7.384232,47.413101],[7.33693,47.431854]]]},"properties":{"LOCATION_TYPE":"level1","ADM0_A3":"CHE","LOCATION_ID":"CHE-JU","NAME":"Jura","TYPE_EN":"Canton"}},
{"type":"Feature","geometry":{"type":"Polygon","coordinates":[[[6.118607,46.331771],[6.089685,46.246377],[5.95853,46.211961],[5.982921,46.140441],[6.140328,46.150207],[6.281198,46.240073],[6.216594,46.309504],[6.118607,46.331771]]]},"properties":{"LOCATION_TYPE":"level1","ADM0_A3":"CHE","LOCATION_ID":"CHE-GE","NAME":"Genève","TYPE_EN":"Canton"}},
{"type":"Feature","geometry":{"type":"MultiPolygon","coordinates":[[[[6.118607,46.331771],[6.216594,46.309504],[6.301558,46.394482],[6.397676,46.408176],[6.482942,46.448587],[6.613684,46.455899],[6.762667,46.42926],[6.788107,46.405008],[6.8546,46.397737],[7.044873,46.189868],[7.184192,46.270639],[7.227807,46.331436],[7.200367,46.384663],[7.254317,46.534318],[7.242535,46.556073],[7.155202,46.5276],[7.000328,46.444504],[6.974696,46.490444],[6.894804,46.522794],[6.897595,46.561344],[6.807006,46.580671],[6.809176,46.651365],[6.864109,46.662062],[6.93997,46.741023],[7.000638,46.841172],[6.907362,46.925456],[6.875116,46.907163],[6.929583,46.852153],[6.918524,46.786188],[6.793467,46.790374],[6.766027,46.84528],[6.725512,46.93897],[6.513071,46.855435],[6.443118,46.851455],[6.429199,46.760816],[6.266315,46.680356],[6.131853,46.595607],[6.145702,46.55163],[6.064157,46.471118],[6.065707,46.427012],[6.135057,46.370401],[6.118607,46.331771]]],[[[7.021102,46.989664],[6.945861,46.947186],[7.039137,46.862075],[7.094069,46.90768],[7.062391,46.978218],[7.021102,46.989664]]]]},"properties":{"LOCATION_TYPE":"level1","ADM0_A3":"CHE","LOCATION_ID":"CHE-VD","NAME":"Vaud","TYPE_EN":"Canton"}},
{"type":"Feature","geometry":{"type":"Polygon","coordinates":[[[6.443118,46.851455],[6.513071,46.855435],[6.725512,46.93897],[6.766027,46.84528],[6.875116,46.907163],[6.907362,46.925456],[6.945861,46.947186],[7.021102,46.989664],[7.082545,47.095989],[7.039137,47.123351],[6.879766,47.089788],[6.849794,47.16508],[6.838076,47.168132],[6.699105,47.084621],[6.665412,47.021291],[6.598698,46.986539],[6.442635,46.944164],[6.443118,46.851455]]]},"properties":{"LOCATION_TYPE":"level1","ADM0_A3":"CHE","LOCATION_ID":"CHE-NE","NAME":"Neuchâtel","TYPE_EN":"Canton"}},
{"type":"Feature","geometry":{"type":"Polygon","coordinates":[[[8.446234,46.769213],[8.391612,46.775104],[8.368151,46.789496],[8.290895,46.761694],[8.158086,46.759007],[8.043726,46.788333],[7.977116,46.77885],[7.870507,46.850319],[7.875675,46.924371],[7.952466,47.002713],[7.873349,47.048136],[7.887147,47.128338],[7.839346,47.231846],[7.822913,47.268976],[7.72018,47.266573],[7.686332,47.294219],[7.583444,47.277554],[7.676875,47.178774],[7.564531,47.166165],[7.437614,47.124282],[7.348833,47.216576],[7.533473,47.293574],[7.556314,47.318171],[7.387177,47.312616],[7.259175,47.285486],[7.174891,47.297113],[7.154737,47.247504],[7.074328,47.243163],[6.993506,47.184355],[6.849794,47.16508],[6.879766,47.089788],[7.039137,47.123351],[7.082545,47.095989],[7.021102,46.989664],[7.062391,46.978218],[7.21587,47.004185],[7.205328,46.908713],[7.355655,46.891247],[7.314882,46.8559],[7.312712,46.72273],[7.382682,46.690794],[7.319688,46.639608],[7.319068,46.587648],[7.242535,46.556073],[7.254317,46.534318],[7.200367,46.384663],[7.227807,46.331436],[7.404231,46.378565],[7.494716,46.373991],[7.624424,46.443367],[7.723126,46.420164],[7.844927,46.481298],[7.966108,46.515714],[8.003057,46.557443],[8.190332,46.521915],[8.338696,46.566254],[8.409441,46.655654],[8.444684,46.691052],[8.446234,46.769213]]]},"properties":{"LOCATION_TYPE":"level1","ADM0_A3":"CHE","LOCATION_ID":"CHE-BE","NAME":"Bern","TYPE_EN":"Canton"}},
{"type":"Feature","geometry":{"type":"Polygon","coordinates":[[[8.405565,47.142317],[8.336835,47.173348],[8.288569,47.268071],[8.199789,47.23213],[8.089305,47.26125],[8.02042,47.243008],[7.839346,47.231846],[7.887147,47.128338],[7.873349,47.048136],[7.952466,47.002713],[7.875675,46.924371],[7.870507,46.850319],[7.977116,46.77885],[8.043726,46.788333],[8.076748,46.898223],[8.171574,46.967986],[8.227126,46.971629],[8.268106,46.997907],[8.465148,46.993282],[8.498066,47.026561],[8.387736,47.070926],[8.442358,47.1133],[8.405565,47.142317]]]},"properties":{"LOCATION_TYPE":"level1","ADM0_A3":"CHE","LOCATION_ID":"CHE-LU","NAME":"Lucerne","TYPE_EN":"Canton"}},
{"type":"Feature","geometry":{"type":"Polygon","coordinates":[[[8.442358,47.1133],[8.567105,47.087359],[8.63754,47.100174],[8.683481,47.165364],[8.570826,47.217325],[8.484526,47.213501],[8.407425,47.245514],[8.405565,47.142317],[8.442358,47.1133]]]},"properties":{"LOCATION_TYPE":"level1","ADM0_A3":"CHE","LOCATION_ID":"CHE-ZG","NAME":"Zug","TYPE_EN":"Canton"}},
{"type":"Feature","geometry":{"type":"Polygon","coordinates":[[[8.930339,46.922201],[8.841145,46.892073],[8.810553,46.935094],[8.60917,46.959563],[8.561679,46.988114],[8.548037,46.947186],[8.458792,46.901427],[8.472589,46.855719],[8.446234,46.769213],[8.444684,46.691052],[8.409441,46.655654],[8.40758,46.593177],[8.47693,46.531837],[8.548657,46.584986],[8.6779,46.583591],[8.653508,46.644285],[8.67945,46.694644],[8.785283,46.733272],[8.871686,46.815437],[8.937315,46.871145],[8.930339,46.922201]]]},"properties":{"LOCATION_TYPE":"level1","ADM0_A3":"CHE","LOCATION_ID":"CHE-UR","NAME":"Uri","TYPE_EN":"Canton"}},
{"type":"Feature","geometry":{"type":"Polygon","coordinates":[[[8.561679,46.988114],[8.60917,46.959563],[8.810553,46.935094],[8.841145,46.892073],[8.930339,46.922201],[8.960311,46.954964],[8.889876,47.026484],[8.957366,47.080253],[8.985116,47.16893],[8.924138,47.220451],[8.775361,47.220581],[8.683481,47.165364],[8.63754,47.100174],[8.567105,47.087359],[8.442358,47.1133],[8.387736,47.070926],[8.498066,47.026561],[8.465148,46.993282],[8.561679,46.988114]]]},"properties":{"LOCATION_TYPE":"level1","ADM0_A3":"CHE","LOCATION_ID":"CHE-SZ","NAME":"Schwyz","TYPE_EN":"Canton"}},
{"type":"Feature","geometry":{"type":"Polygon","coordinates":[[[8.930339,46.922201],[8.937315,46.871145],[8.871686,46.815437],[9.003151,46.819623],[9.042373,46.871765],[9.115031,46.863961],[9.240863,46.92034],[9.237762,46.992326],[9.157819,47.031238],[9.179884,47.12224],[8.985116,47.16893],[8.957366,47.080253],[8.889876,47.026484],[8.960311,46.954964],[8.930339,46.922201]]]},"properties":{"LOCATION_TYPE":"level1","ADM0_A3":"CHE","LOCATION_ID":"CHE-GL","NAME":"Glarus","TYPE_EN":"Canton"}},
{"type":"Feature","geometry":{"type":"Polygon","coordinates":[[[8.465148,46.993282],[8.268106,46.997907],[8.227126,46.971629],[8.307638,46.967289],[8.333425,46.913519],[8.326758,46.817504],[8.368151,46.789496],[8.391612,46.775104],[8.360245,46.867217],[8.472589,46.855719],[8.458792,46.901427],[8.548037,46.947186],[8.561679,46.988114],[8.465148,46.993282]]]},"properties":{"LOCATION_TYPE":"level1","ADM0_A3":"CHE","LOCATION_ID":"CHE-NW","NAME":"Nidwalden","TYPE_EN":"Canton"}},
{"type":"Feature","geometry":{"type":"MultiPolygon","coordinates":[[[[7.242535,46.556073],[7.319068,46.587648],[7.319688,46.639608],[7.382682,46.690794],[7.312712,46.72273],[7.314882,46.8559],[7.355655,46.891247],[7.205328,46.908713],[7.21587,47.004185],[7.062391,46.978218],[7.094069,46.90768],[7.039137,46.862075],[6.945861,46.947186],[6.907362,46.925456],[7.000638,46.841172],[6.93997,46.741023],[6.864109,46.662062],[6.809176,46.651365],[6.807006,46.580671],[6.897595,46.561344],[6.894804,46.522794],[6.974696,46.490444],[7.000328,46.444504],[7.155202,46.5276],[7.242535,46.556073]]],[[[6.875116,46.907163],[6.766027,46.84528],[6.793467,46.790374],[6.918524,46.786188],[6.929583,46.852153],[6.875116,46.907163]]]]},"properties":{"LOCATION_TYPE":"level1","ADM0_A3":"CHE","LOCATION_ID":"CHE-FR","NAME":"Fribourg","TYPE_EN":"Canton"}},
{"type":"Feature","geometry":{"type":"MultiPolygon","coordinates":[[[[8.368151,46.789496],[8.326758,46.817504],[8.333425,46.913519],[8.307638,46.967289],[8.227126,46.971629],[8.171574,46.967986],[8.076748,46.898223],[8.043726,46.788333],[8.158086,46.759007],[8.290895,46.761694],[8.368151,46.789496]]],[[[8.391612,46.775104],[8.446234,46.769213],[8.472589,46.855719],[8.360245,46.867217],[8.391612,46.775104]]]]},"properties":{"LOCATION_TYPE":"level1","ADM0_A3":"CHE","LOCATION_ID":"CHE-OW","NAME":"Obwalden","TYPE_EN":"Canton"}},
{"type":"Feature","geometry":{"type":"Polygon","coordinates":[[[9.486636,47.393619],[9.540483,47.397236],[9.581462,47.424392],[9.608437,47.449766],[9.526375,47.468343],[9.415426,47.416434],[9.22598,47.400311],[9.186086,47.357704],[9.217402,47.271534],[9.331503,47.253111],[9.302771,47.303547],[9.349797,47.388012],[9.488186,47.353389],[9.486636,47.393619]]]},"properties":{"LOCATION_TYPE":"level1","ADM0_A3":"CHE","LOCATION_ID":"CHE-AR","NAME":"Appenzell Ausserrhoden","TYPE_EN":"Canton"}},
{"type":"Feature","geometry":{"type":"Polygon","coordinates":[[[9.488186,47.353389],[9.349797,47.388012],[9.302771,47.303547],[9.331503,47.253111],[9.43775,47.260992],[9.488186,47.353389]]]},"properties":{"LOCATION_TYPE":"level1","ADM0_A3":"CHE","LOCATION_ID":"CHE-AI","NAME":"Appenzell Innerrhoden","TYPE_EN":"Canton"}}
]}