{"type":"FeatureCollection", "features": [
{"type":"Feature","geometry":{"type":"Polygon","coordinates":[[[-68.989609,-18.946491],[-68.954649,-18.856987],[-69.01015,-18.745263],[-69.042835,-18.600466],[-69.034386,-18.478303],[-69.07782,-18.398824],[-69.100351,-18.234286],[-69.155438,-18.140235],[-69.089215,-18.083081],[-69.14084,-18.030785],[-69.302406,-17.976214],[-69.334239,-17.805785],[-69.47578,-17.65241],[-69.510089,-17.506588],[-69.683902,-17.656036],[-69.818054,-17.659137],[-69.857561,-17.734171],[-69.783095,-17.981598],[-69.865338,-18.144585],[-69.970345,-18.250625],[-70.134159,-18.318942],[-70.394703,-18.337746],[-70.303561,-18.445439],[-70.350453,-18.636326],[-70.356597,-18.77337],[-70.270334,-19.171482],[-70.211626,-19.155781],[-70.013189,-19.045556],[-69.788293,-18.988195],[-69.660419,-18.988195],[-69.558979,-19.027882],[-69.461982,-19.032326],[-69.298814,-19.089636],[-69.19298,-19.102865],[-69.078336,-19.049948],[-68.989609,-18.946491]]]},"properties":{"LOCATION_TYPE":"level1","ADM0_A3":"CHL","LOCATION_ID":"CHL-AP","NAME":"Arica y Parinacota","TYPE_EN":"Region"}},
{"type":"Feature","geometry":{"type":"Polygon","coordinates":[[[-68.989609,-18.946491],[-69.078336,-19.049948],[-69.19298,-19.102865],[-69.298814,-19.089636],[-69.461982,-19.032326],[-69.558979,-19.027882],[-69.660419,-18.988195],[-69.788293,-18.988195],[-70.013189,-19.045556],[-70.211626,-19.155781],[-70.270334,-19.171482],[-70.28775,-19.300958],[-70.226308,-19.410821],[-70.199574,-19.534356],[-70.21442,-19.596359],[-70.151194,-19.719415],[-70.158599,-19.818455],[-70.12328,-20.072198],[-70.160471,-20.22088],[-70.130727,-20.266778],[-70.192128,-20.366795],[-70.166686,-20.448069],[-70.2058,-20.52809],[-70.205637,-20.739353],[-70.127462,-20.935275],[-70.164422,-21.040498],[-70.080094,-21.233325],[-70.094106,-21.345473],[-70.061354,-21.448342],[-69.913298,-21.4513],[-69.813382,-21.389495],[-69.612722,-21.393216],[-69.505933,-21.444634],[-69.344909,-21.417142],[-69.121408,-21.33725],[-68.794348,-21.240874],[-68.653453,-21.100624],[-68.569685,-21.073235],[-68.531554,-20.927688],[-68.57196,-20.872368],[-68.572786,-20.742867],[-68.481629,-20.643028],[-68.510206,-20.601894],[-68.685544,-20.516834],[-68.769028,-20.390537],[-68.678516,-20.328629],[-68.729469,-20.228687],[-68.726265,-20.150965],[-68.775539,-20.089677],[-68.588341,-20.055571],[-68.541574,-19.920385],[-68.553511,-19.857857],[-68.698412,-19.746339],[-68.496357,-19.458398],[-68.493205,-19.376956],[-68.663324,-19.273603],[-68.698464,-19.215622],[-68.815407,-19.113303],[-68.91969,-19.053771],[-68.989609,-18.946491]]]},"properties":{"LOCATION_TYPE":"level1","ADM0_A3":"CHL","LOCATION_ID":"CHL-TA","NAME":"Tarapacá","TYPE_EN":"Region"}},
{"type":"Feature","geometry":{"type":"Polygon","coordinates":[[[-68.531554,-20.927688],[-68.569685,-21.073235],[-68.653453,-21.100624],[-68.794348,-21.240874],[-69.121408,-21.33725],[-69.344909,-21.417142],[-69.505933,-21.444634],[-69.612722,-21.393216],[-69.813382,-21.389495],[-69.913298,-21.4513],[-70.061354,-21.448342],[-70.103645,-21.608699],[-70.151967,-21.664809],[-70.150054,-21.861993],[-70.200103,-22.005548],[-70.254221,-22.456638],[-70.278554,-22.556736],[-70.281117,-22.695245],[-70.312571,-22.790623],[-70.297027,-22.917739],[-70.372859,-23.050874],[-70.450751,-23.097075],[-70.506174,-23.010024],[-70.562245,-23.059828],[-70.567795,-23.200222],[-70.600123,-23.244225],[-70.585072,-23.423598],[-70.60583,-23.510653],[-70.539315,-23.532273],[-70.496983,-23.469472],[-70.413085,-23.511253],[-70.405263,-23.650811],[-70.498525,-23.784601],[-70.5006,-23.912693],[-70.526357,-23.99627],[-70.500315,-24.097426],[-70.5537,-24.364841],[-70.541917,-24.415229],[-70.582834,-24.524835],[-70.554799,-24.60589],[-70.576405,-24.731703],[-70.520985,-24.919041],[-70.472727,-24.975274],[-70.497182,-25.104262],[-70.437001,-25.193455],[-70.444814,-25.344903],[-70.513661,-25.386326],[-70.530914,-25.456801],[-70.651438,-25.540785],[-70.634775,-25.625502],[-70.692454,-25.691339],[-70.710357,-25.835382],[-70.648915,-25.943617],[-70.634636,-26.028631],[-70.551399,-25.921673],[-70.398695,-25.823075],[-70.271416,-25.826227],[-70.147341,-25.737137],[-70.055072,-25.721272],[-70.013705,-25.759409],[-69.883248,-25.746697],[-69.71145,-25.660811],[-69.568255,-25.648047],[-69.441001,-25.679879],[-69.079525,-25.649545],[-68.99984,-25.495549],[-69.000201,-25.38274],[-68.716679,-25.379432],[-68.554228,-25.291192],[-68.516046,-25.183578],[-68.367373,-25.103376],[-68.443544,-25.021107],[-68.479304,-24.899564],[-68.555165,-24.862151],[-68.572373,-24.769856],[-68.503695,-24.612347],[-68.437704,-24.579687],[-68.397655,-24.500519],[-68.314043,-24.48729],[-68.244486,-24.385384],[-68.010237,-24.295053],[-67.362369,-24.030367],[-67.339787,-24.000601],[-67.019548,-23.031926],[-67.013967,-23.000714],[-67.193904,-22.822223],[-67.547113,-22.892503],[-67.77144,-22.888679],[-67.876343,-22.833592],[-67.891329,-22.715667],[-67.858721,-22.566838],[-67.94528,-22.354242],[-67.934789,-22.251716],[-67.990186,-22.057619],[-68.096226,-21.953956],[-68.107595,-21.789625],[-68.198442,-21.57186],[-68.19374,-21.328464],[-68.207537,-21.284333],[-68.41631,-20.959805],[-68.531554,-20.927688]]]},"properties":{"LOCATION_TYPE":"level1","ADM0_A3":"CHL","LOCATION_ID":"CHL-AN","NAME":"Antofagasta","TYPE_EN":"Region"}},
{"type":"Feature","geometry":{"type":"Polygon","coordinates":[[[-68.554228,-25.291192],[-68.716679,-25.379432],[-69.000201,-25.38274],[-68.99984,-25.495549],[-69.079525,-25.649545],[-69.441001,-25.679879],[-69.568255,-25.648047],[-69.71145,-25.660811],[-69.883248,-25.746697],[-70.013705,-25.759409],[-70.055072,-25.721272],[-70.147341,-25.737137],[-70.271416,-25.826227],[-70.398695,-25.823075],[-70.551399,-25.921673],[-70.634636,-26.028631],[-70.671946,-26.160821],[-70.642413,-26.315331],[-70.706654,-26.492852],[-70.692454,-26.544366],[-70.732467,-26.749281],[-70.786041,-26.788018],[-70.822743,-26.886977],[-70.788645,-26.99627],[-70.870839,-27.117852],[-70.95995,-27.161391],[-70.932688,-27.298028],[-70.94579,-27.37184],[-70.891672,-27.493097],[-70.912424,-27.62184],[-71.038686,-27.666436],[-71.097157,-27.873956],[-71.138092,-27.945977],[-71.17394,-28.36061],[-71.210357,-28.44671],[-71.269887,-28.486017],[-71.312611,-28.583429],[-71.301869,-28.6749],[-71.391347,-28.799493],[-71.487782,-28.845147],[-71.521962,-28.940118],[-71.487538,-29.035577],[-71.487121,-29.211343],[-71.392355,-29.184472],[-71.264198,-29.230153],[-71.199318,-29.33547],[-71.022093,-29.36136],[-70.974706,-29.206641],[-70.793787,-29.161941],[-70.672761,-29.071042],[-70.573826,-29.117137],[-70.470318,-29.474945],[-70.423474,-29.554061],[-70.274335,-29.690952],[-70.089153,-29.746969],[-69.929353,-29.717877],[-69.973192,-29.666095],[-69.968464,-29.583309],[-70.042619,-29.363064],[-70.031121,-29.277178],[-69.910948,-29.143233],[-69.803926,-29.098688],[-69.806613,-28.959885],[-69.735842,-28.8124],[-69.740855,-28.640628],[-69.674838,-28.563113],[-69.653031,-28.397852],[-69.510094,-28.267524],[-69.420306,-28.212644],[-69.303233,-27.99953],[-69.173008,-27.924083],[-69.124329,-27.73443],[-69.028573,-27.551289],[-69.01015,-27.448866],[-68.931447,-27.395226],[-68.883052,-27.294974],[-68.879719,-27.22149],[-68.801093,-27.112763],[-68.718617,-27.106665],[-68.585861,-27.162785],[-68.518009,-27.076899],[-68.330476,-27.044963],[-68.302105,-26.926624],[-68.32014,-26.87009],[-68.570151,-26.550626],[-68.595317,-26.457299],[-68.575164,-26.30351],[-68.419876,-26.179279],[-68.417085,-26.0936],[-68.498476,-25.754913],[-68.559351,-25.663032],[-68.55501,-25.572598],[-68.602914,-25.51069],[-68.605963,-25.436999],[-68.554228,-25.291192]]]},"properties":{"LOCATION_TYPE":"level1","ADM0_A3":"CHL","LOCATION_ID":"CHL-AT","NAME":"Atacama","TYPE_EN":"Region"}},
{"type":"Feature","geometry":{"type":"Polygon","coordinates":[[[-69.929353,-29.717877],[-70.089153,-29.746969],[-70.274335,-29.690952],[-70.423474,-29.554061],[-70.470318,-29.474945],[-70.573826,-29.117137],[-70.672761,-29.071042],[-70.793787,-29.161941],[-70.974706,-29.206641],[-71.022093,-29.36136],[-71.199318,-29.33547],[-71.264198,-29.230153],[-71.392355,-29.184472],[-71.487121,-29.211343],[-71.376088,-29.282403],[-71.30724,-29.421157],[-71.336049,-29.524998],[-71.288075,-29.603123],[-71.323069,-29.655938],[-71.324127,-29.787286],[-71.28661,-29.910252],[-71.412465,-29.991795],[-71.382558,-30.147719],[-71.445912,-30.162367],[-71.517568,-30.278578],[-71.639231,-30.252211],[-71.676829,-30.342543],[-71.71345,-30.614923],[-71.707265,-30.779474],[-71.654937,-30.976007],[-71.667836,-31.150486],[-71.570383,-31.591567],[-71.514963,-31.775486],[-71.539622,-31.83766],[-71.507721,-31.977472],[-71.54384,-32.193027],[-71.424291,-32.038199],[-71.338999,-32.07923],[-71.138495,-31.989055],[-71.045425,-32.030654],[-70.959875,-31.973914],[-70.721233,-32.030499],[-70.645476,-32.092718],[-70.510548,-32.142534],[-70.462102,-32.205424],[-70.330824,-32.209588],[-70.384614,-32.06197],[-70.275422,-32.037785],[-70.241703,-31.961459],[-70.313326,-31.882084],[-70.42828,-31.870095],[-70.483988,-31.797645],[-70.591371,-31.549598],[-70.568969,-31.304238],[-70.535922,-31.172566],[-70.479802,-31.096705],[-70.380893,-31.121613],[-70.339785,-31.041722],[-70.319476,-30.800806],[-70.217105,-30.515139],[-70.151191,-30.459742],[-70.146928,-30.353908],[-70.030191,-30.39711],[-69.902809,-30.312671],[-69.849737,-30.126635],[-69.975621,-30.058629],[-69.922187,-29.939567],[-69.929353,-29.717877]]]},"properties":{"LOCATION_TYPE":"level1","ADM0_A3":"CHL","LOCATION_ID":"CHL-CO","NAME":"Coquimbo","TYPE_EN":"Region"}},
{"type":"Feature","geometry":{"type":"Polygon","coordinates":[[[-70.106101,-33.052593],[-70.150984,-33.058085],[-70.302008,-33.17136],[-70.4058,-33.08599],[-70.491066,-33.070384],[-70.616227,-32.973646],[-70.676507,-33.013282],[-70.742653,-32.95804],[-70.918301,-32.98486],[-71.065605,-33.05793],[-71.444316,-33.33688],[-71.451189,-33.433308],[-71.366724,-33.512683],[-71.367189,-33.673758],[-71.420958,-33.729827],[-71.400675,-33.79711],[-71.519763,-33.836384],[-71.597304,-33.913589],[-71.717942,-33.971156],[-71.62384,-34.039886],[-71.558004,-34.021437],[-71.356362,-34.10412],[-71.298201,-34.086911],[-71.182368,-34.164788],[-70.987625,-34.173263],[-70.815,-34.02738],[-70.811564,-33.957565],[-70.586461,-33.934001],[-70.456004,-33.898809],[-70.368102,-33.967332],[-70.329888,-34.044175],[-70.204469,-34.07146],[-70.146359,-34.175278],[-70.048176,-34.283462],[-69.911568,-34.284573],[-69.832761,-34.243232],[-69.87325,-34.139982],[-69.855809,-33.984746],[-69.909552,-33.955704],[-69.914772,-33.793543],[-69.860046,-33.726364],[-69.895367,-33.662285],[-69.787674,-33.379408],[-69.813899,-33.289491],[-69.905289,-33.238228],[-70.010011,-33.299103],[-70.100833,-33.186862],[-70.106101,-33.052593]]]},"properties":{"LOCATION_TYPE":"level1","ADM0_A3":"CHL","LOCATION_ID":"CHL-RM","NAME":"Región Metropolitana de Santiago","TYPE_EN":"Region"}},
{"type":"Feature","geometry":{"type":"MultiPolygon","coordinates":[[[[-70.106101,-33.052593],[-70.034248,-32.976952],[-70.000219,-32.876597],[-70.140029,-32.768283],[-70.18044,-32.630204],[-70.172482,-32.464942],[-70.24532,-32.403964],[-70.242374,-32.330274],[-70.321801,-32.280147],[-70.330824,-32.209588],[-70.462102,-32.205424],[-70.510548,-32.142534],[-70.645476,-32.092718],[-70.721233,-32.030499],[-70.959875,-31.973914],[-71.045425,-32.030654],[-71.138495,-31.989055],[-71.338999,-32.07923],[-71.424291,-32.038199],[-71.54384,-32.193027],[-71.412465,-32.369561],[-71.476715,-32.535252],[-71.445912,-32.642755],[-71.501129,-32.766778],[-71.547922,-32.795505],[-71.5183,-32.873142],[-71.568227,-33.001886],[-71.645741,-33.018976],[-71.720326,-33.167576],[-71.67219,-33.358575],[-71.705922,-33.43434],[-71.640777,-33.500584],[-71.654368,-33.656508],[-71.687652,-33.72088],[-71.808095,-33.776951],[-71.871254,-33.932804],[-71.717942,-33.971156],[-71.597304,-33.913589],[-71.519763,-33.836384],[-71.400675,-33.79711],[-71.420958,-33.729827],[-71.367189,-33.673758],[-71.366724,-33.512683],[-71.451189,-33.433308],[-71.444316,-33.33688],[-71.065605,-33.05793],[-70.918301,-32.98486],[-70.742653,-32.95804],[-70.676507,-33.013282],[-70.616227,-32.973646],[-70.491066,-33.070384],[-70.4058,-33.08599],[-70.302008,-33.17136],[-70.150984,-33.058085],[-70.106101,-33.052593]]],[[[-109.231597,-27.092462],[-109.366322,-27.061782],[-109.423411,-27.099298],[-109.453725,-27.187758],[-109.24356,-27.129164],[-109.231597,-27.092462]]]]},"properties":{"LOCATION_TYPE":"level1","ADM0_A3":"CHL","LOCATION_ID":"CHL-VS","NAME":"Valparaíso","TYPE_EN":"Region"}},
{"type":"Feature","geometry":{"type":"Polygon","coordinates":[[[-70.372447,-35.027389],[-70.517111,-34.999879],[-70.680538,-35.000499],[-70.808825,-34.915285],[-70.956955,-34.91544],[-71.188647,-34.819942],[-71.325718,-34.84516],[-71.44429,-34.930116],[-71.641177,-34.921434],[-71.736804,-34.951045],[-71.818066,-34.875339],[-71.942606,-34.850327],[-72.103017,-34.760919],[-72.187815,-34.885512],[-72.23058,-35.116143],[-72.364003,-35.207778],[-72.481313,-35.363214],[-72.529652,-35.490411],[-72.646596,-35.566583],[-72.600657,-35.691013],[-72.597971,-35.810154],[-72.780141,-35.952569],[-72.799135,-36.053102],[-72.698219,-36.012685],[-72.49606,-36.059866],[-72.38304,-36.187401],[-72.190403,-36.195605],[-72.05061,-36.124048],[-71.862726,-36.225675],[-71.414723,-36.426077],[-71.157512,-36.410749],[-71.069222,-36.419069],[-71.027819,-36.481168],[-70.934968,-36.472553],[-70.890371,-36.400413],[-70.807198,-36.433382],[-70.71865,-36.414572],[-70.703122,-36.26006],[-70.588477,-36.150195],[-70.451483,-36.152262],[-70.380325,-36.046016],[-70.420245,-35.868352],[-70.357329,-35.815229],[-70.421537,-35.659683],[-70.40823,-35.506204],[-70.445463,-35.461142],[-70.47528,-35.314071],[-70.560417,-35.298361],[-70.542899,-35.209271],[-70.386629,-35.16669],[-70.372447,-35.027389]]]},"properties":{"LOCATION_TYPE":"level1","ADM0_A3":"CHL","LOCATION_ID":"CHL-ML","NAME":"Maule","TYPE_EN":"Region"}},
{"type":"Feature","geometry":{"type":"Polygon","coordinates":[[[-70.048176,-34.283462],[-70.146359,-34.175278],[-70.204469,-34.07146],[-70.329888,-34.044175],[-70.368102,-33.967332],[-70.456004,-33.898809],[-70.586461,-33.934001],[-70.811564,-33.957565],[-70.815,-34.02738],[-70.987625,-34.173263],[-71.182368,-34.164788],[-71.298201,-34.086911],[-71.356362,-34.10412],[-71.558004,-34.021437],[-71.62384,-34.039886],[-71.717942,-33.971156],[-71.871254,-33.932804],[-72.026845,-34.162693],[-71.995229,-34.212498],[-71.995229,-34.37005],[-72.048085,-34.403904],[-72.05724,-34.658787],[-72.103017,-34.760919],[-71.942606,-34.850327],[-71.818066,-34.875339],[-71.736804,-34.951045],[-71.641177,-34.921434],[-71.44429,-34.930116],[-71.325718,-34.84516],[-71.188647,-34.819942],[-70.956955,-34.91544],[-70.808825,-34.915285],[-70.680538,-35.000499],[-70.517111,-34.999879],[-70.372447,-35.027389],[-70.276713,-34.798237],[-70.316298,-34.74563],[-70.252219,-34.695814],[-70.227828,-34.58533],[-70.058691,-34.395781],[-70.048176,-34.283462]]]},"properties":{"LOCATION_TYPE":"level1","ADM0_A3":"CHL","LOCATION_ID":"CHL-LI","NAME":"Libertador General Bernardo O'Higgins","TYPE_EN":"Region"}},
{"type":"Feature","geometry":{"type":"Polygon","coordinates":[[[-71.027819,-36.481168],[-71.069222,-36.419069],[-71.157512,-36.410749],[-71.414723,-36.426077],[-71.862726,-36.225675],[-72.05061,-36.124048],[-72.190403,-36.195605],[-72.38304,-36.187401],[-72.49606,-36.059866],[-72.698219,-36.012685],[-72.799135,-36.053102],[-72.837514,-36.179376],[-72.832346,-36.308038],[-72.895863,-36.438084],[-72.817684,-36.458719],[-72.79825,-36.605965],[-72.62038,-36.698218],[-72.539015,-36.927802],[-72.385944,-36.924839],[-72.315014,-36.983228],[-72.191889,-37.033175],[-72.259358,-37.09805],[-72.266393,-37.174001],[-72.203955,-37.198294],[-71.857236,-37.161478],[-71.729622,-37.117673],[-71.572324,-37.130944],[-71.519076,-37.069028],[-71.397104,-37.038898],[-71.299818,-37.09374],[-71.089119,-37.103419],[-71.139555,-37.061664],[-71.158778,-36.882657],[-71.195159,-36.839146],[-71.145343,-36.68825],[-71.055322,-36.671301],[-71.06142,-36.520405],[-71.027819,-36.481168]]]},"properties":{"LOCATION_TYPE":"level1","ADM0_A3":"CHL","LOCATION_ID":"CHL-NB","NAME":"Ñuble","TYPE_EN":"Region"}},
{"type":"Feature","geometry":{"type":"Polygon","coordinates":[[[-71.016142,-38.143697],[-71.20247,-38.069924],[-71.389668,-38.089199],[-71.464056,-38.160875],[-71.612083,-38.215341],[-71.693319,-38.217202],[-71.717917,-38.071939],[-71.755821,-38.039383],[-71.907001,-38.043621],[-71.979839,-38.003623],[-72.08916,-38.016491],[-72.218765,-37.913758],[-72.347827,-37.868231],[-72.474925,-37.760227],[-72.505646,-37.679509],[-72.694446,-37.642146],[-72.835264,-37.633206],[-72.97293,-37.664471],[-73.06109,-37.647159],[-73.109046,-37.708706],[-73.059153,-37.811335],[-73.130673,-37.893139],[-73.165425,-38.047962],[-73.091373,-38.137827],[-73.280819,-38.331665],[-73.266995,-38.448557],[-73.388512,-38.428455],[-73.525136,-38.475681],[-73.483225,-38.637465],[-73.43342,-38.686944],[-73.361318,-38.913832],[-73.283437,-39.075291],[-73.221099,-39.341729],[-73.246694,-39.385851],[-73.035252,-39.364264],[-72.942648,-39.407517],[-72.966187,-39.589159],[-72.788704,-39.584819],[-72.545334,-39.623214],[-72.433532,-39.672824],[-72.373846,-39.733027],[-72.067301,-39.745119],[-71.936947,-39.690032],[-71.798532,-39.466325],[-71.680916,-39.495987],[-71.641099,-39.599999],[-71.519997,-39.614997],[-71.541959,-39.532315],[-71.461654,-39.433819],[-71.401968,-39.236002],[-71.43101,-39.025989],[-71.415765,-38.935348],[-71.228025,-38.808845],[-71.048423,-38.746626],[-70.96724,-38.75076],[-70.873835,-38.691436],[-70.848668,-38.527621],[-70.973751,-38.424682],[-71.016694,-38.264692],[-71.016142,-38.143697]]]},"properties":{"LOCATION_TYPE":"level1","ADM0_A3":"CHL","LOCATION_ID":"CHL-AR","NAME":"La Araucanía","TYPE_EN":"Region"}},
{"type":"Feature","geometry":{"type":"Polygon","coordinates":[[[-71.089119,-37.103419],[-71.299818,-37.09374],[-71.397104,-37.038898],[-71.519076,-37.069028],[-71.572324,-37.130944],[-71.729622,-37.117673],[-71.857236,-37.161478],[-72.203955,-37.198294],[-72.266393,-37.174001],[-72.259358,-37.09805],[-72.191889,-37.033175],[-72.315014,-36.983228],[-72.385944,-36.924839],[-72.539015,-36.927802],[-72.62038,-36.698218],[-72.79825,-36.605965],[-72.817684,-36.458719],[-72.895863,-36.438084],[-72.925282,-36.510512],[-72.988108,-36.528985],[-72.959462,-36.620701],[-73.002024,-36.7138],[-73.159657,-36.734959],[-73.145375,-36.833917],[-73.173329,-37.076349],[-73.209055,-37.160252],[-73.282582,-37.214044],[-73.467397,-37.234633],[-73.607574,-37.15545],[-73.644643,-37.20143],[-73.671783,-37.362563],[-73.61148,-37.412693],[-73.604115,-37.512384],[-73.677642,-37.57936],[-73.66808,-37.719415],[-73.503245,-37.933282],[-73.462799,-38.091729],[-73.481801,-38.218032],[-73.543284,-38.420668],[-73.525136,-38.475681],[-73.388512,-38.428455],[-73.266995,-38.448557],[-73.280819,-38.331665],[-73.091373,-38.137827],[-73.165425,-38.047962],[-73.130673,-37.893139],[-73.059153,-37.811335],[-73.109046,-37.708706],[-73.06109,-37.647159],[-72.97293,-37.664471],[-72.835264,-37.633206],[-72.694446,-37.642146],[-72.505646,-37.679509],[-72.474925,-37.760227],[-72.347827,-37.868231],[-72.218765,-37.913758],[-72.08916,-38.016491],[-71.979839,-38.003623],[-71.907001,-38.043621],[-71.755821,-38.039383],[-71.717917,-38.071939],[-71.693319,-38.217202],[-71.612083,-38.215341],[-71.464056,-38.160875],[-71.389668,-38.089199],[-71.20247,-38.069924],[-71.016142,-38.143697],[-71.009976,-38.065531],[-71.087594,-37.940164],[-71.18503,-37.706069],[-71.183893,-37.625868],[-71.133095,-37.590624],[-71.12307,-37.443243],[-71.205597,-37.292658],[-71.089119,-37.103419]]]},"properties":{"LOCATION_TYPE":"level1","ADM0_A3":"CHL","LOCATION_ID":"CHL-BI","NAME":"Bío-Bío","TYPE_EN":"Region"}},
{"type":"Feature","geometry":{"type":"Polygon","coordinates":[[[-71.641099,-39.599999],[-71.680916,-39.495987],[-71.798532,-39.466325],[-71.936947,-39.690032],[-72.067301,-39.745119],[-72.373846,-39.733027],[-72.433532,-39.672824],[-72.545334,-39.623214],[-72.788704,-39.584819],[-72.966187,-39.589159],[-72.942648,-39.407517],[-73.035252,-39.364264],[-73.246694,-39.385851],[-73.241567,-39.489516],[-73.297963,-39.582696],[-73.406077,-39.69492],[-73.401926,-39.804132],[-73.517079,-39.887628],[-73.683217,-39.942478],[-73.659983,-40.109552],[-73.735015,-40.174737],[-73.748647,-40.273045],[-73.667746,-40.29599],[-73.450937,-40.29599],[-73.199893,-40.35304],[-72.992878,-40.35304],[-72.886269,-40.522281],[-72.720646,-40.618347],[-72.526653,-40.672556],[-72.397565,-40.675605],[-72.011439,-40.651317],[-71.860596,-40.559435],[-71.804165,-40.42642],[-71.719054,-40.412984],[-71.678488,-40.340224],[-71.823751,-40.210103],[-71.800703,-40.079671],[-71.683708,-40.098998],[-71.680504,-40.009495],[-71.624848,-39.93105],[-71.714352,-39.726308],[-71.718744,-39.623368],[-71.641099,-39.599999]]]},"properties":{"LOCATION_TYPE":"level1","ADM0_A3":"CHL","LOCATION_ID":"CHL-LR","NAME":"Los Ríos","TYPE_EN":"Region"}},
{"type":"Feature","geometry":{"type":"MultiPolygon","coordinates":[[[[-71.74526,-44.044998],[-71.659885,-43.92631],[-71.819203,-43.758051],[-71.703655,-43.671648],[-71.723757,-43.594754],[-71.873825,-43.538943],[-71.937336,-43.456881],[-71.901731,-43.322006],[-71.75068,-43.295341],[-71.742981,-43.190127],[-71.861888,-43.13318],[-72.009838,-43.120364],[-72.096086,-43.078506],[-72.148537,-42.998718],[-72.112674,-42.863842],[-72.148434,-42.592645],[-72.122647,-42.529909],[-72.041929,-42.491049],[-72.060687,-42.368886],[-72.124714,-42.263311],[-72.039913,-42.144662],[-71.948033,-42.167296],[-71.801323,-42.130296],[-71.736263,-42.08389],[-71.780653,-41.986428],[-71.794037,-41.867469],[-71.856875,-41.78613],[-71.925967,-41.622936],[-71.853258,-41.567332],[-71.903953,-41.367655],[-71.87336,-41.249212],[-71.851449,-40.938327],[-71.910671,-40.850064],[-71.955577,-40.720356],[-71.853103,-40.616383],[-71.860596,-40.559435],[-72.011439,-40.651317],[-72.397565,-40.675605],[-72.526653,-40.672556],[-72.720646,-40.618347],[-72.886269,-40.522281],[-72.992878,-40.35304],[-73.199893,-40.35304],[-73.450937,-40.29599],[-73.667746,-40.29599],[-73.748647,-40.273045],[-73.780914,-40.43727],[-73.728498,-40.54418],[-73.841495,-40.666707],[-73.89323,-40.863782],[-73.85464,-40.916163],[-73.946904,-40.972841],[-73.919665,-41.152698],[-73.841217,-41.332821],[-73.853839,-41.422118],[-73.798166,-41.565688],[-73.694081,-41.59238],[-73.700116,-41.681825],[-73.659983,-41.757501],[-73.515045,-41.803643],[-73.363189,-41.773533],[-73.201405,-41.784763],[-73.059193,-41.697442],[-73.111887,-41.586196],[-72.957265,-41.483575],[-72.853871,-41.497166],[-72.751576,-41.548435],[-72.645131,-41.722833],[-72.863596,-41.905938],[-72.81607,-41.979099],[-72.737294,-42.01393],[-72.488026,-42.064711],[-72.476186,-42.307794],[-72.557932,-42.211114],[-72.619944,-42.184747],[-72.809722,-42.243259],[-72.762441,-42.38128],[-72.67984,-42.504164],[-72.823842,-42.504164],[-72.864858,-42.620864],[-72.842193,-42.838067],[-72.747141,-42.909763],[-72.761057,-43.009047],[-72.864858,-43.018731],[-72.934438,-43.09824],[-72.91218,-43.235447],[-73.084584,-43.316339],[-73.111318,-43.461033],[-72.973012,-43.621352],[-73.042329,-43.729588],[-72.942571,-43.69232],[-72.515258,-43.772677],[-72.348188,-43.733041],[-72.260054,-43.797636],[-72.141612,-43.939798],[-71.796413,-44.000001],[-71.74526,-44.044998]]],[[[-73.412343,-42.525649],[-73.543202,-42.379164],[-73.625152,-42.443455],[-73.412343,-42.525649]]],[[[-74.334625,-43.281671],[-74.293381,-43.319965],[-73.877004,-43.421959],[-73.681732,-43.381102],[-73.675203,-43.279842],[-73.744985,-43.226983],[-73.721425,-43.141697],[-73.490061,-43.10003],[-73.649729,-42.883233],[-73.494293,-42.866795],[-73.516672,-42.789239],[-73.632436,-42.740655],[-73.698842,-42.666599],[-73.809153,-42.608657],[-73.789662,-42.504164],[-73.707672,-42.538344],[-73.681549,-42.37005],[-73.509104,-42.326104],[-73.374013,-42.25742],[-73.38622,-42.195733],[-73.489084,-42.145603],[-73.447499,-42.06227],[-73.533315,-41.966078],[-73.537017,-41.84002],[-73.690989,-41.809015],[-73.866038,-41.892267],[-73.983551,-41.866469],[-74.055287,-41.945001],[-74.053336,-42.130345],[-74.1471,-42.216524],[-74.143216,-42.318648],[-74.189618,-42.431906],[-74.127507,-42.671133],[-74.170437,-42.766696],[-74.167363,-42.882514],[-74.232249,-42.916681],[-74.22952,-43.022877],[-74.338368,-43.10003],[-74.40099,-43.260431],[-74.334625,-43.281671]]]]},"properties":{"LOCATION_TYPE":"level1","ADM0_A3":"CHL","LOCATION_ID":"CHL-LL","NAME":"Los Lagos","TYPE_EN":"Region"}},
{"type":"Feature","geometry":{"type":"MultiPolygon","coordinates":[[[[-71.74526,-44.044998],[-71.796413,-44.000001],[-72.141612,-43.939798],[-72.260054,-43.797636],[-72.348188,-43.733041],[-72.515258,-43.772677],[-72.942571,-43.69232],[-73.042329,-43.729588],[-72.97936,-43.761163],[-73.13915,-43.985121],[-73.132802,-44.048598],[-73.27774,-44.11004],[-73.283599,-44.174086],[-73.13915,-44.210545],[-72.926584,-44.320571],[-72.933746,-44.364679],[-72.686757,-44.488458],[-72.729156,-44.665623],[-72.727651,-44.758559],[-72.810048,-44.767755],[-72.914784,-44.847833],[-72.99828,-44.861586],[-73.117096,-44.948337],[-73.348256,-44.957778],[-73.406077,-45.026056],[-73.304433,-45.144789],[-73.437123,-45.190606],[-73.460683,-45.26629],[-73.328969,-45.283949],[-73.256663,-45.248224],[-72.981516,-45.400974],[-72.858469,-45.389255],[-72.859527,-45.464451],[-73.014312,-45.444757],[-73.161977,-45.365655],[-73.208648,-45.302179],[-73.327707,-45.340916],[-73.517323,-45.460382],[-73.575185,-45.72324],[-73.489654,-45.726658],[-73.55484,-45.877618],[-73.660553,-45.975681],[-73.619008,-46.102309],[-73.648101,-46.194757],[-73.58019,-46.310235],[-73.74234,-46.420994],[-73.831614,-46.577895],[-73.989166,-46.559747],[-73.794179,-46.361586],[-73.769846,-46.234552],[-73.881825,-46.141778],[-73.985748,-46.153578],[-73.982045,-46.029718],[-74.064036,-45.964532],[-74.189361,-45.793634],[-74.289906,-45.815037],[-74.446645,-45.808282],[-74.690907,-45.841567],[-74.713368,-45.98447],[-74.958119,-46.215265],[-75.090688,-46.216078],[-75.138661,-46.31406],[-75.201731,-46.300958],[-75.390452,-46.427341],[-75.389068,-46.476739],[-75.517079,-46.554295],[-75.636057,-46.573012],[-75.704701,-46.639255],[-75.707021,-46.786554],[-75.551747,-46.948337],[-75.35261,-46.900567],[-75.437245,-46.649835],[-75.201731,-46.629978],[-75.083363,-46.640883],[-75.016184,-46.719334],[-74.856353,-46.813897],[-74.79955,-46.801202],[-74.680979,-46.883884],[-74.650868,-46.788344],[-74.526723,-46.801202],[-74.441396,-46.767185],[-74.266835,-46.781671],[-74.243316,-46.864679],[-74.118642,-46.988051],[-74.02009,-46.978285],[-73.957631,-47.060317],[-74.139068,-47.222345],[-74.324696,-47.218927],[-74.407216,-47.342462],[-74.528879,-47.422296],[-74.506581,-47.469659],[-74.344553,-47.519952],[-74.419911,-47.563409],[-74.612131,-47.568455],[-74.637847,-47.645766],[-74.736236,-47.704522],[-74.628407,-47.767755],[-74.07372,-47.773045],[-73.923695,-47.842706],[-73.709706,-47.776056],[-73.578236,-47.799737],[-73.655263,-47.932306],[-73.591664,-48.041925],[-73.481801,-48.123305],[-73.591705,-48.14072],[-73.762074,-48.087498],[-73.891103,-48.022231],[-73.961578,-48.04811],[-74.060618,-48.000421],[-74.415395,-47.983657],[-74.517079,-47.959405],[-74.625409,-48.004227],[-74.626823,-48.058904],[-74.512074,-48.089939],[-74.442494,-48.182387],[-74.31786,-48.212091],[-74.261586,-48.335138],[-73.995513,-48.414158],[-74.052805,-48.5499],[-74.197133,-48.473321],[-74.392161,-48.599054],[-74.306223,-48.727716],[-74.169342,-48.703302],[-74.066725,-48.741958],[-73.170448,-49.25087],[-73.171317,-49.189348],[-73.009725,-48.990394],[-72.742919,-48.913809],[-72.592334,-48.791129],[-72.584221,-48.615946],[-72.61471,-48.510009],[-72.57678,-48.452132],[-72.433119,-48.400352],[-72.325632,-48.285527],[-72.309509,-48.211216],[-72.343047,-48.07045],[-72.477458,-47.993762],[-72.543914,-47.9148],[-72.457304,-47.749126],[-72.344443,-47.602261],[-72.328733,-47.426458],[-72.170551,-47.407544],[-72.057948,-47.311943],[-72.009838,-47.198152],[-71.912531,-47.234532],[-71.86256,-47.168903],[-71.999967,-47.042192],[-71.914805,-46.998474],[-71.969633,-46.933982],[-71.934132,-46.79952],[-71.85579,-46.794455],[-71.68717,-46.690069],[-71.684896,-46.519227],[-71.751869,-46.393033],[-71.763341,-46.244515],[-71.914701,-46.152324],[-71.770162,-46.112636],[-71.612291,-45.970526],[-71.665879,-45.88402],[-71.743187,-45.857562],[-71.798533,-45.739946],[-71.765098,-45.572411],[-71.713732,-45.53324],[-71.525836,-45.518978],[-71.508318,-45.40839],[-71.407911,-45.378728],[-71.311534,-45.299456],[-71.338612,-45.23424],[-71.497052,-45.111664],[-71.588726,-44.978132],[-71.702363,-44.973688],[-71.759879,-44.93183],[-71.889432,-44.94723],[-72.080944,-44.886561],[-72.088748,-44.782795],[-72.04782,-44.754786],[-71.85455,-44.79096],[-71.786905,-44.757267],[-71.631204,-44.780005],[-71.497104,-44.742901],[-71.335977,-44.801605],[-71.262803,-44.777111],[-71.240634,-44.658152],[-71.122657,-44.530304],[-71.209783,-44.427571],[-71.437831,-44.401526],[-71.822045,-44.40318],[-71.806284,-44.222519],[-71.858736,-44.107798],[-71.74526,-44.044998]]],[[[-75.338938,-48.6242],[-75.46052,-48.699884],[-75.653554,-48.715997],[-75.61262,-48.794854],[-75.476064,-48.767511],[-75.338938,-48.6242]]],[[[-75.328359,-48.552179],[-75.3662,-48.452895],[-75.450592,-48.428888],[-75.524322,-48.471856],[-75.606435,-48.439223],[-75.675364,-48.583185],[-75.626129,-48.632013],[-75.489125,-48.603692],[-75.506215,-48.694757],[-75.339915,-48.614841],[-75.328359,-48.552179]]],[[[-74.472076,-48.455987],[-74.429026,-48.525811],[-74.306549,-48.489435],[-74.407216,-48.418145],[-74.472076,-48.455987]]],[[[-74.090688,-48.479587],[-74.0572,-48.425551],[-74.193715,-48.363458],[-74.245513,-48.39422],[-74.090688,-48.479587]]],[[[-74.495432,-48.349867],[-74.271718,-48.46266],[-74.232249,-48.421563],[-74.345448,-48.283298],[-74.495432,-48.349867]]],[[[-74.499135,-48.583185],[-74.599436,-48.563653],[-74.586903,-48.403416],[-74.667348,-48.264255],[-74.798655,-48.266371],[-74.819976,-48.403497],[-74.945627,-48.417576],[-75.03307,-48.50449],[-74.947133,-48.619561],[-74.7506,-48.62949],[-74.621002,-48.691827],[-74.52774,-48.6749],[-74.499135,-48.583185]]],[[[-74.543813,-48.321954],[-74.40392,-48.289972],[-74.409576,-48.213067],[-74.558176,-48.122328],[-74.603749,-48.235447],[-74.543813,-48.321954]]],[[[-75.160756,-48.298435],[-75.031117,-48.44378],[-74.837392,-48.344822],[-74.82782,-48.145492],[-75.017505,-48.08302],[-75.071401,-48.109633],[-75.256337,-48.068617],[-75.158111,-48.260675],[-75.160756,-48.298435]]],[[[-75.149892,-48.65838],[-75.071401,-48.596287],[-75.098704,-48.465916],[-75.203928,-48.335545],[-75.26891,-48.165948],[-75.378082,-48.008233],[-75.585317,-48.085707],[-75.520497,-48.233168],[-75.555002,-48.378595],[-75.460194,-48.416599],[-75.3662,-48.383966],[-75.270619,-48.418145],[-75.320668,-48.492446],[-75.304107,-48.577732],[-75.205434,-48.699802],[-75.149892,-48.65838]]],[[[-75.270619,-48.027765],[-75.102406,-47.990167],[-75.033518,-48.031183],[-74.727379,-48.105892],[-74.812982,-47.938897],[-74.765737,-47.884212],[-74.872792,-47.815525],[-74.942926,-47.883666],[-75.087897,-47.867306],[-75.207021,-47.916947],[-75.270619,-48.027765]]],[[[-74.413726,-47.938246],[-74.318471,-47.981215],[-74.115549,-47.945896],[-73.831207,-47.952569],[-73.81843,-47.866388],[-73.931386,-47.880141],[-74.245229,-47.80641],[-74.396352,-47.839451],[-74.413726,-47.938246]]],[[[-75.182362,-47.831476],[-75.023682,-47.803325],[-75.091638,-47.680492],[-75.333958,-47.758953],[-75.182362,-47.831476]]],[[[-74.885229,-47.712063],[-75.000384,-47.6622],[-75.054421,-47.689572],[-74.957723,-47.774795],[-74.885229,-47.712063]]],[[[-74.468658,-47.074965],[-74.440785,-47.163751],[-74.321156,-47.091241],[-74.468658,-47.074965]]],[[[-74.074574,-47.020278],[-74.167063,-47.012872],[-74.230702,-47.102146],[-74.145904,-47.171157],[-73.97525,-47.047621],[-74.074574,-47.020278]]],[[[-73.725087,-46.05047],[-73.837392,-46.012953],[-73.9405,-46.068129],[-73.745432,-46.187188],[-73.684071,-46.105401],[-73.725087,-46.05047]]],[[[-73.707672,-45.923598],[-73.786285,-45.913832],[-73.819488,-45.998712],[-73.712636,-46.02158],[-73.707672,-45.923598]]],[[[-74.752919,-45.80755],[-74.889394,-45.881931],[-75.054351,-45.863539],[-75.112945,-45.885675],[-75.07433,-46.093845],[-74.919667,-46.104181],[-74.766347,-45.988865],[-74.715077,-45.848403],[-74.752919,-45.80755]]],[[[-73.741851,-45.793878],[-73.9405,-45.909926],[-73.856557,-45.967543],[-73.741851,-45.793878]]],[[[-73.926829,-45.745375],[-74.044586,-45.738458],[-74.090972,-45.81463],[-73.967763,-45.858331],[-73.926829,-45.745375]]],[[[-74.554351,-45.574802],[-74.660471,-45.601495],[-74.70051,-45.727634],[-74.583892,-45.735284],[-74.554351,-45.574802]]],[[[-74.071441,-45.690851],[-73.920644,-45.697686],[-73.910227,-45.590997],[-74.030588,-45.533136],[-74.112416,-45.587823],[-74.071441,-45.690851]]],[[[-74.502838,-45.732354],[-74.470448,-45.774998],[-74.341624,-45.733087],[-74.207997,-45.635512],[-74.293528,-45.479099],[-74.421254,-45.454278],[-74.489125,-45.606622],[-74.456044,-45.677423],[-74.502838,-45.732354]]],[[[-73.666168,-45.436944],[-73.770904,-45.511977],[-73.818267,-45.642511],[-73.680409,-45.752862],[-73.59789,-45.574802],[-73.586008,-45.480157],[-73.666168,-45.436944]]],[[[-73.885894,-45.471124],[-74.064036,-45.423272],[-74.029652,-45.517348],[-73.870473,-45.5617],[-73.885894,-45.471124]]],[[[-74.34142,-45.33766],[-74.389272,-45.281671],[-74.499135,-45.286065],[-74.489166,-45.355076],[-74.378041,-45.400974],[-74.34142,-45.33766]]],[[[-73.824452,-45.26629],[-73.986073,-45.270766],[-74.070383,-45.204278],[-74.167063,-45.252618],[-74.129506,-45.323989],[-74.012278,-45.353611],[-73.82787,-45.347589],[-73.824452,-45.26629]]],[[[-74.273549,-45.20794],[-74.358795,-45.156427],[-74.41511,-45.247003],[-74.307485,-45.294529],[-74.273549,-45.20794]]],[[[-73.731923,-45.214776],[-73.714589,-45.11419],[-73.778147,-45.038751],[-73.914703,-44.995294],[-74.206939,-45.042657],[-74.250111,-45.109633],[-74.183583,-45.169529],[-74.084096,-45.140069],[-74.007395,-45.23211],[-73.830149,-45.243097],[-73.731923,-45.214776]]],[[[-74.27009,-44.944106],[-74.187489,-44.991876],[-74.065785,-44.998793],[-73.916656,-44.944431],[-73.969594,-44.903985],[-74.188303,-44.869073],[-74.27009,-44.944106]]],[[[-73.930531,-44.789239],[-73.923695,-44.892673],[-73.83967,-44.958591],[-73.762318,-44.929864],[-73.836781,-44.784112],[-73.930531,-44.789239]]],[[[-75.091473,-44.796056],[-75.200213,-44.816615],[-75.109817,-44.925978],[-75.031272,-44.903969],[-75.091473,-44.796056]]],[[[-73.604726,-44.744887],[-73.741689,-44.754653],[-73.728261,-44.821059],[-73.627309,-44.829767],[-73.604726,-44.744887]]],[[[-74.34142,-44.806329],[-74.427113,-44.718194],[-74.525054,-44.754002],[-74.46939,-44.826837],[-74.34142,-44.806329]]],[[[-74.48233,-44.636326],[-74.62267,-44.622003],[-74.638743,-44.689386],[-74.484364,-44.698419],[-74.48233,-44.636326]]],[[[-73.926829,-44.628839],[-74.025624,-44.603123],[-74.267161,-44.603123],[-74.400543,-44.626072],[-74.406972,-44.694268],[-74.279693,-44.803806],[-74.01183,-44.716485],[-73.875885,-44.694024],[-73.926829,-44.628839]]],[[[-73.659983,-44.676528],[-73.626861,-44.640558],[-73.699534,-44.536798],[-73.796498,-44.553155],[-73.83788,-44.664321],[-73.752512,-44.741388],[-73.659983,-44.676528]]],[[[-74.193715,-44.492283],[-74.368398,-44.525567],[-74.344553,-44.573663],[-74.154205,-44.559747],[-74.193715,-44.492283]]],[[[-74.392974,-44.54697],[-74.420277,-44.505304],[-74.223053,-44.46738],[-74.306386,-44.393731],[-74.547719,-44.476658],[-74.523305,-44.526462],[-74.392974,-44.54697]]],[[[-73.382476,-44.587823],[-73.468129,-44.642511],[-73.407582,-44.822442],[-73.256988,-44.940037],[-73.14745,-44.911879],[-72.837636,-44.710138],[-72.813344,-44.636326],[-72.721181,-44.528009],[-72.76891,-44.466567],[-72.905832,-44.452732],[-73.002024,-44.361261],[-73.26122,-44.477227],[-73.297434,-44.606134],[-73.382476,-44.587823]]],[[[-74.108713,-44.227472],[-74.09439,-44.282403],[-73.946278,-44.241388],[-74.036366,-44.162286],[-74.108713,-44.227472]]],[[[-73.227935,-44.011895],[-73.173329,-44.025567],[-73.140777,-43.903578],[-73.272613,-43.919366],[-73.227935,-44.011895]]],[[[-74.143938,-43.827551],[-74.166371,-43.872979],[-73.995717,-43.9367],[-73.919301,-43.895603],[-73.762318,-43.88893],[-73.865387,-43.789321],[-73.96735,-43.828834],[-74.045245,-43.796094],[-74.143938,-43.827551]]],[[[-74.818186,-43.635024],[-74.775427,-43.674631],[-74.57843,-43.635653],[-74.648247,-43.554006],[-74.825026,-43.562412],[-74.818186,-43.635024]]],[[[-74.649865,-47.797742],[-74.687796,-47.862438],[-74.524671,-47.868351],[-74.526181,-47.812868],[-74.649865,-47.797742]]],[[[-75.323147,-46.685089],[-75.161776,-46.781579],[-75.146199,-46.697015],[-75.323147,-46.685089]]]]},"properties":{"LOCATION_TYPE":"level1","ADM0_A3":"CHL","LOCATION_ID":"CHL-AI","NAME":"Aisén del General Carlos Ibáñez del Campo","TYPE_EN":"Region"}},
{"type":"Feature","geometry":{"type":"MultiPolygon","coordinates":[[[[-73.170448,-49.25087],[-74.066725,-48.741958],[-74.200551,-48.719171],[-74.306874,-48.749933],[-74.371897,-48.719171],[-74.453481,-48.830987],[-74.400543,-48.974786],[-74.461334,-49.019708],[-74.413442,-49.116957],[-74.393544,-49.317478],[-74.424143,-49.371189],[-74.214915,-49.523126],[-74.145904,-49.267836],[-74.036041,-49.144952],[-73.977935,-49.171157],[-74.083852,-49.27809],[-74.123525,-49.422621],[-74.053822,-49.539321],[-74.233876,-49.566013],[-74.322255,-49.632501],[-74.297353,-49.795505],[-74.324696,-49.871189],[-74.145904,-49.911554],[-73.954172,-50.026056],[-74.149648,-50.011407],[-74.266347,-49.93255],[-74.364858,-49.99033],[-74.250722,-50.080987],[-74.57372,-50.099298],[-74.691314,-50.168552],[-74.683013,-50.209405],[-74.493031,-50.261489],[-74.475494,-50.344171],[-74.128896,-50.422947],[-74.297353,-50.480645],[-74.19872,-50.559015],[-74.235951,-50.604181],[-74.126088,-50.762465],[-74.042714,-50.822035],[-73.947011,-50.829767],[-73.81078,-50.741957],[-73.82551,-50.679457],[-73.725087,-50.559503],[-73.635365,-50.618422],[-73.782826,-50.686782],[-73.789662,-50.796563],[-73.874257,-50.889093],[-74.10497,-50.871189],[-74.256418,-50.939386],[-74.239369,-51.027927],[-74.148061,-51.052179],[-74.129506,-51.187677],[-73.967275,-51.194106],[-73.913971,-51.231541],[-73.784291,-51.223565],[-73.717681,-51.288507],[-73.719553,-51.356541],[-73.934316,-51.399347],[-73.904205,-51.611749],[-73.680409,-51.76922],[-73.654856,-51.688572],[-73.493031,-51.854913],[-73.649729,-51.827895],[-73.540028,-52.055271],[-73.316233,-52.166111],[-73.176666,-52.081231],[-73.145334,-51.940037],[-72.919423,-51.858575],[-72.976674,-51.76922],[-72.829742,-51.767999],[-72.72411,-51.838149],[-72.578033,-51.795994],[-72.562611,-51.724786],[-72.702952,-51.698012],[-72.793813,-51.596124],[-72.712514,-51.582208],[-72.522043,-51.713067],[-72.466949,-51.789727],[-72.508372,-51.837091],[-72.453277,-51.913263],[-72.529042,-51.954767],[-72.669667,-51.961033],[-72.658762,-52.036228],[-72.475657,-52.187433],[-72.536529,-52.195571],[-72.614654,-52.101332],[-72.703481,-52.060317],[-72.69579,-51.981378],[-72.802805,-51.937433],[-72.870595,-51.968194],[-72.894521,-52.057061],[-73.086903,-52.082452],[-73.221791,-52.179864],[-73.333852,-52.218683],[-73.431711,-52.153009],[-73.528879,-52.195571],[-73.698964,-52.0263],[-73.744985,-52.065362],[-73.580556,-52.208429],[-73.562978,-52.322849],[-73.666168,-52.424005],[-73.530914,-52.456964],[-73.687856,-52.597833],[-73.628082,-52.745212],[-73.449696,-52.635186],[-73.26891,-52.673598],[-73.296213,-52.783461],[-73.540883,-52.780043],[-73.288726,-52.902114],[-73.392445,-52.982029],[-73.32726,-53.071466],[-73.116282,-53.096938],[-72.953603,-53.023614],[-72.953603,-52.893324],[-73.005279,-52.833266],[-72.790842,-52.752699],[-72.680165,-52.66253],[-72.798736,-52.615411],[-72.779449,-52.543878],[-72.656117,-52.521661],[-72.413645,-52.648858],[-72.327789,-52.52516],[-72.087229,-52.520929],[-71.759892,-52.568407],[-71.571611,-52.561278],[-71.478103,-52.646138],[-71.629438,-52.683784],[-71.850529,-52.69471],[-72.160874,-52.652118],[-72.3131,-52.751153],[-72.562245,-52.833673],[-72.611562,-52.741876],[-72.960357,-52.824965],[-72.891021,-53.056817],[-72.980946,-53.160252],[-73.13915,-53.187595],[-73.199086,-53.240818],[-72.877309,-53.381931],[-72.741322,-53.400486],[-72.721425,-53.462498],[-72.522532,-53.544366],[-72.364573,-53.536879],[-72.483469,-53.409112],[-72.466949,-53.283136],[-72.327626,-53.221287],[-72.286,-53.02988],[-72.085601,-53.134373],[-72.013743,-53.118585],[-71.906233,-53.010889],[-71.5308,-52.866656],[-71.249182,-52.788756],[-71.169285,-52.812813],[-71.25414,-53.016778],[-71.382924,-53.126397],[-71.467112,-53.132908],[-71.83495,-53.252048],[-71.980946,-53.222263],[-72.097239,-53.267755],[-72.282297,-53.242771],[-72.423451,-53.331801],[-72.453277,-53.407322],[-72.284088,-53.581231],[-72.053456,-53.706964],[-71.865142,-53.733168],[-71.644643,-53.823663],[-71.479848,-53.82936],[-71.336049,-53.879571],[-71.228749,-53.874688],[-71.03425,-53.809747],[-70.973622,-53.756036],[-70.939443,-53.592218],[-70.992747,-53.382989],[-70.95759,-53.222833],[-70.816884,-52.992446],[-70.812123,-52.821384],[-70.716413,-52.737064],[-70.583039,-52.671999],[-70.517734,-52.723255],[-70.321793,-52.638147],[-69.84658,-52.486543],[-69.672351,-52.530857],[-69.496938,-52.385349],[-69.482493,-52.29046],[-69.234708,-52.203143],[-69.130116,-52.208103],[-68.898461,-52.303537],[-68.820497,-52.243167],[-69.007566,-52.179088],[-69.212256,-52.137953],[-69.485289,-52.132476],[-69.952754,-52.007419],[-70.484711,-52.002664],[-71.917699,-51.990055],[-71.958471,-51.867996],[-72.072624,-51.778595],[-72.281139,-51.701494],[-72.351522,-51.583465],[-72.450069,-51.552666],[-72.351212,-51.475978],[-72.313437,-51.298005],[-72.257574,-51.230619],[-72.382218,-51.160597],[-72.396532,-51.092074],[-72.293438,-51.029236],[-72.263466,-50.836276],[-72.338138,-50.760621],[-72.302843,-50.648897],[-72.505983,-50.601251],[-72.618121,-50.666777],[-72.778421,-50.619648],[-73.096076,-50.770647],[-73.177725,-50.749459],[-73.192246,-50.641352],[-73.261854,-50.556603],[-73.274205,-50.36447],[-73.322936,-50.268352],[-73.530572,-50.140814],[-73.480756,-50.022682],[-73.57274,-49.932352],[-73.465098,-49.759959],[-73.539512,-49.692676],[-73.518195,-49.628494],[-73.586589,-49.529999],[-73.551139,-49.444009],[-73.462049,-49.37497],[-73.457863,-49.307687],[-73.145014,-49.303656],[-73.170448,-49.25087]]],[[[-68.641998,-54.799168],[-68.638312,-54.246559],[-68.634746,-53.710881],[-68.627617,-52.639572],[-68.745961,-52.556899],[-68.920657,-52.640175],[-69.140248,-52.68377],[-69.225942,-52.639255],[-69.374159,-52.47029],[-69.583892,-52.509861],[-69.591011,-52.641873],[-69.734351,-52.774459],[-69.824403,-52.78252],[-69.9114,-52.847904],[-70.001133,-52.841734],[-70.128615,-52.732282],[-70.274729,-52.73561],[-70.257202,-52.868296],[-70.089175,-52.911063],[-70.134229,-53.011951],[-70.243452,-53.061725],[-70.418993,-53.011716],[-70.473541,-53.309259],[-70.256703,-53.461033],[-70.021602,-53.436326],[-69.950293,-53.39943],[-69.675473,-53.358358],[-69.352651,-53.355727],[-69.318613,-53.450523],[-69.360842,-53.521675],[-69.65144,-53.636231],[-69.879277,-53.657886],[-70.136952,-53.738702],[-70.185292,-53.811293],[-70.056752,-54.087009],[-69.883656,-54.16131],[-69.616811,-54.222263],[-69.279612,-54.321547],[-69.098134,-54.447198],[-69.174875,-54.476007],[-69.500478,-54.342218],[-69.588775,-54.400974],[-69.691884,-54.317804],[-69.85912,-54.280369],[-69.973012,-54.297296],[-70.072987,-54.248793],[-70.199045,-54.320571],[-70.322499,-54.325291],[-70.932688,-54.113539],[-70.86856,-54.246189],[-70.8072,-54.269464],[-70.577707,-54.274835],[-70.427642,-54.437677],[-70.860341,-54.317804],[-70.934153,-54.415948],[-71.010854,-54.448663],[-71.18928,-54.428481],[-71.514027,-54.43377],[-71.614858,-54.501397],[-71.725006,-54.40545],[-71.940012,-54.510837],[-72.001454,-54.57171],[-71.961903,-54.647149],[-71.822662,-54.65488],[-71.754465,-54.592706],[-71.477366,-54.676446],[-71.404937,-54.640558],[-71.400299,-54.556085],[-71.26537,-54.568617],[-71.289662,-54.676446],[-70.815907,-54.750421],[-70.758778,-54.84059],[-70.610504,-54.780694],[-70.239735,-54.857843],[-70.080068,-54.849867],[-69.794911,-54.787693],[-69.50593,-54.861505],[-69.067006,-54.948826],[-68.787994,-54.92018],[-68.642343,-54.853653],[-68.641998,-54.799168]]],[[[-66.855336,-55.271173],[-66.992258,-55.228692],[-67.06017,-55.326349],[-66.896311,-55.332615],[-66.855336,-55.271173]]],[[[-66.426747,-55.185479],[-66.53482,-55.162774],[-66.632192,-55.205987],[-66.504018,-55.257989],[-66.426747,-55.185479]]],[[[-67.999257,-55.627537],[-68.239573,-55.398533],[-68.431549,-55.298517],[-68.239166,-55.29225],[-68.383127,-55.184503],[-68.564036,-55.19199],[-68.530588,-55.109796],[-68.334828,-55.062433],[-68.345693,-54.998468],[-68.441151,-54.939711],[-68.735463,-54.94964],[-68.834381,-54.981541],[-69.319651,-54.993341],[-69.426503,-55.031345],[-69.885976,-55.063572],[-70.031484,-55.153253],[-69.852406,-55.215509],[-69.607655,-55.365492],[-69.451527,-55.408868],[-69.437082,-55.491306],[-69.299387,-55.49033],[-69.206166,-55.437758],[-69.392812,-55.287367],[-69.272125,-55.213474],[-69.164866,-55.24212],[-68.855824,-55.257501],[-68.967356,-55.429946],[-68.865346,-55.505304],[-68.602528,-55.462335],[-68.252512,-55.524509],[-68.267486,-55.617852],[-68.143788,-55.672947],[-67.999257,-55.627537]]],[[[-67.883168,-55.243829],[-67.647369,-55.261489],[-67.608795,-55.188653],[-67.502919,-55.172133],[-67.423248,-55.216485],[-67.413319,-55.292739],[-67.270619,-55.306899],[-67.08849,-55.190525],[-67.061879,-55.072035],[-67.183095,-54.968032],[-67.301829,-54.928888],[-67.64981,-54.921075],[-67.724192,-54.935154],[-67.941803,-54.90545],[-68.345286,-54.921075],[-68.328847,-54.990655],[-68.18635,-54.978204],[-68.15689,-55.196059],[-68.081858,-55.233087],[-67.883168,-55.243829]]],[[[-70.295155,-55.082452],[-70.509674,-54.988214],[-70.795481,-54.976332],[-70.987213,-54.948419],[-70.991119,-55.033624],[-70.856842,-55.058526],[-70.71581,-55.122817],[-70.63036,-55.076837],[-70.513661,-55.106622],[-70.295155,-55.082452]]],[[[-69.904164,-54.996759],[-69.776438,-55.034601],[-69.208404,-54.970147],[-69.234934,-54.931899],[-69.671457,-54.866469],[-69.928293,-54.897638],[-69.904164,-54.996759]]],[[[-70.421783,-54.845961],[-70.607086,-54.832289],[-70.580881,-54.897882],[-70.421783,-54.845961]]],[[[-70.983795,-54.928481],[-71.147817,-54.84002],[-71.357777,-54.825128],[-71.459584,-54.87949],[-71.318186,-54.941583],[-71.282094,-54.869887],[-71.06428,-54.94964],[-70.983795,-54.928481]]],[[[-70.384592,-54.188084],[-70.459096,-54.235935],[-70.269439,-54.271091],[-70.226308,-54.215427],[-70.384592,-54.188084]]],[[[-72.296946,-54.07879],[-72.330434,-54.140313],[-72.51537,-54.202325],[-72.426503,-54.254653],[-72.301503,-54.251397],[-72.239735,-54.112074],[-72.296946,-54.07879]]],[[[-73.180084,-54.071954],[-73.358266,-54.023614],[-73.313385,-54.121189],[-73.180084,-54.071954]]],[[[-71.63093,-54.07879],[-71.699818,-54.166192],[-71.651519,-54.232029],[-71.499867,-54.211033],[-71.381174,-54.24627],[-71.295155,-54.317804],[-71.113881,-54.379815],[-70.990142,-54.265802],[-71.012522,-54.100844],[-71.214508,-54.150079],[-71.301503,-53.991469],[-71.463287,-53.941583],[-71.657053,-53.983168],[-71.63093,-54.07879]]],[[[-72.015126,-54.202325],[-71.857411,-54.317804],[-71.836985,-54.16131],[-71.71345,-54.147719],[-71.727284,-53.898614],[-71.830149,-53.920587],[-71.945709,-53.852797],[-72.032541,-53.924249],[-72.258168,-53.945082],[-72.228017,-54.058364],[-72.015126,-54.202325]]],[[[-70.455036,-53.611598],[-70.566453,-53.626053],[-70.71288,-53.70143],[-70.69929,-53.787205],[-70.881505,-53.842264],[-70.884185,-54.027032],[-70.822743,-54.113539],[-70.685618,-54.188084],[-70.540435,-54.221612],[-70.610504,-53.948419],[-70.439252,-54.060409],[-70.336277,-54.007403],[-70.452219,-53.886895],[-70.421639,-53.802527],[-70.473156,-53.665345],[-70.455036,-53.611598]]],[[[-73.824452,-53.472101],[-73.892323,-53.5263],[-73.789662,-53.57171],[-73.730214,-53.499688],[-73.824452,-53.472101]]],[[[-73.392445,-53.413995],[-73.556711,-53.404555],[-73.593414,-53.490004],[-73.481801,-53.57171],[-73.392445,-53.530694],[-73.488026,-53.451593],[-73.392445,-53.413995]]],[[[-72.529652,-54.075372],[-72.385162,-53.981052],[-72.328481,-53.839614],[-72.250885,-53.877537],[-72.187001,-53.776544],[-72.234242,-53.728774],[-72.48469,-53.674005],[-72.397288,-53.633477],[-72.655873,-53.536798],[-72.872548,-53.534845],[-72.93517,-53.435724],[-73.032623,-53.390313],[-73.161529,-53.411391],[-73.131703,-53.48919],[-73.387359,-53.462172],[-73.339996,-53.547947],[-73.482818,-53.587986],[-73.584706,-53.582778],[-73.616078,-53.651625],[-73.362457,-53.713311],[-73.252838,-53.786065],[-73.309722,-53.824314],[-73.204091,-53.989435],[-73.044057,-53.999119],[-73.101674,-53.910414],[-73.066477,-53.831313],[-72.743072,-53.89365],[-72.840159,-53.960382],[-72.807769,-54.005792],[-72.933746,-54.058364],[-72.817047,-54.126642],[-72.658762,-54.051446],[-72.529652,-54.075372]]],[[[-73.207428,-53.317804],[-73.435129,-53.140232],[-73.659983,-53.057794],[-73.814198,-53.061456],[-73.875885,-53.003188],[-74.177602,-52.944513],[-74.248931,-52.961602],[-74.407216,-52.913751],[-74.502838,-52.824965],[-74.674428,-52.721287],[-74.749867,-52.755548],[-74.571156,-52.851739],[-74.596547,-52.922947],[-74.425038,-52.97381],[-74.407216,-53.02988],[-74.262603,-53.091241],[-74.086293,-53.104913],[-73.880442,-53.057712],[-73.83434,-53.109063],[-73.605946,-53.211114],[-73.559641,-53.323663],[-73.420318,-53.283136],[-73.317291,-53.352634],[-73.207428,-53.317804]]],[[[-73.837392,-52.70086],[-73.736887,-52.592869],[-73.781728,-52.563735],[-73.677887,-52.473321],[-73.894885,-52.408141],[-74.029729,-52.429918],[-73.977055,-52.498332],[-74.049713,-52.563735],[-74.184368,-52.586801],[-74.127781,-52.665915],[-73.909779,-52.656427],[-73.837392,-52.70086]]],[[[-74.672566,-52.390549],[-74.593839,-52.39482],[-74.536096,-52.271905],[-74.589285,-52.2129],[-74.815175,-52.236586],[-74.815413,-52.350447],[-74.672566,-52.390549]]],[[[-73.769846,-52.379327],[-73.815338,-52.241143],[-74.079172,-52.147719],[-74.002553,-52.255792],[-73.769846,-52.379327]]],[[[-74.122548,-52.397719],[-73.951039,-52.307061],[-74.11913,-52.181817],[-74.297353,-52.084568],[-74.338368,-52.166436],[-74.214508,-52.169366],[-74.187327,-52.367364],[-74.122548,-52.397719]]],[[[-73.707672,-52.186944],[-73.784006,-52.059666],[-74.053293,-51.908461],[-74.09024,-52.010024],[-73.871246,-52.094903],[-73.707672,-52.186944]]],[[[-74.749867,-52.043064],[-74.727935,-51.968845],[-74.64094,-51.898207],[-74.779897,-51.871677],[-74.85912,-52.056573],[-74.749867,-52.043064]]],[[[-75.061147,-51.882257],[-75.000885,-51.843845],[-74.96996,-51.736749],[-75.054596,-51.724867],[-75.119781,-51.878106],[-75.061147,-51.882257]]],[[[-74.43456,-51.844903],[-74.242177,-51.940606],[-74.145904,-51.947361],[-74.096303,-51.877374],[-74.31786,-51.762384],[-74.502838,-51.707208],[-74.43456,-51.844903]]],[[[-74.889801,-52.002048],[-74.762929,-51.782892],[-74.80724,-51.63421],[-74.933502,-51.856378],[-75.037221,-51.920668],[-75.065256,-51.994561],[-74.981109,-52.05283],[-74.889801,-52.002048]]],[[[-73.943918,-51.741306],[-74.071441,-51.60475],[-74.232249,-51.707208],[-74.049631,-51.79339],[-73.943918,-51.741306]]],[[[-74.197133,-51.42669],[-74.10969,-51.427992],[-74.16511,-51.287042],[-74.254628,-51.290785],[-74.197133,-51.42669]]],[[[-75.02359,-51.330987],[-75.142405,-51.263849],[-75.219838,-51.305434],[-75.225331,-51.490655],[-75.314687,-51.536554],[-75.2058,-51.601739],[-75.133412,-51.53281],[-75.157704,-51.450616],[-75.02359,-51.330987]]],[[[-73.79308,-51.258722],[-73.920644,-51.303643],[-73.77892,-51.363458],[-73.79308,-51.258722]]],[[[-74.739003,-51.368585],[-74.594228,-51.399509],[-74.54898,-51.284356],[-74.601918,-51.205987],[-74.79308,-51.211196],[-74.838002,-51.275811],[-74.962799,-51.32936],[-74.798655,-51.432306],[-74.739003,-51.368585]]],[[[-74.420277,-51.111261],[-74.605214,-51.080255],[-74.574371,-51.15488],[-74.423899,-51.205173],[-74.420277,-51.111261]]],[[[-74.385569,-50.981052],[-74.394928,-50.869806],[-74.550649,-50.751642],[-74.625478,-50.9249],[-74.878651,-50.886326],[-74.913686,-50.960545],[-74.893219,-51.049249],[-74.626332,-51.087091],[-74.634389,-51.040134],[-74.385569,-50.981052]]],[[[-74.906321,-50.796563],[-74.844838,-50.871189],[-74.693023,-50.890069],[-74.660471,-50.823907],[-74.756012,-50.75506],[-74.742421,-50.707208],[-74.958974,-50.728285],[-74.906321,-50.796563]]],[[[-75.126047,-50.494317],[-75.427642,-50.514825],[-75.482289,-50.675063],[-75.433909,-50.741957],[-75.27892,-50.770115],[-75.290435,-50.645766],[-75.139638,-50.549005],[-75.126047,-50.494317]]],[[[-74.310414,-50.834161],[-74.186106,-50.833103],[-74.271108,-50.624282],[-74.332672,-50.577325],[-74.383127,-50.455987],[-74.476674,-50.476332],[-74.55248,-50.423923],[-74.639638,-50.481866],[-74.468658,-50.522231],[-74.581207,-50.633559],[-74.517079,-50.731622],[-74.310414,-50.834161]]],[[[-74.783355,-50.480645],[-74.640859,-50.449314],[-74.608713,-50.363946],[-74.736724,-50.37184],[-74.783355,-50.480645]]],[[[-75.040639,-50.289483],[-74.942372,-50.220147],[-74.833852,-50.219496],[-74.952138,-50.108819],[-75.133412,-50.083429],[-75.325266,-50.00156],[-75.40038,-50.039158],[-75.304758,-50.125095],[-75.127268,-50.170831],[-75.197987,-50.25628],[-75.270619,-50.24863],[-75.39745,-50.171645],[-75.460927,-50.35003],[-75.27009,-50.327569],[-75.180776,-50.380792],[-75.040639,-50.289483]]],[[[-75.44811,-49.774998],[-75.339711,-49.859552],[-75.177887,-49.88421],[-75.211293,-49.792739],[-75.355339,-49.610176],[-75.508741,-49.563789],[-75.61352,-49.636375],[-75.555002,-49.734266],[-75.626786,-49.756343],[-75.617387,-49.864223],[-75.44811,-49.774998]]],[[[-74.903188,-49.076755],[-75.095448,-49.02988],[-75.229644,-49.116957],[-75.201731,-49.172296],[-75.089752,-49.15838],[-74.920522,-49.272638],[-74.903188,-49.076755]]],[[[-75.557973,-49.247328],[-75.461822,-49.179132],[-75.389312,-49.179132],[-75.287424,-49.086602],[-75.394276,-48.998142],[-75.441151,-49.085219],[-75.60733,-49.151056],[-75.635081,-49.228936],[-75.557973,-49.247328]]],[[[-75.215403,-49.014581],[-75.305979,-48.864923],[-75.614735,-48.858657],[-75.647369,-48.966892],[-75.543772,-48.986586],[-75.315053,-48.965509],[-75.215403,-49.014581]]],[[[-75.105824,-48.969903],[-75.078765,-48.894627],[-75.210601,-48.811782],[-75.247141,-48.924574],[-75.194,-48.995701],[-75.105824,-48.969903]]],[[[-75.198313,-49.771173],[-75.133941,-49.858331],[-75.012196,-49.837335],[-74.961537,-49.785252],[-74.958648,-49.662205],[-75.009511,-49.51865],[-74.922597,-49.53281],[-74.891957,-49.614435],[-74.917307,-49.693943],[-74.882558,-49.79697],[-74.913401,-49.916762],[-74.867747,-50.016209],[-74.660634,-50.050551],[-74.485463,-49.953058],[-74.431956,-49.809828],[-74.420522,-49.68963],[-74.536366,-49.507989],[-74.485341,-49.459568],[-74.44815,-49.322442],[-74.461781,-49.119317],[-74.507069,-49.039483],[-74.475494,-48.946384],[-74.530141,-48.866876],[-74.525502,-48.722833],[-74.618804,-48.734145],[-74.756337,-48.678155],[-74.985015,-48.759047],[-75.051503,-48.857029],[-74.954701,-48.91839],[-74.954701,-49.007094],[-74.804514,-49.103936],[-74.856435,-49.151788],[-74.930165,-49.314223],[-75.003082,-49.267836],[-75.187408,-49.29518],[-75.259755,-49.264093],[-75.427235,-49.279474],[-75.467275,-49.332696],[-75.305409,-49.560154],[-75.293935,-49.63836],[-75.215403,-49.699314],[-75.198313,-49.771173]]],[[[-75.085032,-48.637302],[-75.229604,-48.752374],[-75.119252,-48.817153],[-75.060658,-48.699395],[-75.085032,-48.637302]]],[[[-73.815143,-51.864059],[-73.805119,-51.980471],[-73.703778,-51.976018],[-73.71833,-51.84886],[-73.815143,-51.864059]]],[[[-74.970277,-50.287516],[-75.121178,-50.382086],[-75.171581,-50.46215],[-75.044522,-50.475994],[-74.976266,-50.432888],[-74.970277,-50.287516]]],[[[-74.426015,-49.614923],[-74.29308,-49.55462],[-74.371816,-49.453383],[-74.440704,-49.435724],[-74.426015,-49.614923]]]]},"properties":{"LOCATION_TYPE":"level1","ADM0_A3":"CHL","LOCATION_ID":"CHL-MA","NAME":"Magallanes y Antártica Chilena","TYPE_EN":"Region"}}
]}