{"type":"FeatureCollection", "features": [
{"type":"Feature","geometry":{"type":"Polygon","coordinates":[[[-6.66827,10.36584],[-6.803895,10.370867],[-6.973136,10.33229],[-6.997113,10.25276],[-6.95939,10.185503],[-7.040522,10.140054],[-7.106357,10.207259],[-7.346963,10.247903],[-7.366342,10.329448],[-7.444425,10.334202],[-7.46618,10.429494],[-7.643689,10.440475],[-7.708646,10.402467],[-7.829001,10.211652],[-8.108777,10.054194],[-8.173837,9.941875],[-8.123505,9.844852],[-8.16159,9.575644],[-8.087176,9.415395],[-8.032296,9.384648],[-7.865381,9.409918],[-7.929563,9.183885],[-7.748203,9.075403],[-7.666374,8.95457],[-7.371922,8.708874],[-7.186455,8.523614],[-7.220251,8.642263],[-7.190848,8.796001],[-7.229967,8.870234],[-7.134469,9.005084],[-7.01799,8.958006],[-6.905232,8.954958],[-6.897325,9.052264],[-6.746585,9.117816],[-6.736922,9.270597],[-6.781002,9.438494],[-6.742141,9.518851],[-6.797745,9.565334],[-6.742865,9.69685],[-6.733563,9.844257],[-6.802758,9.951873],[-6.92983,9.947843],[-6.855312,10.130932],[-6.671861,10.116902],[-6.583494,10.167183],[-6.66827,10.36584]]]},"properties":{"LOCATION_TYPE":"level1","ADM0_A3":"CIV","LOCATION_ID":"CIV-10","NAME":"Denguélé","TYPE_EN":"Region"}},
{"type":"Feature","geometry":{"type":"Polygon","coordinates":[[[-7.748203,9.075403],[-7.916747,9.012345],[-7.946461,8.948602],[-7.958915,8.781997],[-7.803679,8.749054],[-7.691593,8.606142],[-7.689578,8.438659],[-7.77102,8.386518],[-7.898583,8.426283],[-7.970542,8.49695],[-8.200296,8.491834],[-8.265977,8.245984],[-8.085522,8.162035],[-7.965638,8.026927],[-7.85551,7.999719],[-7.776703,7.895539],[-7.668493,7.842777],[-7.563073,7.866807],[-7.496875,7.93502],[-7.512223,8.081032],[-7.449695,8.166763],[-7.282263,8.067544],[-7.239475,7.994835],[-7.083826,7.989254],[-7.12651,8.303602],[-7.186455,8.523614],[-7.371922,8.708874],[-7.666374,8.95457],[-7.748203,9.075403]]]},"properties":{"LOCATION_TYPE":"level1","ADM0_A3":"CIV","LOCATION_ID":"CIV-17","NAME":"Bafing","TYPE_EN":"Region"}},
{"type":"Feature","geometry":{"type":"Polygon","coordinates":[[[-7.965638,8.026927],[-8.069089,8.029278],[-8.128879,7.882569],[-8.101439,7.812806],[-8.12738,7.713019],[-8.228976,7.544295],[-8.303235,7.589305],[-8.44364,7.537112],[-8.387675,7.314955],[-8.302615,7.137602],[-8.284115,7.017867],[-8.319978,6.95999],[-8.316619,6.836276],[-8.441646,6.65531],[-8.320339,6.585955],[-8.092085,6.804753],[-8.07622,6.916632],[-7.963875,6.957353],[-7.863003,6.902576],[-7.833496,6.846249],[-7.622139,6.847024],[-7.603794,6.929267],[-7.301332,6.964252],[-7.160617,6.962779],[-7.062742,6.9295],[-7.040676,7.079051],[-7.079123,7.170803],[-7.085324,7.366011],[-7.005898,7.445541],[-7.07163,7.719477],[-7.098967,7.903833],[-7.083826,7.989254],[-7.239475,7.994835],[-7.282263,8.067544],[-7.449695,8.166763],[-7.512223,8.081032],[-7.496875,7.93502],[-7.563073,7.866807],[-7.668493,7.842777],[-7.776703,7.895539],[-7.85551,7.999719],[-7.965638,8.026927]]]},"properties":{"LOCATION_TYPE":"level1","ADM0_A3":"CIV","LOCATION_ID":"CIV-06","NAME":"Dix-Huit Montagnes","TYPE_EN":"Department"}},
{"type":"Feature","geometry":{"type":"Polygon","coordinates":[[[-3.096593,7.054477],[-3.045933,7.071249],[-2.9817,7.195531],[-2.990459,7.270668],[-2.941521,7.577161],[-2.840003,7.820247],[-2.690865,8.009745],[-2.610559,8.040001],[-2.619448,8.123097],[-2.506328,8.209267],[-2.619448,8.923617],[-2.660789,9.014903],[-2.774839,9.054978],[-2.759388,9.134818],[-2.659807,9.272898],[-2.675672,9.471723],[-2.763677,9.391883],[-2.810418,9.411106],[-2.910154,9.542726],[-2.989994,9.708427],[-3.094561,9.733851],[-3.136936,9.82953],[-3.277857,9.843457],[-3.389168,9.913246],[-3.606261,9.918181],[-3.661658,9.948929],[-3.889706,9.894462],[-4.059877,9.796277],[-4.13305,9.820409],[-4.270329,9.743928],[-4.322477,9.608981],[-4.196405,9.444566],[-4.173667,9.233339],[-4.09052,9.267497],[-3.956471,9.201454],[-3.872032,9.103631],[-3.881954,8.922066],[-3.816738,8.857212],[-3.820201,8.78086],[-3.931718,8.613893],[-3.978744,8.509765],[-3.943707,8.438245],[-4.01993,8.183764],[-3.977142,8.102839],[-4.010111,8.028322],[-3.976573,7.912954],[-3.879939,7.885049],[-3.816738,7.739967],[-3.74005,7.732836],[-3.714729,7.654882],[-3.541406,7.495615],[-3.502752,7.407946],[-3.53505,7.337925],[-3.420587,7.318753],[-3.341728,7.24948],[-3.235068,7.22465],[-3.139467,7.152484],[-3.096593,7.054477]]]},"properties":{"LOCATION_TYPE":"level1","ADM0_A3":"CIV","LOCATION_ID":"CIV-08","NAME":"Zanzan","TYPE_EN":"Region"}},
{"type":"Feature","geometry":{"type":"Polygon","coordinates":[[[-3.096593,7.054477],[-3.139467,7.152484],[-3.235068,7.22465],[-3.341728,7.24948],[-3.420587,7.318753],[-3.53505,7.337925],[-3.582334,7.27475],[-3.618766,7.082049],[-3.751626,7.000116],[-3.729715,6.912007],[-3.796274,6.759898],[-3.77488,6.627141],[-3.678039,6.623472],[-3.611324,6.35584],[-3.54244,6.376304],[-3.395627,6.162802],[-3.423532,5.971238],[-3.467664,5.837551],[-3.434126,5.780293],[-3.381829,5.799465],[-3.308966,5.918786],[-3.171722,6.249585],[-3.262509,6.617142],[-3.210419,6.715999],[-3.224941,6.849402],[-3.096593,7.054477]]]},"properties":{"LOCATION_TYPE":"level1","ADM0_A3":"CIV","LOCATION_ID":"CIV-05","NAME":"Comoe","TYPE_EN":"Department"}},
{"type":"Feature","geometry":{"type":"Polygon","coordinates":[[[-3.171722,6.249585],[-3.308966,5.918786],[-3.381829,5.799465],[-3.434126,5.780293],[-3.43919,5.64025],[-3.408236,5.523487],[-3.435986,5.454913],[-3.43702,5.283192],[-3.402293,5.2372],[-3.538751,5.15729],[-3.312164,5.11994],[-3.230214,5.358629],[-3.134429,5.366767],[-3.205068,5.218655],[-3.13915,5.14232],[-3.062815,5.156643],[-2.977773,5.114976],[-2.946685,5.177069],[-2.780885,5.150875],[-2.789567,5.346858],[-2.732671,5.355721],[-2.781815,5.578885],[-2.877494,5.636815],[-2.969504,5.621441],[-3.029759,5.704252],[-3.019966,5.818354],[-3.087765,5.996689],[-3.118074,6.163475],[-3.171722,6.249585]]]},"properties":{"LOCATION_TYPE":"level1","ADM0_A3":"CIV","LOCATION_ID":"CIV-13","NAME":"Sud-Comoé","TYPE_EN":"Region"}},
{"type":"Feature","geometry":{"type":"Polygon","coordinates":[[[-4.322477,9.608981],[-4.50171,9.655019],[-4.604029,9.727159],[-4.70547,9.702096],[-4.83846,9.86945],[-4.966075,9.901025],[-4.974524,10.055537],[-5.048343,10.085355],[-5.111802,10.27865],[-5.217584,10.31994],[-5.402534,10.300561],[-5.505111,10.415567],[-5.594047,10.453937],[-5.806282,10.413474],[-5.904829,10.348284],[-6.015933,10.18987],[-6.180884,10.215838],[-6.243309,10.289011],[-6.183933,10.358852],[-6.185793,10.481325],[-6.256228,10.537239],[-6.207808,10.637543],[-6.28,10.723274],[-6.433995,10.667929],[-6.42149,10.556592],[-6.52138,10.564214],[-6.667883,10.650901],[-6.697545,10.488301],[-6.66827,10.36584],[-6.583494,10.167183],[-6.671861,10.116902],[-6.855312,10.130932],[-6.92983,9.947843],[-6.802758,9.951873],[-6.733563,9.844257],[-6.742865,9.69685],[-6.797745,9.565334],[-6.742141,9.518851],[-6.781002,9.438494],[-6.736922,9.270597],[-6.746585,9.117816],[-6.606025,9.067302],[-6.533988,9.157012],[-6.460246,9.075467],[-6.34661,9.198276],[-6.264444,9.202539],[-6.2153,9.134042],[-6.224498,8.999968],[-6.131532,8.940152],[-6.108691,8.877004],[-5.956349,8.640584],[-5.610427,8.529247],[-5.636265,8.608855],[-5.701688,8.631747],[-5.67709,8.723525],[-5.691611,8.84114],[-5.466663,8.867986],[-5.497204,9.063349],[-5.338092,9.384802],[-5.252516,9.385422],[-5.216343,9.313101],[-5.019145,9.293309],[-4.973308,9.160733],[-4.882823,9.092055],[-4.93605,8.908966],[-4.571111,8.897313],[-4.404506,8.846592],[-4.345181,8.72678],[-4.210719,8.639189],[-3.931718,8.613893],[-3.820201,8.78086],[-3.816738,8.857212],[-3.881954,8.922066],[-3.872032,9.103631],[-3.956471,9.201454],[-4.09052,9.267497],[-4.173667,9.233339],[-4.196405,9.444566],[-4.322477,9.608981]]]},"properties":{"LOCATION_TYPE":"level1","ADM0_A3":"CIV","LOCATION_ID":"CIV-03","NAME":"Savanes","TYPE_EN":"Department"}},
{"type":"Feature","geometry":{"type":"Polygon","coordinates":[[[-8.441646,6.65531],[-8.566113,6.550919],[-8.568077,6.490406],[-8.405089,6.436327],[-8.388811,6.355091],[-8.170582,6.274011],[-8.060098,6.301141],[-7.934886,6.271427],[-7.844142,6.183965],[-7.864502,6.101696],[-7.805695,6.062034],[-7.799648,5.974468],[-7.680483,5.94093],[-7.559146,5.839851],[-7.446543,5.845949],[-7.449489,5.732364],[-7.417963,5.627757],[-7.094058,5.690609],[-7.081552,5.999247],[-7.110801,6.327289],[-7.110284,6.490974],[-6.997423,6.557869],[-6.969931,6.696749],[-6.986984,6.782248],[-7.062742,6.9295],[-7.160617,6.962779],[-7.301332,6.964252],[-7.603794,6.929267],[-7.622139,6.847024],[-7.833496,6.846249],[-7.863003,6.902576],[-7.963875,6.957353],[-8.07622,6.916632],[-8.092085,6.804753],[-8.320339,6.585955],[-8.441646,6.65531]]]},"properties":{"LOCATION_TYPE":"level1","ADM0_A3":"CIV","LOCATION_ID":"CIV-19","NAME":"Cavally","TYPE_EN":"Department"}},
{"type":"Feature","geometry":{"type":"Polygon","coordinates":[[[-7.417963,5.627757],[-7.393627,5.523979],[-7.449954,5.422771],[-7.396934,5.366444],[-7.468247,5.273452],[-7.488918,5.140669],[-7.578163,5.054731],[-7.555322,4.948433],[-7.6055,4.897428],[-7.572479,4.723356],[-7.573771,4.375393],[-7.456776,4.344062],[-7.173451,4.518785],[-7.058217,4.539008],[-6.914174,4.655707],[-6.62682,4.724595],[-6.583852,4.760403],[-6.13858,4.915229],[-5.858684,5.027692],[-5.873047,5.129739],[-5.743959,5.275906],[-5.828812,5.55948],[-5.969578,5.514806],[-6.051641,5.678207],[-6.137527,5.794892],[-6.218555,5.778123],[-6.387331,6.150839],[-6.39994,6.304783],[-6.485929,6.275845],[-6.590006,6.310985],[-6.68478,6.247526],[-6.854176,6.259541],[-6.969827,6.398034],[-6.953549,6.48454],[-6.997423,6.557869],[-7.110284,6.490974],[-7.110801,6.327289],[-7.081552,5.999247],[-7.094058,5.690609],[-7.417963,5.627757]]]},"properties":{"LOCATION_TYPE":"level1","ADM0_A3":"CIV","LOCATION_ID":"CIV-09","NAME":"Bas-Sassandra","TYPE_EN":"Department"}},
{"type":"Feature","geometry":{"type":"Polygon","coordinates":[[[-5.428316,5.098876],[-5.442944,5.233402],[-5.324483,5.190827],[-5.234051,5.223065],[-5.088082,5.231464],[-4.971603,5.583613],[-4.993101,5.653221],[-4.937703,5.795667],[-4.987158,5.889305],[-5.007777,6.110816],[-5.176087,6.153475],[-5.244351,6.218122],[-5.312564,6.233935],[-5.505214,6.166756],[-5.728818,6.19616],[-5.762873,6.118257],[-5.781373,5.963641],[-5.867052,5.894963],[-6.051641,5.678207],[-5.969578,5.514806],[-5.828812,5.55948],[-5.743959,5.275906],[-5.873047,5.129739],[-5.858684,5.027692],[-5.428316,5.098876]]]},"properties":{"LOCATION_TYPE":"level1","ADM0_A3":"CIV","LOCATION_ID":"CIV-15","NAME":"Sud-Bandama","TYPE_EN":"Department"}},
{"type":"Feature","geometry":{"type":"MultiPolygon","coordinates":[[[[-5.324483,5.190827],[-5.442944,5.233402],[-5.428316,5.098876],[-5.25536,5.121039],[-5.002431,5.128648],[-5.033193,5.183295],[-5.235463,5.161322],[-5.324483,5.190827]]],[[[-3.538751,5.15729],[-3.402293,5.2372],[-3.43702,5.283192],[-3.435986,5.454913],[-3.408236,5.523487],[-3.43919,5.64025],[-3.434126,5.780293],[-3.467664,5.837551],[-3.71845,5.906151],[-3.815136,5.85525],[-3.924639,5.757866],[-3.931253,5.621621],[-4.307509,5.601157],[-4.416392,5.641801],[-4.46166,5.731098],[-4.659116,5.858118],[-4.463004,6.224013],[-4.701542,6.282046],[-4.749136,6.24303],[-5.024985,6.251867],[-5.178722,6.377001],[-5.215309,6.366769],[-5.244351,6.218122],[-5.176087,6.153475],[-5.007777,6.110816],[-4.987158,5.889305],[-4.937703,5.795667],[-4.993101,5.653221],[-4.971603,5.583613],[-5.088082,5.231464],[-5.234051,5.223065],[-5.112294,5.183295],[-5.009755,5.216051],[-4.969106,5.137397],[-4.784657,5.143948],[-4.620513,5.180732],[-3.995758,5.231676],[-4.183827,5.280178],[-4.44164,5.225043],[-4.477691,5.291327],[-4.125478,5.30744],[-3.840891,5.201158],[-3.538751,5.15729]]]]},"properties":{"LOCATION_TYPE":"level1","ADM0_A3":"CIV","LOCATION_ID":"CIV-01","NAME":"Lagunes","TYPE_EN":"Department"}},
{"type":"Feature","geometry":{"type":"Polygon","coordinates":[[[-7.07163,7.719477],[-7.005898,7.445541],[-7.085324,7.366011],[-7.079123,7.170803],[-7.040676,7.079051],[-7.062742,6.9295],[-6.986984,6.782248],[-6.969931,6.696749],[-6.997423,6.557869],[-6.953549,6.48454],[-6.969827,6.398034],[-6.854176,6.259541],[-6.68478,6.247526],[-6.590006,6.310985],[-6.485929,6.275845],[-6.39994,6.304783],[-6.098563,6.373668],[-6.040789,6.519757],[-6.16507,6.727626],[-6.219899,6.931825],[-6.198402,7.013758],[-5.931855,7.165351],[-6.220519,7.285085],[-6.23287,7.217958],[-6.349297,7.217958],[-6.445777,7.254829],[-6.300773,7.511247],[-6.105746,7.618398],[-6.20481,7.678214],[-6.248838,7.776735],[-6.481692,7.74268],[-6.630417,7.785597],[-6.997216,7.7641],[-7.07163,7.719477]]]},"properties":{"LOCATION_TYPE":"level1","ADM0_A3":"CIV","LOCATION_ID":"CIV-02","NAME":"Haut-Sassandra","TYPE_EN":"Department"}},
{"type":"Feature","geometry":{"type":"Polygon","coordinates":[[[-3.77488,6.627141],[-4.08866,6.483455],[-4.155426,6.373126],[-4.146589,6.234245],[-4.248236,6.185385],[-4.432101,6.276077],[-4.463004,6.224013],[-4.659116,5.858118],[-4.46166,5.731098],[-4.416392,5.641801],[-4.307509,5.601157],[-3.931253,5.621621],[-3.924639,5.757866],[-3.815136,5.85525],[-3.71845,5.906151],[-3.467664,5.837551],[-3.423532,5.971238],[-3.395627,6.162802],[-3.54244,6.376304],[-3.611324,6.35584],[-3.678039,6.623472],[-3.77488,6.627141]]]},"properties":{"LOCATION_TYPE":"level1","ADM0_A3":"CIV","LOCATION_ID":"CIV-16","NAME":"Agnéby","TYPE_EN":"Department"}},
{"type":"Feature","geometry":{"type":"Polygon","coordinates":[[[-3.77488,6.627141],[-3.796274,6.759898],[-3.729715,6.912007],[-3.751626,7.000116],[-3.618766,7.082049],[-3.582334,7.27475],[-3.53505,7.337925],[-3.502752,7.407946],[-3.541406,7.495615],[-3.714729,7.654882],[-3.74005,7.732836],[-3.816738,7.739967],[-3.879939,7.885049],[-3.976573,7.912954],[-4.010111,8.028322],[-4.157131,7.999099],[-4.289578,7.871949],[-4.425177,7.800403],[-4.527186,7.799783],[-4.514112,7.610078],[-4.577932,7.599381],[-4.661028,7.516208],[-4.72583,7.426834],[-4.708363,7.269169],[-4.770582,7.076132],[-4.817504,6.999185],[-4.803603,6.882423],[-4.954033,6.821419],[-4.971603,6.748193],[-4.92711,6.60784],[-4.809029,6.626211],[-4.769342,6.58766],[-4.793836,6.488803],[-4.701956,6.397258],[-4.701542,6.282046],[-4.463004,6.224013],[-4.432101,6.276077],[-4.248236,6.185385],[-4.146589,6.234245],[-4.155426,6.373126],[-4.08866,6.483455],[-3.77488,6.627141]]]},"properties":{"LOCATION_TYPE":"level1","ADM0_A3":"CIV","LOCATION_ID":"CIV-11","NAME":"N'zi-Comoé","TYPE_EN":"Department"}},
{"type":"Feature","geometry":{"type":"Polygon","coordinates":[[[-5.413402,6.640095],[-5.437104,6.766719],[-5.528778,6.877901],[-5.489814,7.047503],[-5.497256,7.140314],[-5.569448,7.140934],[-5.662155,7.256999],[-5.727733,7.371437],[-5.714038,7.506984],[-5.786127,7.623979],[-5.795739,7.74392],[-5.906326,7.706688],[-6.007871,7.737719],[-6.105746,7.618398],[-6.300773,7.511247],[-6.445777,7.254829],[-6.349297,7.217958],[-6.23287,7.217958],[-6.220519,7.285085],[-5.931855,7.165351],[-6.198402,7.013758],[-6.219899,6.931825],[-6.16507,6.727626],[-6.040789,6.519757],[-5.739928,6.488648],[-5.512139,6.629234],[-5.413402,6.640095]]]},"properties":{"LOCATION_TYPE":"level1","ADM0_A3":"CIV","LOCATION_ID":"CIV-12","NAME":"Marahoué","TYPE_EN":"Department"}},
{"type":"Feature","geometry":{"type":"Polygon","coordinates":[[[-5.413402,6.640095],[-5.512139,6.629234],[-5.739928,6.488648],[-6.040789,6.519757],[-6.098563,6.373668],[-6.39994,6.304783],[-6.387331,6.150839],[-6.218555,5.778123],[-6.137527,5.794892],[-6.051641,5.678207],[-5.867052,5.894963],[-5.781373,5.963641],[-5.762873,6.118257],[-5.728818,6.19616],[-5.505214,6.166756],[-5.312564,6.233935],[-5.244351,6.218122],[-5.215309,6.366769],[-5.286571,6.365762],[-5.324398,6.461001],[-5.308533,6.589159],[-5.413402,6.640095]]]},"properties":{"LOCATION_TYPE":"level1","ADM0_A3":"CIV","LOCATION_ID":"CIV-18","NAME":"Fromager","TYPE_EN":"Region"}},
{"type":"Feature","geometry":{"type":"Polygon","coordinates":[[[-4.010111,8.028322],[-3.977142,8.102839],[-4.01993,8.183764],[-3.943707,8.438245],[-3.978744,8.509765],[-3.931718,8.613893],[-4.210719,8.639189],[-4.345181,8.72678],[-4.404506,8.846592],[-4.571111,8.897313],[-4.93605,8.908966],[-4.882823,9.092055],[-4.973308,9.160733],[-5.019145,9.293309],[-5.216343,9.313101],[-5.252516,9.385422],[-5.338092,9.384802],[-5.497204,9.063349],[-5.466663,8.867986],[-5.691611,8.84114],[-5.67709,8.723525],[-5.701688,8.631747],[-5.636265,8.608855],[-5.610427,8.529247],[-5.523042,8.466176],[-5.546969,8.383623],[-5.406977,8.3228],[-5.347394,8.211489],[-5.421395,8.102451],[-5.53746,8.09501],[-5.603916,8.021139],[-5.740135,8.000029],[-5.760082,7.791489],[-5.795739,7.74392],[-5.786127,7.623979],[-5.714038,7.506984],[-5.727733,7.371437],[-5.662155,7.256999],[-5.459894,7.299503],[-5.369408,7.227905],[-5.28099,7.241238],[-5.186887,7.330922],[-5.074749,7.384924],[-4.905974,7.535768],[-4.661028,7.516208],[-4.577932,7.599381],[-4.514112,7.610078],[-4.527186,7.799783],[-4.425177,7.800403],[-4.289578,7.871949],[-4.157131,7.999099],[-4.010111,8.028322]]]},"properties":{"LOCATION_TYPE":"level1","ADM0_A3":"CIV","LOCATION_ID":"CIV-04","NAME":"Vallée du Bandama","TYPE_EN":"Region"}},
{"type":"Feature","geometry":{"type":"Polygon","coordinates":[[[-4.701542,6.282046],[-4.701956,6.397258],[-4.793836,6.488803],[-4.769342,6.58766],[-4.809029,6.626211],[-4.92711,6.60784],[-4.971603,6.748193],[-4.954033,6.821419],[-4.803603,6.882423],[-4.817504,6.999185],[-4.770582,7.076132],[-4.708363,7.269169],[-4.72583,7.426834],[-4.661028,7.516208],[-4.905974,7.535768],[-5.074749,7.384924],[-5.186887,7.330922],[-5.28099,7.241238],[-5.369408,7.227905],[-5.459894,7.299503],[-5.662155,7.256999],[-5.569448,7.140934],[-5.497256,7.140314],[-5.489814,7.047503],[-5.528778,6.877901],[-5.437104,6.766719],[-5.413402,6.640095],[-5.308533,6.589159],[-5.324398,6.461001],[-5.286571,6.365762],[-5.215309,6.366769],[-5.178722,6.377001],[-5.024985,6.251867],[-4.749136,6.24303],[-4.701542,6.282046]]]},"properties":{"LOCATION_TYPE":"level1","ADM0_A3":"CIV","LOCATION_ID":"CIV-07","NAME":"Lacs","TYPE_EN":"Department"}},
{"type":"Feature","geometry":{"type":"Polygon","coordinates":[[[-6.105746,7.618398],[-6.007871,7.737719],[-5.906326,7.706688],[-5.795739,7.74392],[-5.760082,7.791489],[-5.740135,8.000029],[-5.603916,8.021139],[-5.53746,8.09501],[-5.421395,8.102451],[-5.347394,8.211489],[-5.406977,8.3228],[-5.546969,8.383623],[-5.523042,8.466176],[-5.610427,8.529247],[-5.956349,8.640584],[-6.108691,8.877004],[-6.131532,8.940152],[-6.224498,8.999968],[-6.2153,9.134042],[-6.264444,9.202539],[-6.34661,9.198276],[-6.460246,9.075467],[-6.533988,9.157012],[-6.606025,9.067302],[-6.746585,9.117816],[-6.897325,9.052264],[-6.905232,8.954958],[-7.01799,8.958006],[-7.134469,9.005084],[-7.229967,8.870234],[-7.190848,8.796001],[-7.220251,8.642263],[-7.186455,8.523614],[-7.12651,8.303602],[-7.083826,7.989254],[-7.098967,7.903833],[-7.07163,7.719477],[-6.997216,7.7641],[-6.630417,7.785597],[-6.481692,7.74268],[-6.248838,7.776735],[-6.20481,7.678214],[-6.105746,7.618398]]]},"properties":{"LOCATION_TYPE":"level1","ADM0_A3":"CIV","LOCATION_ID":"CIV-14","NAME":"Worodougou","TYPE_EN":"Region"}}
]}