{"type":"FeatureCollection", "features": [
{"type":"Feature","geometry":{"type":"Polygon","coordinates":[[[9.929454,3.269015],[9.958018,3.082221],[9.877778,2.881415],[9.822927,2.562934],[9.810853,2.264876],[9.990997,2.165605],[11.322078,2.16576],[11.351637,2.300584],[11.671204,2.320996],[11.75275,2.281877],[12.202645,2.279552],[12.334006,2.309576],[12.749898,2.236712],[13.242891,2.27149],[13.294568,2.161058],[13.662266,2.157761],[13.620905,2.906283],[13.431615,2.785618],[13.311467,2.84024],[12.835269,2.902769],[12.764058,2.981059],[12.735636,3.187506],[12.551462,3.43824],[12.569445,3.558388],[12.466402,3.659157],[12.257113,3.457257],[12.2228,3.329668],[11.899253,3.462011],[11.749547,3.329203],[11.694615,3.20673],[11.537725,3.145441],[11.217279,3.134383],[11.037135,3.415554],[10.847845,3.416329],[10.71514,3.467282],[10.288602,3.357935],[10.247623,3.554357],[10.065153,3.501699],[10.024949,3.343672],[9.929454,3.269015]]]},"properties":{"LOCATION_TYPE":"level1","ADM0_A3":"CMR","LOCATION_ID":"CMR-SU","NAME":"Sud","TYPE_EN":"Province"}},
{"type":"Feature","geometry":{"type":"Polygon","coordinates":[[[14.196341,9.979147],[14.440493,9.995308],[14.732465,9.923814],[15.214916,9.984095],[15.382968,9.930196],[15.681244,9.991278],[15.536137,10.080523],[15.301422,10.311749],[15.065881,10.793115],[15.021233,11.182549],[15.06061,11.416126],[15.135644,11.530822],[15.068258,11.700114],[15.04056,12.055648],[14.9031,12.145875],[14.908268,12.326897],[14.830753,12.618249],[14.603997,12.760798],[14.490619,12.886346],[14.418169,13.081141],[14.064908,13.077988],[14.177356,12.545592],[14.179837,12.385602],[14.51439,12.323538],[14.669936,12.167424],[14.604307,12.03043],[14.623427,11.916535],[14.546533,11.718614],[14.62136,11.629782],[14.593765,11.496431],[14.368249,11.383001],[14.165471,11.238333],[13.98233,11.276264],[13.75485,11.016719],[13.744411,10.930497],[13.566283,10.679013],[13.501274,10.496337],[13.434921,10.153412],[13.392672,10.116957],[13.449908,10.06321],[13.656924,10.111528],[13.680488,10.220875],[13.927967,10.201962],[14.196341,9.979147]]]},"properties":{"LOCATION_TYPE":"level1","ADM0_A3":"CMR","LOCATION_ID":"CMR-EN","NAME":"Extrême-Nord","TYPE_EN":"Province"}},
{"type":"Feature","geometry":{"type":"Polygon","coordinates":[[[14.196341,9.979147],[13.927967,10.201962],[13.680488,10.220875],[13.656924,10.111528],[13.449908,10.06321],[13.392672,10.116957],[13.247956,10.079412],[13.212712,9.870148],[13.262942,9.801728],[13.195453,9.542209],[12.982442,9.474591],[12.862036,9.382891],[12.888391,9.226725],[12.822142,9.09681],[12.805709,8.831503],[12.660395,8.659318],[12.377001,8.59511],[12.403873,8.496537],[12.227036,8.386311],[12.233713,8.188455],[12.478546,7.947577],[12.616316,7.917553],[12.653884,7.744437],[13.095976,7.600002],[13.252039,7.607598],[13.294879,7.708005],[13.511196,7.592405],[13.66049,7.657001],[13.836913,7.673537],[13.929724,7.592405],[14.103822,7.573802],[14.321534,7.310562],[14.345099,7.172999],[14.465195,7.170829],[14.680737,7.024016],[15.246564,7.266731],[15.432784,7.389731],[15.521977,7.576076],[15.562905,7.792445],[15.440742,7.839419],[15.345347,8.13599],[15.183703,8.479148],[15.031258,8.658749],[14.793856,8.813623],[14.349542,9.168356],[14.321327,9.243158],[14.036486,9.568771],[13.947603,9.637759],[14.196341,9.979147]]]},"properties":{"LOCATION_TYPE":"level1","ADM0_A3":"CMR","LOCATION_ID":"CMR-NO","NAME":"Nord","TYPE_EN":"Province"}},
{"type":"Feature","geometry":{"type":"Polygon","coordinates":[[[12.233713,8.188455],[12.197787,7.975173],[12.054954,7.783919],[12.024981,7.596592],[11.844734,7.396397],[11.780242,7.241058],[11.881321,7.102048],[11.623249,6.932291],[11.509767,6.612311],[11.389361,6.473921],[11.202276,6.436739],[11.187669,6.290882],[11.295776,6.253882],[11.291694,5.992916],[11.616067,6.069604],[11.788562,6.193059],[11.974701,6.258585],[12.06467,6.179365],[12.3122,6.195694],[12.52273,6.002321],[12.882914,6.000048],[13.761672,6.0032],[14.432709,6.079123],[14.534957,6.190088],[14.719029,6.257862],[14.932452,6.710289],[15.042213,6.790775],[15.246564,7.266731],[14.680737,7.024016],[14.465195,7.170829],[14.345099,7.172999],[14.321534,7.310562],[14.103822,7.573802],[13.929724,7.592405],[13.836913,7.673537],[13.66049,7.657001],[13.511196,7.592405],[13.294879,7.708005],[13.252039,7.607598],[13.095976,7.600002],[12.653884,7.744437],[12.616316,7.917553],[12.478546,7.947577],[12.233713,8.188455]]]},"properties":{"LOCATION_TYPE":"level1","ADM0_A3":"CMR","LOCATION_ID":"CMR-AD","NAME":"Adamaoua","TYPE_EN":"Province"}},
{"type":"Feature","geometry":{"type":"Polygon","coordinates":[[[9.69398,6.534305],[9.805686,6.265819],[9.782587,6.132753],[9.609522,6.03927],[9.674583,5.849204],[9.919736,5.733294],[10.095694,5.728385],[10.175638,5.782283],[10.602485,5.845225],[10.693435,6.023715],[10.837716,6.007489],[10.996156,6.110222],[11.011349,6.244477],[11.187669,6.290882],[11.202276,6.436739],[11.097079,6.449117],[11.055945,6.700367],[10.877454,6.816097],[10.831876,6.94521],[10.602536,7.058072],[10.495979,6.874672],[10.238424,6.871003],[10.119465,6.994406],[9.874622,6.787701],[9.769822,6.773722],[9.69398,6.534305]]]},"properties":{"LOCATION_TYPE":"level1","ADM0_A3":"CMR","LOCATION_ID":"CMR-NW","NAME":"Nord-Ouest","TYPE_EN":"Province"}},
{"type":"Feature","geometry":{"type":"Polygon","coordinates":[[[9.69398,6.534305],[9.588127,6.502731],[9.327368,6.298506],[9.273315,6.202775],[8.988474,5.937287],[8.855872,5.847499],[8.819286,5.703451],[8.8937,5.621751],[8.798925,5.159635],[8.602245,4.881331],[8.505056,4.55093],[8.701671,4.501288],[8.871918,4.602484],[8.918956,4.318061],[8.990977,4.217475],[8.971202,4.100775],[9.123383,4.01789],[9.284353,3.992255],[9.331581,3.921855],[9.452888,4.076976],[9.502793,4.102321],[9.439455,4.243359],[9.516453,4.407483],[9.522189,4.556053],[9.645386,4.685089],[9.794369,4.912465],[9.850076,5.087752],[9.75835,5.297145],[9.870385,5.357089],[9.95963,5.550773],[10.095694,5.728385],[9.919736,5.733294],[9.674583,5.849204],[9.609522,6.03927],[9.782587,6.132753],[9.805686,6.265819],[9.69398,6.534305]]]},"properties":{"LOCATION_TYPE":"level1","ADM0_A3":"CMR","LOCATION_ID":"CMR-SW","NAME":"Sud-Ouest","TYPE_EN":"Province"}},
{"type":"Feature","geometry":{"type":"Polygon","coordinates":[[[13.662266,2.157761],[14.266963,2.152428],[14.418685,2.135271],[14.562139,2.208807],[14.705696,2.105532],[14.871474,2.101656],[14.963045,2.010421],[15.091616,1.984428],[15.233726,2.031298],[15.349171,1.923295],[15.48291,1.97585],[15.76465,1.908722],[15.889913,1.793277],[16.159044,1.734805],[16.06489,1.97895],[16.104371,2.193562],[16.199455,2.212166],[16.111502,2.418562],[16.062616,2.703195],[16.092382,2.863289],[15.913995,3.097952],[15.78563,3.107977],[15.171301,3.758971],[15.084898,3.885836],[15.102571,4.112412],[15.000562,4.403195],[14.717272,4.622019],[14.659498,4.997035],[14.663218,5.141832],[14.523899,5.279679],[14.597279,5.41148],[14.631075,5.738049],[14.584773,5.923412],[14.482144,5.90964],[14.432709,6.079123],[13.761672,6.0032],[12.882914,6.000048],[12.876248,5.906772],[13.067709,5.557387],[12.902758,5.229035],[13.186875,4.922594],[13.237931,4.812575],[13.210336,4.587886],[12.970713,4.578326],[12.877178,4.509596],[12.769019,4.137319],[12.795995,4.066729],[12.508622,3.879505],[12.611975,3.751193],[12.569445,3.558388],[12.551462,3.43824],[12.735636,3.187506],[12.764058,2.981059],[12.835269,2.902769],[13.311467,2.84024],[13.431615,2.785618],[13.620905,2.906283],[13.662266,2.157761]]]},"properties":{"LOCATION_TYPE":"level1","ADM0_A3":"CMR","LOCATION_ID":"CMR-ES","NAME":"Est","TYPE_EN":"Province"}},
{"type":"Feature","geometry":{"type":"MultiPolygon","coordinates":[[[[9.452888,4.076976],[9.331581,3.921855],[9.448253,3.905748],[9.452888,4.076976]]],[[[9.929454,3.269015],[10.024949,3.343672],[10.065153,3.501699],[10.247623,3.554357],[10.334026,3.589497],[10.385857,3.791759],[10.464251,3.840644],[10.594734,3.744836],[10.721341,4.059908],[11.050003,4.168686],[10.921845,4.499054],[10.821903,4.621475],[10.550343,4.439678],[10.404358,4.551712],[10.48704,4.660284],[10.503628,4.908435],[10.374385,5.088992],[10.26018,5.07969],[10.11962,4.926935],[9.994977,5.128266],[9.976838,5.251153],[9.870385,5.357089],[9.75835,5.297145],[9.850076,5.087752],[9.794369,4.912465],[9.645386,4.685089],[9.522189,4.556053],[9.516453,4.407483],[9.439455,4.243359],[9.502793,4.102321],[9.639903,4.008775],[9.689789,3.860582],[9.624278,3.75019],[9.6421,3.539049],[9.929454,3.269015]]]]},"properties":{"LOCATION_TYPE":"level1","ADM0_A3":"CMR","LOCATION_ID":"CMR-LT","NAME":"Littoral","TYPE_EN":"Province"}},
{"type":"Feature","geometry":{"type":"Polygon","coordinates":[[[11.187669,6.290882],[11.011349,6.244477],[10.996156,6.110222],[10.837716,6.007489],[10.693435,6.023715],[10.602485,5.845225],[10.175638,5.782283],[10.095694,5.728385],[9.95963,5.550773],[9.870385,5.357089],[9.976838,5.251153],[9.994977,5.128266],[10.11962,4.926935],[10.26018,5.07969],[10.374385,5.088992],[10.503628,4.908435],[10.607601,4.899443],[10.797408,5.015767],[10.94603,4.969413],[11.07858,5.304276],[11.183018,5.402565],[11.210768,5.683633],[11.310452,5.804297],[11.291694,5.992916],[11.295776,6.253882],[11.187669,6.290882]]]},"properties":{"LOCATION_TYPE":"level1","ADM0_A3":"CMR","LOCATION_ID":"CMR-OU","NAME":"Ouest","TYPE_EN":"Province"}},
{"type":"Feature","geometry":{"type":"Polygon","coordinates":[[[12.882914,6.000048],[12.52273,6.002321],[12.3122,6.195694],[12.06467,6.179365],[11.974701,6.258585],[11.788562,6.193059],[11.616067,6.069604],[11.291694,5.992916],[11.310452,5.804297],[11.210768,5.683633],[11.183018,5.402565],[11.07858,5.304276],[10.94603,4.969413],[10.797408,5.015767],[10.607601,4.899443],[10.503628,4.908435],[10.48704,4.660284],[10.404358,4.551712],[10.550343,4.439678],[10.821903,4.621475],[10.921845,4.499054],[11.050003,4.168686],[10.721341,4.059908],[10.594734,3.744836],[10.464251,3.840644],[10.385857,3.791759],[10.334026,3.589497],[10.247623,3.554357],[10.288602,3.357935],[10.71514,3.467282],[10.847845,3.416329],[11.037135,3.415554],[11.217279,3.134383],[11.537725,3.145441],[11.694615,3.20673],[11.749547,3.329203],[11.899253,3.462011],[12.2228,3.329668],[12.257113,3.457257],[12.466402,3.659157],[12.569445,3.558388],[12.611975,3.751193],[12.508622,3.879505],[12.795995,4.066729],[12.769019,4.137319],[12.877178,4.509596],[12.970713,4.578326],[13.210336,4.587886],[13.237931,4.812575],[13.186875,4.922594],[12.902758,5.229035],[13.067709,5.557387],[12.876248,5.906772],[12.882914,6.000048]]]},"properties":{"LOCATION_TYPE":"level1","ADM0_A3":"CMR","LOCATION_ID":"CMR-CE","NAME":"Centre","TYPE_EN":"Province"}}
]}