{"type":"FeatureCollection", "features": [
{"type":"Feature","geometry":{"type":"Polygon","coordinates":[[[22.451532,4.146672],[22.303269,4.128716],[22.00892,4.242378],[21.722942,4.295139],[21.538147,4.244652],[21.298886,4.330228],[21.158119,4.310203],[21.084222,4.388235],[20.871521,4.453373],[20.603114,4.409732],[20.452322,4.528924],[20.463071,4.600935],[20.338944,4.771906],[20.003977,4.974478],[19.890909,5.002125],[19.71955,5.135967],[19.408975,5.130386],[19.08331,4.90934],[19.011583,4.765033],[18.828235,4.559981],[18.721058,4.377357],[18.53709,4.306069],[18.619669,4.169566],[18.645301,3.982445],[18.593004,3.709775],[18.642407,3.323829],[18.613055,3.128182],[18.528409,3.064775],[18.393223,2.713686],[18.246152,2.518917],[18.072416,2.160024],[18.071382,1.551457],[17.963379,1.191453],[17.86664,1.016632],[17.939917,0.361271],[17.854031,0.241072],[17.716365,-0.195801],[17.749541,-0.523429],[17.411474,-0.918341],[17.297683,-1.021074],[17.028655,-1.094454],[16.839726,-1.262506],[16.524971,-1.858535],[16.644287,-1.998741],[16.888355,-1.998896],[16.88913,-1.87849],[17.076767,-1.80759],[17.521029,-1.526263],[17.930823,-1.373869],[18.191479,-1.130732],[18.362838,-1.162513],[18.521847,-1.265659],[18.819968,-1.221114],[18.862653,-1.10479],[18.809426,-0.906973],[19.048068,-0.808477],[19.085895,-0.99813],[19.294461,-1.2731],[19.47352,-1.595148],[19.514034,-1.778806],[19.591807,-1.798288],[19.708906,-1.668167],[19.827813,-1.742012],[19.937212,-1.939313],[20.186086,-1.94846],[20.444623,-2.084782],[20.691172,-2.023029],[20.986916,-2.371379],[21.007121,-2.488788],[21.25739,-2.511836],[21.454019,-2.456646],[21.465491,-2.354791],[21.830275,-2.522895],[21.899056,-2.49039],[22.110051,-2.299239],[22.198986,-2.45122],[22.291642,-2.403109],[22.183484,-1.912338],[22.479538,-1.959777],[22.624283,-1.808675],[22.909072,-1.914198],[23.097123,-1.940346],[23.200786,-2.063905],[23.542625,-2.00613],[23.688818,-2.015174],[23.827673,-1.769349],[24.082799,-1.746198],[24.421538,-1.786764],[24.371257,-1.530191],[24.305111,-1.401568],[23.984252,-1.325448],[23.778012,-1.177447],[23.731761,-1.091974],[23.406871,-0.864908],[23.372403,-0.786618],[23.612905,-0.655877],[23.479942,-0.463537],[23.29525,-0.489944],[23.192724,-0.422558],[23.396898,-0.189807],[22.997181,0.375946],[22.858946,0.67846],[22.817657,0.967383],[22.629916,1.347231],[22.334895,1.579284],[22.46512,1.682017],[22.511009,1.897171],[22.652395,2.09548],[22.83595,2.031091],[22.992685,2.176948],[23.129886,2.108347],[23.354678,2.250483],[23.593837,2.189505],[23.625308,2.329626],[23.293907,2.533437],[23.151125,2.503413],[22.982608,2.629426],[22.986019,2.857449],[23.074644,3.077332],[23.03847,3.171977],[22.874294,3.023252],[22.779468,3.088959],[22.776057,3.280136],[22.655651,3.319849],[22.678647,3.452839],[23.049632,3.557664],[23.171279,3.67497],[23.381395,3.625309],[23.497305,3.758221],[23.149109,3.902294],[22.908917,3.854494],[22.778848,3.901829],[22.562685,4.09975],[22.451532,4.146672]]]},"properties":{"LOCATION_TYPE":"level1","ADM0_A3":"COD","LOCATION_ID":"COD-EQ","NAME":"Équateur","TYPE_EN":"Province"}},
{"type":"Feature","geometry":{"type":"Polygon","coordinates":[[[16.524971,-1.858535],[16.231288,-2.129016],[16.176924,-2.286836],[16.225603,-2.635239],[16.177028,-2.882459],[16.207723,-3.361913],[15.888019,-3.940523],[15.988203,-3.987302],[16.200335,-3.993554],[16.389625,-4.099698],[16.522537,-4.250128],[16.548065,-4.349295],[16.260538,-4.794487],[16.278676,-4.999953],[16.220798,-5.435895],[16.222349,-5.700375],[16.100856,-5.858108],[16.315727,-5.854629],[16.597364,-5.924702],[16.604288,-6.061851],[16.726762,-6.189182],[16.730792,-6.56983],[16.832905,-6.827799],[16.926956,-6.888571],[16.927059,-7.085665],[16.996099,-7.297951],[17.098108,-7.402338],[17.288898,-7.699477],[17.536531,-8.015117],[17.544283,-8.084777],[17.901367,-8.048086],[18.098151,-8.109271],[18.176596,-7.999201],[18.507635,-7.997547],[18.516523,-7.932228],[18.738525,-7.932331],[18.773768,-8.001991],[19.355542,-8.001991],[19.333838,-7.867322],[19.424685,-7.579691],[19.513155,-7.479439],[19.476361,-7.315935],[19.521836,-7.001949],[19.963079,-7.001949],[19.918092,-6.819945],[19.729421,-6.549471],[19.689837,-6.198019],[19.740894,-6.109808],[19.966668,-5.986301],[20.15322,-5.764144],[20.181125,-5.650249],[20.148362,-5.363032],[20.195388,-5.268464],[20.145882,-4.987447],[20.055448,-4.765755],[20.118597,-4.498123],[20.045319,-4.35994],[20.13379,-4.280255],[20.266185,-4.390636],[20.376772,-4.292503],[20.599084,-4.208063],[20.677684,-4.093755],[20.642441,-3.508416],[20.664661,-3.280265],[20.841395,-2.827527],[20.926713,-2.727585],[21.007121,-2.488788],[20.986916,-2.371379],[20.691172,-2.023029],[20.444623,-2.084782],[20.186086,-1.94846],[19.937212,-1.939313],[19.827813,-1.742012],[19.708906,-1.668167],[19.591807,-1.798288],[19.514034,-1.778806],[19.47352,-1.595148],[19.294461,-1.2731],[19.085895,-0.99813],[19.048068,-0.808477],[18.809426,-0.906973],[18.862653,-1.10479],[18.819968,-1.221114],[18.521847,-1.265659],[18.362838,-1.162513],[18.191479,-1.130732],[17.930823,-1.373869],[17.521029,-1.526263],[17.076767,-1.80759],[16.88913,-1.87849],[16.888355,-1.998896],[16.644287,-1.998741],[16.524971,-1.858535]]]},"properties":{"LOCATION_TYPE":"level1","ADM0_A3":"COD","LOCATION_ID":"COD-BN","NAME":"Bandundu","TYPE_EN":"Province"}},
{"type":"Feature","geometry":{"type":"Polygon","coordinates":[[[15.150678,-4.425151],[15.275791,-4.601321],[15.381935,-4.655219],[15.444773,-4.534038],[15.671685,-4.55352],[15.753282,-4.701211],[15.733128,-5.0122],[16.034298,-4.987292],[16.278676,-4.999953],[16.260538,-4.794487],[16.548065,-4.349295],[16.522537,-4.250128],[16.389625,-4.099698],[16.200335,-3.993554],[15.988203,-3.987302],[15.888019,-3.940523],[15.566832,-4.038047],[15.458932,-4.21385],[15.20396,-4.339011],[15.150678,-4.425151]]]},"properties":{"LOCATION_TYPE":"level1","ADM0_A3":"COD","LOCATION_ID":"COD-KN","NAME":"Kinshasa City","TYPE_EN":"Neutral City"}},
{"type":"Feature","geometry":{"type":"Polygon","coordinates":[[[15.150678,-4.425151],[14.931005,-4.646899],[14.831167,-4.815054],[14.634486,-4.903627],[14.396464,-4.855878],[14.406903,-4.676044],[14.349956,-4.566904],[14.466538,-4.448048],[14.368559,-4.278446],[13.954941,-4.491869],[13.78999,-4.424587],[13.711028,-4.464481],[13.690099,-4.691134],[13.39265,-4.885334],[13.35875,-4.794797],[13.172405,-4.676148],[13.065331,-4.663952],[12.833201,-4.722656],[12.678895,-4.924298],[12.444387,-5.055091],[12.530687,-5.162681],[12.508983,-5.726264],[12.210541,-5.763442],[12.449498,-6.051928],[12.722607,-5.979263],[12.822439,-5.829767],[13.641523,-5.865791],[13.943572,-5.841606],[14.02119,-5.872509],[14.576609,-5.904651],[14.703733,-5.881397],[16.100856,-5.858108],[16.222349,-5.700375],[16.220798,-5.435895],[16.278676,-4.999953],[16.034298,-4.987292],[15.733128,-5.0122],[15.753282,-4.701211],[15.671685,-4.55352],[15.444773,-4.534038],[15.381935,-4.655219],[15.275791,-4.601321],[15.150678,-4.425151]]]},"properties":{"LOCATION_TYPE":"level1","ADM0_A3":"COD","LOCATION_ID":"COD-BC","NAME":"Bas-Congo","TYPE_EN":"Province"}},
{"type":"Feature","geometry":{"type":"Polygon","coordinates":[[[29.982194,0.849017],[30.145116,0.90315],[30.238857,1.136004],[30.478274,1.238634],[30.681724,1.500349],[31.025837,1.778239],[31.242826,2.051168],[31.267476,2.173253],[31.177559,2.30291],[31.055241,2.290249],[30.984858,2.394635],[30.87179,2.332055],[30.724925,2.440782],[30.739395,2.603305],[30.85484,2.89321],[30.745079,3.036302],[30.804197,3.246005],[30.91003,3.393412],[30.896388,3.519967],[30.772261,3.617558],[30.572635,3.601047],[30.53889,3.84155],[30.205887,3.95038],[30.122688,4.102464],[29.776198,4.405624],[29.777696,4.523859],[29.618533,4.641578],[29.494096,4.668295],[29.303927,4.387149],[29.173495,4.348004],[28.98622,4.495928],[28.815274,4.478281],[28.755433,4.553987],[28.404137,4.277828],[28.303161,4.352242],[28.177587,4.347229],[28.008915,4.499081],[27.772444,4.595819],[27.766863,4.735449],[27.640979,4.890943],[27.552716,4.900529],[27.441301,5.070725],[27.11636,5.200304],[26.961641,5.151185],[26.867073,5.037549],[26.760619,5.088114],[26.462653,5.059641],[26.12996,5.258879],[26.026917,5.189969],[25.732775,5.258879],[25.58126,5.374919],[25.36365,5.310556],[25.307633,5.032278],[24.958094,4.99135],[24.789422,4.919856],[24.664365,4.924403],[24.459623,5.107441],[24.162897,4.907789],[23.948336,4.817692],[23.816665,4.820611],[23.566551,4.724441],[23.38837,4.587266],[23.168746,4.73811],[23.017334,4.750512],[22.898374,4.823583],[22.78603,4.724648],[22.689498,4.491665],[22.451532,4.146672],[22.562685,4.09975],[22.778848,3.901829],[22.908917,3.854494],[23.149109,3.902294],[23.497305,3.758221],[23.381395,3.625309],[23.171279,3.67497],[23.049632,3.557664],[22.678647,3.452839],[22.655651,3.319849],[22.776057,3.280136],[22.779468,3.088959],[22.874294,3.023252],[23.03847,3.171977],[23.074644,3.077332],[22.986019,2.857449],[22.982608,2.629426],[23.151125,2.503413],[23.293907,2.533437],[23.625308,2.329626],[23.593837,2.189505],[23.354678,2.250483],[23.129886,2.108347],[22.992685,2.176948],[22.83595,2.031091],[22.652395,2.09548],[22.511009,1.897171],[22.46512,1.682017],[22.334895,1.579284],[22.629916,1.347231],[22.817657,0.967383],[22.858946,0.67846],[22.997181,0.375946],[23.396898,-0.189807],[23.192724,-0.422558],[23.29525,-0.489944],[23.479942,-0.463537],[23.612905,-0.655877],[23.372403,-0.786618],[23.406871,-0.864908],[23.731761,-1.091974],[23.778012,-1.177447],[23.984252,-1.325448],[24.305111,-1.401568],[24.371257,-1.530191],[24.421538,-1.786764],[24.450684,-1.938693],[24.835828,-1.956211],[24.984811,-1.935644],[25.081291,-2.093567],[25.332077,-2.074653],[25.583741,-1.848207],[25.809205,-1.855597],[25.844449,-1.778702],[25.86083,-1.398777],[26.004284,-1.488488],[26.12717,-1.248967],[26.172026,-0.951156],[26.287781,-0.877414],[26.262924,-0.634638],[26.38054,-0.49568],[26.365967,-0.391139],[26.116473,-0.189652],[26.156988,-0.090433],[26.315066,-0.200763],[26.466685,-0.37052],[26.697885,-0.30365],[26.846868,-0.201331],[26.991614,-0.260191],[27.132845,-0.411344],[27.462593,-0.478989],[27.730277,-0.567045],[27.970159,-0.314813],[28.105603,-0.22872],[28.08979,0.019379],[28.139451,0.168414],[28.063228,0.272697],[28.044314,0.425659],[27.752911,0.539347],[28.062608,0.700474],[28.335253,0.739645],[28.583713,0.587355],[28.816774,0.631331],[29.013661,0.613865],[29.148846,0.683835],[29.307596,0.657945],[29.404386,0.852816],[29.568717,0.82548],[29.859087,0.95834],[29.982194,0.849017]]]},"properties":{"LOCATION_TYPE":"level1","ADM0_A3":"COD","LOCATION_ID":"COD-OR","NAME":"Orientale","TYPE_EN":"Province"}},
{"type":"Feature","geometry":{"type":"Polygon","coordinates":[[[29.342793,-4.999953],[29.321032,-4.836345],[29.410897,-4.502308],[29.33948,-4.093237],[29.215043,-3.899864],[29.206672,-3.334524],[29.234629,-3.046583],[28.994902,-2.813626],[29.000121,-2.703658],[28.891342,-2.652705],[28.858838,-2.418198],[29.150551,-2.15041],[29.130501,-1.843349],[29.18664,-1.739618],[28.942141,-1.734157],[28.667791,-1.783612],[28.595185,-1.907118],[28.336803,-1.869808],[28.319905,-1.981119],[28.085604,-2.057238],[27.960392,-2.047368],[27.857194,-1.963342],[27.760042,-2.000911],[27.434326,-2.018326],[27.378619,-2.121421],[27.169949,-2.243377],[26.869812,-2.127932],[26.830745,-2.295829],[26.833536,-2.517159],[26.923039,-2.808355],[27.045461,-2.939148],[27.131605,-3.281712],[27.102098,-3.771191],[27.20235,-3.87966],[27.498921,-3.975571],[27.735238,-3.990919],[28.030672,-4.178401],[28.195778,-4.141504],[28.491057,-4.382264],[28.655233,-4.686019],[28.742463,-4.907039],[28.824525,-4.999953],[29.342793,-4.999953]]]},"properties":{"LOCATION_TYPE":"level1","ADM0_A3":"COD","LOCATION_ID":"COD-SK","NAME":"Sud-Kivu","TYPE_EN":"Province"}},
{"type":"Feature","geometry":{"type":"Polygon","coordinates":[[[29.342793,-4.999953],[28.824525,-4.999953],[26.269436,-4.999953],[26.086346,-5.379465],[26.141898,-5.504573],[26.067743,-5.641516],[26.16846,-5.795046],[26.172801,-6.016687],[26.137402,-6.261116],[25.76373,-6.20298],[25.650455,-6.304783],[25.493617,-6.355271],[25.334557,-6.329071],[25.257094,-6.399506],[25.360551,-6.525131],[25.498733,-6.535001],[25.444318,-6.699694],[25.288307,-6.758037],[25.143716,-6.670187],[24.973442,-6.662435],[24.899597,-6.790386],[24.756866,-6.900354],[24.453784,-7.070266],[24.244598,-6.992286],[23.968077,-7.206175],[23.991383,-7.343324],[23.931852,-7.52414],[23.946838,-7.83115],[23.799406,-7.890422],[23.497615,-7.925149],[23.184043,-7.89528],[23.158101,-7.797405],[22.876464,-7.90143],[22.683608,-7.85921],[22.595138,-7.722267],[22.485894,-7.786656],[22.247407,-7.805001],[22.07672,-7.775184],[21.826558,-7.645601],[21.770485,-7.806758],[21.758496,-8.015117],[21.851203,-8.143481],[21.935953,-8.413025],[21.859885,-8.846384],[21.841075,-9.275815],[21.793326,-9.393534],[21.854097,-9.61781],[21.998378,-9.809116],[22.159918,-9.931486],[22.20281,-10.130647],[22.313397,-10.368565],[22.27402,-10.503027],[22.322389,-10.742186],[22.165499,-10.85236],[22.281771,-11.236729],[22.53757,-11.037155],[22.727739,-11.096789],[22.829231,-11.052141],[23.014336,-11.102474],[23.196754,-11.071881],[23.373281,-10.975143],[23.494824,-10.964291],[23.833718,-11.028473],[23.948646,-10.881505],[24.114218,-10.919229],[24.124243,-11.043252],[24.293845,-11.05028],[24.381798,-11.12056],[24.392237,-11.279104],[24.310071,-11.406641],[24.564733,-11.444675],[24.67408,-11.341632],[24.942901,-11.268562],[25.124285,-11.259157],[25.278798,-11.199935],[25.279004,-11.396306],[25.351971,-11.64611],[25.850701,-11.793801],[25.994051,-11.904802],[26.298012,-11.941182],[26.414594,-11.91183],[26.643521,-11.985521],[26.874204,-11.964333],[26.967325,-11.870385],[27.010268,-11.609833],[27.180129,-11.569629],[27.234182,-11.809097],[27.420734,-11.921959],[27.52047,-12.179617],[27.638189,-12.293615],[27.933881,-12.303331],[28.131285,-12.429214],[28.339748,-12.450505],[28.42274,-12.521302],[28.583971,-12.888721],[28.667893,-12.849344],[28.903434,-13.162296],[28.993971,-13.395925],[29.168948,-13.433856],[29.574401,-13.225393],[29.601686,-13.374428],[29.702869,-13.457627],[29.797643,-13.424244],[29.799297,-12.154089],[29.474252,-12.242662],[29.446554,-12.33506],[29.030352,-12.376194],[28.835015,-12.092181],[28.497154,-11.857363],[28.357008,-11.446949],[28.439587,-11.348247],[28.476794,-11.077979],[28.563507,-10.811949],[28.699622,-10.643174],[28.634924,-10.51946],[28.623865,-9.951019],[28.668462,-9.821622],[28.515964,-9.378341],[28.372304,-9.235094],[28.59906,-9.096395],[28.765407,-8.934027],[28.930461,-8.679883],[28.915268,-8.472867],[29.858105,-8.329826],[30.752107,-8.194124],[30.654955,-7.92737],[30.441635,-7.596331],[30.369598,-7.31025],[30.234671,-7.057139],[30.090855,-6.890018],[29.738629,-6.652409],[29.525515,-6.273104],[29.476113,-6.002113],[29.60303,-5.781661],[29.593521,-5.620328],[29.455649,-5.229964],[29.342793,-4.999953]]]},"properties":{"LOCATION_TYPE":"level1","ADM0_A3":"COD","LOCATION_ID":"COD-KA","NAME":"Katanga","TYPE_EN":"Province"}},
{"type":"Feature","geometry":{"type":"Polygon","coordinates":[[[29.18664,-1.739618],[29.358497,-1.509933],[29.577915,-1.38839],[29.556004,-0.919478],[29.610781,-0.863977],[29.629385,-0.442401],[29.711809,0.099582],[29.800641,0.172445],[29.832628,0.336983],[29.940477,0.498317],[29.928281,0.785018],[29.982194,0.849017],[29.859087,0.95834],[29.568717,0.82548],[29.404386,0.852816],[29.307596,0.657945],[29.148846,0.683835],[29.013661,0.613865],[28.816774,0.631331],[28.583713,0.587355],[28.335253,0.739645],[28.062608,0.700474],[27.752911,0.539347],[28.044314,0.425659],[28.063228,0.272697],[28.139451,0.168414],[28.08979,0.019379],[28.105603,-0.22872],[27.970159,-0.314813],[27.730277,-0.567045],[27.821486,-0.682284],[27.749655,-0.884597],[27.498095,-0.904492],[27.267669,-0.994306],[27.332213,-1.187369],[27.242244,-1.283849],[27.534733,-1.648736],[27.709761,-1.807021],[27.760042,-2.000911],[27.857194,-1.963342],[27.960392,-2.047368],[28.085604,-2.057238],[28.319905,-1.981119],[28.336803,-1.869808],[28.595185,-1.907118],[28.667791,-1.783612],[28.942141,-1.734157],[29.18664,-1.739618]]]},"properties":{"LOCATION_TYPE":"level1","ADM0_A3":"COD","LOCATION_ID":"COD-NK","NAME":"Nord-Kivu","TYPE_EN":"Province"}},
{"type":"Feature","geometry":{"type":"Polygon","coordinates":[[[19.963079,-7.001949],[20.294296,-7.001949],[20.331089,-6.916786],[20.611486,-6.915959],[20.524463,-7.143129],[20.520535,-7.286376],[21.784954,-7.283379],[21.860918,-7.469827],[21.826558,-7.645601],[22.07672,-7.775184],[22.247407,-7.805001],[22.485894,-7.786656],[22.595138,-7.722267],[22.683608,-7.85921],[22.876464,-7.90143],[23.158101,-7.797405],[23.212723,-7.381203],[23.199856,-7.085459],[23.24223,-6.947896],[22.939613,-6.666259],[22.932637,-6.572053],[23.086581,-6.213936],[22.978112,-6.063195],[22.953721,-5.859642],[22.998421,-5.772361],[23.279437,-5.740941],[23.4247,-5.761457],[23.739047,-5.600433],[23.725405,-5.396776],[23.467384,-5.275388],[23.418964,-5.217252],[23.251532,-5.252702],[22.961007,-4.974476],[23.002917,-4.809525],[23.17686,-4.736817],[23.118982,-4.533883],[22.860341,-4.491457],[22.67596,-4.292658],[22.422745,-4.136956],[22.30389,-3.995208],[22.133667,-4.026369],[22.062251,-3.914955],[22.197436,-3.857645],[22.12266,-3.691661],[21.98608,-3.62846],[21.976468,-3.50516],[22.049693,-3.397105],[22.192475,-3.018007],[22.156922,-2.892071],[21.993521,-2.679888],[21.899056,-2.49039],[21.830275,-2.522895],[21.465491,-2.354791],[21.454019,-2.456646],[21.25739,-2.511836],[21.007121,-2.488788],[20.926713,-2.727585],[20.841395,-2.827527],[20.664661,-3.280265],[20.642441,-3.508416],[20.677684,-4.093755],[20.599084,-4.208063],[20.376772,-4.292503],[20.266185,-4.390636],[20.13379,-4.280255],[20.045319,-4.35994],[20.118597,-4.498123],[20.055448,-4.765755],[20.145882,-4.987447],[20.195388,-5.268464],[20.148362,-5.363032],[20.181125,-5.650249],[20.15322,-5.764144],[19.966668,-5.986301],[19.740894,-6.109808],[19.689837,-6.198019],[19.729421,-6.549471],[19.918092,-6.819945],[19.963079,-7.001949]]]},"properties":{"LOCATION_TYPE":"level1","ADM0_A3":"COD","LOCATION_ID":"COD-KW","NAME":"Kasaï-Occidental","TYPE_EN":"Province"}},
{"type":"Feature","geometry":{"type":"Polygon","coordinates":[[[24.421538,-1.786764],[24.082799,-1.746198],[23.827673,-1.769349],[23.688818,-2.015174],[23.542625,-2.00613],[23.200786,-2.063905],[23.097123,-1.940346],[22.909072,-1.914198],[22.624283,-1.808675],[22.479538,-1.959777],[22.183484,-1.912338],[22.291642,-2.403109],[22.198986,-2.45122],[22.110051,-2.299239],[21.899056,-2.49039],[21.993521,-2.679888],[22.156922,-2.892071],[22.192475,-3.018007],[22.049693,-3.397105],[21.976468,-3.50516],[21.98608,-3.62846],[22.12266,-3.691661],[22.197436,-3.857645],[22.062251,-3.914955],[22.133667,-4.026369],[22.30389,-3.995208],[22.422745,-4.136956],[22.67596,-4.292658],[22.860341,-4.491457],[23.118982,-4.533883],[23.17686,-4.736817],[23.002917,-4.809525],[22.961007,-4.974476],[23.251532,-5.252702],[23.418964,-5.217252],[23.467384,-5.275388],[23.725405,-5.396776],[23.739047,-5.600433],[23.4247,-5.761457],[23.279437,-5.740941],[22.998421,-5.772361],[22.953721,-5.859642],[22.978112,-6.063195],[23.086581,-6.213936],[22.932637,-6.572053],[22.939613,-6.666259],[23.24223,-6.947896],[23.199856,-7.085459],[23.212723,-7.381203],[23.158101,-7.797405],[23.184043,-7.89528],[23.497615,-7.925149],[23.799406,-7.890422],[23.946838,-7.83115],[23.931852,-7.52414],[23.991383,-7.343324],[23.968077,-7.206175],[24.244598,-6.992286],[24.453784,-7.070266],[24.756866,-6.900354],[24.899597,-6.790386],[24.973442,-6.662435],[25.143716,-6.670187],[25.288307,-6.758037],[25.444318,-6.699694],[25.498733,-6.535001],[25.360551,-6.525131],[25.257094,-6.399506],[25.334557,-6.329071],[25.493617,-6.355271],[25.650455,-6.304783],[25.76373,-6.20298],[26.137402,-6.261116],[26.172801,-6.016687],[26.16846,-5.795046],[26.067743,-5.641516],[26.141898,-5.504573],[26.086346,-5.379465],[26.269436,-4.999953],[25.104287,-4.997472],[24.902697,-4.750976],[24.875567,-4.593208],[25.012406,-4.444741],[24.974838,-4.390119],[25.009047,-4.167601],[24.9598,-4.032983],[24.743482,-3.798062],[24.796192,-3.685873],[24.772524,-3.543814],[24.900475,-3.27148],[24.960885,-3.255512],[25.106044,-2.790734],[25.085167,-2.447292],[24.741312,-2.467498],[24.493678,-2.108243],[24.450684,-1.938693],[24.421538,-1.786764]]]},"properties":{"LOCATION_TYPE":"level1","ADM0_A3":"COD","LOCATION_ID":"COD-KE","NAME":"Kasaï-Oriental","TYPE_EN":"Province"}},
{"type":"Feature","geometry":{"type":"Polygon","coordinates":[[[24.450684,-1.938693],[24.493678,-2.108243],[24.741312,-2.467498],[25.085167,-2.447292],[25.106044,-2.790734],[24.960885,-3.255512],[24.900475,-3.27148],[24.772524,-3.543814],[24.796192,-3.685873],[24.743482,-3.798062],[24.9598,-4.032983],[25.009047,-4.167601],[24.974838,-4.390119],[25.012406,-4.444741],[24.875567,-4.593208],[24.902697,-4.750976],[25.104287,-4.997472],[26.269436,-4.999953],[28.824525,-4.999953],[28.742463,-4.907039],[28.655233,-4.686019],[28.491057,-4.382264],[28.195778,-4.141504],[28.030672,-4.178401],[27.735238,-3.990919],[27.498921,-3.975571],[27.20235,-3.87966],[27.102098,-3.771191],[27.131605,-3.281712],[27.045461,-2.939148],[26.923039,-2.808355],[26.833536,-2.517159],[26.830745,-2.295829],[26.869812,-2.127932],[27.169949,-2.243377],[27.378619,-2.121421],[27.434326,-2.018326],[27.760042,-2.000911],[27.709761,-1.807021],[27.534733,-1.648736],[27.242244,-1.283849],[27.332213,-1.187369],[27.267669,-0.994306],[27.498095,-0.904492],[27.749655,-0.884597],[27.821486,-0.682284],[27.730277,-0.567045],[27.462593,-0.478989],[27.132845,-0.411344],[26.991614,-0.260191],[26.846868,-0.201331],[26.697885,-0.30365],[26.466685,-0.37052],[26.315066,-0.200763],[26.156988,-0.090433],[26.116473,-0.189652],[26.365967,-0.391139],[26.38054,-0.49568],[26.262924,-0.634638],[26.287781,-0.877414],[26.172026,-0.951156],[26.12717,-1.248967],[26.004284,-1.488488],[25.86083,-1.398777],[25.844449,-1.778702],[25.809205,-1.855597],[25.583741,-1.848207],[25.332077,-2.074653],[25.081291,-2.093567],[24.984811,-1.935644],[24.835828,-1.956211],[24.450684,-1.938693]]]},"properties":{"LOCATION_TYPE":"level1","ADM0_A3":"COD","LOCATION_ID":"COD-MA","NAME":"Maniema","TYPE_EN":"Province"}}
]}