{"type":"FeatureCollection", "features": [
{"type":"Feature","geometry":{"type":"Polygon","coordinates":[[[17.545863,-0.756491],[17.749541,-0.523429],[17.716365,-0.195801],[17.757086,-0.009456],[17.854031,0.241072],[17.939917,0.361271],[17.95201,0.474339],[17.8993,0.583273],[17.907671,0.740473],[17.86664,1.016632],[17.963379,1.191453],[18.012264,1.421956],[18.071382,1.551457],[18.072416,2.160024],[18.246152,2.518917],[18.393223,2.713686],[18.528409,3.064775],[18.613055,3.128182],[18.642407,3.323829],[18.626387,3.476869],[18.513422,3.592237],[18.248529,3.574899],[18.181556,3.477386],[18.082028,3.563453],[17.856408,3.537305],[17.808349,3.608592],[17.627275,3.626317],[17.458913,3.708276],[17.334373,3.618514],[16.968607,3.533481],[16.639428,3.528597],[16.567701,3.464389],[16.490807,3.067824],[16.445538,2.95765],[16.483779,2.860395],[16.427492,2.726493],[16.559744,2.508064],[16.672399,2.489616],[16.7341,2.387968],[16.757148,2.115582],[16.721905,2.052588],[16.756218,1.79648],[16.705988,1.661914],[16.698547,1.474432],[16.796009,1.200444],[16.773478,1.059315],[16.693069,0.986813],[16.715704,0.826151],[17.049533,0.394085],[17.203012,0.210375],[17.151233,0.070384],[17.187303,-0.172806],[17.1533,-0.202468],[17.139244,-0.440696],[17.217275,-0.473356],[17.207973,-0.68802],[17.280527,-0.746104],[17.545863,-0.756491]]]},"properties":{"LOCATION_TYPE":"level1","ADM0_A3":"COG","LOCATION_ID":"COG-7","NAME":"Likouala","TYPE_EN":"Region"}},
{"type":"Feature","geometry":{"type":"Polygon","coordinates":[[[17.545863,-0.756491],[17.280527,-0.746104],[17.207973,-0.68802],[17.217275,-0.473356],[17.139244,-0.440696],[17.1533,-0.202468],[17.187303,-0.172806],[17.151233,0.070384],[17.203012,0.210375],[17.049533,0.394085],[16.341463,0.042065],[16.128246,0.12392],[16.104475,0.257297],[15.875341,0.443487],[15.733955,0.465295],[15.585333,0.42323],[15.527146,0.35357],[15.285299,0.411447],[15.133991,0.301067],[15.227526,0.196577],[15.192799,0.075034],[14.89752,0.03297],[14.950333,-0.225567],[15.089136,-0.260552],[15.150218,-0.473356],[15.009761,-0.687916],[15.166858,-0.824704],[15.14567,-0.935395],[14.992398,-1.094248],[14.729675,-1.118588],[14.439435,-1.185733],[14.432328,-1.350149],[14.482144,-1.388596],[14.37383,-1.604087],[14.402976,-1.670853],[14.368571,-1.92212],[14.480491,-2.017448],[14.587565,-1.930528],[14.762748,-1.662431],[14.984336,-1.568689],[15.090686,-1.444563],[15.14257,-1.282299],[15.228559,-1.153004],[15.442913,-0.978028],[15.580062,-0.938237],[15.709253,-0.958908],[15.747597,-1.056783],[15.947998,-1.177912],[16.269943,-1.316508],[16.343323,-1.473501],[16.441302,-1.542334],[16.543931,-1.527142],[16.655971,-1.59029],[16.839726,-1.262506],[17.028655,-1.094454],[17.297683,-1.021074],[17.545863,-0.756491]]]},"properties":{"LOCATION_TYPE":"level1","ADM0_A3":"COG","LOCATION_ID":"COG-8","NAME":"Cuvette","TYPE_EN":"Region"}},
{"type":"Feature","geometry":{"type":"Polygon","coordinates":[[[16.655971,-1.59029],[16.543931,-1.527142],[16.441302,-1.542334],[16.343323,-1.473501],[16.269943,-1.316508],[15.947998,-1.177912],[15.747597,-1.056783],[15.709253,-0.958908],[15.580062,-0.938237],[15.442913,-0.978028],[15.228559,-1.153004],[15.14257,-1.282299],[15.090686,-1.444563],[14.984336,-1.568689],[14.762748,-1.662431],[14.587565,-1.930528],[14.480491,-2.017448],[14.368571,-1.92212],[14.252184,-1.967579],[14.238438,-2.120231],[14.151208,-2.259034],[14.226966,-2.323113],[14.100553,-2.478065],[14.186246,-2.618341],[14.29766,-2.695546],[14.339415,-2.862461],[14.260866,-2.981316],[14.520489,-3.080639],[14.800162,-2.770167],[14.893283,-2.717457],[14.939171,-2.89419],[15.105569,-2.892226],[15.242822,-3.019764],[15.473609,-3.006431],[15.72486,-2.845924],[15.823148,-2.82484],[16.033575,-2.946176],[16.183981,-2.940449],[16.225603,-2.635239],[16.176924,-2.286836],[16.231288,-2.129016],[16.522536,-1.861746],[16.617207,-1.728731],[16.655971,-1.59029]]]},"properties":{"LOCATION_TYPE":"level1","ADM0_A3":"COG","LOCATION_ID":"COG-14","NAME":"Plateaux","TYPE_EN":"Region"}},
{"type":"Feature","geometry":{"type":"Polygon","coordinates":[[[16.183981,-2.940449],[16.033575,-2.946176],[15.823148,-2.82484],[15.72486,-2.845924],[15.473609,-3.006431],[15.242822,-3.019764],[15.105569,-2.892226],[14.939171,-2.89419],[14.893283,-2.717457],[14.800162,-2.770167],[14.520489,-3.080639],[14.260866,-2.981316],[14.162061,-3.05356],[14.113692,-3.191019],[13.920732,-3.415709],[13.860271,-3.538388],[14.040105,-3.568567],[14.150485,-3.458083],[14.24309,-3.500251],[14.307478,-3.632336],[14.212807,-3.69073],[14.377345,-3.951386],[14.248154,-3.987457],[14.160717,-4.151374],[13.962073,-4.283666],[13.905436,-4.4901],[14.368559,-4.278446],[14.466538,-4.448048],[14.349956,-4.566904],[14.406903,-4.676044],[14.396464,-4.855878],[14.519868,-4.841305],[14.634486,-4.903627],[14.831167,-4.815054],[14.931005,-4.646899],[15.076113,-4.520085],[14.956047,-4.364047],[15.02631,-4.264279],[15.117878,-4.029389],[15.093991,-3.862179],[15.215198,-3.738636],[15.274915,-3.448009],[15.434499,-3.507687],[15.553934,-3.639066],[15.711784,-3.498122],[15.803351,-3.533953],[15.957846,-3.815097],[16.115533,-3.544227],[16.227464,-3.289876],[16.183981,-2.940449]]]},"properties":{"LOCATION_TYPE":"level1","ADM0_A3":"COG","LOCATION_ID":"COG-12","NAME":"Pool","TYPE_EN":"Region"}},
{"type":"Feature","geometry":{"type":"Polygon","coordinates":[[[15.957846,-3.815097],[15.803351,-3.533953],[15.711784,-3.498122],[15.553934,-3.639066],[15.434499,-3.507687],[15.274915,-3.448009],[15.215198,-3.738636],[15.093991,-3.862179],[15.117878,-4.029389],[15.02631,-4.264279],[14.956047,-4.364047],[15.076113,-4.520085],[15.20396,-4.339011],[15.458932,-4.21385],[15.566832,-4.038047],[15.799996,-3.978826],[15.912134,-3.917434],[15.957846,-3.815097]]]},"properties":{"LOCATION_TYPE":"level1","ADM0_A3":"COG","LOCATION_ID":"COG-BZV","NAME":"Brazzaville","TYPE_EN":"Region"}},
{"type":"Feature","geometry":{"type":"Polygon","coordinates":[[[13.57986,-4.783031],[13.690099,-4.691134],[13.711028,-4.464481],[13.78999,-4.424587],[13.905436,-4.4901],[13.962073,-4.283666],[14.160717,-4.151374],[14.248154,-3.987457],[14.377345,-3.951386],[14.212807,-3.69073],[14.307478,-3.632336],[14.24309,-3.500251],[14.150485,-3.458083],[14.040105,-3.568567],[13.860271,-3.538388],[13.71723,-3.733105],[13.613567,-3.766178],[13.512798,-4.020633],[13.38092,-4.03934],[13.346814,-3.928029],[13.03045,-3.927615],[12.899812,-3.832221],[12.795943,-3.562263],[12.656933,-3.528156],[12.617349,-3.604741],[12.644841,-3.758737],[12.604637,-3.809276],[12.864259,-4.09298],[12.988799,-4.319529],[13.064247,-4.377614],[13.24005,-4.403555],[13.387018,-4.62194],[13.562511,-4.726946],[13.57986,-4.783031]]]},"properties":{"LOCATION_TYPE":"level1","ADM0_A3":"COG","LOCATION_ID":"COG-11","NAME":"Bouenza","TYPE_EN":"Region"}},
{"type":"Feature","geometry":{"type":"Polygon","coordinates":[[[12.782656,-4.400071],[12.854285,-4.403089],[13.027194,-4.612172],[13.112357,-4.576929],[13.172405,-4.676148],[13.35875,-4.794797],[13.57986,-4.783031],[13.562511,-4.726946],[13.387018,-4.62194],[13.24005,-4.403555],[13.064247,-4.377614],[12.988799,-4.319529],[12.864259,-4.09298],[12.604637,-3.809276],[12.644841,-3.758737],[12.617349,-3.604741],[12.656933,-3.528156],[12.604327,-3.415915],[12.724216,-3.30016],[12.92286,-3.28507],[13.107965,-3.139756],[13.129669,-2.988551],[13.018875,-2.914964],[13.074892,-2.808097],[13.037892,-2.603355],[13.051018,-2.386314],[12.994008,-2.360123],[12.982442,-2.232989],[12.907098,-2.195369],[12.804572,-1.919107],[12.58319,-1.826502],[12.499474,-1.917866],[12.423097,-1.897609],[12.470225,-2.156301],[12.45927,-2.329934],[12.062292,-2.414994],[11.938372,-2.329107],[11.756057,-2.415097],[11.55824,-2.349365],[11.61033,-2.678853],[11.537466,-2.797709],[11.636788,-2.833263],[11.763705,-2.982608],[11.687534,-3.17102],[11.944366,-3.303208],[11.827784,-3.548051],[11.898477,-3.622362],[11.840808,-3.709989],[12.061931,-3.866534],[12.351836,-3.981255],[12.554511,-4.185067],[12.590787,-4.319529],[12.782656,-4.400071]]]},"properties":{"LOCATION_TYPE":"level1","ADM0_A3":"COG","LOCATION_ID":"COG-9","NAME":"Niari","TYPE_EN":"Region"}},
{"type":"Feature","geometry":{"type":"Polygon","coordinates":[[[12.782656,-4.400071],[12.590787,-4.319529],[12.554511,-4.185067],[12.351836,-3.981255],[12.061931,-3.866534],[11.840808,-3.709989],[11.64919,-3.673315],[11.569815,-3.54495],[11.482585,-3.509294],[11.413959,-3.587635],[11.212524,-3.697293],[11.114016,-3.936856],[11.358246,-4.111912],[11.401403,-4.221366],[11.806409,-4.577118],[11.841669,-4.741544],[11.898241,-4.741775],[11.886241,-4.855239],[12.018072,-5.0086],[12.235201,-4.803995],[12.332353,-4.765858],[12.377621,-4.619407],[12.608098,-4.565043],[12.782656,-4.400071]]]},"properties":{"LOCATION_TYPE":"level1","ADM0_A3":"COG","LOCATION_ID":"COG-5","NAME":"Kouilou","TYPE_EN":"Region"}},
{"type":"Feature","geometry":{"type":"Polygon","coordinates":[[[16.427492,2.726493],[16.196665,2.236454],[16.104371,2.193562],[16.06489,1.97895],[16.159044,1.734805],[15.889913,1.793277],[15.76465,1.908722],[15.48291,1.97585],[15.349171,1.923295],[15.233726,2.031298],[15.091616,1.984428],[14.963045,2.010421],[14.871474,2.101656],[14.705696,2.105532],[14.562139,2.208807],[14.418685,2.135271],[14.266963,2.152428],[13.294568,2.161058],[13.281132,2.044967],[13.206925,1.993575],[13.129617,1.592462],[13.239481,1.427976],[13.25023,1.221787],[13.41394,1.295529],[13.543442,1.283489],[13.794744,1.434436],[14.12444,1.393585],[14.219939,1.355018],[14.494134,1.391078],[14.586635,1.220391],[14.77298,1.181892],[14.949713,1.060401],[15.074667,1.043451],[15.153422,0.955394],[15.0942,0.812664],[15.091513,0.526997],[15.285299,0.411447],[15.527146,0.35357],[15.585333,0.42323],[15.733955,0.465295],[15.875341,0.443487],[16.104475,0.257297],[16.128246,0.12392],[16.341463,0.042065],[17.049533,0.394085],[16.715704,0.826151],[16.693069,0.986813],[16.773478,1.059315],[16.796009,1.200444],[16.698547,1.474432],[16.705988,1.661914],[16.756218,1.79648],[16.721905,2.052588],[16.757148,2.115582],[16.7341,2.387968],[16.672399,2.489616],[16.559744,2.508064],[16.427492,2.726493]]]},"properties":{"LOCATION_TYPE":"level1","ADM0_A3":"COG","LOCATION_ID":"COG-13","NAME":"Sangha","TYPE_EN":"Region"}},
{"type":"Feature","geometry":{"type":"Polygon","coordinates":[[[14.219939,1.355018],[14.274715,1.155641],[14.468088,0.913227],[14.447624,0.81623],[14.231823,0.542552],[14.075967,0.539451],[14.040414,0.413774],[13.945226,0.350419],[13.871225,0.196423],[13.921145,-0.052967],[13.831228,-0.205413],[14.121443,-0.302151],[14.159683,-0.455113],[14.292698,-0.436406],[14.466538,-0.552678],[14.498991,-0.630916],[14.457133,-0.856122],[14.391814,-1.023347],[14.439435,-1.185733],[14.729675,-1.118588],[14.992398,-1.094248],[15.14567,-0.935395],[15.166858,-0.824704],[15.009761,-0.687916],[15.150218,-0.473356],[15.089136,-0.260552],[14.950333,-0.225567],[14.89752,0.03297],[15.192799,0.075034],[15.227526,0.196577],[15.133991,0.301067],[15.285299,0.411447],[15.091513,0.526997],[15.0942,0.812664],[15.153422,0.955394],[15.074667,1.043451],[14.949713,1.060401],[14.77298,1.181892],[14.586635,1.220391],[14.494134,1.391078],[14.219939,1.355018]]]},"properties":{"LOCATION_TYPE":"level1","ADM0_A3":"COG","LOCATION_ID":"COG-15","NAME":"Cuvette-Ouest","TYPE_EN":"Region"}},
{"type":"Feature","geometry":{"type":"Polygon","coordinates":[[[14.100553,-2.478065],[13.884971,-2.488477],[13.863887,-2.321459],[13.770663,-2.119094],[13.593361,-2.326834],[13.44536,-2.427086],[13.186668,-2.364144],[12.994008,-2.360123],[13.051018,-2.386314],[13.037892,-2.603355],[13.074892,-2.808097],[13.018875,-2.914964],[13.129669,-2.988551],[13.107965,-3.139756],[12.92286,-3.28507],[12.724216,-3.30016],[12.604327,-3.415915],[12.656933,-3.528156],[12.795943,-3.562263],[12.899812,-3.832221],[13.03045,-3.927615],[13.346814,-3.928029],[13.38092,-4.03934],[13.512798,-4.020633],[13.613567,-3.766178],[13.71723,-3.733105],[13.860271,-3.538388],[13.920732,-3.415709],[14.113692,-3.191019],[14.162061,-3.05356],[14.260866,-2.981316],[14.339415,-2.862461],[14.29766,-2.695546],[14.186246,-2.618341],[14.100553,-2.478065]]]},"properties":{"LOCATION_TYPE":"level1","ADM0_A3":"COG","LOCATION_ID":"COG-2","NAME":"Lékoumou","TYPE_EN":"Region"}},
{"type":"Feature","geometry":{"type":"Polygon","coordinates":[[[11.886241,-4.855239],[11.898241,-4.741775],[11.841669,-4.741544],[11.886241,-4.855239]]]},"properties":{"LOCATION_TYPE":"level1","ADM0_A3":"COG","LOCATION_ID":"COG-16","NAME":"Pointe Noire","TYPE_EN":"Region"}}
]}