{"type":"FeatureCollection", "features": [
{"type":"Feature","geometry":{"type":"Polygon","coordinates":[[[-157.93456,-21.877537],[-157.96406,-21.900486],[-157.95287,-21.932306],[-157.898508,-21.933689],[-157.889882,-21.915297],[-157.93456,-21.877537]]]},"properties":{"LOCATION_TYPE":"level1","ADM0_A3":"COK","LOCATION_ID":"COK-X03~","NAME":"Mangaia","TYPE_EN":null}},
{"type":"Feature","geometry":{"type":"Polygon","coordinates":[[[-157.707997,-19.767185],[-157.739613,-19.818455],[-157.708241,-19.841241],[-157.707997,-19.767185]]]},"properties":{"LOCATION_TYPE":"level1","ADM0_A3":"COK","LOCATION_ID":"COK-X05~","NAME":"Mitiaro","TYPE_EN":null}},
{"type":"Feature","geometry":{"type":"Polygon","coordinates":[[[-157.940745,-8.980727],[-157.940745,-8.974542],[-158.002878,-8.94671],[-157.978627,-8.976007],[-157.940745,-8.980727]]]},"properties":{"LOCATION_TYPE":"level1","ADM0_A3":"COK","LOCATION_ID":"COK-X11~","NAME":"Penrhyn","TYPE_EN":null}},
{"type":"Feature","geometry":{"type":"Polygon","coordinates":[[[-159.797841,-21.18613],[-159.83141,-21.195571],[-159.833079,-21.244561],[-159.743235,-21.254327],[-159.742747,-21.201593],[-159.797841,-21.18613]]]},"properties":{"LOCATION_TYPE":"level1","ADM0_A3":"COK","LOCATION_ID":"COK-X04~","NAME":"Rarotonga","TYPE_EN":null}},
{"type":"Feature","geometry":{"type":"Polygon","coordinates":[[[-157.312815,-20.155206],[-157.348988,-20.143324],[-157.340321,-20.175714],[-157.312815,-20.155206]]]},"properties":{"LOCATION_TYPE":"level1","ADM0_A3":"COK","LOCATION_ID":"COK-X06~","NAME":"Mauke","TYPE_EN":null}},
{"type":"Feature","geometry":{"type":"Polygon","coordinates":[[[-158.078318,-19.994236],[-158.12031,-19.972833],[-158.115102,-20.01572],[-158.078318,-19.994236]]]},"properties":{"LOCATION_TYPE":"level1","ADM0_A3":"COK","LOCATION_ID":"COK-X01~","NAME":"Atiu","TYPE_EN":null}},
{"type":"Feature","geometry":{"type":"Polygon","coordinates":[[[-158.92516,-19.26922],[-158.937978,-19.257094],[-158.945668,-19.24212],[-158.955556,-19.245294],[-158.950185,-19.25449],[-158.937449,-19.264255],[-158.92516,-19.26922]]]},"properties":{"LOCATION_TYPE":"level1","ADM0_A3":"COK","LOCATION_ID":"COK-X02~","NAME":"Aitutaki","TYPE_EN":null}},
{"type":"Feature","geometry":{"type":"Polygon","coordinates":[[[-165.824534,-10.881768],[-165.814036,-10.889093],[-165.811757,-10.880141],[-165.824534,-10.881768]]]},"properties":{"LOCATION_TYPE":"level1","ADM0_A3":"COK","LOCATION_ID":"COK-X08~","NAME":"Pukapuka","TYPE_EN":null}},
{"type":"Feature","geometry":{"type":"Polygon","coordinates":[[[-160.986236,-10.382094],[-160.9381,-10.422784],[-160.979929,-10.380955],[-160.986236,-10.382094]]]},"properties":{"LOCATION_TYPE":"level1","ADM0_A3":"COK","LOCATION_ID":"COK-X10~","NAME":"Manihiki","TYPE_EN":null}},
{"type":"Feature","geometry":{"type":"Polygon","coordinates":[[[-161.088002,-10.035089],[-161.08727,-10.04461],[-161.075551,-10.036391],[-161.088002,-10.035089]]]},"properties":{"LOCATION_TYPE":"level1","ADM0_A3":"COK","LOCATION_ID":"COK-X09~","NAME":"Rakahanga","TYPE_EN":null}},
{"type":"Feature","geometry":{"type":"Polygon","coordinates":[[[-159.785105,-18.830824],[-159.802317,-18.865818],[-159.776479,-18.878188],[-159.785105,-18.830824]]]},"properties":{"LOCATION_TYPE":"level1","ADM0_A3":"COK","LOCATION_ID":"COK-X07~","NAME":"Palmerston","TYPE_EN":null}}
]}