{"type":"FeatureCollection", "features": [
{"type":"Feature","geometry":{"type":"Polygon","coordinates":[[[-78.073902,2.64682],[-78.086659,2.510565],[-78.277504,2.542509],[-78.333973,2.647045],[-78.432216,2.587028],[-78.585683,2.403144],[-78.703159,2.189805],[-78.670684,2.030994],[-78.586334,2.000393],[-78.546296,1.859884],[-78.57123,1.782207],[-78.846052,1.821585],[-78.99798,1.607937],[-78.853342,1.543362],[-78.828684,1.434312],[-78.570057,1.195845],[-78.466911,1.178379],[-78.372808,1.073786],[-78.120007,0.921237],[-77.908547,0.864186],[-77.847983,0.809254],[-77.727887,0.843309],[-77.645566,0.716288],[-77.468057,0.650866],[-77.424391,0.408297],[-77.206936,0.334193],[-77.103856,0.354141],[-77.109138,0.584512],[-77.238562,0.697167],[-77.089992,0.884236],[-77.03214,1.04128],[-77.0887,1.186078],[-76.911708,1.313202],[-76.924472,1.502958],[-76.844813,1.607086],[-76.924446,1.719792],[-77.232981,1.663465],[-77.325068,1.689406],[-77.283391,1.855701],[-77.213964,1.986442],[-77.330106,2.070365],[-77.313027,2.171392],[-77.431366,2.22095],[-77.743802,2.144469],[-77.840127,2.177232],[-77.948751,2.381974],[-77.95273,2.555658],[-78.073902,2.64682]]]},"properties":{"LOCATION_TYPE":"level1","ADM0_A3":"COL","LOCATION_ID":"COL-NAR","NAME":"Nariño","TYPE_EN":"Department"}},
{"type":"Feature","geometry":{"type":"Polygon","coordinates":[[[-77.103856,0.354141],[-76.896826,0.245309],[-76.736888,0.272904],[-76.584339,0.222572],[-76.408019,0.254508],[-76.415874,0.395378],[-76.311591,0.458526],[-76.053467,0.363545],[-75.927118,0.181024],[-75.78971,0.084389],[-75.64667,0.085422],[-75.421412,-0.062166],[-75.268347,-0.10175],[-75.141688,-0.043459],[-74.933458,-0.209443],[-74.824653,-0.170479],[-74.686573,-0.353414],[-74.642313,-0.339771],[-74.414717,-0.563757],[-73.864142,-0.392947],[-74.01142,-0.335121],[-74.116685,-0.246341],[-74.240424,-0.227893],[-74.291455,-0.14149],[-74.46979,-0.12578],[-74.663835,-0.054157],[-74.682904,0.150947],[-74.742874,0.200298],[-74.962447,0.270836],[-74.996166,0.469946],[-75.201993,0.517798],[-75.254083,0.719026],[-75.459084,0.749464],[-75.559853,0.82858],[-75.845494,0.889507],[-75.917815,1.019163],[-76.06052,1.043658],[-76.209839,0.972137],[-76.351019,0.976943],[-76.536589,1.075594],[-76.516073,1.274651],[-76.588369,1.40746],[-76.670483,1.433711],[-76.745723,1.329532],[-76.911708,1.313202],[-77.0887,1.186078],[-77.03214,1.04128],[-77.089992,0.884236],[-77.238562,0.697167],[-77.109138,0.584512],[-77.103856,0.354141]]]},"properties":{"LOCATION_TYPE":"level1","ADM0_A3":"COL","LOCATION_ID":"COL-PUT","NAME":"Putumayo","TYPE_EN":"Intendancy"}},
{"type":"Feature","geometry":{"type":"Polygon","coordinates":[[[-76.985458,8.25618],[-77.052805,8.276313],[-77.133616,8.408393],[-77.274729,8.495795],[-77.374936,8.650946],[-77.480356,8.526199],[-77.422324,8.45641],[-77.363206,8.27208],[-77.231069,8.098732],[-77.2012,7.981995],[-77.321606,7.881019],[-77.379897,7.77441],[-77.339745,7.707231],[-77.579989,7.528379],[-77.679931,7.670954],[-77.77052,7.66899],[-77.731245,7.530343],[-77.820181,7.476547],[-77.895839,7.235098],[-77.786936,7.148871],[-77.65274,6.97663],[-77.701324,6.918362],[-77.573354,6.801011],[-77.531809,6.712063],[-77.411244,6.693793],[-77.343007,6.543769],[-77.41511,6.239081],[-77.484364,6.188788],[-77.353017,6.02619],[-77.246449,5.78734],[-77.261138,5.700914],[-77.355621,5.607896],[-77.490834,5.594794],[-77.408274,5.464504],[-77.359202,5.297309],[-77.366689,4.998928],[-77.318837,4.709662],[-77.319569,4.546617],[-77.387196,4.347235],[-77.254438,4.242187],[-77.065807,4.103884],[-76.956796,4.122591],[-76.892743,4.041898],[-76.730376,3.998619],[-76.594131,4.050502],[-76.446155,4.182019],[-76.495971,4.319969],[-76.427319,4.581736],[-76.303296,4.69992],[-76.291229,4.773223],[-76.169531,4.889443],[-76.075919,5.035714],[-76.097598,5.175033],[-76.179918,5.30872],[-76.042485,5.577334],[-76.133099,5.861451],[-76.111266,5.975579],[-76.21697,6.034774],[-76.277173,6.187323],[-76.700145,6.168694],[-76.770709,6.286929],[-76.788098,6.483455],[-76.898221,6.594637],[-76.97279,6.810205],[-76.836157,6.840591],[-76.831377,6.999728],[-76.683402,7.026031],[-76.546097,6.991021],[-76.505273,7.074426],[-76.529561,7.248705],[-76.692497,7.354435],[-76.876878,7.565404],[-77.126372,7.780921],[-77.021676,7.898485],[-76.953928,8.086535],[-76.985458,8.25618]]]},"properties":{"LOCATION_TYPE":"level1","ADM0_A3":"COL","LOCATION_ID":"COL-CHO","NAME":"Chocó","TYPE_EN":"Department"}},
{"type":"Feature","geometry":{"type":"Polygon","coordinates":[[[-69.841185,1.707579],[-69.580296,1.770229],[-69.352403,1.720206],[-68.163302,1.721291],[-68.260816,1.858208],[-68.200819,2.007837],[-68.101239,1.924121],[-67.998248,1.749972],[-67.790457,1.812578],[-67.59295,2.054811],[-67.439729,2.13956],[-67.340614,2.090106],[-67.264753,1.932545],[-67.117165,1.709793],[-67.073601,1.541199],[-67.098199,1.253361],[-67.06523,1.172694],[-66.875061,1.22251],[-66.882502,1.326018],[-67.066832,1.894123],[-67.135148,2.003341],[-67.217675,2.284513],[-67.197625,2.402025],[-67.325421,2.47463],[-67.485204,2.661906],[-67.575586,2.691103],[-67.626591,2.813421],[-67.838619,2.88613],[-67.452183,3.243679],[-67.395804,3.266572],[-67.304647,3.425709],[-67.403917,3.504464],[-67.471407,3.680061],[-67.631759,3.761865],[-67.716932,4.039878],[-67.797097,3.953764],[-67.987524,3.934825],[-68.092737,4.005441],[-68.169425,3.919709],[-68.355538,4.019858],[-68.546353,3.795944],[-68.688799,3.797805],[-68.962426,3.640941],[-69.108929,3.627893],[-69.292406,3.726595],[-69.430718,3.68608],[-69.603214,3.691997],[-69.705843,3.568155],[-69.8941,3.566449],[-70.010863,3.528596],[-70.151139,3.347884],[-70.198862,3.195981],[-70.30498,3.077978],[-70.281467,2.941965],[-70.499748,2.784533],[-70.895693,2.620926],[-70.747071,2.529045],[-70.622325,2.32761],[-70.341179,2.245961],[-70.037322,2.277432],[-69.999934,2.197747],[-70.104966,2.101164],[-70.156565,1.869344],[-70.050189,1.780977],[-69.841185,1.707579]]]},"properties":{"LOCATION_TYPE":"level1","ADM0_A3":"COL","LOCATION_ID":"COL-GUA","NAME":"Guainía","TYPE_EN":"Commissiary"}},
{"type":"Feature","geometry":{"type":"Polygon","coordinates":[[[-69.841185,1.707579],[-70.050189,1.780977],[-70.156565,1.869344],[-70.104966,2.101164],[-70.201653,2.031246],[-70.444454,1.988354],[-70.701958,1.901693],[-70.91179,1.915026],[-70.96773,1.853272],[-71.263758,1.673387],[-71.390779,1.732246],[-71.433024,1.564143],[-71.542113,1.279457],[-71.507335,1.136623],[-71.585832,1.112904],[-71.673113,0.981956],[-71.786543,0.916947],[-72.035753,0.664042],[-71.936405,0.486689],[-71.688978,0.258279],[-71.538548,0.177664],[-71.421423,0.191617],[-71.322334,0.133222],[-71.173867,0.115807],[-71.140045,0.037672],[-70.996565,0.008734],[-70.852982,-0.312539],[-70.760533,-0.280603],[-70.500859,-0.359564],[-70.44833,-0.465553],[-70.284051,-0.505602],[-70.240126,-0.580688],[-70.212711,-0.852402],[-70.279736,-0.933689],[-70.124112,-0.97441],[-69.925442,-0.916688],[-69.947353,-1.029188],[-69.661841,-1.039833],[-69.659851,-1.122463],[-69.465315,-1.180031],[-69.421065,-1.23931],[-69.449968,-0.996786],[-69.539239,-0.920615],[-69.628381,-0.733442],[-69.584223,-0.644559],[-69.632076,-0.506893],[-69.746462,-0.453046],[-69.944356,-0.305458],[-70.073806,-0.124901],[-70.054246,0.588131],[-69.805321,0.606941],[-69.619157,0.650659],[-69.503712,0.729621],[-69.362557,0.640944],[-69.226183,0.614796],[-69.137455,0.650142],[-69.204324,0.943664],[-69.370851,1.062985],[-69.762559,1.091097],[-69.852192,1.05942],[-69.841185,1.707579]]]},"properties":{"LOCATION_TYPE":"level1","ADM0_A3":"COL","LOCATION_ID":"COL-VAU","NAME":"Vaupés","TYPE_EN":"Commissiary"}},
{"type":"Feature","geometry":{"type":"Polygon","coordinates":[[[-69.421065,-1.23931],[-69.465315,-1.180031],[-69.659851,-1.122463],[-69.661841,-1.039833],[-69.947353,-1.029188],[-69.925442,-0.916688],[-70.124112,-0.97441],[-70.279736,-0.933689],[-70.212711,-0.852402],[-70.240126,-0.580688],[-70.284051,-0.505602],[-70.44833,-0.465553],[-70.500859,-0.359564],[-70.760533,-0.280603],[-70.852982,-0.312539],[-70.996565,0.008734],[-71.140045,0.037672],[-71.173867,0.115807],[-71.322334,0.133222],[-71.38972,0.06749],[-71.625933,-0.042994],[-71.774192,-0.224689],[-72.036864,-0.259622],[-72.232381,-0.46731],[-72.242381,-0.586941],[-72.32452,-0.629264],[-72.421853,-0.556555],[-72.549752,-0.683265],[-72.720698,-0.571541],[-72.884822,-0.60172],[-72.997425,-0.526583],[-73.081296,-0.593555],[-73.2055,-0.604717],[-73.331772,-0.507307],[-73.479075,-0.532732],[-73.728362,-0.386539],[-73.864142,-0.392947],[-74.414717,-0.563757],[-74.310602,-0.801449],[-74.28913,-0.943042],[-73.919902,-1.113781],[-73.880757,-1.190986],[-73.63656,-1.255168],[-73.497163,-1.477997],[-73.530985,-1.673747],[-73.340299,-1.792189],[-73.186252,-1.799631],[-73.168733,-1.959311],[-73.111062,-2.073412],[-73.195295,-2.187204],[-73.158915,-2.293037],[-73.05644,-2.299858],[-72.943269,-2.419024],[-72.804673,-2.377787],[-72.718321,-2.419851],[-72.644321,-2.334068],[-72.396584,-2.446516],[-72.161456,-2.405692],[-72.089419,-2.330968],[-71.966274,-2.328487],[-71.76794,-2.142245],[-71.456486,-2.255107],[-71.386982,-2.368898],[-71.21986,-2.34151],[-71.14281,-2.262858],[-70.992716,-2.197436],[-70.874196,-2.229579],[-70.456987,-2.492715],[-70.357535,-2.486927],[-70.23607,-2.62511],[-70.050629,-2.71513],[-70.734127,-3.782042],[-70.544294,-3.865241],[-70.311104,-3.829274],[-70.216975,-3.924979],[-70.188398,-4.028952],[-69.947199,-4.201138],[-69.771163,-3.234168],[-69.565697,-2.105969],[-69.452268,-1.490502],[-69.421065,-1.23931]]]},"properties":{"LOCATION_TYPE":"level1","ADM0_A3":"COL","LOCATION_ID":"COL-AMA","NAME":"Amazonas","TYPE_EN":"Commissiary"}},
{"type":"Feature","geometry":{"type":"Polygon","coordinates":[[[-72.915232,10.428172],[-72.754392,10.674853],[-72.706126,10.811253],[-72.57647,10.957368],[-72.481488,11.132526],[-72.256593,11.167795],[-72.007926,11.624615],[-71.97108,11.661925],[-71.449458,11.795457],[-71.138092,12.015815],[-71.113881,12.094387],[-71.242299,12.327704],[-71.531606,12.447211],[-71.656158,12.465318],[-71.905263,12.207668],[-72.004872,12.262885],[-72.170522,12.23428],[-72.138661,12.10456],[-72.263051,11.885972],[-72.452056,11.791327],[-72.759674,11.697089],[-73.05484,11.493964],[-73.292388,11.294013],[-73.565582,11.277086],[-73.637774,11.139165],[-73.649659,10.991913],[-73.605786,10.845514],[-73.452152,10.866314],[-73.271646,10.843421],[-73.249916,10.733867],[-73.075198,10.630049],[-73.181342,10.456571],[-73.130673,10.400244],[-72.915232,10.428172]]]},"properties":{"LOCATION_TYPE":"level1","ADM0_A3":"COL","LOCATION_ID":"COL-LAG","NAME":"La Guajira","TYPE_EN":"Department"}},
{"type":"Feature","geometry":{"type":"Polygon","coordinates":[[[-72.915232,10.428172],[-73.130673,10.400244],[-73.181342,10.456571],[-73.075198,10.630049],[-73.249916,10.733867],[-73.271646,10.843421],[-73.452152,10.866314],[-73.605786,10.845514],[-73.637515,10.767224],[-73.577803,10.503209],[-73.770453,10.391175],[-73.893494,10.373321],[-74.050539,10.169896],[-74.066197,10.053754],[-73.841766,9.789945],[-73.784225,9.597451],[-74.004444,9.593342],[-74.137097,9.498232],[-74.000956,9.399065],[-73.953517,9.196416],[-73.873806,9.178251],[-73.799805,9.055597],[-73.870395,8.887675],[-73.807582,8.816594],[-73.829648,8.643581],[-73.762236,8.459355],[-73.785646,8.161466],[-73.676996,7.893369],[-73.751901,7.740897],[-73.625449,7.734541],[-73.496103,7.678214],[-73.357377,7.810583],[-73.362726,8.016178],[-73.408563,8.127592],[-73.367118,8.332722],[-73.527832,8.392537],[-73.491814,8.462223],[-73.562197,8.5879],[-73.42683,8.792745],[-73.447837,8.865506],[-73.417012,9.150708],[-73.363645,9.165033],[-73.178448,9.523037],[-73.12362,9.561252],[-72.977634,9.838057],[-72.987711,9.999417],[-72.935621,10.175194],[-72.915232,10.428172]]]},"properties":{"LOCATION_TYPE":"level1","ADM0_A3":"COL","LOCATION_ID":"COL-CES","NAME":"Cesar","TYPE_EN":"Department"}},
{"type":"Feature","geometry":{"type":"Polygon","coordinates":[[[-71.993818,7.012855],[-72.080996,7.066598],[-72.153343,7.192585],[-72.206208,7.381876],[-72.451309,7.440219],[-72.483349,7.649353],[-72.451774,7.832805],[-72.487793,7.94918],[-72.335761,8.103899],[-72.386766,8.338614],[-72.67543,8.651514],[-72.783072,9.059939],[-72.826687,9.141691],[-72.936396,9.099187],[-73.009725,9.295377],[-73.176175,9.190939],[-73.363645,9.165033],[-73.417012,9.150708],[-73.447837,8.865506],[-73.42683,8.792745],[-73.562197,8.5879],[-73.491814,8.462223],[-73.527832,8.392537],[-73.367118,8.332722],[-73.408563,8.127592],[-73.362726,8.016178],[-73.357377,7.810583],[-73.496103,7.678214],[-73.625449,7.734541],[-73.504319,7.607443],[-73.260742,7.544914],[-73.216404,7.630026],[-72.991327,7.613179],[-72.903116,7.47634],[-72.830045,7.162095],[-72.885933,7.073806],[-72.715427,7.003294],[-72.551535,6.980401],[-72.504871,6.915082],[-72.338447,6.913222],[-72.181713,7.040139],[-71.993818,7.012855]]]},"properties":{"LOCATION_TYPE":"level1","ADM0_A3":"COL","LOCATION_ID":"COL-NSA","NAME":"Norte de Santander","TYPE_EN":"Department"}},
{"type":"Feature","geometry":{"type":"Polygon","coordinates":[[[-71.964021,7.005921],[-72.101692,6.729099],[-72.15727,6.474696],[-72.282042,6.422244],[-72.321678,6.351344],[-72.345424,6.262796],[-72.259847,6.138359],[-72.156314,6.073971],[-71.721999,6.200035],[-71.462273,6.198873],[-71.207147,6.274062],[-70.86417,6.215254],[-70.50489,6.224711],[-70.373425,6.275845],[-70.118092,6.250006],[-69.855756,6.026273],[-69.784908,6.062137],[-69.571949,6.054179],[-69.432019,6.122237],[-69.443638,6.122237],[-70.096621,6.944435],[-70.15778,6.979523],[-70.319062,6.938286],[-70.52091,7.015594],[-70.578607,7.085822],[-70.703302,7.09993],[-70.903445,7.063188],[-70.961323,7.009444],[-71.184048,6.962574],[-71.283525,7.018849],[-71.654304,7.053369],[-71.832639,6.986448],[-71.964021,7.005921]]]},"properties":{"LOCATION_TYPE":"level1","ADM0_A3":"COL","LOCATION_ID":"COL-ARA","NAME":"Arauca","TYPE_EN":"Intendancy"}},
{"type":"Feature","geometry":{"type":"Polygon","coordinates":[[[-71.993818,7.012855],[-72.181713,7.040139],[-72.338447,6.913222],[-72.504871,6.915082],[-72.477974,6.844079],[-72.542414,6.502549],[-72.616673,6.438083],[-72.73341,6.456609],[-72.754623,6.229517],[-72.893659,6.123218],[-73.034787,5.940749],[-73.219246,5.982478],[-73.286167,5.85587],[-73.40076,5.922274],[-73.397452,6.031906],[-73.499281,6.107095],[-73.613718,5.922197],[-73.638368,5.722726],[-73.737122,5.761147],[-73.973179,5.73257],[-74.174511,5.900777],[-74.290266,6.070689],[-74.441187,6.09552],[-74.519425,6.282304],[-74.579835,6.215952],[-74.590816,5.918166],[-74.662491,5.771948],[-74.646084,5.752517],[-74.533946,5.790551],[-74.312229,5.789466],[-74.299826,5.586016],[-74.243886,5.483929],[-74.000103,5.374298],[-73.821613,5.558472],[-73.791511,5.507959],[-73.590102,5.385615],[-73.521631,5.237278],[-73.478429,5.052457],[-73.545299,4.932438],[-73.402723,4.87146],[-73.218083,4.677648],[-73.052977,4.734828],[-73.030937,4.985122],[-72.906113,5.083023],[-72.938256,5.240456],[-72.80847,5.383987],[-72.709613,5.279549],[-72.590137,5.354195],[-72.420613,5.557697],[-72.319275,5.506098],[-72.237652,5.68309],[-72.392759,5.900932],[-72.341031,6.078854],[-72.415729,6.204066],[-72.321678,6.351344],[-72.282042,6.422244],[-72.15727,6.474696],[-72.101692,6.729099],[-71.964021,7.005921],[-71.993818,7.012855]]]},"properties":{"LOCATION_TYPE":"level1","ADM0_A3":"COL","LOCATION_ID":"COL-BOY","NAME":"Boyacá","TYPE_EN":"Department"}},
{"type":"Feature","geometry":{"type":"Polygon","coordinates":[[[-67.716932,4.039878],[-67.786219,4.172976],[-67.781982,4.338884],[-67.865078,4.512077],[-67.793092,5.063335],[-67.843684,5.297249],[-67.809784,5.37882],[-67.647003,5.483362],[-67.64907,5.65609],[-67.601218,5.820576],[-67.428567,6.03847],[-67.476161,6.178435],[-67.573984,6.266234],[-67.839136,6.307523],[-67.924144,6.234556],[-68.146508,6.223781],[-68.304172,6.176988],[-68.449021,6.194998],[-68.635315,6.13588],[-68.829127,6.187789],[-69.061129,6.217839],[-69.246104,6.080664],[-69.311346,6.146215],[-69.432019,6.122237],[-69.571949,6.054179],[-69.784908,6.062137],[-69.855756,6.026273],[-70.068508,5.669344],[-70.185194,5.587411],[-70.448795,5.533099],[-70.678652,5.389413],[-70.687334,5.323396],[-70.960288,5.117724],[-71.060334,4.91939],[-71.063693,3.361862],[-71.063667,2.868637],[-70.795027,2.795592],[-70.592843,2.841868],[-70.499748,2.784533],[-70.281467,2.941965],[-70.30498,3.077978],[-70.198862,3.195981],[-70.151139,3.347884],[-70.010863,3.528596],[-69.8941,3.566449],[-69.705843,3.568155],[-69.603214,3.691997],[-69.430718,3.68608],[-69.292406,3.726595],[-69.108929,3.627893],[-68.962426,3.640941],[-68.688799,3.797805],[-68.546353,3.795944],[-68.355538,4.019858],[-68.169425,3.919709],[-68.092737,4.005441],[-67.987524,3.934825],[-67.797097,3.953764],[-67.716932,4.039878]]]},"properties":{"LOCATION_TYPE":"level1","ADM0_A3":"COL","LOCATION_ID":"COL-VID","NAME":"Vichada","TYPE_EN":"Commissiary"}},
{"type":"Feature","geometry":{"type":"Polygon","coordinates":[[[-78.073902,2.64682],[-77.95273,2.555658],[-77.948751,2.381974],[-77.840127,2.177232],[-77.743802,2.144469],[-77.431366,2.22095],[-77.313027,2.171392],[-77.330106,2.070365],[-77.213964,1.986442],[-77.283391,1.855701],[-77.325068,1.689406],[-77.232981,1.663465],[-76.924446,1.719792],[-76.844813,1.607086],[-76.924472,1.502958],[-76.911708,1.313202],[-76.745723,1.329532],[-76.670483,1.433711],[-76.588369,1.40746],[-76.516073,1.274651],[-76.536589,1.075594],[-76.351019,0.976943],[-76.209839,0.972137],[-76.06052,1.043658],[-76.297043,1.196051],[-76.285596,1.327154],[-76.145295,1.575511],[-76.346936,1.638918],[-76.576897,1.879679],[-76.600099,1.971818],[-76.536589,2.129069],[-76.455405,2.112791],[-76.356522,2.287458],[-76.392567,2.366781],[-76.154364,2.372724],[-75.966184,2.490959],[-75.844486,2.428121],[-75.781028,2.669605],[-76.031245,2.929537],[-76.11279,3.095109],[-76.075764,3.213293],[-76.255883,3.282875],[-76.436698,3.317937],[-76.466774,3.178592],[-76.553306,3.110095],[-76.691179,3.116761],[-76.77859,3.18394],[-76.887394,3.094954],[-77.109603,3.191873],[-77.26148,3.124047],[-77.364316,3.165259],[-77.464864,3.301626],[-77.508656,3.194566],[-77.647707,3.073853],[-77.643381,2.898139],[-77.811757,2.748481],[-77.751536,2.627265],[-77.904286,2.579983],[-77.94984,2.674518],[-78.073902,2.64682]]]},"properties":{"LOCATION_TYPE":"level1","ADM0_A3":"COL","LOCATION_ID":"COL-CAU","NAME":"Cauca","TYPE_EN":"Department"}},
{"type":"Feature","geometry":{"type":"Polygon","coordinates":[[[-77.464864,3.301626],[-77.364316,3.165259],[-77.26148,3.124047],[-77.109603,3.191873],[-76.887394,3.094954],[-76.77859,3.18394],[-76.691179,3.116761],[-76.553306,3.110095],[-76.466774,3.178592],[-76.436698,3.317937],[-76.255883,3.282875],[-76.075764,3.213293],[-76.049384,3.4424],[-75.961714,3.712151],[-75.857664,3.869893],[-75.762218,4.078511],[-75.829914,4.109414],[-75.790252,4.288395],[-75.876758,4.552565],[-75.824849,4.664444],[-75.713952,4.712943],[-75.908565,4.763224],[-76.075919,5.035714],[-76.169531,4.889443],[-76.291229,4.773223],[-76.303296,4.69992],[-76.427319,4.581736],[-76.495971,4.319969],[-76.446155,4.182019],[-76.594131,4.050502],[-76.730376,3.998619],[-76.892743,4.041898],[-76.956796,4.122591],[-77.065807,4.103884],[-77.254438,4.242187],[-77.285227,4.211283],[-77.435161,4.152848],[-77.425038,4.004584],[-77.189198,4.067328],[-77.311757,3.908433],[-77.151479,3.800442],[-77.204905,3.621243],[-77.310536,3.550198],[-77.367055,3.402086],[-77.464864,3.301626]]]},"properties":{"LOCATION_TYPE":"level1","ADM0_A3":"COL","LOCATION_ID":"COL-VAC","NAME":"Valle del Cauca","TYPE_EN":"Department"}},
{"type":"Feature","geometry":{"type":"Polygon","coordinates":[[[-76.985458,8.25618],[-76.953928,8.086535],[-77.021676,7.898485],[-77.126372,7.780921],[-76.876878,7.565404],[-76.692497,7.354435],[-76.529561,7.248705],[-76.505273,7.074426],[-76.546097,6.991021],[-76.683402,7.026031],[-76.831377,6.999728],[-76.836157,6.840591],[-76.97279,6.810205],[-76.898221,6.594637],[-76.788098,6.483455],[-76.770709,6.286929],[-76.700145,6.168694],[-76.277173,6.187323],[-76.21697,6.034774],[-76.111266,5.975579],[-76.133099,5.861451],[-76.042485,5.577334],[-75.857793,5.489355],[-75.738937,5.557155],[-75.585743,5.518759],[-75.601142,5.735051],[-75.384618,5.67415],[-75.316172,5.517131],[-75.142953,5.530076],[-75.091199,5.659577],[-74.866768,5.743836],[-74.777265,5.689679],[-74.662491,5.771948],[-74.590816,5.918166],[-74.579835,6.215952],[-74.519425,6.282304],[-74.413334,6.404235],[-74.386436,6.626288],[-74.292721,6.654426],[-74.108572,6.790309],[-74.006976,6.934848],[-73.88781,7.019856],[-73.930236,7.300795],[-74.252878,6.996059],[-74.343906,7.010425],[-74.468653,7.36136],[-74.562601,7.423578],[-74.560585,7.630801],[-74.485913,7.736712],[-74.59955,7.998246],[-74.834884,8.188725],[-74.942578,8.072583],[-75.228762,8.045969],[-75.546675,7.689453],[-75.590006,7.569512],[-75.769426,7.498897],[-75.868103,7.36415],[-76.40776,7.380351],[-76.497573,7.600002],[-76.505118,7.740742],[-76.43259,7.931299],[-76.419387,8.098653],[-76.217332,8.410159],[-76.229114,8.57759],[-76.331769,8.660299],[-76.444831,8.869866],[-76.673207,8.680406],[-76.893707,8.620347],[-76.77009,8.398017],[-76.732004,8.079291],[-76.757232,7.92357],[-76.933705,7.964586],[-76.832265,8.136542],[-76.942535,8.128852],[-76.985458,8.25618]]]},"properties":{"LOCATION_TYPE":"level1","ADM0_A3":"COL","LOCATION_ID":"COL-ANT","NAME":"Antioquia","TYPE_EN":"Department"}},
{"type":"Feature","geometry":{"type":"Polygon","coordinates":[[[-76.444831,8.869866],[-76.331769,8.660299],[-76.229114,8.57759],[-76.217332,8.410159],[-76.419387,8.098653],[-76.43259,7.931299],[-76.505118,7.740742],[-76.497573,7.600002],[-76.40776,7.380351],[-75.868103,7.36415],[-75.769426,7.498897],[-75.590006,7.569512],[-75.546675,7.689453],[-75.228762,8.045969],[-74.942578,8.072583],[-74.834884,8.188725],[-74.804963,8.279883],[-74.809408,8.350731],[-74.943327,8.486278],[-75.183545,8.401942],[-75.319144,8.521263],[-75.359917,8.803365],[-75.209202,8.923848],[-75.212845,9.041619],[-75.430222,9.152801],[-75.465336,9.237989],[-75.699095,9.354081],[-75.698272,9.416897],[-75.909983,9.428168],[-76.077992,9.343817],[-76.168121,9.246975],[-76.256256,9.007392],[-76.444831,8.869866]]]},"properties":{"LOCATION_TYPE":"level1","ADM0_A3":"COL","LOCATION_ID":"COL-COR","NAME":"Córdoba","TYPE_EN":"Department"}},
{"type":"Feature","geometry":{"type":"Polygon","coordinates":[[[-75.698272,9.416897],[-75.699095,9.354081],[-75.465336,9.237989],[-75.430222,9.152801],[-75.212845,9.041619],[-75.209202,8.923848],[-75.359917,8.803365],[-75.319144,8.521263],[-75.183545,8.401942],[-74.943327,8.486278],[-74.809408,8.350731],[-74.804963,8.279883],[-74.680216,8.309829],[-74.550509,8.462765],[-74.60296,8.72709],[-74.542137,8.806698],[-74.65921,8.96568],[-74.82535,9.076475],[-74.90041,9.176856],[-74.940795,9.346691],[-74.899221,9.430174],[-75.029549,9.483091],[-75.18277,9.643158],[-75.365317,9.684577],[-75.327205,9.881413],[-75.478204,9.915416],[-75.475749,10.03962],[-75.581576,10.092002],[-75.589516,9.964189],[-75.657794,9.705232],[-75.576367,9.621086],[-75.620633,9.452853],[-75.698272,9.416897]]]},"properties":{"LOCATION_TYPE":"level1","ADM0_A3":"COL","LOCATION_ID":"COL-SUC","NAME":"Sucre","TYPE_EN":"Department"}},
{"type":"Feature","geometry":{"type":"Polygon","coordinates":[[[-75.581576,10.092002],[-75.475749,10.03962],[-75.478204,9.915416],[-75.327205,9.881413],[-75.365317,9.684577],[-75.18277,9.643158],[-75.029549,9.483091],[-74.899221,9.430174],[-74.940795,9.346691],[-74.90041,9.176856],[-74.82535,9.076475],[-74.65921,8.96568],[-74.542137,8.806698],[-74.60296,8.72709],[-74.550509,8.462765],[-74.680216,8.309829],[-74.804963,8.279883],[-74.834884,8.188725],[-74.59955,7.998246],[-74.485913,7.736712],[-74.560585,7.630801],[-74.562601,7.423578],[-74.468653,7.36136],[-74.343906,7.010425],[-74.252878,6.996059],[-73.930236,7.300795],[-73.907473,7.50993],[-73.830475,7.610078],[-73.815541,7.779525],[-73.8721,8.00685],[-73.785646,8.161466],[-73.762236,8.459355],[-73.829648,8.643581],[-73.807582,8.816594],[-73.870395,8.887675],[-73.900109,8.985498],[-74.043408,9.05521],[-74.153272,9.049009],[-74.238021,9.154325],[-74.430723,9.267497],[-74.523198,9.23954],[-74.629263,9.37594],[-74.805764,9.486811],[-74.781347,9.631325],[-74.878034,9.869889],[-74.812327,9.985463],[-74.858991,10.097343],[-74.943482,10.137469],[-74.917463,10.26741],[-75.076523,10.414352],[-75.266382,10.530675],[-75.256337,10.709338],[-75.397572,10.681871],[-75.509836,10.585842],[-75.493276,10.434638],[-75.581576,10.092002]]]},"properties":{"LOCATION_TYPE":"level1","ADM0_A3":"COL","LOCATION_ID":"COL-BOL","NAME":"Bolívar","TYPE_EN":"Department"}},
{"type":"Feature","geometry":{"type":"Polygon","coordinates":[[[-75.256337,10.709338],[-75.266382,10.530675],[-75.076523,10.414352],[-74.917463,10.26741],[-74.80672,10.510341],[-74.728637,10.583954],[-74.72471,10.900317],[-74.847498,11.087668],[-75.02359,10.974311],[-75.035959,10.916693],[-75.228737,10.810867],[-75.229683,10.763421],[-75.256337,10.709338]]]},"properties":{"LOCATION_TYPE":"level1","ADM0_A3":"COL","LOCATION_ID":"COL-ATL","NAME":"Atlántico","TYPE_EN":"Department"}},
{"type":"Feature","geometry":{"type":"Polygon","coordinates":[[[-74.847498,11.087668],[-74.72471,10.900317],[-74.728637,10.583954],[-74.80672,10.510341],[-74.917463,10.26741],[-74.943482,10.137469],[-74.858991,10.097343],[-74.812327,9.985463],[-74.878034,9.869889],[-74.781347,9.631325],[-74.805764,9.486811],[-74.629263,9.37594],[-74.523198,9.23954],[-74.430723,9.267497],[-74.238021,9.154325],[-74.153272,9.049009],[-74.043408,9.05521],[-73.900109,8.985498],[-73.870395,8.887675],[-73.799805,9.055597],[-73.873806,9.178251],[-73.953517,9.196416],[-74.000956,9.399065],[-74.137097,9.498232],[-74.004444,9.593342],[-73.784225,9.597451],[-73.841766,9.789945],[-74.066197,10.053754],[-74.050539,10.169896],[-73.893494,10.373321],[-73.770453,10.391175],[-73.577803,10.503209],[-73.637515,10.767224],[-73.605786,10.845514],[-73.649659,10.991913],[-73.637774,11.139165],[-73.565582,11.277086],[-73.826039,11.27676],[-74.004628,11.355292],[-74.187489,11.316962],[-74.242177,11.200263],[-74.218129,11.079088],[-74.362172,10.775702],[-74.456614,10.748033],[-74.502838,10.974311],[-74.847498,11.087668]]]},"properties":{"LOCATION_TYPE":"level1","ADM0_A3":"COL","LOCATION_ID":"COL-MAG","NAME":"Magdalena","TYPE_EN":"Department"}},
{"type":"Feature","geometry":{"type":"Polygon","coordinates":[[[-81.711497,12.522935],[-81.686391,12.580064],[-81.70637,12.580308],[-81.719797,12.543158],[-81.711497,12.522935]]]},"properties":{"LOCATION_TYPE":"level1","ADM0_A3":"COL","LOCATION_ID":"COL-SAP","NAME":"San Andrés y Providencia","TYPE_EN":"Department"}},
{"type":"Feature","geometry":{"type":"Polygon","coordinates":[[[-81.611724,3.95897],[-81.578725,3.978176],[-81.596181,3.991197],[-81.611724,3.95897]]]},"properties":{"LOCATION_TYPE":"level1","ADM0_A3":"COL","LOCATION_ID":"COL-X01~","NAME":null,"TYPE_EN":null}},
{"type":"Feature","geometry":{"type":"Polygon","coordinates":[[[-74.897516,2.950725],[-74.976787,2.892227],[-75.057609,2.748928],[-74.995494,2.65529],[-75.122386,2.534109],[-75.218685,2.543721],[-75.278113,2.396081],[-75.421463,2.247408],[-75.551223,2.032899],[-75.626386,1.964635],[-75.840998,1.680621],[-75.960164,1.573031],[-76.145295,1.575511],[-76.285596,1.327154],[-76.297043,1.196051],[-76.06052,1.043658],[-75.917815,1.019163],[-75.845494,0.889507],[-75.559853,0.82858],[-75.459084,0.749464],[-75.254083,0.719026],[-75.201993,0.517798],[-74.996166,0.469946],[-74.962447,0.270836],[-74.742874,0.200298],[-74.682904,0.150947],[-74.663835,-0.054157],[-74.46979,-0.12578],[-74.291455,-0.14149],[-74.240424,-0.227893],[-74.116685,-0.246341],[-74.01142,-0.335121],[-73.864142,-0.392947],[-73.728362,-0.386539],[-73.479075,-0.532732],[-73.331772,-0.507307],[-73.2055,-0.604717],[-73.081296,-0.593555],[-72.997425,-0.526583],[-72.884822,-0.60172],[-72.720698,-0.571541],[-72.549752,-0.683265],[-72.421853,-0.556555],[-72.32452,-0.629264],[-72.242381,-0.586941],[-72.232381,-0.46731],[-72.036864,-0.259622],[-71.774192,-0.224689],[-71.625933,-0.042994],[-71.38972,0.06749],[-71.322334,0.133222],[-71.421423,0.191617],[-71.538548,0.177664],[-71.688978,0.258279],[-71.936405,0.486689],[-72.035753,0.664042],[-72.238117,0.736596],[-72.402914,0.947333],[-72.417616,1.025984],[-72.670701,1.19109],[-72.81816,1.197757],[-72.893065,1.046551],[-73.048249,0.926662],[-73.135298,0.941545],[-73.425745,1.209436],[-73.443186,1.30235],[-73.563928,1.436812],[-73.675058,1.624501],[-73.917834,1.634733],[-74.510821,1.843919],[-74.606836,1.962361],[-74.615905,2.043131],[-74.543739,2.181934],[-74.645852,2.318205],[-74.651588,2.464553],[-74.596449,2.72123],[-74.730239,2.907291],[-74.897516,2.950725]]]},"properties":{"LOCATION_TYPE":"level1","ADM0_A3":"COL","LOCATION_ID":"COL-CAQ","NAME":"Caquetá","TYPE_EN":"Intendancy"}},
{"type":"Feature","geometry":{"type":"Polygon","coordinates":[[[-74.897516,2.950725],[-74.835349,3.093326],[-74.651743,3.259982],[-74.615905,3.485059],[-74.493561,3.704012],[-74.563531,3.772121],[-74.671457,3.674918],[-74.768531,3.526116],[-74.771322,3.453485],[-74.908885,3.289929],[-75.072027,3.311039],[-75.035647,3.434158],[-75.257778,3.373645],[-75.316121,3.411756],[-75.477635,3.360545],[-75.646049,3.068495],[-75.854693,2.890909],[-76.031245,2.929537],[-75.781028,2.669605],[-75.844486,2.428121],[-75.966184,2.490959],[-76.154364,2.372724],[-76.392567,2.366781],[-76.356522,2.287458],[-76.455405,2.112791],[-76.536589,2.129069],[-76.600099,1.971818],[-76.576897,1.879679],[-76.346936,1.638918],[-76.145295,1.575511],[-75.960164,1.573031],[-75.840998,1.680621],[-75.626386,1.964635],[-75.551223,2.032899],[-75.421463,2.247408],[-75.278113,2.396081],[-75.218685,2.543721],[-75.122386,2.534109],[-74.995494,2.65529],[-75.057609,2.748928],[-74.976787,2.892227],[-74.897516,2.950725]]]},"properties":{"LOCATION_TYPE":"level1","ADM0_A3":"COL","LOCATION_ID":"COL-HUI","NAME":"Huila","TYPE_EN":"Department"}},
{"type":"Feature","geometry":{"type":"Polygon","coordinates":[[[-73.675058,1.624501],[-73.563928,1.436812],[-73.443186,1.30235],[-73.425745,1.209436],[-73.135298,0.941545],[-73.048249,0.926662],[-72.893065,1.046551],[-72.81816,1.197757],[-72.670701,1.19109],[-72.417616,1.025984],[-72.402914,0.947333],[-72.238117,0.736596],[-72.035753,0.664042],[-71.786543,0.916947],[-71.673113,0.981956],[-71.585832,1.112904],[-71.507335,1.136623],[-71.542113,1.279457],[-71.433024,1.564143],[-71.390779,1.732246],[-71.263758,1.673387],[-70.96773,1.853272],[-70.91179,1.915026],[-70.701958,1.901693],[-70.444454,1.988354],[-70.201653,2.031246],[-70.104966,2.101164],[-69.999934,2.197747],[-70.037322,2.277432],[-70.341179,2.245961],[-70.622325,2.32761],[-70.747071,2.529045],[-70.895693,2.620926],[-70.499748,2.784533],[-70.592843,2.841868],[-70.795027,2.795592],[-71.063667,2.868637],[-71.561492,2.855692],[-71.622625,2.81572],[-71.735073,2.880755],[-71.992758,2.799933],[-72.121044,2.867086],[-72.193469,2.772958],[-72.366533,2.738076],[-72.624502,2.60749],[-72.790306,2.600979],[-72.906216,2.547648],[-72.930452,2.467757],[-73.095843,2.384144],[-73.215319,2.388382],[-73.336397,2.330917],[-73.510314,2.352415],[-73.654646,2.29371],[-73.661131,1.641967],[-73.675058,1.624501]]]},"properties":{"LOCATION_TYPE":"level1","ADM0_A3":"COL","LOCATION_ID":"COL-GUV","NAME":"Guaviare","TYPE_EN":"Commissiary"}},
{"type":"Feature","geometry":{"type":"Polygon","coordinates":[[[-74.662491,5.771948],[-74.777265,5.689679],[-74.866768,5.743836],[-75.091199,5.659577],[-75.142953,5.530076],[-75.316172,5.517131],[-75.384618,5.67415],[-75.601142,5.735051],[-75.585743,5.518759],[-75.738937,5.557155],[-75.857793,5.489355],[-75.856372,5.37422],[-75.718809,5.39626],[-75.667546,5.2657],[-75.81733,5.27234],[-75.808261,5.192112],[-75.926807,5.043465],[-75.858491,4.932283],[-75.709249,4.952618],[-75.492441,4.91939],[-75.378029,4.800069],[-75.294365,5.131832],[-75.134349,5.160848],[-75.012754,5.293915],[-74.748688,5.29084],[-74.660373,5.458323],[-74.646084,5.752517],[-74.662491,5.771948]]]},"properties":{"LOCATION_TYPE":"level1","ADM0_A3":"COL","LOCATION_ID":"COL-CAL","NAME":"Caldas","TYPE_EN":"Department"}},
{"type":"Feature","geometry":{"type":"Polygon","coordinates":[[[-72.321678,6.351344],[-72.415729,6.204066],[-72.341031,6.078854],[-72.392759,5.900932],[-72.237652,5.68309],[-72.319275,5.506098],[-72.420613,5.557697],[-72.590137,5.354195],[-72.709613,5.279549],[-72.80847,5.383987],[-72.938256,5.240456],[-72.906113,5.083023],[-73.030937,4.985122],[-73.052977,4.734828],[-72.926577,4.525254],[-72.812604,4.426268],[-72.748035,4.313148],[-72.587579,4.309737],[-72.323461,4.409964],[-72.149906,4.450711],[-72.012162,4.398647],[-71.819461,4.570109],[-71.274507,4.80658],[-71.060334,4.91939],[-70.960288,5.117724],[-70.687334,5.323396],[-70.678652,5.389413],[-70.448795,5.533099],[-70.185194,5.587411],[-70.068508,5.669344],[-69.855756,6.026273],[-70.118092,6.250006],[-70.373425,6.275845],[-70.50489,6.224711],[-70.86417,6.215254],[-71.207147,6.274062],[-71.462273,6.198873],[-71.721999,6.200035],[-72.156314,6.073971],[-72.259847,6.138359],[-72.345424,6.262796],[-72.321678,6.351344]]]},"properties":{"LOCATION_TYPE":"level1","ADM0_A3":"COL","LOCATION_ID":"COL-CAS","NAME":"Casanare","TYPE_EN":"Intendancy"}},
{"type":"Feature","geometry":{"type":"Polygon","coordinates":[[[-74.897516,2.950725],[-74.730239,2.907291],[-74.596449,2.72123],[-74.651588,2.464553],[-74.645852,2.318205],[-74.543739,2.181934],[-74.615905,2.043131],[-74.606836,1.962361],[-74.510821,1.843919],[-73.917834,1.634733],[-73.675058,1.624501],[-73.661131,1.641967],[-73.654646,2.29371],[-73.510314,2.352415],[-73.336397,2.330917],[-73.215319,2.388382],[-73.095843,2.384144],[-72.930452,2.467757],[-72.906216,2.547648],[-72.790306,2.600979],[-72.624502,2.60749],[-72.366533,2.738076],[-72.193469,2.772958],[-72.121044,2.867086],[-71.992758,2.799933],[-71.735073,2.880755],[-71.622625,2.81572],[-71.561492,2.855692],[-71.063667,2.868637],[-71.063693,3.361862],[-71.060334,4.91939],[-71.274507,4.80658],[-71.819461,4.570109],[-72.012162,4.398647],[-72.149906,4.450711],[-72.323461,4.409964],[-72.587579,4.309737],[-72.748035,4.313148],[-72.812604,4.426268],[-72.926577,4.525254],[-73.052977,4.734828],[-73.132817,4.239586],[-73.365671,4.322295],[-73.53902,4.306482],[-73.622374,4.483758],[-73.697279,4.521301],[-73.810683,4.420997],[-73.751901,4.202199],[-73.814429,4.203981],[-74.154383,4.007223],[-74.208462,4.019936],[-74.427777,3.679569],[-74.493561,3.704012],[-74.615905,3.485059],[-74.651743,3.259982],[-74.835349,3.093326],[-74.897516,2.950725]]]},"properties":{"LOCATION_TYPE":"level1","ADM0_A3":"COL","LOCATION_ID":"COL-MET","NAME":"Meta","TYPE_EN":"Department"}},
{"type":"Feature","geometry":{"type":"Polygon","coordinates":[[[-74.154383,4.007223],[-74.093896,4.141996],[-74.149293,4.277052],[-74.116246,4.404693],[-73.995039,4.63225],[-74.010697,4.815365],[-74.067256,4.829318],[-74.172108,4.661809],[-74.191822,4.376839],[-74.262516,4.109465],[-74.341994,4.112514],[-74.361347,3.94516],[-74.493561,3.704012],[-74.427777,3.679569],[-74.208462,4.019936],[-74.154383,4.007223]]]},"properties":{"LOCATION_TYPE":"level1","ADM0_A3":"COL","LOCATION_ID":"COL-CUN","NAME":"Bogota","TYPE_EN":"Federal District"}},
{"type":"Feature","geometry":{"type":"Polygon","coordinates":[[[-73.625449,7.734541],[-73.751901,7.740897],[-73.676996,7.893369],[-73.785646,8.161466],[-73.8721,8.00685],[-73.815541,7.779525],[-73.830475,7.610078],[-73.907473,7.50993],[-73.930236,7.300795],[-73.88781,7.019856],[-74.006976,6.934848],[-74.108572,6.790309],[-74.292721,6.654426],[-74.386436,6.626288],[-74.413334,6.404235],[-74.519425,6.282304],[-74.441187,6.09552],[-74.290266,6.070689],[-74.174511,5.900777],[-73.973179,5.73257],[-73.737122,5.761147],[-73.638368,5.722726],[-73.613718,5.922197],[-73.499281,6.107095],[-73.397452,6.031906],[-73.40076,5.922274],[-73.286167,5.85587],[-73.219246,5.982478],[-73.034787,5.940749],[-72.893659,6.123218],[-72.754623,6.229517],[-72.73341,6.456609],[-72.616673,6.438083],[-72.542414,6.502549],[-72.477974,6.844079],[-72.504871,6.915082],[-72.551535,6.980401],[-72.715427,7.003294],[-72.885933,7.073806],[-72.830045,7.162095],[-72.903116,7.47634],[-72.991327,7.613179],[-73.216404,7.630026],[-73.260742,7.544914],[-73.504319,7.607443],[-73.625449,7.734541]]]},"properties":{"LOCATION_TYPE":"level1","ADM0_A3":"COL","LOCATION_ID":"COL-SAN","NAME":"Santander","TYPE_EN":"Department"}},
{"type":"Feature","geometry":{"type":"Polygon","coordinates":[[[-74.563531,3.772121],[-74.512113,3.949501],[-74.488135,4.170004],[-74.555315,4.2693],[-74.654637,4.209175],[-74.887336,4.309582],[-74.816384,4.466291],[-74.762795,4.799759],[-74.735459,5.108241],[-74.748688,5.29084],[-75.012754,5.293915],[-75.134349,5.160848],[-75.294365,5.131832],[-75.378029,4.800069],[-75.39038,4.716818],[-75.582074,4.42712],[-75.601401,4.296456],[-75.762218,4.078511],[-75.857664,3.869893],[-75.961714,3.712151],[-76.049384,3.4424],[-76.075764,3.213293],[-76.11279,3.095109],[-76.031245,2.929537],[-75.854693,2.890909],[-75.646049,3.068495],[-75.477635,3.360545],[-75.316121,3.411756],[-75.257778,3.373645],[-75.035647,3.434158],[-75.072027,3.311039],[-74.908885,3.289929],[-74.771322,3.453485],[-74.768531,3.526116],[-74.671457,3.674918],[-74.563531,3.772121]]]},"properties":{"LOCATION_TYPE":"level1","ADM0_A3":"COL","LOCATION_ID":"COL-TOL","NAME":"Tolima","TYPE_EN":"Department"}},
{"type":"Feature","geometry":{"type":"Polygon","coordinates":[[[-75.39038,4.716818],[-75.713952,4.712943],[-75.824849,4.664444],[-75.876758,4.552565],[-75.790252,4.288395],[-75.829914,4.109414],[-75.762218,4.078511],[-75.601401,4.296456],[-75.582074,4.42712],[-75.39038,4.716818]]]},"properties":{"LOCATION_TYPE":"level1","ADM0_A3":"COL","LOCATION_ID":"COL-QUI","NAME":"Quindío","TYPE_EN":"Department"}},
{"type":"Feature","geometry":{"type":"Polygon","coordinates":[[[-74.493561,3.704012],[-74.361347,3.94516],[-74.341994,4.112514],[-74.262516,4.109465],[-74.191822,4.376839],[-74.172108,4.661809],[-74.067256,4.829318],[-74.010697,4.815365],[-73.995039,4.63225],[-74.116246,4.404693],[-74.149293,4.277052],[-74.093896,4.141996],[-74.154383,4.007223],[-73.814429,4.203981],[-73.751901,4.202199],[-73.810683,4.420997],[-73.697279,4.521301],[-73.622374,4.483758],[-73.53902,4.306482],[-73.365671,4.322295],[-73.132817,4.239586],[-73.052977,4.734828],[-73.218083,4.677648],[-73.402723,4.87146],[-73.545299,4.932438],[-73.478429,5.052457],[-73.521631,5.237278],[-73.590102,5.385615],[-73.791511,5.507959],[-73.821613,5.558472],[-74.000103,5.374298],[-74.243886,5.483929],[-74.299826,5.586016],[-74.312229,5.789466],[-74.533946,5.790551],[-74.646084,5.752517],[-74.660373,5.458323],[-74.748688,5.29084],[-74.735459,5.108241],[-74.762795,4.799759],[-74.816384,4.466291],[-74.887336,4.309582],[-74.654637,4.209175],[-74.555315,4.2693],[-74.488135,4.170004],[-74.512113,3.949501],[-74.563531,3.772121],[-74.493561,3.704012]]]},"properties":{"LOCATION_TYPE":"level1","ADM0_A3":"COL","LOCATION_ID":"COL-CUN","NAME":"Cundinamarca","TYPE_EN":"Department"}},
{"type":"Feature","geometry":{"type":"Polygon","coordinates":[[[-75.857793,5.489355],[-76.042485,5.577334],[-76.179918,5.30872],[-76.097598,5.175033],[-76.075919,5.035714],[-75.908565,4.763224],[-75.713952,4.712943],[-75.39038,4.716818],[-75.378029,4.800069],[-75.492441,4.91939],[-75.709249,4.952618],[-75.858491,4.932283],[-75.926807,5.043465],[-75.808261,5.192112],[-75.81733,5.27234],[-75.667546,5.2657],[-75.718809,5.39626],[-75.856372,5.37422],[-75.857793,5.489355]]]},"properties":{"LOCATION_TYPE":"level1","ADM0_A3":"COL","LOCATION_ID":"COL-RIS","NAME":"Risaralda","TYPE_EN":"Department"}}
]}