{"type":"FeatureCollection", "features": [
{"type":"Feature","geometry":{"type":"Polygon","coordinates":[[[43.788748,-12.308038],[43.629893,-12.251723],[43.681407,-12.358087],[43.788748,-12.308038]]]},"properties":{"LOCATION_TYPE":"level1","ADM0_A3":"COM","LOCATION_ID":"COM-M","NAME":"Moûhîlî","TYPE_EN":null}},
{"type":"Feature","geometry":{"type":"Polygon","coordinates":[[[44.529063,-12.232843],[44.484141,-12.085545],[44.415294,-12.119317],[44.330577,-12.236261],[44.528494,-12.35475],[44.529063,-12.232843]]]},"properties":{"LOCATION_TYPE":"level1","ADM0_A3":"COM","LOCATION_ID":"COM-A","NAME":"Andjouân","TYPE_EN":null}},
{"type":"Feature","geometry":{"type":"Polygon","coordinates":[[[43.466563,-11.82171],[43.377126,-11.605076],[43.399425,-11.41839],[43.276541,-11.379571],[43.244151,-11.672947],[43.213227,-11.725763],[43.262869,-11.818048],[43.369965,-11.86061],[43.466563,-11.82171]]]},"properties":{"LOCATION_TYPE":"level1","ADM0_A3":"COM","LOCATION_ID":"COM-G","NAME":"Andjazîdja","TYPE_EN":null}}
]}