{"type":"FeatureCollection", "features": [
{"type":"Feature","geometry":{"type":"Polygon","coordinates":[[[-24.704335,14.900824],[-24.74942,14.885484],[-24.744618,14.826606],[-24.686879,14.826646],[-24.704335,14.900824]]]},"properties":{"LOCATION_TYPE":"level1","ADM0_A3":"CPV","LOCATION_ID":"CPV-BR","NAME":"Brava","TYPE_EN":null}},
{"type":"Feature","geometry":{"type":"Polygon","coordinates":[[[-24.301476,14.954846],[-24.374044,14.944918],[-24.298207,14.895453],[-24.301476,14.954846]]]},"properties":{"LOCATION_TYPE":"level1","ADM0_A3":"CPV","LOCATION_ID":"CPV-CF","NAME":"Santa Catarina do Fogo","TYPE_EN":null}},
{"type":"Feature","geometry":{"type":"Polygon","coordinates":[[[-24.429691,15.025015],[-24.374044,14.944918],[-24.301476,14.954846],[-24.329213,15.028713],[-24.429691,15.025015]]]},"properties":{"LOCATION_TYPE":"level1","ADM0_A3":"CPV","LOCATION_ID":"CPV-MO","NAME":"Mosteiros","TYPE_EN":null}},
{"type":"Feature","geometry":{"type":"Polygon","coordinates":[[[-24.298207,14.895453],[-24.374044,14.944918],[-24.429691,15.025015],[-24.526235,14.924709],[-24.449086,14.83808],[-24.334462,14.831855],[-24.298207,14.895453]]]},"properties":{"LOCATION_TYPE":"level1","ADM0_A3":"CPV","LOCATION_ID":"CPV-SF","NAME":"São Filipe","TYPE_EN":null}},
{"type":"Feature","geometry":{"type":"Polygon","coordinates":[[[-23.770131,15.183987],[-23.685883,15.184396],[-23.656077,15.229722],[-23.719228,15.322903],[-23.77953,15.311672],[-23.751576,15.233466],[-23.770131,15.183987]]]},"properties":{"LOCATION_TYPE":"level1","ADM0_A3":"CPV","LOCATION_ID":"CPV-TA","NAME":"Tarrafal","TYPE_EN":null}},
{"type":"Feature","geometry":{"type":"Polygon","coordinates":[[[-23.715077,14.968451],[-23.629411,15.03934],[-23.618338,15.105778],[-23.6266,15.131406],[-23.685883,15.184396],[-23.770131,15.183987],[-23.789866,15.093817],[-23.715077,14.968451]]]},"properties":{"LOCATION_TYPE":"level1","ADM0_A3":"CPV","LOCATION_ID":"CPV-CA","NAME":"Santa Catarina","TYPE_EN":null}},
{"type":"Feature","geometry":{"type":"Polygon","coordinates":[[[-23.539296,14.90762],[-23.56408,14.960723],[-23.596192,15.011658],[-23.612039,15.04092],[-23.629411,15.03934],[-23.715077,14.968451],[-23.676503,14.935533],[-23.539296,14.90762]]]},"properties":{"LOCATION_TYPE":"level1","ADM0_A3":"CPV","LOCATION_ID":"CPV-RS","NAME":"Ribeira Grande de Santiago","TYPE_EN":null}},
{"type":"Feature","geometry":{"type":"Polygon","coordinates":[[[-23.471468,14.973722],[-23.56408,14.960723],[-23.539296,14.90762],[-23.471468,14.973722]]]},"properties":{"LOCATION_TYPE":"level1","ADM0_A3":"CPV","LOCATION_ID":"CPV-PR","NAME":"Praia","TYPE_EN":null}},
{"type":"Feature","geometry":{"type":"Polygon","coordinates":[[[-23.484659,15.064038],[-23.526432,15.059272],[-23.596192,15.011658],[-23.56408,14.960723],[-23.471468,14.973722],[-23.484659,15.064038]]]},"properties":{"LOCATION_TYPE":"level1","ADM0_A3":"CPV","LOCATION_ID":"CPV-SD","NAME":"São Domingos","TYPE_EN":null}},
{"type":"Feature","geometry":{"type":"Polygon","coordinates":[[[-23.591601,15.170212],[-23.6266,15.131406],[-23.618338,15.105778],[-23.579976,15.081557],[-23.526432,15.059272],[-23.484659,15.064038],[-23.591601,15.170212]]]},"properties":{"LOCATION_TYPE":"level1","ADM0_A3":"CPV","LOCATION_ID":"CPV-CR","NAME":"Santa Cruz","TYPE_EN":null}},
{"type":"Feature","geometry":{"type":"Polygon","coordinates":[[[-23.656077,15.229722],[-23.685883,15.184396],[-23.6266,15.131406],[-23.591601,15.170212],[-23.656077,15.229722]]]},"properties":{"LOCATION_TYPE":"level1","ADM0_A3":"CPV","LOCATION_ID":"CPV-SM","NAME":"São Miguel","TYPE_EN":null}},
{"type":"Feature","geometry":{"type":"Polygon","coordinates":[[[-23.127797,15.311672],[-23.189849,15.33275],[-23.245717,15.271064],[-23.258168,15.174506],[-23.182729,15.118598],[-23.110463,15.199408],[-23.127797,15.311672]]]},"properties":{"LOCATION_TYPE":"level1","ADM0_A3":"CPV","LOCATION_ID":"CPV-MA","NAME":"Maio","TYPE_EN":null}},
{"type":"Feature","geometry":{"type":"Polygon","coordinates":[[[-22.682118,16.113593],[-22.713857,16.205756],[-22.793813,16.23135],[-22.829416,16.204006],[-22.924428,16.212958],[-22.913564,16.125556],[-22.957753,16.089016],[-22.945546,16.01968],[-22.806142,15.985907],[-22.679799,16.063218],[-22.682118,16.113593]]]},"properties":{"LOCATION_TYPE":"level1","ADM0_A3":"CPV","LOCATION_ID":"CPV-BV","NAME":"Boa Vista","TYPE_EN":null}},
{"type":"Feature","geometry":{"type":"Polygon","coordinates":[[[-24.375623,16.677123],[-24.320215,16.612788],[-24.324696,16.482652],[-24.272328,16.587226],[-24.233306,16.602118],[-24.114735,16.559272],[-24.089996,16.622463],[-24.226796,16.649604],[-24.282379,16.641343],[-24.375623,16.677123]]]},"properties":{"LOCATION_TYPE":"level1","ADM0_A3":"CPV","LOCATION_ID":"CPV-RB","NAME":"Ribeira Brava","TYPE_EN":null}},
{"type":"Feature","geometry":{"type":"Polygon","coordinates":[[[-24.324696,16.482652],[-24.320215,16.612788],[-24.375623,16.677123],[-24.422597,16.662299],[-24.324696,16.482652]]]},"properties":{"LOCATION_TYPE":"level1","ADM0_A3":"CPV","LOCATION_ID":"CPV-TS","NAME":"Tarrafal de São Nicolau","TYPE_EN":null}},
{"type":"Feature","geometry":{"type":"Polygon","coordinates":[[[-22.929189,16.593411],[-22.901723,16.605902],[-22.89509,16.829291],[-22.990793,16.81566],[-22.983144,16.723049],[-22.929189,16.593411]]]},"properties":{"LOCATION_TYPE":"level1","ADM0_A3":"CPV","LOCATION_ID":"CPV-SL","NAME":"Sal","TYPE_EN":null}},
{"type":"Feature","geometry":{"type":"Polygon","coordinates":[[[-24.919749,16.895087],[-24.971262,16.923],[-25.089752,16.84748],[-24.995229,16.786119],[-24.875071,16.826158],[-24.919749,16.895087]]]},"properties":{"LOCATION_TYPE":"level1","ADM0_A3":"CPV","LOCATION_ID":"CPV-SV","NAME":"São Vicente","TYPE_EN":null}},
{"type":"Feature","geometry":{"type":"Polygon","coordinates":[[[-25.245351,17.136705],[-25.158314,17.085776],[-25.072976,17.11356],[-25.025868,17.144924],[-25.10261,17.196601],[-25.245351,17.136705]]]},"properties":{"LOCATION_TYPE":"level1","ADM0_A3":"CPV","LOCATION_ID":"CPV-RG","NAME":"Ribeira Grande","TYPE_EN":null}},
{"type":"Feature","geometry":{"type":"Polygon","coordinates":[[[-24.986682,17.078865],[-25.072976,17.11356],[-25.158314,17.085776],[-25.245351,17.136705],[-25.316803,17.106106],[-25.354848,17.038479],[-25.313873,17.00495],[-25.298695,16.917385],[-25.187856,16.928168],[-25.115875,16.997463],[-24.986682,17.078865]]]},"properties":{"LOCATION_TYPE":"level1","ADM0_A3":"CPV","LOCATION_ID":"CPV-PN","NAME":"Porto Novo","TYPE_EN":null}},
{"type":"Feature","geometry":{"type":"Polygon","coordinates":[[[-25.025868,17.144924],[-25.072976,17.11356],[-24.986682,17.078865],[-25.025868,17.144924]]]},"properties":{"LOCATION_TYPE":"level1","ADM0_A3":"CPV","LOCATION_ID":"CPV-PA","NAME":"Paul","TYPE_EN":null}},
{"type":"Feature","geometry":{"type":"Polygon","coordinates":[[[-23.618338,15.105778],[-23.629411,15.03934],[-23.612039,15.04092],[-23.579976,15.081557],[-23.618338,15.105778]]]},"properties":{"LOCATION_TYPE":"level1","ADM0_A3":"CPV","LOCATION_ID":"CPV-SS","NAME":"São Salvador do Mundo","TYPE_EN":null}},
{"type":"Feature","geometry":{"type":"Polygon","coordinates":[[[-23.612039,15.04092],[-23.596192,15.011658],[-23.526432,15.059272],[-23.579976,15.081557],[-23.612039,15.04092]]]},"properties":{"LOCATION_TYPE":"level1","ADM0_A3":"CPV","LOCATION_ID":"CPV-SO","NAME":"São Lourenço dos Órgãos","TYPE_EN":null}}
]}