{"type":"FeatureCollection", "features": [
{"type":"Feature","geometry":{"type":"Polygon","coordinates":[[[-84.15773,10.788425],[-84.20837,10.860966],[-84.310741,10.919412],[-84.355466,10.994627],[-84.417762,10.955043],[-84.676455,11.070411],[-84.884969,10.947679],[-84.9314,10.941891],[-85.236478,11.053097],[-85.437544,10.90688],[-85.30732,10.807713],[-85.282722,10.75955],[-85.179576,10.767508],[-85.016717,10.692733],[-84.974704,10.604108],[-84.793268,10.496621],[-84.763994,10.442154],[-84.786628,10.31534],[-84.74955,10.266712],[-84.683921,10.278753],[-84.649375,10.091219],[-84.593513,10.013239],[-84.674413,9.884358],[-84.57106,9.824517],[-84.461041,9.917276],[-84.327069,9.91154],[-84.199971,9.957222],[-84.177621,10.004351],[-84.165787,10.158398],[-84.15773,10.788425]]]},"properties":{"LOCATION_TYPE":"level1","ADM0_A3":"CRI","LOCATION_ID":"CRI-A","NAME":"Alajuela","TYPE_EN":"Province"}},
{"type":"Feature","geometry":{"type":"Polygon","coordinates":[[[-85.236478,11.053097],[-85.508626,11.152421],[-85.597794,11.209937],[-85.631151,11.196217],[-85.746002,11.020657],[-85.740997,10.939602],[-85.878163,10.946357],[-85.908803,10.88642],[-85.802968,10.852484],[-85.665273,10.778835],[-85.662872,10.678982],[-85.631744,10.621161],[-85.809234,10.494534],[-85.861602,10.346991],[-85.844024,10.231024],[-85.778554,10.079901],[-85.63858,9.905463],[-85.470367,9.850246],[-85.332428,9.826606],[-85.229295,9.724823],[-85.186449,9.781109],[-85.175726,9.853714],[-85.289931,9.94575],[-85.183374,9.978823],[-85.167398,10.019403],[-85.240102,10.116278],[-85.175567,10.165554],[-85.068566,10.155815],[-84.984213,10.156848],[-84.936851,10.117367],[-84.873806,10.179121],[-84.865822,10.304798],[-84.786628,10.31534],[-84.763994,10.442154],[-84.793268,10.496621],[-84.974704,10.604108],[-85.016717,10.692733],[-85.179576,10.767508],[-85.282722,10.75955],[-85.30732,10.807713],[-85.437544,10.90688],[-85.236478,11.053097]]]},"properties":{"LOCATION_TYPE":"level1","ADM0_A3":"CRI","LOCATION_ID":"CRI-G","NAME":"Guanacaste","TYPE_EN":"Province"}},
{"type":"Feature","geometry":{"type":"Polygon","coordinates":[[[-82.939521,9.070642],[-82.944286,9.437151],[-82.861294,9.484099],[-82.879252,9.559909],[-82.829022,9.602722],[-82.618854,9.486709],[-82.573598,9.576199],[-82.635894,9.634508],[-82.772328,9.661038],[-82.949778,9.86758],[-83.016672,9.963121],[-83.085317,10.002143],[-83.203725,10.12934],[-83.394521,10.376044],[-83.466176,10.494534],[-83.624257,10.902899],[-83.669855,10.891718],[-83.663028,10.807016],[-83.763818,10.773683],[-83.703697,10.689787],[-83.826997,10.639248],[-83.823431,10.484632],[-83.870276,10.412336],[-83.842913,10.33322],[-83.866477,10.248729],[-83.913555,10.198964],[-83.942726,10.136229],[-83.589052,9.977169],[-83.33899,9.973603],[-83.335915,9.821003],[-83.408753,9.732119],[-83.510918,9.566445],[-83.486862,9.467588],[-83.429398,9.353693],[-83.392372,9.32739],[-83.321136,9.36594],[-83.227705,9.317778],[-83.165667,9.316848],[-83.079626,9.236956],[-83.057483,9.163885],[-82.939521,9.070642]]]},"properties":{"LOCATION_TYPE":"level1","ADM0_A3":"CRI","LOCATION_ID":"CRI-L","NAME":"Limón","TYPE_EN":"Province"}},
{"type":"Feature","geometry":{"type":"MultiPolygon","coordinates":[[[[-82.939521,9.070642],[-83.057483,9.163885],[-83.079626,9.236956],[-83.165667,9.316848],[-83.227705,9.317778],[-83.321136,9.36594],[-83.392372,9.32739],[-83.429398,9.353693],[-83.499833,9.250082],[-83.471308,9.155927],[-83.514845,9.066062],[-83.656154,9.138616],[-83.733204,9.236439],[-83.82095,9.239075],[-83.908826,9.40201],[-84.010241,9.44144],[-84.0714,9.542777],[-84.12672,9.558383],[-84.156899,9.616261],[-84.397117,9.626493],[-84.428149,9.562207],[-84.526101,9.569287],[-84.591317,9.742868],[-84.57106,9.824517],[-84.674413,9.884358],[-84.593513,10.013239],[-84.649375,10.091219],[-84.683921,10.278753],[-84.74955,10.266712],[-84.786628,10.31534],[-84.865822,10.304798],[-84.873806,10.179121],[-84.936851,10.117367],[-84.984213,10.156848],[-85.068566,10.155815],[-84.850942,9.966946],[-84.762318,9.975653],[-84.634552,9.783393],[-84.678375,9.692572],[-84.616567,9.57807],[-84.521596,9.519314],[-84.457916,9.526028],[-84.272694,9.481594],[-84.18224,9.442206],[-84.103627,9.377265],[-83.91808,9.294745],[-83.786895,9.199246],[-83.629872,9.035346],[-83.587636,8.835354],[-83.642568,8.781887],[-83.630035,8.733669],[-83.739898,8.623806],[-83.575592,8.444973],[-83.462432,8.442694],[-83.346425,8.3876],[-83.276357,8.401557],[-83.286855,8.517157],[-83.404775,8.589016],[-83.48172,8.712592],[-83.383656,8.739814],[-83.319081,8.669582],[-83.240264,8.623806],[-83.123565,8.596462],[-83.143422,8.550238],[-83.099599,8.431342],[-83.150868,8.369289],[-83.053246,8.315101],[-82.953511,8.402098],[-82.870415,8.438117],[-82.835973,8.529765],[-82.849796,8.629862],[-82.924158,8.741199],[-82.866927,8.838066],[-82.719365,8.921524],[-82.74913,8.974079],[-82.939521,9.070642]]],[[[-85.167398,10.019403],[-85.183374,9.978823],[-85.289931,9.94575],[-85.175726,9.853714],[-85.186449,9.781109],[-85.229295,9.724823],[-85.145782,9.612616],[-85.089345,9.588568],[-85.062611,9.66531],[-84.959584,9.727362],[-84.864613,9.822943],[-84.959584,9.946479],[-85.014516,9.944973],[-85.167398,10.019403]]]]},"properties":{"LOCATION_TYPE":"level1","ADM0_A3":"CRI","LOCATION_ID":"CRI-P","NAME":"Puntarenas","TYPE_EN":"Province"}},
{"type":"Feature","geometry":{"type":"Polygon","coordinates":[[[-83.763818,10.773683],[-83.859528,10.721776],[-83.933322,10.718055],[-84.022696,10.787224],[-84.07644,10.763814],[-84.15773,10.788425],[-84.165787,10.158398],[-84.177621,10.004351],[-84.199971,9.957222],[-84.151318,9.945646],[-84.027992,9.982027],[-84.009414,10.034943],[-84.066414,10.153386],[-83.980786,10.162584],[-83.913555,10.198964],[-83.866477,10.248729],[-83.842913,10.33322],[-83.870276,10.412336],[-83.823431,10.484632],[-83.826997,10.639248],[-83.703697,10.689787],[-83.763818,10.773683]]]},"properties":{"LOCATION_TYPE":"level1","ADM0_A3":"CRI","LOCATION_ID":"CRI-H","NAME":"Heredia","TYPE_EN":"Province"}},
{"type":"Feature","geometry":{"type":"Polygon","coordinates":[[[-83.913555,10.198964],[-83.980786,10.162584],[-84.066414,10.153386],[-84.009414,10.034943],[-84.027992,9.982027],[-84.151318,9.945646],[-84.199971,9.957222],[-84.327069,9.91154],[-84.461041,9.917276],[-84.57106,9.824517],[-84.591317,9.742868],[-84.526101,9.569287],[-84.428149,9.562207],[-84.397117,9.626493],[-84.156899,9.616261],[-84.12672,9.558383],[-84.0714,9.542777],[-84.010241,9.44144],[-83.908826,9.40201],[-83.82095,9.239075],[-83.733204,9.236439],[-83.656154,9.138616],[-83.514845,9.066062],[-83.471308,9.155927],[-83.499833,9.250082],[-83.429398,9.353693],[-83.486862,9.467588],[-83.613211,9.5435],[-83.672277,9.545309],[-83.811881,9.598794],[-83.849062,9.658377],[-83.913451,9.672795],[-83.98815,9.767673],[-84.068842,9.788653],[-84.002619,9.86684],[-83.999958,9.930299],[-83.905235,9.945646],[-83.872394,10.026055],[-83.942726,10.136229],[-83.913555,10.198964]]]},"properties":{"LOCATION_TYPE":"level1","ADM0_A3":"CRI","LOCATION_ID":"CRI-SJ","NAME":"San José","TYPE_EN":"Province"}},
{"type":"Feature","geometry":{"type":"Polygon","coordinates":[[[-83.942726,10.136229],[-83.872394,10.026055],[-83.905235,9.945646],[-83.999958,9.930299],[-84.002619,9.86684],[-84.068842,9.788653],[-83.98815,9.767673],[-83.913451,9.672795],[-83.849062,9.658377],[-83.811881,9.598794],[-83.672277,9.545309],[-83.613211,9.5435],[-83.486862,9.467588],[-83.510918,9.566445],[-83.408753,9.732119],[-83.335915,9.821003],[-83.33899,9.973603],[-83.589052,9.977169],[-83.942726,10.136229]]]},"properties":{"LOCATION_TYPE":"level1","ADM0_A3":"CRI","LOCATION_ID":"CRI-C","NAME":"Cartago","TYPE_EN":"Province"}}
]}