{"type":"FeatureCollection", "features": [
{"type":"Feature","geometry":{"type":"MultiPolygon","coordinates":[[[[155.797944,-21.27337],[155.801036,-21.272312],[155.799083,-21.270603],[155.797944,-21.27337]]],[[[149.999848,-16.93613],[149.996267,-16.9367],[149.999522,-16.939467],[149.999848,-16.93613]]],[[[150.009044,-16.134373],[150.003998,-16.135105],[150.000987,-16.134373],[149.999848,-16.135675],[150.007335,-16.136733],[150.009044,-16.134373]]]]},"properties":{"LOCATION_TYPE":"level1","ADM0_A3":"CSI","LOCATION_ID":"CSI-99","NAME":"Coral Sea Islands","TYPE_EN":null}}
]}