{"type":"FeatureCollection", "features": [
{"type":"Feature","geometry":{"type":"Polygon","coordinates":[[[-75.38208,19.882544],[-75.232859,19.900051],[-75.112791,20.057485],[-75.095006,19.897226],[-74.977868,19.923035],[-74.947334,19.975949],[-74.887807,19.984076],[-74.812978,20.037258],[-74.713124,20.051801],[-74.580477,20.047642],[-74.392974,20.081041],[-74.267405,20.068305],[-74.230295,20.130316],[-74.141957,20.182603],[-74.139638,20.242336],[-74.213612,20.310981],[-74.310414,20.293931],[-74.401112,20.307278],[-74.494985,20.35517],[-74.605214,20.485745],[-74.715168,20.556063],[-74.779642,20.516164],[-74.783156,20.444773],[-74.844987,20.408186],[-74.968778,20.472058],[-75.048256,20.433714],[-75.104971,20.484176],[-75.189694,20.471696],[-75.240492,20.396791],[-75.330719,20.437978],[-75.375471,20.422862],[-75.479134,20.340025],[-75.480452,20.238171],[-75.433271,20.094665],[-75.488281,20.024618],[-75.38208,19.882544]]]},"properties":{"LOCATION_TYPE":"level1","ADM0_A3":"CUB","LOCATION_ID":"CUB-14","NAME":"Guantánamo","TYPE_EN":"Province"}},
{"type":"Feature","geometry":{"type":"MultiPolygon","coordinates":[[[[-77.634185,22.054267],[-77.808502,22.099555],[-77.947133,22.072821],[-77.901845,22.015204],[-77.695058,21.948065],[-77.648671,21.971137],[-77.634185,22.054267]]],[[[-77.997304,22.147366],[-77.912831,22.143215],[-77.894846,22.220852],[-77.978627,22.233222],[-78.045725,22.198879],[-77.997304,22.147366]]],[[[-78.196523,22.329169],[-78.100331,22.301907],[-78.075551,22.354071],[-78.144195,22.428941],[-78.243723,22.42475],[-78.244211,22.359117],[-78.196523,22.329169]]],[[[-78.08182,22.082791],[-78.075255,22.037699],[-78.171295,21.969512],[-78.240361,21.954681],[-78.245839,21.90812],[-78.176153,21.849778],[-78.183207,21.769214],[-78.333766,21.784614],[-78.324852,21.729785],[-78.37844,21.669272],[-78.641633,21.533877],[-78.563303,21.38345],[-78.538197,21.231635],[-78.504384,21.147121],[-78.49474,21.047919],[-78.40392,20.957953],[-78.272043,20.901109],[-78.132069,20.757392],[-78.065541,20.711656],[-77.942047,20.697984],[-77.83113,20.725558],[-77.817725,20.807309],[-77.76579,20.876194],[-77.658097,20.896864],[-77.587352,20.937792],[-77.467902,21.053676],[-77.29184,20.995024],[-77.248949,21.078352],[-77.186988,21.099048],[-77.131126,21.173514],[-77.129705,21.256687],[-77.073249,21.305522],[-77.131591,21.339111],[-77.100482,21.416471],[-77.039556,21.409805],[-76.944814,21.45775],[-77.069936,21.595771],[-77.107249,21.602973],[-77.153066,21.495266],[-77.258046,21.476386],[-77.277577,21.518459],[-77.249745,21.609768],[-77.154408,21.554592],[-77.141713,21.645575],[-77.330068,21.766343],[-77.401357,21.790473],[-77.507558,21.862454],[-77.571645,21.930813],[-77.605824,21.901272],[-77.518544,21.811835],[-77.664662,21.781155],[-77.760894,21.8133],[-77.842152,21.89997],[-77.895009,21.876939],[-78.08182,22.082791]]]]},"properties":{"LOCATION_TYPE":"level1","ADM0_A3":"CUB","LOCATION_ID":"CUB-09","NAME":"Camagüey","TYPE_EN":"Province"}},
{"type":"Feature","geometry":{"type":"MultiPolygon","coordinates":[[[[-78.426178,22.462592],[-78.429921,22.418606],[-78.282216,22.457465],[-78.419057,22.561957],[-78.46642,22.529853],[-78.572581,22.530463],[-78.638417,22.492011],[-78.518056,22.452094],[-78.426178,22.462592]]],[[[-78.927195,22.398749],[-78.97504,22.275462],[-79.034731,22.176462],[-79.046378,22.096388],[-78.964849,22.043977],[-78.960481,22.003212],[-79.028908,21.946432],[-79.122084,21.749888],[-79.108981,21.665447],[-78.970673,21.690197],[-78.95995,21.599555],[-78.76651,21.639716],[-78.733998,21.564358],[-78.641633,21.533877],[-78.37844,21.669272],[-78.324852,21.729785],[-78.333766,21.784614],[-78.183207,21.769214],[-78.176153,21.849778],[-78.245839,21.90812],[-78.240361,21.954681],[-78.171295,21.969512],[-78.075255,22.037699],[-78.08182,22.082791],[-78.163645,22.13935],[-78.301422,22.163804],[-78.3815,22.246649],[-78.483957,22.260321],[-78.566884,22.321031],[-78.676137,22.357001],[-78.757639,22.322333],[-78.78185,22.390611],[-78.927195,22.398749]]]]},"properties":{"LOCATION_TYPE":"level1","ADM0_A3":"CUB","LOCATION_ID":"CUB-08","NAME":"Ciego de Ávila","TYPE_EN":"Province"}},
{"type":"Feature","geometry":{"type":"Polygon","coordinates":[[[-76.313547,21.251899],[-76.343913,21.127496],[-76.502457,21.024195],[-76.517236,20.981278],[-76.687303,20.936138],[-76.686347,20.865497],[-76.721901,20.722301],[-76.564417,20.641893],[-76.253092,20.513632],[-76.17966,20.43759],[-76.090544,20.420563],[-76.094549,20.499395],[-76.043441,20.529574],[-75.969828,20.502961],[-75.824669,20.407618],[-75.752399,20.439037],[-75.658813,20.441492],[-75.511639,20.550865],[-75.467223,20.532985],[-75.375471,20.422862],[-75.330719,20.437978],[-75.240492,20.396791],[-75.189694,20.471696],[-75.104971,20.484176],[-75.048256,20.433714],[-74.968778,20.472058],[-74.844987,20.408186],[-74.783156,20.444773],[-74.779642,20.516164],[-74.715168,20.556063],[-74.75121,20.619574],[-74.850901,20.634589],[-74.998362,20.700751],[-75.149078,20.683092],[-75.194325,20.715644],[-75.294301,20.723131],[-75.359364,20.677558],[-75.394154,20.738959],[-75.497792,20.693427],[-75.61262,20.718492],[-75.643178,20.760728],[-75.708852,20.690579],[-75.783925,20.746405],[-75.770253,20.835842],[-75.704742,20.828681],[-75.681549,20.890448],[-75.626332,20.923977],[-75.578481,21.013373],[-75.635894,21.076361],[-75.732289,21.123277],[-75.821767,21.136868],[-75.873362,21.102118],[-76.11677,21.091498],[-76.137807,21.167222],[-76.313547,21.251899]]]},"properties":{"LOCATION_TYPE":"level1","ADM0_A3":"CUB","LOCATION_ID":"CUB-11","NAME":"Holguín","TYPE_EN":"Province"}},
{"type":"Feature","geometry":{"type":"Polygon","coordinates":[[[-82.568023,21.636542],[-82.616444,21.664455],[-82.592356,21.729071],[-82.692535,21.824042],[-82.690175,21.881822],[-82.858998,21.933661],[-82.989491,21.948432],[-83.075185,21.843166],[-83.073476,21.760565],[-82.969228,21.591254],[-83.023915,21.548407],[-83.171376,21.568264],[-83.078521,21.469224],[-82.906239,21.437486],[-82.835561,21.444729],[-82.594635,21.541815],[-82.540761,21.595526],[-82.568023,21.636542]]]},"properties":{"LOCATION_TYPE":"level1","ADM0_A3":"CUB","LOCATION_ID":"CUB-99","NAME":"Isla de la Juventud","TYPE_EN":"Special Municipality"}},
{"type":"Feature","geometry":{"type":"Polygon","coordinates":[[[-79.416737,22.47248],[-79.435378,22.416461],[-79.353471,22.296831],[-79.361119,22.231201],[-79.433828,22.248487],[-79.541961,22.15069],[-79.639733,22.172652],[-79.772877,22.149294],[-79.729779,22.062375],[-79.790706,21.981785],[-79.904962,22.010233],[-80.02405,21.938506],[-80.097715,21.871482],[-80.101027,21.824765],[-80.055328,21.803697],[-80.003245,21.720893],[-79.895375,21.759996],[-79.895375,21.698554],[-79.815785,21.711249],[-79.639272,21.68773],[-79.621653,21.65762],[-79.450307,21.595526],[-79.364654,21.59927],[-79.24942,21.551947],[-79.16926,21.551703],[-79.075551,21.586086],[-78.95995,21.599555],[-78.970673,21.690197],[-79.108981,21.665447],[-79.122084,21.749888],[-79.028908,21.946432],[-78.960481,22.003212],[-78.964849,22.043977],[-79.046378,22.096388],[-79.034731,22.176462],[-78.97504,22.275462],[-78.927195,22.398749],[-78.982493,22.404608],[-79.148671,22.377631],[-79.341786,22.413153],[-79.416737,22.47248]]]},"properties":{"LOCATION_TYPE":"level1","ADM0_A3":"CUB","LOCATION_ID":"CUB-07","NAME":"Sancti Spíritus","TYPE_EN":"Province"}},
{"type":"Feature","geometry":{"type":"Polygon","coordinates":[[[-80.593096,23.068032],[-80.618019,22.987305],[-80.729382,22.966402],[-80.746849,22.877648],[-80.667474,22.795973],[-80.584921,22.813647],[-80.552985,22.748224],[-80.562648,22.635156],[-80.519679,22.542009],[-80.459424,22.584642],[-80.318012,22.536041],[-80.220808,22.427804],[-80.232952,22.370314],[-80.084073,22.245619],[-80.09986,22.123404],[-80.02405,21.938506],[-79.904962,22.010233],[-79.790706,21.981785],[-79.729779,22.062375],[-79.772877,22.149294],[-79.639733,22.172652],[-79.541961,22.15069],[-79.433828,22.248487],[-79.361119,22.231201],[-79.353471,22.296831],[-79.435378,22.416461],[-79.416737,22.47248],[-79.456532,22.528469],[-79.51183,22.534613],[-79.627024,22.657497],[-79.651723,22.758775],[-79.700185,22.746894],[-79.830719,22.80565],[-79.895741,22.85517],[-79.987864,22.884101],[-80.024566,22.946682],[-80.156077,22.938707],[-80.279612,22.912014],[-80.431508,22.949937],[-80.556793,23.007392],[-80.593096,23.068032]]]},"properties":{"LOCATION_TYPE":"level1","ADM0_A3":"CUB","LOCATION_ID":"CUB-05","NAME":"Villa Clara","TYPE_EN":"Province"}},
{"type":"Feature","geometry":{"type":"Polygon","coordinates":[[[-81.683914,23.156928],[-81.680564,23.06451],[-81.747175,22.98684],[-81.680668,22.930668],[-81.695499,22.850647],[-81.650902,22.801658],[-81.652116,22.73993],[-81.598089,22.704971],[-81.609096,22.625105],[-81.650715,22.575074],[-81.651563,22.487827],[-81.683502,22.463595],[-81.841138,22.430757],[-82.118737,22.431828],[-82.163971,22.396877],[-82.088246,22.342231],[-81.879709,22.260403],[-81.824452,22.18891],[-81.651479,22.212958],[-81.512807,22.201972],[-81.396108,22.170722],[-81.374094,22.104153],[-81.291331,22.097561],[-81.197581,22.21247],[-81.103668,22.095893],[-80.992096,22.054267],[-80.905263,22.046129],[-80.761098,22.061103],[-80.593366,22.05423],[-80.618174,22.121286],[-80.74119,22.116945],[-80.83227,22.157537],[-80.930946,22.269106],[-80.940739,22.360134],[-80.888985,22.453798],[-80.837102,22.482039],[-80.623704,22.459534],[-80.519679,22.542009],[-80.562648,22.635156],[-80.552985,22.748224],[-80.584921,22.813647],[-80.667474,22.795973],[-80.746849,22.877648],[-80.729382,22.966402],[-80.618019,22.987305],[-80.593096,23.068032],[-80.622222,23.089545],[-80.759348,23.096991],[-80.959381,23.059027],[-80.985707,23.10224],[-81.078114,23.103827],[-81.120717,23.038967],[-81.184885,23.052069],[-81.272206,23.141995],[-81.480702,23.100328],[-81.581166,23.157782],[-81.683914,23.156928]]]},"properties":{"LOCATION_TYPE":"level1","ADM0_A3":"CUB","LOCATION_ID":"CUB-04","NAME":"Matanzas","TYPE_EN":"Province"}},
{"type":"Feature","geometry":{"type":"Polygon","coordinates":[[[-76.944814,21.45775],[-77.039556,21.409805],[-77.100482,21.416471],[-77.131591,21.339111],[-77.073249,21.305522],[-77.129705,21.256687],[-77.131126,21.173514],[-77.186988,21.099048],[-77.248949,21.078352],[-77.29184,20.995024],[-77.467902,21.053676],[-77.587352,20.937792],[-77.658097,20.896864],[-77.76579,20.876194],[-77.817725,20.807309],[-77.83113,20.725558],[-77.778432,20.700751],[-77.572743,20.697984],[-77.493398,20.677476],[-77.33668,20.716339],[-77.232205,20.78421],[-77.038057,20.738993],[-76.970955,20.753566],[-76.836106,20.743334],[-76.793447,20.695275],[-76.721901,20.722301],[-76.686347,20.865497],[-76.687303,20.936138],[-76.517236,20.981278],[-76.502457,21.024195],[-76.343913,21.127496],[-76.313547,21.251899],[-76.387563,21.284329],[-76.57079,21.282416],[-76.653554,21.294135],[-76.656077,21.349555],[-76.805572,21.390082],[-76.944814,21.45775]]]},"properties":{"LOCATION_TYPE":"level1","ADM0_A3":"CUB","LOCATION_ID":"CUB-10","NAME":"Las Tunas","TYPE_EN":"Province"}},
{"type":"Feature","geometry":{"type":"Polygon","coordinates":[[[-82.100088,23.187649],[-82.209266,23.086111],[-82.202135,23.02813],[-82.249832,22.972577],[-82.35582,22.976686],[-82.435919,22.957281],[-82.457804,22.802095],[-82.391584,22.68842],[-82.198855,22.685774],[-82.098793,22.654921],[-81.877501,22.67973],[-81.753386,22.638037],[-81.650715,22.575074],[-81.609096,22.625105],[-81.598089,22.704971],[-81.652116,22.73993],[-81.650902,22.801658],[-81.695499,22.850647],[-81.680668,22.930668],[-81.747175,22.98684],[-81.680564,23.06451],[-81.683914,23.156928],[-81.862375,23.151028],[-82.100088,23.187649]]]},"properties":{"LOCATION_TYPE":"level1","ADM0_A3":"CUB","LOCATION_ID":"CUB-16","NAME":"Mayabeque","TYPE_EN":"Province"}},
{"type":"Feature","geometry":{"type":"Polygon","coordinates":[[[-82.538736,23.073564],[-82.435919,22.957281],[-82.35582,22.976686],[-82.249832,22.972577],[-82.202135,23.02813],[-82.209266,23.086111],[-82.100088,23.187649],[-82.21935,23.194241],[-82.40689,23.147447],[-82.538736,23.073564]]]},"properties":{"LOCATION_TYPE":"level1","ADM0_A3":"CUB","LOCATION_ID":"CUB-03","NAME":"Ciudad de la Habana","TYPE_EN":"Province"}},
{"type":"Feature","geometry":{"type":"Polygon","coordinates":[[[-82.944424,22.985083],[-82.915941,22.84057],[-82.971907,22.81083],[-82.824602,22.610579],[-82.78067,22.696112],[-82.632945,22.680185],[-82.391584,22.68842],[-82.457804,22.802095],[-82.435919,22.957281],[-82.538736,23.073564],[-82.712717,23.034898],[-82.917592,23.032457],[-82.944424,22.985083]]]},"properties":{"LOCATION_TYPE":"level1","ADM0_A3":"CUB","LOCATION_ID":"CUB-15","NAME":"Artemisa","TYPE_EN":"Province"}},
{"type":"Feature","geometry":{"type":"Polygon","coordinates":[[[-82.824602,22.610579],[-82.971907,22.81083],[-82.915941,22.84057],[-82.944424,22.985083],[-83.061147,23.019599],[-83.160512,22.979967],[-83.207631,23.002672],[-83.329661,22.951077],[-83.369374,22.893988],[-83.437571,22.903469],[-83.541331,22.873847],[-83.558013,22.836249],[-83.872792,22.7508],[-84.021108,22.678656],[-84.152984,22.582017],[-84.230295,22.503607],[-84.291819,22.486274],[-84.391021,22.352769],[-84.42927,22.201728],[-84.335805,22.130561],[-84.322133,22.048041],[-84.462636,22.02204],[-84.521352,22.048041],[-84.583323,22.007514],[-84.741078,21.951809],[-84.947255,21.860338],[-84.883412,21.823554],[-84.799713,21.832099],[-84.659983,21.912055],[-84.536041,21.940172],[-84.473541,21.904608],[-84.521352,21.786566],[-84.466176,21.770453],[-84.305165,21.884508],[-84.142161,21.940334],[-84.041615,21.91767],[-83.993031,21.951361],[-84.00178,22.057563],[-83.925445,22.171536],[-83.775461,22.170722],[-83.614369,22.195746],[-83.568593,22.246649],[-83.516957,22.188218],[-83.415472,22.186093],[-83.349233,22.232164],[-83.287424,22.318671],[-83.16686,22.339545],[-83.08609,22.462795],[-82.824602,22.610579]]]},"properties":{"LOCATION_TYPE":"level1","ADM0_A3":"CUB","LOCATION_ID":"CUB-01","NAME":"Pinar del Río","TYPE_EN":"Province"}},
{"type":"Feature","geometry":{"type":"Polygon","coordinates":[[[-80.101027,21.824765],[-80.097715,21.871482],[-80.02405,21.938506],[-80.09986,22.123404],[-80.084073,22.245619],[-80.232952,22.370314],[-80.220808,22.427804],[-80.318012,22.536041],[-80.459424,22.584642],[-80.519679,22.542009],[-80.623704,22.459534],[-80.837102,22.482039],[-80.888985,22.453798],[-80.940739,22.360134],[-80.930946,22.269106],[-80.83227,22.157537],[-80.74119,22.116945],[-80.618174,22.121286],[-80.593366,22.05423],[-80.513743,22.056342],[-80.470855,22.089097],[-80.538238,22.164455],[-80.484446,22.192043],[-80.396148,22.101386],[-80.437245,22.041205],[-80.269928,21.88703],[-80.101027,21.824765]]]},"properties":{"LOCATION_TYPE":"level1","ADM0_A3":"CUB","LOCATION_ID":"CUB-06","NAME":"Cienfuegos","TYPE_EN":"Province"}},
{"type":"Feature","geometry":{"type":"Polygon","coordinates":[[[-77.034644,19.887765],[-77.039116,19.94147],[-76.968604,19.952968],[-76.930699,20.001105],[-76.762751,20.011337],[-76.562479,20.003766],[-76.44737,20.061101],[-76.408276,20.105285],[-76.419645,20.231065],[-76.389104,20.258686],[-76.369467,20.356639],[-76.293348,20.37054],[-76.17966,20.43759],[-76.253092,20.513632],[-76.564417,20.641893],[-76.721901,20.722301],[-76.793447,20.695275],[-76.836106,20.743334],[-76.970955,20.753566],[-77.038057,20.738993],[-77.232205,20.78421],[-77.33668,20.716339],[-77.278188,20.662055],[-77.195424,20.636542],[-77.239898,20.563056],[-77.113433,20.512437],[-77.082428,20.465277],[-77.113433,20.368476],[-77.181752,20.294867],[-77.401357,20.198065],[-77.620432,20.020331],[-77.737213,19.855699],[-77.673248,19.828925],[-77.61148,19.844631],[-77.35851,19.864488],[-77.324086,19.900295],[-77.188954,19.912584],[-77.034644,19.887765]]]},"properties":{"LOCATION_TYPE":"level1","ADM0_A3":"CUB","LOCATION_ID":"CUB-12","NAME":"Granma","TYPE_EN":"Province"}},
{"type":"Feature","geometry":{"type":"Polygon","coordinates":[[[-75.38208,19.882544],[-75.488281,20.024618],[-75.433271,20.094665],[-75.480452,20.238171],[-75.479134,20.340025],[-75.375471,20.422862],[-75.467223,20.532985],[-75.511639,20.550865],[-75.658813,20.441492],[-75.752399,20.439037],[-75.824669,20.407618],[-75.969828,20.502961],[-76.043441,20.529574],[-76.094549,20.499395],[-76.090544,20.420563],[-76.17966,20.43759],[-76.293348,20.37054],[-76.369467,20.356639],[-76.389104,20.258686],[-76.419645,20.231065],[-76.408276,20.105285],[-76.44737,20.061101],[-76.562479,20.003766],[-76.762751,20.011337],[-76.930699,20.001105],[-76.968604,19.952968],[-77.039116,19.94147],[-77.034644,19.887765],[-76.958892,19.891059],[-76.866444,19.93769],[-76.651601,19.951117],[-76.524403,19.943915],[-76.248158,19.990627],[-76.11205,19.982489],[-75.980092,19.952379],[-75.893788,19.971829],[-75.721832,19.957506],[-75.604726,19.892035],[-75.38208,19.882544]]]},"properties":{"LOCATION_TYPE":"level1","ADM0_A3":"CUB","LOCATION_ID":"CUB-13","NAME":"Santiago de Cuba","TYPE_EN":"Province"}}
]}