{"type":"FeatureCollection", "features": [
{"type":"Feature","geometry":{"type":"Polygon","coordinates":[[[34.012289,35.063795],[33.899913,35.164455],[33.971365,35.321275],[34.05893,35.324123],[34.137706,35.415107],[34.572765,35.643541],[34.578461,35.689765],[34.319672,35.586168],[34.181651,35.554185],[34.035622,35.471383],[33.66033,35.35932],[33.427501,35.328925],[32.920421,35.397773],[32.929373,35.232978],[32.854924,35.079152],[33.190253,35.189946],[33.315258,35.161886],[33.400317,35.197749],[33.476799,35.057396],[33.766135,35.03161],[33.876929,35.076826],[34.012289,35.063795]]]},"properties":{"LOCATION_TYPE":"level1","ADM0_A3":"CYN","LOCATION_ID":"CYN-99","NAME":"Northern Cyprus","TYPE_EN":null}}
]}