{"type":"FeatureCollection", "features": [
{"type":"Feature","geometry":{"type":"Polygon","coordinates":[[[33.272553,34.707343],[33.605642,34.821763],[33.654063,34.944729],[33.701508,34.972886],[33.679435,35.033899],[33.49089,35.049616],[33.496126,34.964843],[33.416183,34.965825],[33.396184,34.927687],[33.319703,34.932442],[33.263996,34.892625],[33.180487,34.910634],[33.130671,34.879732],[33.210459,34.837874],[33.272212,34.773149],[33.272553,34.707343]]]},"properties":{"LOCATION_TYPE":"level1","ADM0_A3":"CYP","LOCATION_ID":"CYP-03","NAME":"Larnaca","TYPE_EN":"District"}},
{"type":"Feature","geometry":{"type":"Polygon","coordinates":[[[33.896268,34.961988],[34.011567,34.987616],[34.051036,35.033026],[34.008911,35.059722],[33.880133,35.073054],[33.799001,35.038534],[33.829387,35.001172],[33.896268,34.961988]]]},"properties":{"LOCATION_TYPE":"level1","ADM0_A3":"CYP","LOCATION_ID":"CYP-04","NAME":"Famagusta","TYPE_EN":"District"}},
{"type":"Feature","geometry":{"type":"Polygon","coordinates":[[[33.49089,35.049616],[33.476799,35.09481],[33.400317,35.197749],[33.315258,35.161886],[33.190253,35.189946],[33.09584,35.169741],[32.854924,35.079152],[32.794773,35.126798],[32.731521,35.143179],[32.711388,35.181632],[32.566498,35.172716],[32.629771,35.105868],[32.608067,35.062098],[32.672921,34.981638],[32.661139,34.91296],[32.688424,34.889835],[32.767437,34.902521],[32.805161,34.954353],[32.87172,34.934147],[32.982824,34.95598],[33.05636,34.890429],[33.130671,34.879732],[33.180487,34.910634],[33.263996,34.892625],[33.319703,34.932442],[33.396184,34.927687],[33.416183,34.965825],[33.496126,34.964843],[33.49089,35.049616]]]},"properties":{"LOCATION_TYPE":"level1","ADM0_A3":"CYP","LOCATION_ID":"CYP-01","NAME":"Nicosia","TYPE_EN":"District"}},
{"type":"Feature","geometry":{"type":"Polygon","coordinates":[[[32.641706,34.660886],[32.760671,34.653225],[32.832294,34.700948],[32.884504,34.666607],[32.954712,34.677316],[33.02589,34.651313],[33.101899,34.698228],[33.272553,34.707343],[33.272212,34.773149],[33.210459,34.837874],[33.130671,34.879732],[33.05636,34.890429],[32.982824,34.95598],[32.87172,34.934147],[32.805161,34.954353],[32.767437,34.902521],[32.783095,34.876218],[32.704908,34.78873],[32.705839,34.741446],[32.637419,34.694239],[32.641706,34.660886]]]},"properties":{"LOCATION_TYPE":"level1","ADM0_A3":"CYP","LOCATION_ID":"CYP-02","NAME":"Limassol","TYPE_EN":"District"}},
{"type":"Feature","geometry":{"type":"Polygon","coordinates":[[[32.641706,34.660886],[32.637419,34.694239],[32.705839,34.741446],[32.704908,34.78873],[32.783095,34.876218],[32.767437,34.902521],[32.688424,34.889835],[32.661139,34.91296],[32.672921,34.981638],[32.608067,35.062098],[32.629771,35.105868],[32.566498,35.172716],[32.527599,35.15705],[32.449962,35.058824],[32.372325,35.04149],[32.286632,35.097154],[32.276134,35.047756],[32.305919,35.00141],[32.329438,34.88642],[32.379161,34.849066],[32.413341,34.753485],[32.493337,34.707261],[32.641706,34.660886]]]},"properties":{"LOCATION_TYPE":"level1","ADM0_A3":"CYP","LOCATION_ID":"CYP-05","NAME":"Paphos","TYPE_EN":"District"}}
]}