{"type":"FeatureCollection", "features": [
{"type":"Feature","geometry":{"type":"Polygon","coordinates":[[[14.608338,50.853073],[14.550357,50.912087],[14.574335,50.975494],[14.493513,51.016706],[14.287531,51.036834],[14.250013,50.977613],[14.381892,50.920872],[14.346545,50.880203],[14.232133,50.879376],[14.034936,50.802585],[13.892516,50.780416],[13.834535,50.723675],[13.601939,50.712151],[13.447944,50.597274],[13.380971,50.62549],[13.232349,50.58203],[13.160106,50.497022],[13.009624,50.492681],[12.960631,50.409234],[13.224763,50.326751],[13.231575,50.218283],[13.289934,50.108475],[13.405686,50.087183],[13.529502,50.168724],[13.662503,50.217514],[13.847161,50.243497],[13.996443,50.329486],[14.237571,50.325202],[14.349126,50.349284],[14.475271,50.494391],[14.39628,50.554827],[14.34003,50.667327],[14.461385,50.821224],[14.513592,50.786968],[14.608338,50.853073]]]},"properties":{"LOCATION_TYPE":"level1","ADM0_A3":"CZE","LOCATION_ID":"CZE-US","NAME":"Ústecký","TYPE_EN":"Region"}},
{"type":"Feature","geometry":{"type":"Polygon","coordinates":[[[14.608338,50.853073],[14.513592,50.786968],[14.461385,50.821224],[14.34003,50.667327],[14.39628,50.554827],[14.475271,50.494391],[14.588562,50.473309],[14.704314,50.488426],[14.826306,50.53759],[14.909319,50.601882],[15.07596,50.576657],[15.130891,50.514595],[15.279536,50.514694],[15.393377,50.471155],[15.45378,50.517331],[15.605787,50.492908],[15.56951,50.710866],[15.522128,50.782361],[15.349688,50.783723],[15.227111,50.977406],[14.996531,51.007844],[14.982062,50.859067],[14.810393,50.858447],[14.775356,50.812972],[14.608338,50.853073]]]},"properties":{"LOCATION_TYPE":"level1","ADM0_A3":"CZE","LOCATION_ID":"CZE-LI","NAME":"Liberecký","TYPE_EN":"Region"}},
{"type":"Feature","geometry":{"type":"Polygon","coordinates":[[[12.960631,50.409234],[12.825759,50.441418],[12.678792,50.393721],[12.510223,50.38876],[12.336487,50.258587],[12.10725,50.290885],[12.079552,50.242722],[12.182698,50.170737],[12.179184,50.117976],[12.24688,50.044957],[12.468158,49.970233],[12.524072,49.904965],[12.692256,49.917609],[12.729082,49.942757],[12.929473,49.932232],[12.952215,49.982604],[13.081436,50.035152],[13.223313,50.005335],[13.289934,50.108475],[13.231575,50.218283],[13.224763,50.326751],[12.960631,50.409234]]]},"properties":{"LOCATION_TYPE":"level1","ADM0_A3":"CZE","LOCATION_ID":"CZE-KA","NAME":"Karlovarský","TYPE_EN":"Region"}},
{"type":"Feature","geometry":{"type":"Polygon","coordinates":[[[12.524072,49.904965],[12.452655,49.779702],[12.383616,49.742856],[12.496374,49.669993],[12.496891,49.633871],[12.622981,49.509847],[12.643548,49.42949],[12.797751,49.327843],[12.922911,49.332701],[12.999806,49.294925],[13.178503,49.118347],[13.299529,49.093645],[13.384175,48.993031],[13.522395,48.969342],[13.595288,49.058434],[13.608977,49.124891],[13.685157,49.177779],[13.705349,49.263692],[13.781836,49.343606],[13.755579,49.489494],[13.763643,49.536153],[13.689024,49.682194],[13.782144,49.757077],[13.812071,49.92419],[13.63563,49.997491],[13.563494,49.999644],[13.405686,50.087183],[13.289934,50.108475],[13.223313,50.005335],[13.081436,50.035152],[12.952215,49.982604],[12.929473,49.932232],[12.729082,49.942757],[12.692256,49.917609],[12.524072,49.904965]]]},"properties":{"LOCATION_TYPE":"level1","ADM0_A3":"CZE","LOCATION_ID":"CZE-PL","NAME":"Plzeňský","TYPE_EN":"Region"}},
{"type":"Feature","geometry":{"type":"Polygon","coordinates":[[[13.522395,48.969342],[13.654443,48.882237],[13.724671,48.867303],[13.796191,48.779814],[13.98233,48.706485],[14.006204,48.639513],[14.07483,48.591712],[14.315746,48.557916],[14.443593,48.636516],[14.695671,48.589542],[14.703836,48.673103],[14.800367,48.776507],[14.919327,48.761573],[14.968213,48.885028],[14.982062,49.007914],[15.262872,48.982593],[15.471851,48.936704],[15.544187,48.902612],[15.574695,48.966215],[15.497088,49.007765],[15.552173,49.077704],[15.542703,49.129208],[15.401529,49.125121],[15.331722,49.204596],[15.206346,49.232425],[15.163433,49.209683],[15.029685,49.282742],[14.920591,49.300287],[14.885171,49.375511],[14.889522,49.499469],[14.922788,49.544316],[14.770716,49.613365],[14.732264,49.559202],[14.634178,49.519618],[14.284439,49.547941],[14.130806,49.527704],[14.01211,49.535691],[13.916968,49.492691],[13.755579,49.489494],[13.781836,49.343606],[13.705349,49.263692],[13.685157,49.177779],[13.608977,49.124891],[13.595288,49.058434],[13.522395,48.969342]]]},"properties":{"LOCATION_TYPE":"level1","ADM0_A3":"CZE","LOCATION_ID":"CZE-JC","NAME":"Jihočeský","TYPE_EN":"Region"}},
{"type":"Feature","geometry":{"type":"Polygon","coordinates":[[[15.522128,50.782361],[15.56951,50.710866],[15.605787,50.492908],[15.45378,50.517331],[15.393377,50.471155],[15.279536,50.514694],[15.130891,50.514595],[15.122828,50.343132],[15.203203,50.289496],[15.346751,50.278587],[15.4099,50.103179],[15.533628,50.126997],[15.717386,50.112517],[15.791192,50.160242],[15.976993,50.152464],[16.001272,50.104827],[16.188787,50.022331],[16.308186,50.038799],[16.454546,50.108826],[16.584238,50.127432],[16.535042,50.207738],[16.334227,50.371862],[16.2625,50.36442],[16.190153,50.424158],[16.303428,50.49604],[16.382596,50.514179],[16.416806,50.586629],[16.331644,50.644042],[16.219092,50.659131],[16.086491,50.64678],[15.971459,50.678613],[15.848159,50.675151],[15.76744,50.744191],[15.684345,50.731426],[15.522128,50.782361]]]},"properties":{"LOCATION_TYPE":"level1","ADM0_A3":"CZE","LOCATION_ID":"CZE-KR","NAME":"Královéhradecký","TYPE_EN":"Region"}},
{"type":"Feature","geometry":{"type":"Polygon","coordinates":[[[17.388013,50.272643],[17.185442,50.375686],[16.915794,50.431083],[16.960339,50.231974],[16.869762,50.189729],[16.8049,50.031548],[16.726831,49.993283],[16.733072,49.828642],[16.83375,49.711648],[16.78919,49.607937],[16.789102,49.413523],[16.897515,49.416709],[16.959039,49.475882],[17.035086,49.364964],[17.11823,49.328116],[17.148361,49.27233],[17.272566,49.300716],[17.332574,49.34888],[17.459532,49.365282],[17.627293,49.439956],[17.759371,49.437023],[17.828475,49.510917],[17.90628,49.527331],[17.76438,49.616924],[17.62314,49.734346],[17.424903,49.737367],[17.133501,49.849988],[17.170811,49.930452],[17.143697,49.980286],[17.203221,50.034075],[17.235059,50.139423],[17.403787,50.213581],[17.388013,50.272643]]]},"properties":{"LOCATION_TYPE":"level1","ADM0_A3":"CZE","LOCATION_ID":"CZE-OL","NAME":"Olomoucký","TYPE_EN":"Region"}},
{"type":"Feature","geometry":{"type":"Polygon","coordinates":[[[16.584238,50.127432],[16.454546,50.108826],[16.308186,50.038799],[16.188787,50.022331],[16.001272,50.104827],[15.976993,50.152464],[15.791192,50.160242],[15.717386,50.112517],[15.533628,50.126997],[15.4099,50.103179],[15.35899,50.017464],[15.506119,49.950524],[15.484981,49.875564],[15.589724,49.805516],[15.75586,49.77917],[15.85878,49.699827],[15.994571,49.7316],[16.162925,49.689862],[16.391968,49.597292],[16.534593,49.603389],[16.563575,49.633876],[16.78919,49.607937],[16.83375,49.711648],[16.733072,49.828642],[16.726831,49.993283],[16.8049,50.031548],[16.869762,50.189729],[16.817712,50.186757],[16.701233,50.094928],[16.584238,50.127432]]]},"properties":{"LOCATION_TYPE":"level1","ADM0_A3":"CZE","LOCATION_ID":"CZE-PA","NAME":"Pardubický","TYPE_EN":"Region"}},
{"type":"Feature","geometry":{"type":"Polygon","coordinates":[[[18.387009,49.377624],[18.514663,49.440601],[18.535643,49.481684],[18.732531,49.480288],[18.833196,49.510261],[18.773458,49.675832],[18.637343,49.700327],[18.566753,49.804765],[18.559208,49.907187],[18.481797,49.896645],[18.368832,49.932044],[18.306923,49.909668],[18.091639,50.017207],[17.839355,49.973643],[17.719466,50.080872],[17.584177,50.145881],[17.738173,50.202363],[17.734452,50.28949],[17.606398,50.258225],[17.388013,50.272643],[17.403787,50.213581],[17.235059,50.139423],[17.203221,50.034075],[17.143697,49.980286],[17.170811,49.930452],[17.133501,49.849988],[17.424903,49.737367],[17.62314,49.734346],[17.76438,49.616924],[17.90628,49.527331],[17.989688,49.493833],[18.145628,49.503875],[18.267862,49.486604],[18.387009,49.377624]]]},"properties":{"LOCATION_TYPE":"level1","ADM0_A3":"CZE","LOCATION_ID":"CZE-MO","NAME":"Moravskoslezský","TYPE_EN":"Region"}},
{"type":"Feature","geometry":{"type":"Polygon","coordinates":[[[15.544187,48.902612],[15.681347,48.858466],[15.818497,48.872315],[16.032334,48.758059],[16.358309,48.727259],[16.43572,48.794542],[16.510341,48.804774],[16.643149,48.778264],[16.661959,48.740023],[16.873006,48.718991],[16.910523,48.63078],[16.974808,48.649874],[17.025348,48.746328],[17.167458,48.859758],[17.260269,48.857794],[17.374371,48.819605],[17.535084,48.812991],[17.646029,48.841816],[17.523165,48.948274],[17.417256,48.947692],[17.336265,49.008897],[17.221788,49.042317],[17.20188,49.157762],[17.138335,49.216319],[17.148361,49.27233],[17.11823,49.328116],[17.035086,49.364964],[16.959039,49.475882],[16.897515,49.416709],[16.789102,49.413523],[16.78919,49.607937],[16.563575,49.633876],[16.534593,49.603389],[16.391968,49.597292],[16.370193,49.487483],[16.38753,49.354834],[16.300298,49.32003],[16.248772,49.238577],[16.273667,49.179866],[16.227657,49.084867],[16.113838,49.040472],[15.974466,49.038099],[15.808155,48.997647],[15.735821,48.954438],[15.574695,48.966215],[15.544187,48.902612]]]},"properties":{"LOCATION_TYPE":"level1","ADM0_A3":"CZE","LOCATION_ID":"CZE-JM","NAME":"Jihomoravský","TYPE_EN":"Region"}},
{"type":"Feature","geometry":{"type":"Polygon","coordinates":[[[17.646029,48.841816],[17.795533,48.920581],[17.860336,48.921718],[17.914079,49.010498],[18.012885,49.019128],[18.102905,49.09225],[18.117788,49.202579],[18.190031,49.276942],[18.324597,49.311255],[18.387009,49.377624],[18.267862,49.486604],[18.145628,49.503875],[17.989688,49.493833],[17.90628,49.527331],[17.828475,49.510917],[17.759371,49.437023],[17.627293,49.439956],[17.459532,49.365282],[17.332574,49.34888],[17.272566,49.300716],[17.148361,49.27233],[17.138335,49.216319],[17.20188,49.157762],[17.221788,49.042317],[17.336265,49.008897],[17.417256,48.947692],[17.523165,48.948274],[17.646029,48.841816]]]},"properties":{"LOCATION_TYPE":"level1","ADM0_A3":"CZE","LOCATION_ID":"CZE-ZL","NAME":"Zlínský","TYPE_EN":"Region"}},
{"type":"Feature","geometry":{"type":"Polygon","coordinates":[[[16.391968,49.597292],[16.162925,49.689862],[15.994571,49.7316],[15.85878,49.699827],[15.75586,49.77917],[15.589724,49.805516],[15.484981,49.875564],[15.436399,49.798616],[15.217618,49.74441],[15.174353,49.678415],[15.235481,49.615166],[15.157105,49.590623],[14.982378,49.598324],[14.922788,49.544316],[14.889522,49.499469],[14.885171,49.375511],[14.920591,49.300287],[15.029685,49.282742],[15.163433,49.209683],[15.206346,49.232425],[15.331722,49.204596],[15.401529,49.125121],[15.542703,49.129208],[15.552173,49.077704],[15.497088,49.007765],[15.574695,48.966215],[15.735821,48.954438],[15.808155,48.997647],[15.974466,49.038099],[16.113838,49.040472],[16.227657,49.084867],[16.273667,49.179866],[16.248772,49.238577],[16.300298,49.32003],[16.38753,49.354834],[16.370193,49.487483],[16.391968,49.597292]]]},"properties":{"LOCATION_TYPE":"level1","ADM0_A3":"CZE","LOCATION_ID":"CZE-VY","NAME":"Vysočina","TYPE_EN":"Region"}},
{"type":"Feature","geometry":{"type":"Polygon","coordinates":[[[15.484981,49.875564],[15.506119,49.950524],[15.35899,50.017464],[15.4099,50.103179],[15.346751,50.278587],[15.203203,50.289496],[15.122828,50.343132],[15.130891,50.514595],[15.07596,50.576657],[14.909319,50.601882],[14.826306,50.53759],[14.704314,50.488426],[14.588562,50.473309],[14.475271,50.494391],[14.349126,50.349284],[14.237571,50.325202],[13.996443,50.329486],[13.847161,50.243497],[13.662503,50.217514],[13.529502,50.168724],[13.405686,50.087183],[13.563494,49.999644],[13.63563,49.997491],[13.812071,49.92419],[13.782144,49.757077],[13.689024,49.682194],[13.763643,49.536153],[13.755579,49.489494],[13.916968,49.492691],[14.01211,49.535691],[14.130806,49.527704],[14.284439,49.547941],[14.634178,49.519618],[14.732264,49.559202],[14.770716,49.613365],[14.922788,49.544316],[14.982378,49.598324],[15.157105,49.590623],[15.235481,49.615166],[15.174353,49.678415],[15.217618,49.74441],[15.436399,49.798616],[15.484981,49.875564]],[[14.588079,49.995041],[14.317156,49.956797],[14.216939,50.102575],[14.4776,50.165164],[14.549341,50.163351],[14.683067,50.092423],[14.646746,49.999853],[14.588079,49.995041]]]},"properties":{"LOCATION_TYPE":"level1","ADM0_A3":"CZE","LOCATION_ID":"CZE-ST","NAME":"Středočeský","TYPE_EN":"Region"}},
{"type":"Feature","geometry":{"type":"Polygon","coordinates":[[[14.588079,49.995041],[14.646746,49.999853],[14.683067,50.092423],[14.549341,50.163351],[14.4776,50.165164],[14.216939,50.102575],[14.317156,49.956797],[14.588079,49.995041]]]},"properties":{"LOCATION_TYPE":"level1","ADM0_A3":"CZE","LOCATION_ID":"CZE-PR","NAME":"Prague","TYPE_EN":"Region"}}
]}