{"type":"FeatureCollection", "features": [
{"type":"Feature","geometry":{"type":"Polygon","coordinates":[[[12.101344,50.31398],[12.168538,50.302977],[12.232514,50.259104],[12.283363,50.162211],[12.336487,50.258587],[12.510223,50.38876],[12.678792,50.393721],[12.754239,50.435321],[12.825759,50.441418],[12.918363,50.4054],[12.996602,50.433667],[13.009624,50.492681],[13.160106,50.497022],[13.232349,50.58203],[13.284646,50.568956],[13.380971,50.62549],[13.447944,50.597274],[13.601939,50.712151],[13.834535,50.723675],[13.892516,50.780416],[14.034936,50.802585],[14.190792,50.847905],[14.232133,50.879376],[14.346545,50.880203],[14.381892,50.920872],[14.250013,50.977613],[14.287531,51.036834],[14.397808,51.013115],[14.493513,51.016706],[14.574335,50.975494],[14.550357,50.912087],[14.634589,50.9094],[14.613195,50.84558],[14.775356,50.812972],[14.860209,50.916842],[14.955293,51.064042],[15.019476,51.271678],[14.963768,51.328393],[14.945061,51.449186],[14.732155,51.515823],[14.70677,51.540828],[14.595368,51.562486],[14.509275,51.556853],[14.338588,51.509931],[14.268928,51.532359],[14.158754,51.526881],[14.067028,51.473861],[13.970341,51.359191],[13.766478,51.347977],[13.521738,51.366942],[13.410789,51.421409],[13.252194,51.385236],[13.198192,51.432804],[13.210491,51.490863],[13.171527,51.566207],[13.061663,51.615093],[12.914695,51.649897],[12.781577,51.627004],[12.715328,51.638192],[12.662101,51.60145],[12.443458,51.60145],[12.43059,51.57246],[12.305947,51.552254],[12.235357,51.56215],[12.157015,51.449005],[12.181665,51.324774],[12.132314,51.291753],[12.222644,51.088975],[12.264554,51.083756],[12.328943,51.087838],[12.483662,51.058331],[12.545726,50.971256],[12.647218,50.899943],[12.527535,50.876585],[12.424389,50.82434],[12.258043,50.792507],[12.278817,50.679698],[12.252927,50.626316],[12.186936,50.626367],[12.145388,50.562547],[11.989429,50.546114],[11.925815,50.488391],[11.9053,50.415166],[11.986018,50.351552],[12.101344,50.31398]]]},"properties":{"LOCATION_TYPE":"level1","ADM0_A3":"DEU","LOCATION_ID":"DEU-SN","NAME":"Sachsen","TYPE_EN":"State"}},
{"type":"Feature","geometry":{"type":"Polygon","coordinates":[[[12.101344,50.31398],[11.986018,50.351552],[11.9053,50.415166],[11.828818,50.391059],[11.784738,50.414262],[11.531679,50.378424],[11.421195,50.443045],[11.427086,50.513093],[11.346729,50.518725],[11.248647,50.47263],[11.280273,50.358632],[11.255313,50.274864],[11.19232,50.271557],[11.135372,50.309333],[11.115787,50.3638],[10.977553,50.355428],[10.943394,50.387338],[10.788882,50.386253],[10.714985,50.321942],[10.837871,50.27166],[10.617058,50.224402],[10.592408,50.322872],[10.499752,50.353516],[10.449471,50.399146],[10.238011,50.510121],[10.18835,50.549163],[10.109647,50.555467],[10.055025,50.516503],[10.000868,50.448446],[9.858913,50.398991],[9.766722,50.402092],[9.748584,50.30556],[9.680319,50.279515],[9.661199,50.23435],[9.511027,50.23621],[9.506686,50.108105],[9.406744,50.092343],[9.329126,50.139291],[9.22877,50.143813],[9.010282,50.096839],[9.026871,50.043147],[9.026716,49.907393],[9.061804,49.839852],[9.146657,49.746215],[9.11131,49.639813],[9.11069,49.575114],[9.25342,49.577568],[9.293779,49.633276],[9.376617,49.650458],[9.427208,49.708181],[9.313623,49.732107],[9.351864,49.785747],[9.490977,49.795255],[9.653137,49.772389],[9.630503,49.699034],[9.7275,49.687303],[9.792509,49.721978],[9.833901,49.652939],[9.929813,49.550361],[9.936324,49.481735],[10.019678,49.480339],[10.127527,49.511448],[10.17109,49.384324],[10.121791,49.369545],[10.159773,49.275339],[10.146906,49.205395],[10.218736,49.155088],[10.274443,49.050185],[10.354231,49.03339],[10.467351,48.914999],[10.424201,48.701989],[10.378881,48.667262],[10.270412,48.681137],[10.313097,48.60817],[10.314957,48.531095],[10.153417,48.465828],[10.067944,48.472235],[9.980559,48.381337],[10.054095,48.304855],[10.136209,48.107296],[10.130162,48.034924],[10.087013,47.960277],[10.129542,47.816513],[10.131403,47.687916],[9.953274,47.659468],[9.864649,47.674816],[9.760056,47.620375],[9.61221,47.587742],[9.554144,47.532743],[9.703986,47.531415],[9.752665,47.582058],[9.813127,47.54175],[9.948726,47.524232],[10.071819,47.439121],[10.073162,47.365482],[10.190881,47.379228],[10.18592,47.294995],[10.239354,47.277735],[10.305913,47.302178],[10.411643,47.381037],[10.451951,47.438759],[10.419601,47.493045],[10.43097,47.542164],[10.525125,47.52847],[10.60791,47.562266],[10.790328,47.516067],[10.959827,47.432506],[10.979464,47.390545],[11.083747,47.389512],[11.168599,47.424264],[11.258827,47.400725],[11.412616,47.506094],[11.551212,47.51369],[11.620458,47.589654],[11.820343,47.575288],[11.935891,47.610738],[12.165645,47.603969],[12.202335,47.677789],[12.42413,47.69156],[12.49658,47.628903],[12.653057,47.675127],[12.744834,47.66536],[12.785865,47.602677],[12.77894,47.554825],[12.942548,47.470489],[13.037323,47.493045],[13.028124,47.541647],[13.07484,47.646654],[13.044557,47.696573],[12.892009,47.723548],[12.991227,47.847106],[12.931076,47.924879],[12.853975,47.970484],[12.760234,48.064871],[12.745041,48.12063],[12.877642,48.202046],[12.93304,48.209255],[13.032775,48.263567],[13.136438,48.291059],[13.274207,48.307104],[13.405569,48.376583],[13.456418,48.506653],[13.440089,48.560965],[13.520704,48.584581],[13.624367,48.565357],[13.714336,48.523215],[13.802392,48.611711],[13.815725,48.76643],[13.724671,48.867303],[13.654443,48.882237],[13.608657,48.946161],[13.538894,48.967038],[13.482257,48.937634],[13.384175,48.993031],[13.372393,49.038507],[13.299529,49.093645],[13.178503,49.118347],[12.999806,49.294925],[12.922911,49.332701],[12.797751,49.327843],[12.729331,49.391147],[12.643548,49.42949],[12.622981,49.509847],[12.496891,49.633871],[12.496374,49.669993],[12.419583,49.700223],[12.383616,49.742856],[12.452655,49.779702],[12.524072,49.904965],[12.468158,49.970233],[12.24688,50.044957],[12.179184,50.117976],[12.182698,50.170737],[12.079552,50.242722],[12.101344,50.31398]]]},"properties":{"LOCATION_TYPE":"level1","ADM0_A3":"DEU","LOCATION_ID":"DEU-BY","NAME":"Bayern","TYPE_EN":"State"}},
{"type":"Feature","geometry":{"type":"Polygon","coordinates":[[[6.3734,50.32308],[6.299491,50.308868],[6.253396,50.256778],[6.146839,50.214042],[6.096403,50.048626],[6.15397,49.951216],[6.2227,49.887137],[6.414523,49.805488],[6.500099,49.794481],[6.491727,49.700792],[6.350754,49.566588],[6.348809,49.52529],[6.605106,49.530207],[6.712335,49.550309],[6.936404,49.627152],[7.132826,49.602011],[7.219126,49.563538],[7.267546,49.578499],[7.308474,49.485404],[7.246101,49.446129],[7.301188,49.384841],[7.385162,49.369674],[7.294677,49.205162],[7.371634,49.166174],[7.476112,49.151523],[7.520863,49.083672],[7.648814,49.035716],[7.773665,49.048118],[7.931898,49.034838],[8.090441,48.979182],[8.199892,48.95825],[8.283608,49.009955],[8.357144,49.109561],[8.380657,49.214852],[8.479876,49.296991],[8.49388,49.442615],[8.408355,49.555218],[8.41683,49.579455],[8.360555,49.664462],[8.37921,49.710403],[8.439103,49.726526],[8.340091,49.891012],[8.33544,49.959638],[8.228108,50.038186],[8.173796,50.045783],[7.918566,49.973875],[7.771392,50.053483],[7.896294,50.120714],[7.922183,50.200089],[8.042021,50.233833],[8.122688,50.277913],[8.022281,50.389121],[8.000267,50.508829],[8.041556,50.54446],[8.107185,50.526529],[8.163822,50.585802],[8.121603,50.645798],[8.13447,50.684038],[8.056284,50.690911],[7.942544,50.83204],[7.757542,50.911311],[7.770461,50.854881],[7.675635,50.809974],[7.69889,50.781629],[7.599464,50.733441],[7.386867,50.70365],[7.371519,50.642594],[7.282584,50.618823],[7.185743,50.619004],[6.939349,50.55477],[6.820649,50.486014],[6.760136,50.470666],[6.795017,50.355609],[6.718226,50.341579],[6.585573,50.37739],[6.3734,50.32308]]]},"properties":{"LOCATION_TYPE":"level1","ADM0_A3":"DEU","LOCATION_ID":"DEU-RP","NAME":"Rheinland-Pfalz","TYPE_EN":"State"}},
{"type":"Feature","geometry":{"type":"Polygon","coordinates":[[[6.348809,49.52529],[6.402741,49.465457],[6.494518,49.435537],[6.574306,49.361794],[6.550122,49.338023],[6.639677,49.271154],[6.725563,49.155554],[6.809072,49.145839],[6.843489,49.211054],[7.009474,49.181702],[7.154994,49.114419],[7.268062,49.105634],[7.371634,49.166174],[7.294677,49.205162],[7.385162,49.369674],[7.301188,49.384841],[7.246101,49.446129],[7.308474,49.485404],[7.267546,49.578499],[7.219126,49.563538],[7.132826,49.602011],[6.936404,49.627152],[6.712335,49.550309],[6.605106,49.530207],[6.348809,49.52529]]]},"properties":{"LOCATION_TYPE":"level1","ADM0_A3":"DEU","LOCATION_ID":"DEU-SL","NAME":"Saarland","TYPE_EN":"State"}},
{"type":"Feature","geometry":{"type":"MultiPolygon","coordinates":[[[[10.906016,53.961208],[10.752615,54.043891],[10.801443,54.092231],[10.91033,54.109198],[11.06658,54.183905],[11.094493,54.225084],[11.077403,54.342231],[11.018809,54.385891],[10.935313,54.379543],[10.77711,54.315131],[10.690196,54.31623],[10.601085,54.365424],[10.203868,54.461005],[10.124685,54.495754],[9.883311,54.462104],[10.02003,54.545844],[10.031912,54.652777],[9.971039,54.699042],[9.97047,54.762641],[9.823741,54.756741],[9.801768,54.783393],[9.554373,54.847113],[9.451427,54.81037],[9.226392,54.805906],[9.194766,54.8504],[8.824246,54.9059],[8.660776,54.896311],[8.648448,54.817857],[8.688731,54.735297],[8.805431,54.687567],[8.853282,54.619289],[9.011567,54.506334],[9.004731,54.465888],[8.860688,54.413804],[8.750824,54.413804],[8.629161,54.387681],[8.602712,54.312079],[8.651866,54.274848],[8.88795,54.303941],[8.83961,54.255561],[8.812836,54.180487],[8.860688,54.12519],[8.917979,54.146308],[9.018321,54.097886],[8.997244,54.030219],[8.833344,54.036444],[8.916026,53.937405],[9.007823,53.892483],[9.22047,53.890774],[9.395193,53.831],[9.435802,53.748684],[9.532237,53.711168],[9.550792,53.634589],[9.655772,53.584621],[9.74081,53.572575],[9.927332,53.645666],[9.994047,53.651428],[10.142255,53.713311],[10.222767,53.633652],[10.183234,53.528955],[10.32798,53.432656],[10.528381,53.372401],[10.601245,53.371833],[10.635403,53.445239],[10.820353,53.514796],[10.828259,53.567428],[10.954401,53.566136],[10.938123,53.684708],[10.760925,53.746694],[10.76325,53.865059],[10.885207,53.919138],[10.906016,53.961208]]],[[[11.255626,54.478705],[11.121267,54.535956],[11.033702,54.508857],[11.005707,54.468451],[11.188487,54.426174],[11.31422,54.413804],[11.255626,54.478705]]],[[[8.497569,54.756415],[8.394542,54.71483],[8.565766,54.687567],[8.593761,54.728502],[8.497569,54.756415]]],[[[8.360362,54.948188],[8.288585,54.891303],[8.377126,54.866278],[8.360362,54.948188]]]]},"properties":{"LOCATION_TYPE":"level1","ADM0_A3":"DEU","LOCATION_ID":"DEU-SH","NAME":"Schleswig-Holstein","TYPE_EN":"State"}},
{"type":"Feature","geometry":{"type":"Polygon","coordinates":[[[8.557203,53.519941],[8.513438,53.554755],[8.387706,53.577135],[8.348481,53.61286],[8.248871,53.590277],[8.231212,53.525214],[8.320486,53.509223],[8.292817,53.440497],[8.205333,53.410712],[8.086192,53.456122],[8.058767,53.502021],[8.167979,53.553209],[8.052908,53.636298],[8.031423,53.708075],[7.951427,53.72191],[7.503917,53.678656],[7.458832,53.695136],[7.226085,53.66649],[7.086762,53.586859],[7.141775,53.537177],[7.059744,53.521715],[7.023285,53.450507],[7.023611,53.37641],[7.075206,53.337592],[7.254731,53.319525],[7.194591,53.245022],[7.172668,53.125751],[7.194372,53.033844],[7.183623,52.966122],[7.079857,52.854424],[7.053295,52.790577],[7.036655,52.647382],[6.967719,52.636659],[6.770522,52.641026],[6.701792,52.619115],[6.695074,52.475609],[6.741169,52.453673],[6.90023,52.431917],[6.9733,52.451373],[7.048231,52.365074],[7.012471,52.284949],[7.0266,52.238623],[7.121509,52.26265],[7.300568,52.271797],[7.416478,52.313965],[7.51363,52.370034],[7.561585,52.371842],[7.609076,52.475557],[7.680596,52.462018],[7.70292,52.413339],[7.829269,52.362721],[7.90575,52.377268],[7.97355,52.312104],[7.90358,52.20038],[8.017475,52.174128],[7.99019,52.123227],[7.891643,52.089767],[7.979441,52.04039],[8.022901,52.06615],[8.181031,52.083074],[8.266865,52.133614],[8.393628,52.111264],[8.486232,52.170046],[8.460187,52.304198],[8.427734,52.366778],[8.33389,52.398352],[8.301437,52.451114],[8.423703,52.445998],[8.49667,52.506511],[8.632114,52.523926],[8.703634,52.480156],[8.706735,52.407292],[8.826728,52.388792],[8.961241,52.409075],[8.99912,52.462767],[9.081182,52.497571],[9.128363,52.408455],[9.073896,52.348743],[9.018034,52.341069],[8.983256,52.264975],[9.070485,52.236915],[8.988062,52.188494],[9.003616,52.133407],[9.135494,52.131909],[9.189806,52.074961],[9.20996,51.971608],[9.263187,51.921121],[9.334604,51.905773],[9.321995,51.856267],[9.41031,51.860349],[9.460901,51.831669],[9.389846,51.729401],[9.373051,51.647261],[9.440075,51.649044],[9.623372,51.629459],[9.671327,51.559282],[9.59681,51.511585],[9.638564,51.408697],[9.563634,51.384461],[9.56937,51.342344],[9.682644,51.314956],[9.71365,51.36379],[9.808012,51.40725],[9.949243,51.381799],[10.045723,51.432106],[10.149696,51.431796],[10.364618,51.542436],[10.421721,51.591864],[10.514222,51.556285],[10.654161,51.578247],[10.697621,51.637365],[10.664083,51.707232],[10.585277,51.777925],[10.580161,51.844898],[10.639899,51.883552],[10.590238,51.976156],[10.660828,52.044731],[10.945565,52.057701],[10.947735,52.096975],[11.038221,52.131702],[11.019307,52.186867],[11.082921,52.225133],[11.01476,52.287403],[10.999257,52.34249],[11.072999,52.372178],[10.939054,52.462121],[11.001737,52.49814],[10.952696,52.593276],[10.756894,52.786494],[10.76201,52.838377],[10.960654,52.865146],[11.014656,52.911861],[11.213559,52.897753],[11.264305,52.877548],[11.412358,52.906435],[11.502017,52.944159],[11.506823,53.001132],[11.58134,53.042861],[11.416854,53.080895],[11.327609,53.07242],[11.27409,53.117544],[11.143434,53.172672],[11.089432,53.144198],[10.930217,53.228457],[10.739428,53.308452],[10.731573,53.351989],[10.601245,53.371833],[10.528381,53.372401],[10.32798,53.432656],[10.186541,53.404389],[10.083137,53.450898],[9.985365,53.41506],[9.909349,53.418083],[9.810647,53.46237],[9.763972,53.54768],[9.567068,53.599595],[9.484711,53.69009],[9.40268,53.742418],[9.274669,53.865139],[9.114513,53.865139],[8.860688,53.831],[8.74464,53.854153],[8.684581,53.888495],[8.573253,53.857652],[8.492198,53.715155],[8.513038,53.617097],[8.625293,53.604997],[8.639091,53.516656],[8.557203,53.519941]],[[8.56447,53.211791],[8.745544,53.191611],[8.912356,53.139341],[8.989922,53.093607],[8.914526,53.024619],[8.702704,53.079861],[8.56447,53.211791]]]},"properties":{"LOCATION_TYPE":"level1","ADM0_A3":"DEU","LOCATION_ID":"DEU-NI","NAME":"Niedersachsen","TYPE_EN":"State"}},
{"type":"Feature","geometry":{"type":"Polygon","coordinates":[[[7.0266,52.238623],[6.830673,52.112893],[6.765871,52.108397],[6.675024,52.034809],[6.804008,51.984373],[6.716675,51.899262],[6.528624,51.876421],[6.382483,51.827587],[6.22518,51.862546],[6.043279,51.846862],[5.928041,51.806736],[5.939306,51.731882],[6.021989,51.709506],[6.031497,51.662998],[6.099193,51.644472],[6.086481,51.595534],[6.193348,51.509338],[6.205337,51.458436],[6.183632,51.335705],[6.06519,51.231629],[6.053718,51.189383],[6.132369,51.139825],[5.982921,51.074687],[5.874607,50.965366],[6.003695,50.973737],[5.999871,50.929399],[6.063743,50.90754],[6.045553,50.844184],[5.972999,50.781811],[6.024779,50.707552],[6.081003,50.713495],[6.180015,50.615516],[6.232932,50.587146],[6.160688,50.543583],[6.199239,50.490408],[6.318715,50.481674],[6.351167,50.433564],[6.337732,50.368089],[6.3734,50.32308],[6.585573,50.37739],[6.718226,50.341579],[6.795017,50.355609],[6.760136,50.470666],[6.820649,50.486014],[6.939349,50.55477],[7.185743,50.619004],[7.282584,50.618823],[7.371519,50.642594],[7.386867,50.70365],[7.599464,50.733441],[7.69889,50.781629],[7.675635,50.809974],[7.770461,50.854881],[7.757542,50.911311],[7.942544,50.83204],[8.056284,50.690911],[8.13447,50.684038],[8.17514,50.742071],[8.139276,50.784962],[8.268416,50.86842],[8.36412,50.861599],[8.444064,50.916014],[8.544884,51.020659],[8.524731,51.093316],[8.658366,51.088355],[8.750195,51.172794],[8.72415,51.265838],[8.603589,51.242557],[8.578112,51.27594],[8.685496,51.363428],[8.935145,51.391282],[8.906154,51.480915],[9.015398,51.509156],[9.108674,51.442907],[9.210115,51.456136],[9.224275,51.487038],[9.335999,51.553959],[9.345921,51.612302],[9.440075,51.649044],[9.373051,51.647261],[9.389846,51.729401],[9.460901,51.831669],[9.41031,51.860349],[9.321995,51.856267],[9.334604,51.905773],[9.263187,51.921121],[9.20996,51.971608],[9.189806,52.074961],[9.135494,52.131909],[9.003616,52.133407],[8.988062,52.188494],[9.070485,52.236915],[8.983256,52.264975],[9.018034,52.341069],[9.073896,52.348743],[9.128363,52.408455],[9.081182,52.497571],[8.99912,52.462767],[8.961241,52.409075],[8.826728,52.388792],[8.706735,52.407292],[8.703634,52.480156],[8.632114,52.523926],[8.49667,52.506511],[8.423703,52.445998],[8.301437,52.451114],[8.33389,52.398352],[8.427734,52.366778],[8.460187,52.304198],[8.486232,52.170046],[8.393628,52.111264],[8.266865,52.133614],[8.181031,52.083074],[8.022901,52.06615],[7.979441,52.04039],[7.891643,52.089767],[7.99019,52.123227],[8.017475,52.174128],[7.90358,52.20038],[7.97355,52.312104],[7.90575,52.377268],[7.829269,52.362721],[7.70292,52.413339],[7.680596,52.462018],[7.609076,52.475557],[7.561585,52.371842],[7.51363,52.370034],[7.416478,52.313965],[7.300568,52.271797],[7.121509,52.26265],[7.0266,52.238623]]]},"properties":{"LOCATION_TYPE":"level1","ADM0_A3":"DEU","LOCATION_ID":"DEU-NW","NAME":"Nordrhein-Westfalen","TYPE_EN":"State"}},
{"type":"Feature","geometry":{"type":"Polygon","coordinates":[[[8.199892,48.95825],[8.10274,48.821311],[7.970138,48.757283],[7.948434,48.71186],[7.810252,48.615018],[7.801673,48.54758],[7.738318,48.406607],[7.75196,48.355344],[7.702454,48.311187],[7.676616,48.2384],[7.613364,48.179205],[7.572643,48.094972],[7.618945,48.002652],[7.525928,47.783157],[7.521794,47.670425],[7.586028,47.584619],[7.683438,47.544257],[7.76674,47.555961],[7.819657,47.595339],[7.912157,47.560561],[8.087237,47.567382],[8.179015,47.615803],[8.251051,47.622004],[8.354094,47.581024],[8.448869,47.58428],[8.458274,47.639884],[8.390991,47.692129],[8.463648,47.763907],[8.558216,47.801166],[8.797581,47.720034],[8.906205,47.651795],[9.016586,47.6789],[9.183398,47.670425],[9.273211,47.65009],[9.554144,47.532743],[9.61221,47.587742],[9.760056,47.620375],[9.864649,47.674816],[9.953274,47.659468],[10.131403,47.687916],[10.129542,47.816513],[10.087013,47.960277],[10.130162,48.034924],[10.136209,48.107296],[10.054095,48.304855],[9.980559,48.381337],[10.067944,48.472235],[10.153417,48.465828],[10.314957,48.531095],[10.313097,48.60817],[10.270412,48.681137],[10.378881,48.667262],[10.424201,48.701989],[10.467351,48.914999],[10.354231,49.03339],[10.274443,49.050185],[10.218736,49.155088],[10.146906,49.205395],[10.159773,49.275339],[10.121791,49.369545],[10.17109,49.384324],[10.127527,49.511448],[10.019678,49.480339],[9.936324,49.481735],[9.929813,49.550361],[9.833901,49.652939],[9.792509,49.721978],[9.7275,49.687303],[9.630503,49.699034],[9.653137,49.772389],[9.490977,49.795255],[9.351864,49.785747],[9.313623,49.732107],[9.427208,49.708181],[9.376617,49.650458],[9.293779,49.633276],[9.25342,49.577568],[9.11069,49.575114],[9.035087,49.50132],[8.957831,49.503697],[8.945584,49.455095],[8.816754,49.402204],[8.828433,49.502819],[8.718104,49.541783],[8.671543,49.622553],[8.597956,49.60581],[8.617387,49.547079],[8.566175,49.527313],[8.498221,49.573383],[8.41683,49.579455],[8.408355,49.555218],[8.49388,49.442615],[8.479876,49.296991],[8.380657,49.214852],[8.357144,49.109561],[8.283608,49.009955],[8.199892,48.95825]]]},"properties":{"LOCATION_TYPE":"level1","ADM0_A3":"DEU","LOCATION_ID":"DEU-BW","NAME":"Baden-Württemberg","TYPE_EN":"State"}},
{"type":"Feature","geometry":{"type":"Polygon","coordinates":[[[14.70677,51.540828],[14.743937,51.606644],[14.719546,51.675632],[14.648439,51.717206],[14.585807,51.803893],[14.595936,51.842418],[14.695568,51.931457],[14.699082,51.992512],[14.761403,52.076667],[14.686369,52.121032],[14.712104,52.215444],[14.696911,52.253478],[14.606581,52.275751],[14.539815,52.421866],[14.632316,52.496745],[14.644821,52.576921],[14.549943,52.636194],[14.431915,52.686088],[14.382202,52.738152],[14.21601,52.817992],[14.16082,52.876748],[14.14449,52.959921],[14.343341,53.048624],[14.38954,53.131668],[14.377861,53.176549],[14.44163,53.251841],[14.391261,53.334017],[14.248844,53.259135],[14.103202,53.272511],[14.23951,53.382028],[14.242621,53.427141],[14.141507,53.439586],[14.096394,53.419363],[13.92061,53.427141],[13.869275,53.508032],[13.709048,53.475364],[13.607108,53.411417],[13.538947,53.396664],[13.480449,53.308607],[13.405828,53.274681],[13.282321,53.287781],[13.23049,53.233185],[13.154009,53.259282],[13.000995,53.167659],[12.906014,53.190759],[12.743543,53.198665],[12.739667,53.224555],[12.512188,53.272692],[12.430125,53.26848],[12.339175,53.316255],[12.186936,53.368965],[12.063739,53.356123],[12.011879,53.299581],[11.884319,53.268469],[11.839206,53.226467],[11.744314,53.215578],[11.700196,53.248378],[11.599633,53.237319],[11.53571,53.205021],[11.555243,53.146059],[11.447193,53.137797],[11.394302,53.108241],[11.27409,53.117544],[11.327609,53.07242],[11.416854,53.080895],[11.58134,53.042861],[11.762879,52.995112],[11.831867,52.928242],[11.965503,52.885222],[12.092937,52.891656],[12.203266,52.865921],[12.233186,52.816311],[12.191019,52.738978],[12.228071,52.690169],[12.161976,52.63609],[12.149574,52.519947],[12.229931,52.536949],[12.288274,52.506201],[12.247036,52.442355],[12.209002,52.279006],[12.248069,52.252418],[12.19908,52.19392],[12.420824,52.011606],[12.466557,52.021528],[12.561539,51.971712],[12.666752,51.994449],[12.871907,51.912878],[12.951179,51.906935],[13.066159,51.852649],[13.236846,51.855491],[13.163466,51.789036],[13.181604,51.70855],[13.061663,51.615093],[13.171527,51.566207],[13.210491,51.490863],[13.198192,51.432804],[13.252194,51.385236],[13.410789,51.421409],[13.521738,51.366942],[13.766478,51.347977],[13.970341,51.359191],[14.067028,51.473861],[14.158754,51.526881],[14.268928,51.532359],[14.338588,51.509931],[14.509275,51.556853],[14.595368,51.562486],[14.70677,51.540828]],[[13.626331,52.487029],[13.750923,52.450287],[13.704518,52.397887],[13.637338,52.375976],[13.458125,52.416749],[13.34578,52.407396],[13.0921,52.4137],[13.157419,52.600304],[13.299685,52.651308],[13.379783,52.626271],[13.468512,52.663323],[13.50329,52.610174],[13.648501,52.531626],[13.626331,52.487029]]]},"properties":{"LOCATION_TYPE":"level1","ADM0_A3":"DEU","LOCATION_ID":"DEU-BB","NAME":"Brandenburg","TYPE_EN":"State"}},
{"type":"Feature","geometry":{"type":"MultiPolygon","coordinates":[[[[14.391261,53.334017],[14.359878,53.444077],[14.30417,53.508518],[14.297039,53.597763],[14.260969,53.656209],[14.264496,53.751614],[14.10613,53.743354],[13.984223,53.773993],[13.818533,53.877997],[13.890147,53.912909],[13.758149,54.030992],[13.808116,54.104682],[13.683442,54.168036],[13.602712,54.139472],[13.479259,54.12519],[13.403494,54.173651],[13.321788,54.194525],[13.288829,54.23428],[13.114919,54.280015],[13.0088,54.438056],[12.903819,54.399604],[12.875987,54.365424],[12.677257,54.392076],[12.694591,54.433661],[12.870779,54.416815],[12.879649,54.448798],[12.591482,54.451728],[12.501964,54.473578],[12.342133,54.303941],[12.18686,54.243354],[12.108897,54.18301],[11.812266,54.149807],[11.657888,54.142239],[11.619395,54.077297],[11.49171,54.002346],[11.458995,53.916693],[11.358246,53.940863],[11.242931,53.945217],[11.175059,54.018012],[11.053477,54.00849],[10.906016,53.961208],[10.885207,53.919138],[10.76325,53.865059],[10.760925,53.746694],[10.938123,53.684708],[10.954401,53.566136],[10.828259,53.567428],[10.820353,53.514796],[10.635403,53.445239],[10.601245,53.371833],[10.731573,53.351989],[10.739428,53.308452],[10.930217,53.228457],[11.089432,53.144198],[11.143434,53.172672],[11.27409,53.117544],[11.394302,53.108241],[11.447193,53.137797],[11.555243,53.146059],[11.53571,53.205021],[11.599633,53.237319],[11.700196,53.248378],[11.744314,53.215578],[11.839206,53.226467],[11.884319,53.268469],[12.011879,53.299581],[12.063739,53.356123],[12.186936,53.368965],[12.339175,53.316255],[12.430125,53.26848],[12.512188,53.272692],[12.739667,53.224555],[12.743543,53.198665],[12.906014,53.190759],[13.000995,53.167659],[13.154009,53.259282],[13.23049,53.233185],[13.282321,53.287781],[13.405828,53.274681],[13.480449,53.308607],[13.538947,53.396664],[13.607108,53.411417],[13.709048,53.475364],[13.869275,53.508032],[13.92061,53.427141],[14.096394,53.419363],[14.141507,53.439586],[14.242621,53.427141],[14.23951,53.382028],[14.103202,53.272511],[14.248844,53.259135],[14.391261,53.334017]]],[[[14.210053,53.938463],[14.016612,54.060004],[13.806163,54.116645],[13.823009,54.037909],[13.946056,54.066596],[14.05128,54.005072],[13.901866,53.969794],[13.931651,53.899319],[13.875255,53.844062],[14.200819,53.878157],[14.210053,53.938463]]],[[[13.698253,54.392076],[13.609548,54.413804],[13.57545,54.471869],[13.677257,54.540473],[13.640473,54.585679],[13.466319,54.57689],[13.394542,54.604438],[13.390798,54.688178],[13.290538,54.646552],[13.520763,54.523668],[13.455577,54.487494],[13.374848,54.52558],[13.166352,54.549384],[13.181814,54.45303],[13.25115,54.386908],[13.148936,54.377265],[13.115489,54.33808],[13.210134,54.275824],[13.347016,54.237454],[13.499685,54.344916],[13.599294,54.351752],[13.659923,54.329779],[13.741954,54.350491],[13.698253,54.392076]]]]},"properties":{"LOCATION_TYPE":"level1","ADM0_A3":"DEU","LOCATION_ID":"DEU-MV","NAME":"Mecklenburg-Vorpommern","TYPE_EN":"State"}},
{"type":"Feature","geometry":{"type":"MultiPolygon","coordinates":[[[[8.557203,53.519941],[8.639091,53.516656],[8.625293,53.604997],[8.513038,53.617097],[8.557203,53.519941]]],[[[8.56447,53.211791],[8.702704,53.079861],[8.914526,53.024619],[8.989922,53.093607],[8.912356,53.139341],[8.745544,53.191611],[8.56447,53.211791]]]]},"properties":{"LOCATION_TYPE":"level1","ADM0_A3":"DEU","LOCATION_ID":"DEU-HB","NAME":"Bremen","TYPE_EN":"State"}},
{"type":"Feature","geometry":{"type":"Polygon","coordinates":[[[9.763972,53.54768],[9.810647,53.46237],[9.909349,53.418083],[9.985365,53.41506],[10.083137,53.450898],[10.186541,53.404389],[10.32798,53.432656],[10.183234,53.528955],[10.222767,53.633652],[10.142255,53.713311],[9.994047,53.651428],[9.927332,53.645666],[9.74081,53.572575],[9.763972,53.54768]]]},"properties":{"LOCATION_TYPE":"level1","ADM0_A3":"DEU","LOCATION_ID":"DEU-HH","NAME":"Hamburg","TYPE_EN":"State"}},
{"type":"Feature","geometry":{"type":"Polygon","coordinates":[[[9.949243,51.381799],[9.808012,51.40725],[9.71365,51.36379],[9.682644,51.314956],[9.56937,51.342344],[9.563634,51.384461],[9.638564,51.408697],[9.59681,51.511585],[9.671327,51.559282],[9.623372,51.629459],[9.440075,51.649044],[9.345921,51.612302],[9.335999,51.553959],[9.224275,51.487038],[9.210115,51.456136],[9.108674,51.442907],[9.015398,51.509156],[8.906154,51.480915],[8.935145,51.391282],[8.685496,51.363428],[8.578112,51.27594],[8.603589,51.242557],[8.72415,51.265838],[8.750195,51.172794],[8.658366,51.088355],[8.524731,51.093316],[8.544884,51.020659],[8.444064,50.916014],[8.36412,50.861599],[8.268416,50.86842],[8.139276,50.784962],[8.17514,50.742071],[8.13447,50.684038],[8.121603,50.645798],[8.163822,50.585802],[8.107185,50.526529],[8.041556,50.54446],[8.000267,50.508829],[8.022281,50.389121],[8.122688,50.277913],[8.042021,50.233833],[7.922183,50.200089],[7.896294,50.120714],[7.771392,50.053483],[7.918566,49.973875],[8.173796,50.045783],[8.228108,50.038186],[8.33544,49.959638],[8.340091,49.891012],[8.439103,49.726526],[8.37921,49.710403],[8.360555,49.664462],[8.41683,49.579455],[8.498221,49.573383],[8.566175,49.527313],[8.617387,49.547079],[8.597956,49.60581],[8.671543,49.622553],[8.718104,49.541783],[8.828433,49.502819],[8.816754,49.402204],[8.945584,49.455095],[8.957831,49.503697],[9.035087,49.50132],[9.11069,49.575114],[9.11131,49.639813],[9.146657,49.746215],[9.061804,49.839852],[9.026716,49.907393],[9.026871,50.043147],[9.010282,50.096839],[9.22877,50.143813],[9.329126,50.139291],[9.406744,50.092343],[9.506686,50.108105],[9.511027,50.23621],[9.661199,50.23435],[9.680319,50.279515],[9.748584,50.30556],[9.766722,50.402092],[9.858913,50.398991],[10.000868,50.448446],[10.055025,50.516503],[10.052079,50.669569],[9.950949,50.662748],[9.913225,50.692668],[9.949398,50.815193],[10.018748,50.831678],[10.055955,50.882631],[10.051149,51.007016],[10.187885,50.995699],[10.14241,51.05523],[10.165664,51.117268],[10.23026,51.184318],[10.081276,51.22323],[10.049134,51.27656],[9.947021,51.303949],[9.949243,51.381799]]]},"properties":{"LOCATION_TYPE":"level1","ADM0_A3":"DEU","LOCATION_ID":"DEU-HE","NAME":"Hessen","TYPE_EN":"State"}},
{"type":"Feature","geometry":{"type":"Polygon","coordinates":[[[9.949243,51.381799],[9.947021,51.303949],[10.049134,51.27656],[10.081276,51.22323],[10.23026,51.184318],[10.165664,51.117268],[10.14241,51.05523],[10.187885,50.995699],[10.051149,51.007016],[10.055955,50.882631],[10.018748,50.831678],[9.949398,50.815193],[9.913225,50.692668],[9.950949,50.662748],[10.052079,50.669569],[10.055025,50.516503],[10.109647,50.555467],[10.18835,50.549163],[10.238011,50.510121],[10.449471,50.399146],[10.499752,50.353516],[10.592408,50.322872],[10.617058,50.224402],[10.837871,50.27166],[10.714985,50.321942],[10.788882,50.386253],[10.943394,50.387338],[10.977553,50.355428],[11.115787,50.3638],[11.135372,50.309333],[11.19232,50.271557],[11.255313,50.274864],[11.280273,50.358632],[11.248647,50.47263],[11.346729,50.518725],[11.427086,50.513093],[11.421195,50.443045],[11.531679,50.378424],[11.784738,50.414262],[11.828818,50.391059],[11.9053,50.415166],[11.925815,50.488391],[11.989429,50.546114],[12.145388,50.562547],[12.186936,50.626367],[12.252927,50.626316],[12.278817,50.679698],[12.258043,50.792507],[12.424389,50.82434],[12.527535,50.876585],[12.647218,50.899943],[12.545726,50.971256],[12.483662,51.058331],[12.328943,51.087838],[12.264554,51.083756],[12.275406,51.009755],[12.200785,50.927899],[12.159496,50.952007],[12.004622,50.949035],[11.860651,51.022622],[11.732597,51.017455],[11.689137,51.091869],[11.427396,51.098793],[11.420265,51.159668],[11.344507,51.204394],[11.45189,51.271496],[11.367193,51.357486],[11.314896,51.383324],[10.999102,51.408749],[10.911458,51.571116],[10.803455,51.632559],[10.697621,51.637365],[10.654161,51.578247],[10.514222,51.556285],[10.421721,51.591864],[10.364618,51.542436],[10.149696,51.431796],[10.045723,51.432106],[9.949243,51.381799]]]},"properties":{"LOCATION_TYPE":"level1","ADM0_A3":"DEU","LOCATION_ID":"DEU-TH","NAME":"Thüringen","TYPE_EN":"State"}},
{"type":"Feature","geometry":{"type":"Polygon","coordinates":[[[10.697621,51.637365],[10.803455,51.632559],[10.911458,51.571116],[10.999102,51.408749],[11.314896,51.383324],[11.367193,51.357486],[11.45189,51.271496],[11.344507,51.204394],[11.420265,51.159668],[11.427396,51.098793],[11.689137,51.091869],[11.732597,51.017455],[11.860651,51.022622],[12.004622,50.949035],[12.159496,50.952007],[12.200785,50.927899],[12.275406,51.009755],[12.264554,51.083756],[12.222644,51.088975],[12.132314,51.291753],[12.181665,51.324774],[12.157015,51.449005],[12.235357,51.56215],[12.305947,51.552254],[12.43059,51.57246],[12.443458,51.60145],[12.662101,51.60145],[12.715328,51.638192],[12.781577,51.627004],[12.914695,51.649897],[13.061663,51.615093],[13.181604,51.70855],[13.163466,51.789036],[13.236846,51.855491],[13.066159,51.852649],[12.951179,51.906935],[12.871907,51.912878],[12.666752,51.994449],[12.561539,51.971712],[12.466557,52.021528],[12.420824,52.011606],[12.19908,52.19392],[12.248069,52.252418],[12.209002,52.279006],[12.247036,52.442355],[12.288274,52.506201],[12.229931,52.536949],[12.149574,52.519947],[12.161976,52.63609],[12.228071,52.690169],[12.191019,52.738978],[12.233186,52.816311],[12.203266,52.865921],[12.092937,52.891656],[11.965503,52.885222],[11.831867,52.928242],[11.762879,52.995112],[11.58134,53.042861],[11.506823,53.001132],[11.502017,52.944159],[11.412358,52.906435],[11.264305,52.877548],[11.213559,52.897753],[11.014656,52.911861],[10.960654,52.865146],[10.76201,52.838377],[10.756894,52.786494],[10.952696,52.593276],[11.001737,52.49814],[10.939054,52.462121],[11.072999,52.372178],[10.999257,52.34249],[11.01476,52.287403],[11.082921,52.225133],[11.019307,52.186867],[11.038221,52.131702],[10.947735,52.096975],[10.945565,52.057701],[10.660828,52.044731],[10.590238,51.976156],[10.639899,51.883552],[10.580161,51.844898],[10.585277,51.777925],[10.664083,51.707232],[10.697621,51.637365]]]},"properties":{"LOCATION_TYPE":"level1","ADM0_A3":"DEU","LOCATION_ID":"DEU-ST","NAME":"Sachsen-Anhalt","TYPE_EN":"State"}},
{"type":"Feature","geometry":{"type":"Polygon","coordinates":[[[13.626331,52.487029],[13.648501,52.531626],[13.50329,52.610174],[13.468512,52.663323],[13.379783,52.626271],[13.299685,52.651308],[13.157419,52.600304],[13.0921,52.4137],[13.34578,52.407396],[13.458125,52.416749],[13.637338,52.375976],[13.704518,52.397887],[13.750923,52.450287],[13.626331,52.487029]]]},"properties":{"LOCATION_TYPE":"level1","ADM0_A3":"DEU","LOCATION_ID":"DEU-BE","NAME":"Berlin","TYPE_EN":"State"}}
]}