{"type":"FeatureCollection", "features": [
{"type":"Feature","geometry":{"type":"Polygon","coordinates":[[[43.188815,11.407764],[43.058488,11.478576],[42.912451,11.449741],[42.706572,11.265488],[42.608145,11.089088],[42.771787,10.996462],[42.923715,10.998787],[43.188815,11.407764]]]},"properties":{"LOCATION_TYPE":"level1","ADM0_A3":"DJI","LOCATION_ID":"DJI-AS","NAME":"Ali Sabieh","TYPE_EN":"Region"}},
{"type":"Feature","geometry":{"type":"Polygon","coordinates":[[[43.188815,11.407764],[43.173106,11.541653],[42.956376,11.524697],[42.900706,11.584052],[42.532481,11.547471],[42.365352,11.654224],[42.417287,11.420569],[42.499246,11.301481],[42.706572,11.265488],[42.912451,11.449741],[43.058488,11.478576],[43.188815,11.407764]]]},"properties":{"LOCATION_TYPE":"level1","ADM0_A3":"DJI","LOCATION_ID":"DJI-AR","NAME":"Arta","TYPE_EN":"Region"}},
{"type":"Feature","geometry":{"type":"Polygon","coordinates":[[[41.97468,11.88091],[41.808228,11.736236],[41.74911,11.537953],[41.79872,10.970675],[42.391758,11.005893],[42.608145,11.089088],[42.706572,11.265488],[42.499246,11.301481],[42.417287,11.420569],[42.365352,11.654224],[42.194665,11.823491],[41.97468,11.88091]]]},"properties":{"LOCATION_TYPE":"level1","ADM0_A3":"DJI","LOCATION_ID":"DJI-DI","NAME":"Dikhil","TYPE_EN":"Region"}},
{"type":"Feature","geometry":{"type":"Polygon","coordinates":[[[41.97468,11.88091],[42.194665,11.823491],[42.365352,11.654224],[42.532481,11.547471],[42.684093,11.582261],[42.75408,11.707953],[43.086002,11.838842],[43.013943,11.952578],[42.6766,12.298965],[42.696187,12.380126],[42.430929,12.520322],[41.97468,11.88091]]]},"properties":{"LOCATION_TYPE":"level1","ADM0_A3":"DJI","LOCATION_ID":"DJI-TA","NAME":"Tadjourah","TYPE_EN":"Region"}},
{"type":"Feature","geometry":{"type":"Polygon","coordinates":[[[43.086002,11.838842],[43.206554,11.957831],[43.377126,12.004828],[43.411388,12.241767],[43.312999,12.477688],[43.117686,12.707913],[42.852092,12.611738],[42.792251,12.429165],[42.696187,12.380126],[42.6766,12.298965],[43.013943,11.952578],[43.086002,11.838842]]]},"properties":{"LOCATION_TYPE":"level1","ADM0_A3":"DJI","LOCATION_ID":"DJI-OB","NAME":"Obock","TYPE_EN":"Region"}},
{"type":"Feature","geometry":{"type":"Polygon","coordinates":[[[42.900706,11.584052],[42.956376,11.524697],[43.173106,11.541653],[42.900706,11.584052]]]},"properties":{"LOCATION_TYPE":"level1","ADM0_A3":"DJI","LOCATION_ID":"DJI-DJ","NAME":"Djibouti","TYPE_EN":"City"}}
]}