{"type":"FeatureCollection", "features": [
{"type":"Feature","geometry":{"type":"Polygon","coordinates":[[[-61.254058,15.332668],[-61.308216,15.316662],[-61.316588,15.292219],[-61.356611,15.253798],[-61.355655,15.243799],[-61.346384,15.211697],[-61.318186,15.243394],[-61.284413,15.244818],[-61.256663,15.285346],[-61.254058,15.332668]]]},"properties":{"LOCATION_TYPE":"level1","ADM0_A3":"DMA","LOCATION_ID":"DMA-09","NAME":"Saint Patrick","TYPE_EN":"Parish"}},
{"type":"Feature","geometry":{"type":"Polygon","coordinates":[[[-61.268625,15.509914],[-61.274911,15.475774],[-61.317363,15.444872],[-61.334571,15.404951],[-61.327569,15.345524],[-61.308216,15.316662],[-61.254058,15.332668],[-61.249257,15.401068],[-61.262929,15.407904],[-61.25768,15.472602],[-61.268625,15.509914]]]},"properties":{"LOCATION_TYPE":"level1","ADM0_A3":"DMA","LOCATION_ID":"DMA-03","NAME":"Saint David","TYPE_EN":"Parish"}},
{"type":"Feature","geometry":{"type":"Polygon","coordinates":[[[-61.449214,15.633096],[-61.440301,15.595121],[-61.419217,15.578481],[-61.407719,15.503008],[-61.405678,15.494455],[-61.338111,15.470245],[-61.317363,15.444872],[-61.274911,15.475774],[-61.268625,15.509914],[-61.307688,15.57925],[-61.35733,15.598293],[-61.384633,15.588365],[-61.425933,15.628485],[-61.449214,15.633096]]]},"properties":{"LOCATION_TYPE":"level1","ADM0_A3":"DMA","LOCATION_ID":"DMA-02","NAME":"Saint Andrew","TYPE_EN":"Parish"}},
{"type":"Feature","geometry":{"type":"Polygon","coordinates":[[[-61.484002,15.529585],[-61.46322,15.531791],[-61.407719,15.503008],[-61.419217,15.578481],[-61.440301,15.595121],[-61.449214,15.633096],[-61.480621,15.59101],[-61.462148,15.572984],[-61.484002,15.529585]]]},"properties":{"LOCATION_TYPE":"level1","ADM0_A3":"DMA","LOCATION_ID":"DMA-05","NAME":"Saint John","TYPE_EN":"Parish"}},
{"type":"Feature","geometry":{"type":"Polygon","coordinates":[[[-61.455329,15.46633],[-61.405678,15.494455],[-61.407719,15.503008],[-61.46322,15.531791],[-61.484002,15.529585],[-61.455329,15.46633]]]},"properties":{"LOCATION_TYPE":"level1","ADM0_A3":"DMA","LOCATION_ID":"DMA-11","NAME":"Saint Peter","TYPE_EN":"Parish"}},
{"type":"Feature","geometry":{"type":"Polygon","coordinates":[[[-61.416007,15.39014],[-61.368032,15.389733],[-61.334571,15.404951],[-61.317363,15.444872],[-61.338111,15.470245],[-61.405678,15.494455],[-61.455329,15.46633],[-61.416007,15.39014]]]},"properties":{"LOCATION_TYPE":"level1","ADM0_A3":"DMA","LOCATION_ID":"DMA-06","NAME":"Saint Joseph","TYPE_EN":"Parish"}},
{"type":"Feature","geometry":{"type":"Polygon","coordinates":[[[-61.393599,15.313562],[-61.327569,15.345524],[-61.334571,15.404951],[-61.368032,15.389733],[-61.416007,15.39014],[-61.393599,15.313562]]]},"properties":{"LOCATION_TYPE":"level1","ADM0_A3":"DMA","LOCATION_ID":"DMA-10","NAME":"Saint Paul","TYPE_EN":"Parish"}},
{"type":"Feature","geometry":{"type":"Polygon","coordinates":[[[-61.373179,15.260347],[-61.356611,15.253798],[-61.316588,15.292219],[-61.308216,15.316662],[-61.327569,15.345524],[-61.393599,15.313562],[-61.373179,15.260347]]]},"properties":{"LOCATION_TYPE":"level1","ADM0_A3":"DMA","LOCATION_ID":"DMA-04","NAME":"Saint George","TYPE_EN":"Parish"}},
{"type":"Feature","geometry":{"type":"Polygon","coordinates":[[[-61.372792,15.237209],[-61.355655,15.243799],[-61.356611,15.253798],[-61.373179,15.260347],[-61.372792,15.237209]]]},"properties":{"LOCATION_TYPE":"level1","ADM0_A3":"DMA","LOCATION_ID":"DMA-07","NAME":"Saint Luke","TYPE_EN":"Parish"}},
{"type":"Feature","geometry":{"type":"Polygon","coordinates":[[[-61.346384,15.211697],[-61.355655,15.243799],[-61.372792,15.237209],[-61.346384,15.211697]]]},"properties":{"LOCATION_TYPE":"level1","ADM0_A3":"DMA","LOCATION_ID":"DMA-08","NAME":"Saint Mark","TYPE_EN":"Parish"}}
]}