{"type":"FeatureCollection", "features": [
{"type":"Feature","geometry":{"type":"MultiPolygon","coordinates":[[[[8.175607,55.801476],[8.181651,55.729071],[8.094005,55.56391],[8.193614,55.525946],[8.290212,55.583808],[8.441905,55.463935],[8.617686,55.437934],[8.689464,55.141588],[8.640961,55.023383],[8.660776,54.896311],[8.824246,54.9059],[9.194766,54.8504],[9.317033,54.801617],[9.545909,54.87934],[9.744477,54.866278],[9.738617,54.980862],[9.568533,55.048774],[9.494395,55.160549],[9.689789,55.204901],[9.710297,55.248684],[9.600841,55.365912],[9.586762,55.427436],[9.706879,55.537299],[9.738292,55.629706],[9.675521,55.708598],[9.605492,55.77887],[9.530406,55.787551],[9.399923,55.901653],[9.211665,55.938343],[9.070951,55.835714],[8.929099,55.88],[8.82311,55.81034],[8.578733,55.835249],[8.490159,55.77148],[8.368306,55.802537],[8.175607,55.801476]]],[[[10.011404,54.975531],[9.960948,55.015041],[9.799083,55.016547],[9.780935,54.916815],[9.968028,54.859524],[10.065115,54.890815],[10.011404,54.975531]]],[[[10.854991,55.04385],[10.697032,54.931342],[10.724457,54.886176],[10.64088,54.843207],[10.681895,54.744818],[10.741059,54.752387],[10.837738,54.937242],[10.854991,55.04385]]],[[[10.66627,55.064276],[10.733653,55.071845],[10.815196,55.214057],[10.82838,55.306586],[10.697927,55.440253],[10.738129,55.509345],[10.656912,55.594875],[10.604747,55.489447],[10.502452,55.463568],[10.488536,55.545478],[10.307628,55.618232],[10.039317,55.557766],[9.888194,55.508694],[9.827403,55.548407],[9.68393,55.506049],[9.812185,55.441067],[9.884776,55.348863],[9.883962,55.253485],[10.039317,55.180976],[10.112966,55.183783],[10.312755,55.063666],[10.538259,55.029731],[10.66627,55.064276]]]]},"properties":{"LOCATION_TYPE":"level1","ADM0_A3":"DNK","LOCATION_ID":"DNK-83","NAME":"Syddanmark","TYPE_EN":"Region"}},
{"type":"Feature","geometry":{"type":"MultiPolygon","coordinates":[[[[8.175607,55.801476],[8.368306,55.802537],[8.490159,55.77148],[8.578733,55.835249],[8.82311,55.81034],[8.929099,55.88],[9.070951,55.835714],[9.211665,55.938343],[9.399923,55.901653],[9.530406,55.787551],[9.605492,55.77887],[9.675521,55.708598],[9.792247,55.674465],[9.9817,55.709418],[10.035655,55.818427],[10.151052,55.838121],[10.245372,55.914618],[10.23113,56.017035],[10.259044,56.099026],[10.220225,56.147895],[10.376964,56.203315],[10.549164,56.178209],[10.628591,56.237535],[10.750011,56.216051],[10.911632,56.334052],[10.964122,56.448432],[10.789073,56.536363],[10.551524,56.51557],[10.36085,56.561713],[10.334239,56.703843],[10.193207,56.69359],[10.08014,56.625149],[9.725433,56.55908],[9.637738,56.633003],[9.435424,56.638507],[9.32602,56.66942],[9.276215,56.632961],[9.149425,56.638861],[9.162852,56.729641],[9.105968,56.800116],[8.95574,56.802965],[8.876638,56.764309],[8.708995,56.588568],[8.726573,56.483222],[8.601085,56.501125],[8.436534,56.580227],[8.312022,56.578803],[8.202159,56.640204],[8.122406,56.551663],[8.1338,56.205471],[8.106456,56.119452],[8.2824,56.075873],[8.319509,55.986029],[8.386892,55.9265],[8.34783,55.86933],[8.175607,55.801476]]],[[[10.559418,55.866278],[10.520274,55.78856],[10.614594,55.776842],[10.638682,55.866116],[10.559418,55.866278]]]]},"properties":{"LOCATION_TYPE":"level1","ADM0_A3":"DNK","LOCATION_ID":"DNK-82","NAME":"Midtjylland","TYPE_EN":"Region"}},
{"type":"Feature","geometry":{"type":"MultiPolygon","coordinates":[[[[9.32602,56.66942],[9.435424,56.638507],[9.637738,56.633003],[9.725433,56.55908],[10.08014,56.625149],[10.193207,56.69359],[10.318696,56.708238],[10.26588,56.907701],[10.347179,57.010199],[10.446788,57.184882],[10.539073,57.236721],[10.517426,57.391303],[10.54656,57.435289],[10.430431,57.570543],[10.542491,57.69892],[10.472504,57.716986],[10.350597,57.648993],[10.197602,57.601223],[9.96697,57.591376],[9.788422,57.459296],[9.573253,57.242906],[9.41212,57.165432],[9.230642,57.141099],[8.980479,57.161038],[8.783946,57.104804],[8.586274,57.106391],[8.270356,56.843248],[8.373383,56.680243],[8.539317,56.59276],[8.589041,56.681342],[8.491466,56.731391],[8.679535,56.952541],[8.87322,57.004828],[9.112804,57.038642],[9.265147,57.003404],[9.675141,57.079169],[9.586762,56.997138],[9.437022,57.0244],[9.288748,56.997138],[9.162852,56.89411],[9.211436,56.851508],[9.184418,56.784003],[9.32602,56.66942]]],[[[8.825857,56.743842],[8.867442,56.791083],[8.836436,56.869289],[8.648448,56.890692],[8.553233,56.768134],[8.648448,56.681057],[8.766124,56.698717],[8.825857,56.743842]]],[[[11.142345,57.332343],[10.946601,57.304643],[10.854991,57.264635],[11.028835,57.201914],[11.142345,57.332343]]]]},"properties":{"LOCATION_TYPE":"level1","ADM0_A3":"DNK","LOCATION_ID":"DNK-81","NAME":"Nordjylland","TYPE_EN":"Region"}},
{"type":"Feature","geometry":{"type":"MultiPolygon","coordinates":[[[[11.845225,54.73192],[11.848643,54.773179],[11.725759,54.873358],[11.572765,54.847968],[11.368907,54.88109],[11.2317,54.961249],[11.088145,54.944159],[11.018809,54.903388],[11.07838,54.841132],[11.030528,54.760647],[11.187755,54.732245],[11.451834,54.628363],[11.610525,54.666409],[11.81072,54.655097],[11.845225,54.73192]]],[[[12.417166,55.030219],[12.2942,55.023383],[12.129161,54.954413],[12.226817,54.892646],[12.313975,54.950873],[12.502778,54.948188],[12.504731,55.019761],[12.417166,55.030219]]],[[[12.359205,55.604593],[12.170193,55.622212],[12.226675,55.733808],[12.076088,55.778921],[12.095063,55.729071],[11.972667,55.721422],[11.854404,55.732154],[11.762706,55.749498],[11.731619,55.830715],[11.64088,55.943427],[11.510509,55.908271],[11.505219,55.86872],[11.252208,55.729071],[11.121837,55.736518],[11.071056,55.676947],[11.213145,55.415758],[11.16212,55.319159],[11.241547,55.27851],[11.245372,55.214789],[11.423188,55.22191],[11.649425,55.180976],[11.805349,55.073879],[11.882823,54.975531],[11.792979,54.951321],[11.749685,54.873114],[11.960704,54.694078],[12.067149,54.786811],[12.170177,54.838324],[12.096446,54.898098],[11.957856,54.948188],[12.148936,54.994127],[12.125743,55.071112],[12.16863,55.128485],[12.046641,55.140082],[12.182791,55.2272],[12.392426,55.255316],[12.465017,55.290269],[12.444591,55.348863],[12.352061,55.404446],[12.224864,55.434882],[12.19809,55.487494],[12.359205,55.604593]]]]},"properties":{"LOCATION_TYPE":"level1","ADM0_A3":"DNK","LOCATION_ID":"DNK-85","NAME":"Sjaælland","TYPE_EN":"Region"}},
{"type":"Feature","geometry":{"type":"MultiPolygon","coordinates":[[[[15.151378,55.133205],[14.851422,55.2482],[14.752126,55.298774],[14.70574,55.225653],[14.699555,55.089179],[14.780833,55.051128],[15.072666,54.991638],[15.151378,55.133205]]],[[[12.615733,55.688137],[12.520193,55.619208],[12.556326,55.550482],[12.673839,55.605536],[12.615733,55.688137]]],[[[11.854404,55.732154],[11.972667,55.721422],[12.051931,55.73664],[11.99822,55.902818],[11.869151,55.804755],[11.854404,55.732154]]],[[[12.076088,55.778921],[12.226675,55.733808],[12.170193,55.622212],[12.359205,55.604593],[12.465017,55.605536],[12.602224,55.708564],[12.602224,55.797349],[12.512706,55.920844],[12.621918,56.043769],[12.486095,56.099026],[12.245128,56.12873],[11.865571,55.972724],[12.026134,55.941352],[12.076088,55.778921]]]]},"properties":{"LOCATION_TYPE":"level1","ADM0_A3":"DNK","LOCATION_ID":"DNK-84","NAME":"Hovedstaden","TYPE_EN":"Region"}}
]}