{"type":"FeatureCollection", "features": [
{"type":"Feature","geometry":{"type":"Polygon","coordinates":[[[-71.746041,19.649017],[-71.532502,19.61963],[-71.413052,19.544544],[-71.184202,19.536508],[-71.133973,19.751766],[-71.221774,19.834567],[-71.357249,19.851264],[-71.504628,19.910346],[-71.64859,19.896715],[-71.744496,19.817206],[-71.746041,19.649017]]]},"properties":{"LOCATION_TYPE":"level1","ADM0_A3":"DOM","LOCATION_ID":"DOM-15","NAME":"Monte Cristi","TYPE_EN":"Province"}},
{"type":"Feature","geometry":{"type":"Polygon","coordinates":[[[-71.746041,19.649017],[-71.703861,19.41463],[-71.776519,19.327504],[-71.651733,19.217924],[-71.488267,19.298848],[-71.413052,19.544544],[-71.532502,19.61963],[-71.746041,19.649017]]]},"properties":{"LOCATION_TYPE":"level1","ADM0_A3":"DOM","LOCATION_ID":"DOM-05","NAME":"Dajabón","TYPE_EN":"Province"}},
{"type":"Feature","geometry":{"type":"Polygon","coordinates":[[[-71.651733,19.217924],[-71.643658,19.152475],[-71.783702,18.996309],[-71.718848,18.784229],[-71.784898,18.68473],[-71.534982,18.650774],[-71.627896,18.814201],[-71.624847,18.937837],[-71.518756,19.018064],[-71.471136,19.128393],[-71.327372,19.191077],[-71.488267,19.298848],[-71.651733,19.217924]]]},"properties":{"LOCATION_TYPE":"level1","ADM0_A3":"DOM","LOCATION_ID":"DOM-07","NAME":"La Estrelleta","TYPE_EN":"Province"}},
{"type":"Feature","geometry":{"type":"Polygon","coordinates":[[[-71.784898,18.68473],[-71.841579,18.617986],[-72.000949,18.582459],[-71.912169,18.430737],[-71.721709,18.292996],[-71.42194,18.135948],[-71.200765,18.338364],[-71.290553,18.404174],[-71.376723,18.392728],[-71.592601,18.477994],[-71.620662,18.565301],[-71.534982,18.650774],[-71.784898,18.68473]]]},"properties":{"LOCATION_TYPE":"level1","ADM0_A3":"DOM","LOCATION_ID":"DOM-10","NAME":"Independencia","TYPE_EN":"Province"}},
{"type":"Feature","geometry":{"type":"Polygon","coordinates":[[[-71.721709,18.292996],[-71.77533,18.172329],[-71.760654,18.086804],[-71.658803,17.953315],[-71.63093,17.816799],[-71.514882,17.737779],[-71.417226,17.604804],[-71.281017,17.853131],[-71.297684,17.929526],[-71.402225,17.963865],[-71.42194,18.135948],[-71.721709,18.292996]]]},"properties":{"LOCATION_TYPE":"level1","ADM0_A3":"DOM","LOCATION_ID":"DOM-16","NAME":"Pedernales","TYPE_EN":"Province"}},
{"type":"Feature","geometry":{"type":"Polygon","coordinates":[[[-68.785146,18.979885],[-68.832408,18.935692],[-68.838713,18.763403],[-68.935296,18.665683],[-68.852019,18.518637],[-68.901149,18.403656],[-68.849599,18.374823],[-68.742991,18.204535],[-68.658437,18.210924],[-68.574534,18.37816],[-68.444325,18.419501],[-68.334055,18.577297],[-68.356191,18.656562],[-68.5808,18.812567],[-68.785146,18.979885]]]},"properties":{"LOCATION_TYPE":"level1","ADM0_A3":"DOM","LOCATION_ID":"DOM-11","NAME":"La Altagracia","TYPE_EN":"Province"}},
{"type":"Feature","geometry":{"type":"Polygon","coordinates":[[[-69.211743,19.020983],[-69.328553,18.924065],[-69.235277,18.797949],[-69.253571,18.640232],[-69.092702,18.527345],[-68.935296,18.665683],[-68.838713,18.763403],[-68.832408,18.935692],[-68.785146,18.979885],[-68.97936,19.032864],[-69.04247,18.986762],[-69.139516,19.051215],[-69.211743,19.020983]]]},"properties":{"LOCATION_TYPE":"level1","ADM0_A3":"DOM","LOCATION_ID":"DOM-08","NAME":"El Seybo","TYPE_EN":"Province"}},
{"type":"Feature","geometry":{"type":"Polygon","coordinates":[[[-69.620887,19.101961],[-69.637837,19.008892],[-69.380876,18.871122],[-69.459114,18.802574],[-69.428547,18.654107],[-69.353746,18.521971],[-69.253571,18.640232],[-69.235277,18.797949],[-69.328553,18.924065],[-69.211743,19.020983],[-69.356068,19.053209],[-69.419993,19.111151],[-69.620887,19.101961]]]},"properties":{"LOCATION_TYPE":"level1","ADM0_A3":"DOM","LOCATION_ID":"DOM-30","NAME":"Hato Mayor","TYPE_EN":"Province"}},
{"type":"Feature","geometry":{"type":"Polygon","coordinates":[[[-69.771478,19.303253],[-69.786148,19.198053],[-69.755788,19.087595],[-69.637837,19.008892],[-69.620887,19.101961],[-69.602935,19.22899],[-69.253651,19.183539],[-69.158355,19.285102],[-69.335601,19.293402],[-69.539418,19.339423],[-69.771478,19.303253]]]},"properties":{"LOCATION_TYPE":"level1","ADM0_A3":"DOM","LOCATION_ID":"DOM-20","NAME":"Samaná","TYPE_EN":"Province"}},
{"type":"Feature","geometry":{"type":"Polygon","coordinates":[[[-70.094044,19.636724],[-70.21514,19.497389],[-70.145739,19.455195],[-70.118686,19.347088],[-69.991278,19.257119],[-69.786148,19.198053],[-69.771478,19.303253],[-69.867991,19.425279],[-69.897939,19.635972],[-69.947255,19.678656],[-70.094044,19.636724]]]},"properties":{"LOCATION_TYPE":"level1","ADM0_A3":"DOM","LOCATION_ID":"DOM-14","NAME":"María Trinidad Sánchez","TYPE_EN":"Province"}},
{"type":"Feature","geometry":{"type":"Polygon","coordinates":[[[-70.372716,19.714184],[-70.494167,19.650687],[-70.547704,19.517827],[-70.613901,19.368844],[-70.467321,19.318821],[-70.442258,19.500309],[-70.236586,19.499198],[-70.21514,19.497389],[-70.094044,19.636724],[-70.30134,19.65766],[-70.372716,19.714184]]]},"properties":{"LOCATION_TYPE":"level1","ADM0_A3":"DOM","LOCATION_ID":"DOM-09","NAME":"Espaillat","TYPE_EN":"Province"}},
{"type":"Feature","geometry":{"type":"Polygon","coordinates":[[[-71.221774,19.834567],[-71.133973,19.751766],[-70.864119,19.641747],[-70.760456,19.590432],[-70.658756,19.628725],[-70.547704,19.517827],[-70.494167,19.650687],[-70.372716,19.714184],[-70.433705,19.775214],[-70.623687,19.766547],[-70.830963,19.902533],[-71.000885,19.93769],[-71.221774,19.834567]]]},"properties":{"LOCATION_TYPE":"level1","ADM0_A3":"DOM","LOCATION_ID":"DOM-18","NAME":"Puerto Plata","TYPE_EN":"Province"}},
{"type":"Feature","geometry":{"type":"Polygon","coordinates":[[[-70.965615,18.262083],[-70.959384,18.354048],[-71.042712,18.380661],[-71.014755,18.502023],[-71.180275,18.397069],[-71.200765,18.338364],[-71.42194,18.135948],[-71.402225,17.963865],[-71.297684,17.929526],[-71.281017,17.853131],[-71.204254,17.911119],[-71.061106,18.142076],[-71.083974,18.304389],[-70.965615,18.262083]]]},"properties":{"LOCATION_TYPE":"level1","ADM0_A3":"DOM","LOCATION_ID":"DOM-04","NAME":"Barahona","TYPE_EN":"Province"}},
{"type":"Feature","geometry":{"type":"Polygon","coordinates":[[[-70.579382,18.271769],[-70.487397,18.321156],[-70.479078,18.413217],[-70.521866,18.488743],[-70.650333,18.572355],[-70.699994,18.676845],[-70.685835,18.734025],[-70.827428,18.862286],[-70.891197,18.988454],[-70.975275,18.88368],[-70.982458,18.782626],[-71.055812,18.678757],[-71.16131,18.615918],[-71.014755,18.502023],[-71.042712,18.380661],[-70.959384,18.354048],[-70.965615,18.262083],[-70.846018,18.34219],[-70.76065,18.34748],[-70.703847,18.430121],[-70.60143,18.411851],[-70.579382,18.271769]]]},"properties":{"LOCATION_TYPE":"level1","ADM0_A3":"DOM","LOCATION_ID":"DOM-02","NAME":"Azua","TYPE_EN":"Province"}},
{"type":"Feature","geometry":{"type":"Polygon","coordinates":[[[-70.180388,18.234131],[-70.269736,18.368802],[-70.236973,18.43301],[-70.356553,18.503574],[-70.479078,18.413217],[-70.487397,18.321156],[-70.579382,18.271769],[-70.552846,18.20425],[-70.397572,18.237616],[-70.180388,18.234131]]]},"properties":{"LOCATION_TYPE":"level1","ADM0_A3":"DOM","LOCATION_ID":"DOM-17","NAME":"Peravia","TYPE_EN":"Province"}},
{"type":"Feature","geometry":{"type":"Polygon","coordinates":[[[-70.004018,18.417467],[-70.123647,18.531246],[-70.167184,18.731673],[-70.251184,18.801721],[-70.350016,18.72015],[-70.356553,18.503574],[-70.236973,18.43301],[-70.269736,18.368802],[-70.180388,18.234131],[-70.004018,18.417467]]]},"properties":{"LOCATION_TYPE":"level1","ADM0_A3":"DOM","LOCATION_ID":"DOM-21","NAME":"San Cristóbal","TYPE_EN":"Province"}},
{"type":"Feature","geometry":{"type":"Polygon","coordinates":[[[-69.980918,18.426464],[-69.997401,18.493884],[-69.879384,18.471218],[-69.697377,18.456366],[-69.52811,18.410312],[-69.616572,18.519981],[-69.575334,18.648216],[-69.797982,18.600105],[-69.888261,18.701339],[-70.00877,18.66222],[-70.167184,18.731673],[-70.123647,18.531246],[-70.004018,18.417467],[-69.980918,18.426464]]]},"properties":{"LOCATION_TYPE":"level1","ADM0_A3":"DOM","LOCATION_ID":"DOM-32","NAME":"Santo Domingo","TYPE_EN":"Province"}},
{"type":"Feature","geometry":{"type":"Polygon","coordinates":[[[-69.879384,18.471218],[-69.997401,18.493884],[-69.980918,18.426464],[-69.879384,18.471218]]]},"properties":{"LOCATION_TYPE":"level1","ADM0_A3":"DOM","LOCATION_ID":"DOM-01","NAME":"Distrito Nacional","TYPE_EN":"National District"}},
{"type":"Feature","geometry":{"type":"Polygon","coordinates":[[[-69.085439,18.395901],[-69.092702,18.527345],[-69.253571,18.640232],[-69.353746,18.521971],[-69.428547,18.654107],[-69.459114,18.802574],[-69.575334,18.648216],[-69.616572,18.519981],[-69.52811,18.410312],[-69.236318,18.450507],[-69.085439,18.395901]]]},"properties":{"LOCATION_TYPE":"level1","ADM0_A3":"DOM","LOCATION_ID":"DOM-23","NAME":"San Pedro de Macorís","TYPE_EN":"Province"}},
{"type":"Feature","geometry":{"type":"Polygon","coordinates":[[[-68.901149,18.403656],[-68.852019,18.518637],[-68.935296,18.665683],[-69.092702,18.527345],[-69.085439,18.395901],[-68.901149,18.403656]]]},"properties":{"LOCATION_TYPE":"level1","ADM0_A3":"DOM","LOCATION_ID":"DOM-12","NAME":"La Romana","TYPE_EN":"Province"}},
{"type":"Feature","geometry":{"type":"Polygon","coordinates":[[[-71.133973,19.751766],[-71.184202,19.536508],[-71.075165,19.468063],[-70.9044,19.48155],[-70.864119,19.641747],[-71.133973,19.751766]]]},"properties":{"LOCATION_TYPE":"level1","ADM0_A3":"DOM","LOCATION_ID":"DOM-27","NAME":"Valverde","TYPE_EN":"Province"}},
{"type":"Feature","geometry":{"type":"Polygon","coordinates":[[[-71.184202,19.536508],[-71.413052,19.544544],[-71.488267,19.298848],[-71.327372,19.191077],[-71.23084,19.170174],[-71.240891,19.328976],[-71.075165,19.468063],[-71.184202,19.536508]]]},"properties":{"LOCATION_TYPE":"level1","ADM0_A3":"DOM","LOCATION_ID":"DOM-26","NAME":"Santiago Rodríguez","TYPE_EN":"Province"}},
{"type":"Feature","geometry":{"type":"Polygon","coordinates":[[[-70.613901,19.368844],[-70.741645,19.32094],[-70.678264,19.2488],[-70.916208,19.025919],[-70.891197,18.988454],[-70.827428,18.862286],[-70.685835,18.734025],[-70.699994,18.676845],[-70.610465,18.677362],[-70.533674,18.787949],[-70.592378,18.853242],[-70.501841,19.074211],[-70.392313,19.072325],[-70.281441,19.146429],[-70.363632,19.224925],[-70.467321,19.318821],[-70.613901,19.368844]]]},"properties":{"LOCATION_TYPE":"level1","ADM0_A3":"DOM","LOCATION_ID":"DOM-13","NAME":"La Vega","TYPE_EN":"Province"}},
{"type":"Feature","geometry":{"type":"Polygon","coordinates":[[[-70.236586,19.499198],[-70.442258,19.500309],[-70.467321,19.318821],[-70.363632,19.224925],[-70.321077,19.399436],[-70.236586,19.499198]]]},"properties":{"LOCATION_TYPE":"level1","ADM0_A3":"DOM","LOCATION_ID":"DOM-19","NAME":"Hermanas","TYPE_EN":"Province"}},
{"type":"Feature","geometry":{"type":"Polygon","coordinates":[[[-70.21514,19.497389],[-70.236586,19.499198],[-70.321077,19.399436],[-70.363632,19.224925],[-70.281441,19.146429],[-70.089075,19.144284],[-69.907769,19.093486],[-69.920326,19.039252],[-69.755788,19.087595],[-69.786148,19.198053],[-69.991278,19.257119],[-70.118686,19.347088],[-70.145739,19.455195],[-70.21514,19.497389]]]},"properties":{"LOCATION_TYPE":"level1","ADM0_A3":"DOM","LOCATION_ID":"DOM-06","NAME":"Duarte","TYPE_EN":"Province"}},
{"type":"Feature","geometry":{"type":"Polygon","coordinates":[[[-70.547704,19.517827],[-70.658756,19.628725],[-70.760456,19.590432],[-70.864119,19.641747],[-70.9044,19.48155],[-71.075165,19.468063],[-71.240891,19.328976],[-71.23084,19.170174],[-71.015427,19.025609],[-70.916208,19.025919],[-70.678264,19.2488],[-70.741645,19.32094],[-70.613901,19.368844],[-70.547704,19.517827]]]},"properties":{"LOCATION_TYPE":"level1","ADM0_A3":"DOM","LOCATION_ID":"DOM-25","NAME":"Santiago","TYPE_EN":"Province"}},
{"type":"Feature","geometry":{"type":"Polygon","coordinates":[[[-71.534982,18.650774],[-71.620662,18.565301],[-71.592601,18.477994],[-71.376723,18.392728],[-71.290553,18.404174],[-71.200765,18.338364],[-71.180275,18.397069],[-71.014755,18.502023],[-71.16131,18.615918],[-71.344864,18.599614],[-71.534982,18.650774]]]},"properties":{"LOCATION_TYPE":"level1","ADM0_A3":"DOM","LOCATION_ID":"DOM-03","NAME":"Bahoruco","TYPE_EN":"Province"}},
{"type":"Feature","geometry":{"type":"Polygon","coordinates":[[[-71.327372,19.191077],[-71.471136,19.128393],[-71.518756,19.018064],[-71.624847,18.937837],[-71.627896,18.814201],[-71.534982,18.650774],[-71.344864,18.599614],[-71.16131,18.615918],[-71.055812,18.678757],[-70.982458,18.782626],[-70.975275,18.88368],[-70.891197,18.988454],[-70.916208,19.025919],[-71.015427,19.025609],[-71.23084,19.170174],[-71.327372,19.191077]]]},"properties":{"LOCATION_TYPE":"level1","ADM0_A3":"DOM","LOCATION_ID":"DOM-22","NAME":"San Juan","TYPE_EN":"Province"}},
{"type":"Feature","geometry":{"type":"Polygon","coordinates":[[[-70.392313,19.072325],[-70.501841,19.074211],[-70.592378,18.853242],[-70.533674,18.787949],[-70.350016,18.72015],[-70.251184,18.801721],[-70.223848,18.854767],[-70.367121,18.998427],[-70.392313,19.072325]]]},"properties":{"LOCATION_TYPE":"level1","ADM0_A3":"DOM","LOCATION_ID":"DOM-28","NAME":"Monseñor Nouel","TYPE_EN":"Province"}},
{"type":"Feature","geometry":{"type":"Polygon","coordinates":[[[-70.223848,18.854767],[-69.952546,18.909983],[-69.920326,19.039252],[-69.907769,19.093486],[-70.089075,19.144284],[-70.281441,19.146429],[-70.392313,19.072325],[-70.367121,18.998427],[-70.223848,18.854767]]]},"properties":{"LOCATION_TYPE":"level1","ADM0_A3":"DOM","LOCATION_ID":"DOM-24","NAME":"Sánchez Ramírez","TYPE_EN":"Province"}},
{"type":"Feature","geometry":{"type":"Polygon","coordinates":[[[-70.533674,18.787949],[-70.610465,18.677362],[-70.699994,18.676845],[-70.650333,18.572355],[-70.521866,18.488743],[-70.479078,18.413217],[-70.356553,18.503574],[-70.350016,18.72015],[-70.533674,18.787949]]]},"properties":{"LOCATION_TYPE":"level1","ADM0_A3":"DOM","LOCATION_ID":"DOM-31","NAME":"San José de Ocoa","TYPE_EN":"Province"}},
{"type":"Feature","geometry":{"type":"Polygon","coordinates":[[[-70.251184,18.801721],[-70.167184,18.731673],[-70.00877,18.66222],[-69.888261,18.701339],[-69.797982,18.600105],[-69.575334,18.648216],[-69.459114,18.802574],[-69.380876,18.871122],[-69.637837,19.008892],[-69.755788,19.087595],[-69.920326,19.039252],[-69.952546,18.909983],[-70.223848,18.854767],[-70.251184,18.801721]]]},"properties":{"LOCATION_TYPE":"level1","ADM0_A3":"DOM","LOCATION_ID":"DOM-29","NAME":"Monte Plata","TYPE_EN":"Province"}}
]}