{"type":"FeatureCollection", "features": [
{"type":"Feature","geometry":{"type":"Polygon","coordinates":[[[-5.661525,25.508881],[-4.516025,24.803991],[-3.448544,24.106023],[-2.523226,23.500996],[-1.830039,23.047819],[-0.96358,22.481265],[-0.010408,21.85815],[1.146524,21.101711],[1.180114,20.995309],[1.145284,20.795889],[1.363978,20.657707],[1.520351,20.616986],[1.643961,20.522676],[1.649232,20.412089],[1.778113,20.304291],[2.056339,20.215046],[2.18243,20.278505],[2.400401,20.056555],[2.495382,20.020097],[2.946001,19.941652],[3.216785,19.794064],[3.199422,19.553769],[3.25823,19.410393],[3.102684,19.153561],[3.358689,18.976853],[3.790291,19.06077],[3.782229,20.549418],[3.751482,20.778293],[3.573198,20.969005],[1.368992,22.177897],[1.300055,22.270114],[1.307187,25.541387],[1.117121,25.692799],[1.081102,25.975159],[0.825407,26.268836],[1.06777,26.41552],[1.393951,26.425777],[1.531411,26.472571],[1.620811,26.578042],[1.763593,26.609436],[1.939396,26.808261],[2.065538,28.0733],[2.134113,28.491517],[2.079336,29.036367],[1.943427,30.094804],[2.07174,30.859693],[2.085382,31.658585],[1.033043,31.201791],[0.750166,31.029941],[0.399128,30.708694],[-0.199233,29.745032],[-0.825655,29.008204],[-0.95836,28.923015],[-1.87603,28.779045],[-2.114155,28.675795],[-2.569683,28.381085],[-2.812924,28.294346],[-3.022678,28.331036],[-3.55262,28.582442],[-3.750644,28.566887],[-2.974257,27.203275],[-5.661525,25.508881]]]},"properties":{"LOCATION_TYPE":"level1","ADM0_A3":"DZA","LOCATION_ID":"DZA-01","NAME":"Adrar","TYPE_EN":"Province"}},
{"type":"Feature","geometry":{"type":"Polygon","coordinates":[[[3.790291,19.06077],[5.082821,19.306006],[5.749344,19.433699],[5.837607,19.478631],[6.609963,20.142854],[7.482726,20.872577],[8.634491,21.551502],[9.723313,22.193427],[11.084367,22.995755],[11.968861,23.517351],[11.71014,24.000137],[8.712471,24.001378],[8.52132,24.228625],[8.392387,24.239709],[8.097573,24.350116],[7.956652,24.366678],[7.630625,24.597155],[7.320153,24.702756],[7.125385,24.895096],[7.0858,25.109191],[7.170705,25.28639],[6.995522,25.50157],[6.958573,25.759823],[6.71187,25.821706],[6.518497,25.911442],[6.307347,26.165302],[6.178827,26.231552],[6.269933,26.512646],[6.206319,26.659743],[5.950418,26.861823],[5.815749,27.321356],[5.872386,27.4568],[6.257841,27.765515],[6.566607,27.888091],[6.5109,28.089862],[5.952743,28.490794],[4.750491,28.461855],[3.815561,28.545906],[2.985999,29.123546],[2.079336,29.036367],[2.134113,28.491517],[2.065538,28.0733],[1.939396,26.808261],[1.763593,26.609436],[1.620811,26.578042],[1.531411,26.472571],[1.393951,26.425777],[1.06777,26.41552],[0.825407,26.268836],[1.081102,25.975159],[1.117121,25.692799],[1.307187,25.541387],[1.300055,22.270114],[1.368992,22.177897],[3.573198,20.969005],[3.751482,20.778293],[3.782229,20.549418],[3.790291,19.06077]]]},"properties":{"LOCATION_TYPE":"level1","ADM0_A3":"DZA","LOCATION_ID":"DZA-11","NAME":"Tamanghasset","TYPE_EN":"Province"}},
{"type":"Feature","geometry":{"type":"Polygon","coordinates":[[[-5.661525,25.508881],[-2.974257,27.203275],[-3.750644,28.566887],[-5.266779,28.207245],[-6.000765,29.579127],[-6.27333,29.579127],[-6.699649,29.516227],[-6.783515,29.446339],[-6.958236,29.509238],[-7.146934,29.509238],[-7.34961,29.383439],[-7.619453,29.389422],[-8.069658,29.079337],[-8.383489,28.905782],[-8.648847,28.725948],[-8.682385,28.6659],[-8.682385,27.285416],[-7.297043,26.470737],[-6.307491,25.888808],[-5.661525,25.508881]]]},"properties":{"LOCATION_TYPE":"level1","ADM0_A3":"DZA","LOCATION_ID":"DZA-37","NAME":"Tindouf","TYPE_EN":"Province"}},
{"type":"Feature","geometry":{"type":"Polygon","coordinates":[[[-1.273423,32.229442],[-1.249557,32.08166],[-2.516147,32.1322],[-2.938731,32.048639],[-2.827836,31.794586],[-3.659507,31.647821],[-3.673484,31.389234],[-3.81922,31.318865],[-3.814982,31.220524],[-3.635872,31.095674],[-3.554674,30.955927],[-3.659507,30.837116],[-3.645529,30.711317],[-3.834228,30.627452],[-4.155714,30.585519],[-4.372368,30.508641],[-4.623966,30.284999],[-4.875564,30.180166],[-5.273927,29.886635],[-5.539503,29.523216],[-5.721212,29.523216],[-5.756156,29.614071],[-6.000765,29.579127],[-5.266779,28.207245],[-3.750644,28.566887],[-3.55262,28.582442],[-3.022678,28.331036],[-2.812924,28.294346],[-2.569683,28.381085],[-2.114155,28.675795],[-1.87603,28.779045],[-0.95836,28.923015],[-0.825655,29.008204],[-0.199233,29.745032],[0.399128,30.708694],[-0.154016,31.123785],[-0.37023,31.337002],[-0.401133,31.429348],[-0.039449,32.327304],[-0.845085,32.11003],[-1.049827,32.242192],[-1.273423,32.229442]]]},"properties":{"LOCATION_TYPE":"level1","ADM0_A3":"DZA","LOCATION_ID":"DZA-08","NAME":"Béchar","TYPE_EN":"Province"}},
{"type":"Feature","geometry":{"type":"Polygon","coordinates":[[[8.16789,36.491995],[8.407941,36.642622],[8.497569,36.904202],[8.233165,36.958075],[7.908458,36.849555],[7.773774,36.889757],[7.649745,36.663395],[7.987864,36.484388],[8.16789,36.491995]]]},"properties":{"LOCATION_TYPE":"level1","ADM0_A3":"DZA","LOCATION_ID":"DZA-36","NAME":"El Tarf","TYPE_EN":"Province"}},
{"type":"Feature","geometry":{"type":"Polygon","coordinates":[[[9.063304,32.000192],[9.019893,32.104863],[8.482665,32.434791],[8.319574,32.560598],[8.282884,32.836369],[8.086824,33.094286],[7.75072,33.207664],[7.693153,33.454109],[7.553006,33.658748],[7.479832,33.893901],[7.539228,34.113758],[7.327594,34.108306],[7.135772,34.160577],[6.960588,34.193934],[6.744891,34.298734],[6.695902,34.376093],[6.505474,34.319714],[6.193297,34.428958],[5.998528,34.394955],[5.477165,34.449836],[5.319345,34.498928],[5.185451,34.356663],[5.359859,34.166209],[5.334848,33.845996],[5.121786,33.57268],[5.008046,33.441887],[6.192987,33.376981],[6.378557,33.317553],[6.464805,33.157692],[6.683758,32.511763],[6.850879,32.239247],[7.030868,32.052953],[7.313797,32.002259],[9.063304,32.000192]]]},"properties":{"LOCATION_TYPE":"level1","ADM0_A3":"DZA","LOCATION_ID":"DZA-39","NAME":"El Oued","TYPE_EN":"Province"}},
{"type":"Feature","geometry":{"type":"Polygon","coordinates":[[[7.539228,34.113758],[7.774285,34.260959],[7.831542,34.414386],[8.094058,34.530142],[8.236479,34.647654],[8.248881,34.901953],[8.313683,35.103078],[8.431299,35.241726],[8.317404,35.289475],[8.323605,35.652192],[8.24144,35.827737],[8.268423,35.969864],[8.002747,35.971293],[7.865856,35.858716],[7.840741,35.615165],[7.544842,35.447811],[7.425986,35.397349],[7.416013,35.182711],[7.261965,34.99851],[7.361391,34.965928],[7.397719,34.726382],[7.274058,34.540734],[7.135772,34.160577],[7.327594,34.108306],[7.539228,34.113758]]]},"properties":{"LOCATION_TYPE":"level1","ADM0_A3":"DZA","LOCATION_ID":"DZA-12","NAME":"Tébessa","TYPE_EN":"Province"}},
{"type":"Feature","geometry":{"type":"Polygon","coordinates":[[[8.268423,35.969864],[8.349237,36.448784],[8.16789,36.491995],[7.987864,36.484388],[7.793716,36.435063],[7.829424,36.315045],[7.410432,36.181254],[7.325889,36.127408],[7.452031,35.9191],[7.641632,35.830992],[7.71925,35.926515],[7.865856,35.858716],[8.002747,35.971293],[8.268423,35.969864]]]},"properties":{"LOCATION_TYPE":"level1","ADM0_A3":"DZA","LOCATION_ID":"DZA-41","NAME":"Souk Ahras","TYPE_EN":"Province"}},
{"type":"Feature","geometry":{"type":"Polygon","coordinates":[[[9.063304,32.000192],[7.313797,32.002259],[7.030868,32.052953],[6.850879,32.239247],[6.683758,32.511763],[6.464805,33.157692],[6.378557,33.317553],[6.192987,33.376981],[5.008046,33.441887],[4.953114,33.241486],[4.97828,32.840761],[4.738864,32.531891],[4.398884,32.296272],[4.322041,32.200205],[4.11084,31.791393],[4.050637,31.553527],[3.802538,29.989849],[3.72151,29.863345],[3.479612,29.636848],[3.344478,29.306558],[2.985999,29.123546],[3.815561,28.545906],[4.750491,28.461855],[5.952743,28.490794],[6.420931,28.73127],[6.787421,28.868264],[7.146365,28.839377],[9.369485,30.022793],[9.286544,30.117129],[9.519708,30.228905],[9.264426,31.219336],[9.063304,32.000192]]]},"properties":{"LOCATION_TYPE":"level1","ADM0_A3":"DZA","LOCATION_ID":"DZA-30","NAME":"Ouargla","TYPE_EN":"Province"}},
{"type":"Feature","geometry":{"type":"Polygon","coordinates":[[[9.369485,30.022793],[7.146365,28.839377],[6.787421,28.868264],[6.420931,28.73127],[5.952743,28.490794],[6.5109,28.089862],[6.566607,27.888091],[6.257841,27.765515],[5.872386,27.4568],[5.815749,27.321356],[5.950418,26.861823],[6.206319,26.659743],[6.269933,26.512646],[6.178827,26.231552],[6.307347,26.165302],[6.518497,25.911442],[6.71187,25.821706],[6.958573,25.759823],[6.995522,25.50157],[7.170705,25.28639],[7.0858,25.109191],[7.125385,24.895096],[7.320153,24.702756],[7.630625,24.597155],[7.956652,24.366678],[8.097573,24.350116],[8.392387,24.239709],[8.52132,24.228625],[8.712471,24.001378],[11.71014,24.000137],[11.50863,24.313814],[10.720668,24.552301],[10.450194,24.476931],[10.260335,24.576641],[10.193362,24.749937],[10.032028,24.856339],[10.021383,25.26802],[9.9695,25.395402],[9.401162,26.113394],[9.482604,26.352553],[9.835761,26.504223],[9.896326,26.652793],[9.910588,26.843117],[9.825529,26.92058],[9.721349,27.291875],[9.821602,27.505687],[9.93591,27.866724],[9.776953,28.267578],[9.851264,28.785996],[9.826149,29.128533],[9.667709,29.608323],[9.369485,30.022793]]]},"properties":{"LOCATION_TYPE":"level1","ADM0_A3":"DZA","LOCATION_ID":"DZA-33","NAME":"Illizi","TYPE_EN":"Province"}},
{"type":"Feature","geometry":{"type":"Polygon","coordinates":[[[-1.273423,32.229442],[-1.049827,32.242192],[-0.845085,32.11003],[-0.039449,32.327304],[-0.006583,32.48701],[-0.098929,32.590673],[-0.00493,32.81823],[-0.029321,32.999976],[0.068089,33.376077],[0.045713,33.623142],[0.086021,34.04831],[-0.228947,34.053942],[-0.348785,33.927025],[-0.488879,34.158122],[-0.485727,34.229332],[-0.617295,34.311058],[-0.836197,34.215121],[-1.120417,34.271293],[-1.24227,34.20892],[-1.479878,34.190523],[-1.672085,34.092021],[-1.718728,33.898087],[-1.612739,33.521469],[-1.683226,33.36923],[-1.674234,33.237972],[-1.499516,33.060205],[-1.558789,32.93365],[-1.423345,32.742395],[-1.047502,32.517009],[-1.217983,32.392623],[-1.273423,32.229442]]]},"properties":{"LOCATION_TYPE":"level1","ADM0_A3":"DZA","LOCATION_ID":"DZA-45","NAME":"Naâma","TYPE_EN":"Province"}},
{"type":"Feature","geometry":{"type":"Polygon","coordinates":[[[-1.672085,34.092021],[-1.479878,34.190523],[-1.24227,34.20892],[-1.120417,34.271293],[-0.895935,34.451748],[-0.761162,34.702378],[-0.896503,34.760902],[-1.000528,35.087393],[-1.347277,35.219349],[-1.361976,35.319899],[-1.510365,35.295478],[-1.761138,35.129625],[-2.052358,35.075019],[-2.193789,35.003601],[-1.787716,34.756691],[-1.871121,34.596649],[-1.750664,34.494175],[-1.809626,34.372451],[-1.672085,34.092021]]]},"properties":{"LOCATION_TYPE":"level1","ADM0_A3":"DZA","LOCATION_ID":"DZA-13","NAME":"Tlemcen","TYPE_EN":"Province"}},
{"type":"Feature","geometry":{"type":"Polygon","coordinates":[[[7.262677,37.076005],[7.384232,36.726131],[7.481073,36.634095],[7.649745,36.663395],[7.773774,36.889757],[7.490245,37.054999],[7.262677,37.076005]]]},"properties":{"LOCATION_TYPE":"level1","ADM0_A3":"DZA","LOCATION_ID":"DZA-23","NAME":"Annaba","TYPE_EN":"Province"}},
{"type":"Feature","geometry":{"type":"Polygon","coordinates":[[[6.247831,36.935315],[6.457363,36.579886],[6.504079,36.577716],[6.652442,36.607895],[6.937954,36.432867],[7.123989,36.585829],[7.384232,36.726131],[7.262677,37.076005],[7.239024,36.971503],[6.909434,36.893052],[6.822032,36.952623],[6.583263,36.989814],[6.462413,37.09394],[6.338715,37.069281],[6.247831,36.935315]]]},"properties":{"LOCATION_TYPE":"level1","ADM0_A3":"DZA","LOCATION_ID":"DZA-21","NAME":"Skikda","TYPE_EN":"Province"}},
{"type":"Feature","geometry":{"type":"Polygon","coordinates":[[[5.428039,36.663878],[5.475459,36.590635],[5.554731,36.524076],[5.737201,36.555133],[6.294583,36.62407],[6.457363,36.579886],[6.247831,36.935315],[6.03712,36.853583],[5.7588,36.833401],[5.428039,36.663878]]]},"properties":{"LOCATION_TYPE":"level1","ADM0_A3":"DZA","LOCATION_ID":"DZA-18","NAME":"Jijel","TYPE_EN":"Province"}},
{"type":"Feature","geometry":{"type":"Polygon","coordinates":[[[4.591482,36.89525],[4.648068,36.79548],[4.528127,36.568543],[4.370927,36.472658],[4.356355,36.340444],[4.408186,36.23846],[4.620163,36.247917],[4.631325,36.329101],[4.801082,36.379744],[4.908466,36.382741],[5.00014,36.529605],[5.194133,36.520484],[5.187777,36.408424],[5.46068,36.502785],[5.475459,36.590635],[5.428039,36.663878],[5.118419,36.699368],[5.104828,36.781317],[4.78712,36.895413],[4.591482,36.89525]]]},"properties":{"LOCATION_TYPE":"level1","ADM0_A3":"DZA","LOCATION_ID":"DZA-06","NAME":"Béjaïa","TYPE_EN":"Province"}},
{"type":"Feature","geometry":{"type":"Polygon","coordinates":[[[4.039463,36.89692],[3.920464,36.670734],[3.733654,36.607611],[3.936122,36.474415],[4.370927,36.472658],[4.528127,36.568543],[4.648068,36.79548],[4.591482,36.89525],[4.039463,36.89692]]]},"properties":{"LOCATION_TYPE":"level1","ADM0_A3":"DZA","LOCATION_ID":"DZA-15","NAME":"Tizi Ouzou","TYPE_EN":"Province"}},
{"type":"Feature","geometry":{"type":"Polygon","coordinates":[[[3.173269,36.742621],[3.229808,36.685125],[3.477442,36.688562],[3.675001,36.680113],[3.733654,36.607611],[3.920464,36.670734],[4.039463,36.89692],[3.827485,36.912909],[3.460704,36.775092],[3.237804,36.813056],[3.173269,36.742621]]]},"properties":{"LOCATION_TYPE":"level1","ADM0_A3":"DZA","LOCATION_ID":"DZA-35","NAME":"Boumerdès","TYPE_EN":"Province"}},
{"type":"Feature","geometry":{"type":"Polygon","coordinates":[[[2.984874,36.814968],[3.025118,36.710059],[3.229808,36.685125],[3.173269,36.742621],[2.984874,36.814968]]]},"properties":{"LOCATION_TYPE":"level1","ADM0_A3":"DZA","LOCATION_ID":"DZA-16","NAME":"Alger","TYPE_EN":"Province"}},
{"type":"Feature","geometry":{"type":"Polygon","coordinates":[[[1.700938,36.547187],[1.647786,36.443151],[2.003785,36.410181],[2.14326,36.438319],[2.476263,36.42062],[2.847144,36.640115],[3.025118,36.710059],[2.984874,36.814968],[2.632986,36.605129],[2.309825,36.63052],[2.059906,36.570136],[1.700938,36.547187]]]},"properties":{"LOCATION_TYPE":"level1","ADM0_A3":"DZA","LOCATION_ID":"DZA-42","NAME":"Tipaza","TYPE_EN":"Province"}},
{"type":"Feature","geometry":{"type":"Polygon","coordinates":[[[0.740408,36.337755],[0.704071,36.186525],[0.897393,36.197636],[0.920544,36.065241],[1.175153,35.944421],[1.280522,35.969019],[1.411625,35.841559],[1.548361,36.003953],[1.712692,35.923415],[1.588513,36.164124],[1.559523,36.380984],[1.647786,36.443151],[1.700938,36.547187],[1.04477,36.486884],[0.740408,36.337755]]]},"properties":{"LOCATION_TYPE":"level1","ADM0_A3":"DZA","LOCATION_ID":"DZA-02","NAME":"Chlef","TYPE_EN":"Province"}},
{"type":"Feature","geometry":{"type":"Polygon","coordinates":[[[-0.113678,35.788804],[-0.11438,35.783759],[0.229371,35.695935],[0.434837,35.834428],[0.704071,36.186525],[0.740408,36.337755],[0.663259,36.332587],[0.127289,36.050767],[0.034516,35.863267],[-0.113678,35.788804]]]},"properties":{"LOCATION_TYPE":"level1","ADM0_A3":"DZA","LOCATION_ID":"DZA-27","NAME":"Mostaganem","TYPE_EN":"Province"}},
{"type":"Feature","geometry":{"type":"Polygon","coordinates":[[[-1.106353,35.623236],[-0.954122,35.43732],[-0.740905,35.48246],[-0.668868,35.332004],[-0.545362,35.411973],[-0.407334,35.574108],[-0.11438,35.783759],[-0.113678,35.788804],[-0.348541,35.90705],[-0.682607,35.717353],[-0.825022,35.768541],[-1.106353,35.623236]]]},"properties":{"LOCATION_TYPE":"level1","ADM0_A3":"DZA","LOCATION_ID":"DZA-31","NAME":"Oran","TYPE_EN":"Province"}},
{"type":"Feature","geometry":{"type":"Polygon","coordinates":[[[-1.361976,35.319899],[-1.347277,35.219349],[-1.000528,35.087393],[-0.887201,35.243017],[-0.668868,35.332004],[-0.740905,35.48246],[-0.954122,35.43732],[-1.106353,35.623236],[-1.26773,35.390326],[-1.361976,35.319899]]]},"properties":{"LOCATION_TYPE":"level1","ADM0_A3":"DZA","LOCATION_ID":"DZA-46","NAME":"Aïn Témouchent","TYPE_EN":"Province"}},
{"type":"Feature","geometry":{"type":"Polygon","coordinates":[[[4.801082,36.379744],[4.821236,36.306854],[5.062823,36.301376],[5.243329,36.154383],[5.054452,35.777326],[5.226224,35.664025],[5.379703,35.632916],[5.588889,35.823085],[5.976669,35.915793],[5.983335,36.058471],[5.86603,36.25541],[5.872386,36.401887],[5.737201,36.555133],[5.554731,36.524076],[5.475459,36.590635],[5.46068,36.502785],[5.187777,36.408424],[5.194133,36.520484],[5.00014,36.529605],[4.908466,36.382741],[4.801082,36.379744]]]},"properties":{"LOCATION_TYPE":"level1","ADM0_A3":"DZA","LOCATION_ID":"DZA-19","NAME":"Sétif","TYPE_EN":"Province"}},
{"type":"Feature","geometry":{"type":"Polygon","coordinates":[[[4.801082,36.379744],[4.631325,36.329101],[4.620163,36.247917],[4.408186,36.23846],[4.356355,36.340444],[4.08433,36.029093],[4.40431,35.992222],[4.536964,35.93791],[4.599802,35.821793],[4.854929,35.873159],[5.054452,35.777326],[5.243329,36.154383],[5.062823,36.301376],[4.821236,36.306854],[4.801082,36.379744]]]},"properties":{"LOCATION_TYPE":"level1","ADM0_A3":"DZA","LOCATION_ID":"DZA-34","NAME":"Bordj Bou Arréridj","TYPE_EN":"Province"}},
{"type":"Feature","geometry":{"type":"Polygon","coordinates":[[[4.356355,36.340444],[4.370927,36.472658],[3.936122,36.474415],[3.733654,36.607611],[3.675001,36.680113],[3.477442,36.688562],[3.51005,36.623165],[3.283035,36.490176],[3.560486,36.412041],[3.578934,35.999353],[3.62844,35.922795],[3.850804,35.861972],[4.022266,35.866855],[4.08433,36.029093],[4.356355,36.340444]]]},"properties":{"LOCATION_TYPE":"level1","ADM0_A3":"DZA","LOCATION_ID":"DZA-10","NAME":"Bouira","TYPE_EN":"Province"}},
{"type":"Feature","geometry":{"type":"Polygon","coordinates":[[[3.477442,36.688562],[3.229808,36.685125],[3.025118,36.710059],[2.847144,36.640115],[2.476263,36.42062],[2.661109,36.363104],[2.996283,36.353285],[3.283035,36.490176],[3.51005,36.623165],[3.477442,36.688562]]]},"properties":{"LOCATION_TYPE":"level1","ADM0_A3":"DZA","LOCATION_ID":"DZA-09","NAME":"Blida","TYPE_EN":"Province"}},
{"type":"Feature","geometry":{"type":"Polygon","coordinates":[[[1.712692,35.923415],[1.548361,36.003953],[1.411625,35.841559],[1.263623,35.749446],[1.245588,35.647333],[1.346461,35.689812],[1.634609,35.550466],[2.05019,35.575348],[2.249713,35.559613],[2.158194,35.698235],[2.311777,35.866958],[2.008746,35.917911],[1.853562,35.860499],[1.712692,35.923415]]]},"properties":{"LOCATION_TYPE":"level1","ADM0_A3":"DZA","LOCATION_ID":"DZA-38","NAME":"Tissemsilt","TYPE_EN":"Province"}},
{"type":"Feature","geometry":{"type":"Polygon","coordinates":[[[1.712692,35.923415],[1.853562,35.860499],[2.008746,35.917911],[2.311777,35.866958],[2.571554,36.099089],[2.486495,36.241974],[2.661109,36.363104],[2.476263,36.42062],[2.14326,36.438319],[2.003785,36.410181],[1.647786,36.443151],[1.559523,36.380984],[1.588513,36.164124],[1.712692,35.923415]]]},"properties":{"LOCATION_TYPE":"level1","ADM0_A3":"DZA","LOCATION_ID":"DZA-44","NAME":"Aïn Defla","TYPE_EN":"Province"}},
{"type":"Feature","geometry":{"type":"Polygon","coordinates":[[[1.411625,35.841559],[1.280522,35.969019],[1.175153,35.944421],[0.920544,36.065241],[0.897393,36.197636],[0.704071,36.186525],[0.434837,35.834428],[0.229371,35.695935],[0.319082,35.557778],[0.827888,35.44347],[0.959456,35.547753],[1.245588,35.647333],[1.263623,35.749446],[1.411625,35.841559]]]},"properties":{"LOCATION_TYPE":"level1","ADM0_A3":"DZA","LOCATION_ID":"DZA-48","NAME":"Relizane","TYPE_EN":"Province"}},
{"type":"Feature","geometry":{"type":"Polygon","coordinates":[[[0.757608,34.438182],[0.340786,34.234138],[0.243789,34.230133],[0.086021,34.04831],[0.045713,33.623142],[0.068089,33.376077],[-0.029321,32.999976],[-0.00493,32.81823],[-0.098929,32.590673],[-0.006583,32.48701],[-0.039449,32.327304],[-0.401133,31.429348],[-0.37023,31.337002],[-0.154016,31.123785],[0.399128,30.708694],[0.750166,31.029941],[1.033043,31.201791],[2.085382,31.658585],[2.239326,31.773539],[2.228784,31.951693],[2.343299,32.132664],[2.297514,32.377301],[2.291468,32.695989],[2.174937,32.97499],[2.077941,33.075811],[1.975208,33.29218],[2.019288,33.499041],[1.760027,33.842586],[1.389766,33.978185],[1.336229,34.068929],[1.231481,34.191893],[1.039089,34.188818],[1.031958,34.339351],[0.757608,34.438182]]]},"properties":{"LOCATION_TYPE":"level1","ADM0_A3":"DZA","LOCATION_ID":"DZA-32","NAME":"El Bayadh","TYPE_EN":"Province"}},
{"type":"Feature","geometry":{"type":"Polygon","coordinates":[[[0.757608,34.438182],[0.856258,34.502132],[0.693529,34.73633],[0.669758,34.855496],[0.774041,34.935129],[0.625058,35.09592],[0.492249,35.086334],[0.209838,35.02148],[0.112221,35.096101],[-0.014335,35.063855],[-0.165178,35.122921],[-0.253597,35.086489],[-0.284964,34.897534],[-0.363977,34.864125],[-0.11438,34.682431],[-0.071902,34.529701],[-0.485727,34.229332],[-0.488879,34.158122],[-0.348785,33.927025],[-0.228947,34.053942],[0.086021,34.04831],[0.243789,34.230133],[0.340786,34.234138],[0.757608,34.438182]]]},"properties":{"LOCATION_TYPE":"level1","ADM0_A3":"DZA","LOCATION_ID":"DZA-20","NAME":"Saïda","TYPE_EN":"Province"}},
{"type":"Feature","geometry":{"type":"Polygon","coordinates":[[[-0.165178,35.122921],[-0.206158,35.30999],[-0.545362,35.411973],[-0.668868,35.332004],[-0.887201,35.243017],[-1.000528,35.087393],[-0.896503,34.760902],[-0.761162,34.702378],[-0.895935,34.451748],[-1.120417,34.271293],[-0.836197,34.215121],[-0.617295,34.311058],[-0.485727,34.229332],[-0.071902,34.529701],[-0.11438,34.682431],[-0.363977,34.864125],[-0.284964,34.897534],[-0.253597,35.086489],[-0.165178,35.122921]]]},"properties":{"LOCATION_TYPE":"level1","ADM0_A3":"DZA","LOCATION_ID":"DZA-22","NAME":"Sidi Bel Abbès","TYPE_EN":"Province"}},
{"type":"Feature","geometry":{"type":"Polygon","coordinates":[[[0.229371,35.695935],[-0.11438,35.783759],[-0.407334,35.574108],[-0.545362,35.411973],[-0.206158,35.30999],[-0.165178,35.122921],[-0.014335,35.063855],[0.112221,35.096101],[0.209838,35.02148],[0.492249,35.086334],[0.617771,35.276038],[0.802101,35.290456],[0.827888,35.44347],[0.319082,35.557778],[0.229371,35.695935]]]},"properties":{"LOCATION_TYPE":"level1","ADM0_A3":"DZA","LOCATION_ID":"DZA-29","NAME":"Mascara","TYPE_EN":"Province"}},
{"type":"Feature","geometry":{"type":"Polygon","coordinates":[[[2.085382,31.658585],[2.07174,30.859693],[1.943427,30.094804],[2.079336,29.036367],[2.985999,29.123546],[3.344478,29.306558],[3.479612,29.636848],[3.72151,29.863345],[3.802538,29.989849],[4.050637,31.553527],[4.11084,31.791393],[4.322041,32.200205],[4.398884,32.296272],[4.738864,32.531891],[4.97828,32.840761],[4.176211,33.029638],[3.884445,32.981863],[3.735049,32.99796],[3.265155,32.781152],[3.100669,32.830684],[2.291468,32.695989],[2.297514,32.377301],[2.343299,32.132664],[2.228784,31.951693],[2.239326,31.773539],[2.085382,31.658585]]]},"properties":{"LOCATION_TYPE":"level1","ADM0_A3":"DZA","LOCATION_ID":"DZA-47","NAME":"Ghardaïa","TYPE_EN":"Province"}},
{"type":"Feature","geometry":{"type":"Polygon","coordinates":[[[2.291468,32.695989],[3.100669,32.830684],[3.265155,32.781152],[3.735049,32.99796],[3.884445,32.981863],[4.176211,33.029638],[4.028313,33.280372],[3.640998,33.564334],[3.232134,33.947411],[3.103925,34.229746],[2.933237,34.254421],[2.828076,34.147218],[2.644935,34.077972],[2.642764,33.915682],[2.489957,33.917362],[2.483394,34.113577],[2.30449,34.412628],[2.357717,34.69287],[2.238396,34.679951],[1.981099,34.50699],[1.832788,34.464305],[1.641585,34.256152],[1.336229,34.068929],[1.389766,33.978185],[1.760027,33.842586],[2.019288,33.499041],[1.975208,33.29218],[2.077941,33.075811],[2.174937,32.97499],[2.291468,32.695989]]]},"properties":{"LOCATION_TYPE":"level1","ADM0_A3":"DZA","LOCATION_ID":"DZA-03","NAME":"Laghouat","TYPE_EN":"Province"}},
{"type":"Feature","geometry":{"type":"Polygon","coordinates":[[[2.249713,35.559613],[2.285732,35.439077],[2.527009,35.501193],[2.636873,35.441842],[2.898821,35.62997],[3.230118,35.770065],[3.379515,35.751203],[3.602654,35.832103],[3.62844,35.922795],[3.578934,35.999353],[3.560486,36.412041],[3.283035,36.490176],[2.996283,36.353285],[2.661109,36.363104],[2.486495,36.241974],[2.571554,36.099089],[2.311777,35.866958],[2.158194,35.698235],[2.249713,35.559613]]]},"properties":{"LOCATION_TYPE":"level1","ADM0_A3":"DZA","LOCATION_ID":"DZA-26","NAME":"Médéa","TYPE_EN":"Province"}},
{"type":"Feature","geometry":{"type":"Polygon","coordinates":[[[2.249713,35.559613],[2.05019,35.575348],[1.634609,35.550466],[1.346461,35.689812],[1.245588,35.647333],[0.959456,35.547753],[0.827888,35.44347],[0.802101,35.290456],[0.617771,35.276038],[0.492249,35.086334],[0.625058,35.09592],[0.774041,34.935129],[0.669758,34.855496],[0.693529,34.73633],[0.856258,34.502132],[0.757608,34.438182],[1.031958,34.339351],[1.039089,34.188818],[1.231481,34.191893],[1.336229,34.068929],[1.641585,34.256152],[1.832788,34.464305],[1.981099,34.50699],[2.238396,34.679951],[2.357717,34.69287],[2.369964,34.776301],[2.604162,35.054992],[2.387069,35.198291],[2.286817,35.329265],[2.285732,35.439077],[2.249713,35.559613]]]},"properties":{"LOCATION_TYPE":"level1","ADM0_A3":"DZA","LOCATION_ID":"DZA-14","NAME":"Tiaret","TYPE_EN":"Province"}},
{"type":"Feature","geometry":{"type":"Polygon","coordinates":[[[5.054452,35.777326],[4.854929,35.873159],[4.599802,35.821793],[4.536964,35.93791],[4.40431,35.992222],[4.08433,36.029093],[4.022266,35.866855],[3.850804,35.861972],[3.62844,35.922795],[3.602654,35.832103],[3.379515,35.751203],[3.680427,35.49556],[3.65526,35.284978],[3.473566,35.157958],[3.671125,34.79028],[3.906046,34.762633],[4.0387,34.371623],[4.213728,34.2322],[4.195744,34.525748],[4.434696,34.772658],[4.932805,34.838907],[5.041119,34.918644],[5.038639,35.083311],[4.777001,35.180644],[4.865471,35.262602],[4.963243,35.48879],[5.173772,35.510339],[5.379703,35.632916],[5.226224,35.664025],[5.054452,35.777326]]]},"properties":{"LOCATION_TYPE":"level1","ADM0_A3":"DZA","LOCATION_ID":"DZA-28","NAME":"M'Sila","TYPE_EN":"Province"}},
{"type":"Feature","geometry":{"type":"Polygon","coordinates":[[[5.976669,35.915793],[5.588889,35.823085],[5.379703,35.632916],[5.173772,35.510339],[4.963243,35.48879],[4.865471,35.262602],[4.777001,35.180644],[5.038639,35.083311],[5.306012,35.021429],[5.608733,35.098401],[5.554886,35.191392],[5.820865,35.287924],[6.00535,35.226274],[5.939876,35.029542],[6.125601,35.000913],[6.412663,35.068764],[6.431318,34.87167],[6.587898,34.778549],[6.598595,34.900351],[6.51214,35.052383],[6.587433,35.422205],[6.742255,35.51468],[6.769127,35.68392],[6.649496,35.796678],[6.487026,35.781434],[6.351065,35.884735],[6.149217,35.900393],[5.976669,35.915793]]]},"properties":{"LOCATION_TYPE":"level1","ADM0_A3":"DZA","LOCATION_ID":"DZA-05","NAME":"Batna","TYPE_EN":"Province"}},
{"type":"Feature","geometry":{"type":"Polygon","coordinates":[[[6.769127,35.68392],[6.742255,35.51468],[6.587433,35.422205],[6.51214,35.052383],[6.598595,34.900351],[6.587898,34.778549],[6.749542,34.712223],[6.695902,34.376093],[6.744891,34.298734],[6.960588,34.193934],[7.135772,34.160577],[7.274058,34.540734],[7.397719,34.726382],[7.361391,34.965928],[7.261965,34.99851],[7.416013,35.182711],[7.425986,35.397349],[7.544842,35.447811],[7.28832,35.612607],[6.824989,35.623562],[6.769127,35.68392]]]},"properties":{"LOCATION_TYPE":"level1","ADM0_A3":"DZA","LOCATION_ID":"DZA-40","NAME":"Khenchela","TYPE_EN":"Province"}},
{"type":"Feature","geometry":{"type":"Polygon","coordinates":[[[7.01056,36.155158],[7.078979,36.042503],[7.325889,36.127408],[7.410432,36.181254],[7.829424,36.315045],[7.793716,36.435063],[7.987864,36.484388],[7.649745,36.663395],[7.481073,36.634095],[7.384232,36.726131],[7.123989,36.585829],[6.937954,36.432867],[7.045648,36.275771],[7.01056,36.155158]]]},"properties":{"LOCATION_TYPE":"level1","ADM0_A3":"DZA","LOCATION_ID":"DZA-24","NAME":"Guelma","TYPE_EN":"Province"}},
{"type":"Feature","geometry":{"type":"Polygon","coordinates":[[[6.937954,36.432867],[6.652442,36.607895],[6.504079,36.577716],[6.465735,36.423074],[6.348739,36.399949],[6.516326,36.165648],[6.572653,36.111569],[6.786801,36.191435],[7.01056,36.155158],[7.045648,36.275771],[6.937954,36.432867]]]},"properties":{"LOCATION_TYPE":"level1","ADM0_A3":"DZA","LOCATION_ID":"DZA-25","NAME":"Constantine","TYPE_EN":"Province"}},
{"type":"Feature","geometry":{"type":"Polygon","coordinates":[[[5.737201,36.555133],[5.872386,36.401887],[5.86603,36.25541],[5.983335,36.058471],[5.976669,35.915793],[6.149217,35.900393],[6.395765,36.028757],[6.516326,36.165648],[6.348739,36.399949],[6.465735,36.423074],[6.504079,36.577716],[6.457363,36.579886],[6.294583,36.62407],[5.737201,36.555133]]]},"properties":{"LOCATION_TYPE":"level1","ADM0_A3":"DZA","LOCATION_ID":"DZA-43","NAME":"Mila","TYPE_EN":"Province"}},
{"type":"Feature","geometry":{"type":"Polygon","coordinates":[[[6.149217,35.900393],[6.351065,35.884735],[6.487026,35.781434],[6.649496,35.796678],[6.769127,35.68392],[6.824989,35.623562],[7.28832,35.612607],[7.544842,35.447811],[7.840741,35.615165],[7.865856,35.858716],[7.71925,35.926515],[7.641632,35.830992],[7.452031,35.9191],[7.325889,36.127408],[7.078979,36.042503],[7.01056,36.155158],[6.786801,36.191435],[6.572653,36.111569],[6.516326,36.165648],[6.395765,36.028757],[6.149217,35.900393]]]},"properties":{"LOCATION_TYPE":"level1","ADM0_A3":"DZA","LOCATION_ID":"DZA-04","NAME":"Oum el Bouaghi","TYPE_EN":"Province"}},
{"type":"Feature","geometry":{"type":"Polygon","coordinates":[[[5.038639,35.083311],[5.041119,34.918644],[4.932805,34.838907],[4.434696,34.772658],[4.195744,34.525748],[4.213728,34.2322],[4.406636,33.927645],[5.121786,33.57268],[5.334848,33.845996],[5.359859,34.166209],[5.185451,34.356663],[5.319345,34.498928],[5.477165,34.449836],[5.998528,34.394955],[6.193297,34.428958],[6.505474,34.319714],[6.695902,34.376093],[6.749542,34.712223],[6.587898,34.778549],[6.431318,34.87167],[6.412663,35.068764],[6.125601,35.000913],[5.939876,35.029542],[6.00535,35.226274],[5.820865,35.287924],[5.554886,35.191392],[5.608733,35.098401],[5.306012,35.021429],[5.038639,35.083311]]]},"properties":{"LOCATION_TYPE":"level1","ADM0_A3":"DZA","LOCATION_ID":"DZA-07","NAME":"Biskra","TYPE_EN":"Province"}},
{"type":"Feature","geometry":{"type":"Polygon","coordinates":[[[4.97828,32.840761],[4.953114,33.241486],[5.008046,33.441887],[5.121786,33.57268],[4.406636,33.927645],[4.213728,34.2322],[4.0387,34.371623],[3.906046,34.762633],[3.671125,34.79028],[3.473566,35.157958],[3.65526,35.284978],[3.680427,35.49556],[3.379515,35.751203],[3.230118,35.770065],[2.898821,35.62997],[2.636873,35.441842],[2.527009,35.501193],[2.285732,35.439077],[2.286817,35.329265],[2.387069,35.198291],[2.604162,35.054992],[2.369964,34.776301],[2.357717,34.69287],[2.30449,34.412628],[2.483394,34.113577],[2.489957,33.917362],[2.642764,33.915682],[2.644935,34.077972],[2.828076,34.147218],[2.933237,34.254421],[3.103925,34.229746],[3.232134,33.947411],[3.640998,33.564334],[4.028313,33.280372],[4.176211,33.029638],[4.97828,32.840761]]]},"properties":{"LOCATION_TYPE":"level1","ADM0_A3":"DZA","LOCATION_ID":"DZA-17","NAME":"Djelfa","TYPE_EN":"Province"}}
]}