{"type":"FeatureCollection", "features": [
{"type":"Feature","geometry":{"type":"Polygon","coordinates":[[[-78.478123,1.18712],[-78.570057,1.195845],[-78.769968,1.394102],[-78.832346,1.381334],[-78.957753,1.163398],[-79.071848,1.20954],[-79.147328,1.109565],[-79.248158,1.080268],[-79.456532,1.072455],[-79.571767,0.98371],[-79.765614,0.955146],[-79.862172,0.87641],[-80.075836,0.816148],[-80.108632,0.738105],[-80.036366,0.62523],[-80.043365,0.501207],[-79.999521,0.345102],[-79.961212,0.266082],[-79.741096,0.374086],[-79.659008,0.268149],[-79.702339,0.193735],[-79.568032,0.113172],[-79.595549,-0.013591],[-79.492998,-0.025631],[-79.363832,0.046923],[-79.307066,0.18557],[-79.346727,0.239314],[-79.221877,0.315588],[-79.010701,0.267426],[-78.859961,0.422817],[-78.675373,0.372071],[-78.539206,0.515059],[-78.426319,0.558519],[-78.511197,0.750859],[-78.442106,0.871937],[-78.523496,0.928367],[-78.530627,1.021385],[-78.478123,1.18712]]]},"properties":{"LOCATION_TYPE":"level1","ADM0_A3":"ECU","LOCATION_ID":"ECU-E","NAME":"Esmeraldas","TYPE_EN":"Province"}},
{"type":"Feature","geometry":{"type":"Polygon","coordinates":[[[-78.478123,1.18712],[-78.530627,1.021385],[-78.523496,0.928367],[-78.442106,0.871937],[-78.28904,0.80176],[-78.168608,0.651382],[-78.130807,0.505603],[-78.000453,0.468654],[-77.814082,0.345664],[-77.789329,0.422507],[-77.651663,0.593297],[-77.514138,0.660531],[-77.579834,0.670916],[-77.727887,0.843309],[-77.847983,0.809254],[-77.908547,0.864186],[-78.120007,0.921237],[-78.250154,1.019629],[-78.372808,1.073786],[-78.478123,1.18712]]]},"properties":{"LOCATION_TYPE":"level1","ADM0_A3":"ECU","LOCATION_ID":"ECU-C","NAME":"Carchi","TYPE_EN":"Province"}},
{"type":"Feature","geometry":{"type":"Polygon","coordinates":[[[-75.266641,-0.642699],[-75.272042,-0.525703],[-75.434228,-0.403023],[-75.484768,-0.247684],[-75.421412,-0.062166],[-75.64667,0.085422],[-75.78971,0.084389],[-75.927118,0.181024],[-76.053467,0.363545],[-76.223741,0.406746],[-76.311591,0.458526],[-76.415874,0.395378],[-76.408019,0.254508],[-76.584339,0.222572],[-76.736888,0.272904],[-76.896826,0.245309],[-77.117433,0.35755],[-77.206936,0.334193],[-77.424391,0.408297],[-77.468057,0.650866],[-77.514138,0.660531],[-77.651663,0.593297],[-77.789329,0.422507],[-77.814082,0.345664],[-77.835502,0.269183],[-77.945366,0.161282],[-77.832686,0.031936],[-77.772121,-0.066197],[-77.588979,-0.100045],[-77.458962,-0.026148],[-77.446456,-0.12485],[-77.36274,-0.140766],[-77.299411,-0.058549],[-77.186032,-0.092811],[-76.917548,-0.0786],[-76.714097,-0.341943],[-76.410214,-0.510304],[-76.274383,-0.443125],[-76.102843,-0.441937],[-76.083542,-0.494802],[-75.937194,-0.561671],[-75.951017,-0.449275],[-75.748317,-0.42261],[-75.574451,-0.495163],[-75.510347,-0.552111],[-75.397976,-0.569112],[-75.266641,-0.642699]]]},"properties":{"LOCATION_TYPE":"level1","ADM0_A3":"ECU","LOCATION_ID":"ECU-U","NAME":"Sucumbios","TYPE_EN":"Province"}},
{"type":"Feature","geometry":{"type":"Polygon","coordinates":[[[-75.266641,-0.642699],[-75.397976,-0.569112],[-75.510347,-0.552111],[-75.574451,-0.495163],[-75.748317,-0.42261],[-75.951017,-0.449275],[-75.937194,-0.561671],[-76.083542,-0.494802],[-76.102843,-0.441937],[-76.274383,-0.443125],[-76.410214,-0.510304],[-76.714097,-0.341943],[-76.917548,-0.0786],[-77.186032,-0.092811],[-77.299411,-0.058549],[-77.273185,-0.360391],[-77.395012,-0.496869],[-77.55154,-0.458008],[-77.620166,-0.536608],[-77.509708,-0.655722],[-77.528466,-0.841189],[-77.499217,-0.945317],[-77.247088,-0.829561],[-77.041726,-0.920409],[-77.051648,-1.010377],[-77.045292,-1.099364],[-76.867938,-1.157397],[-76.760942,-1.097865],[-76.562324,-1.046447],[-76.463673,-1.251344],[-76.245263,-1.282144],[-76.063543,-1.276149],[-75.950191,-1.344517],[-75.747541,-1.405289],[-75.58074,-1.54664],[-75.560034,-1.502595],[-75.412576,-0.923922],[-75.348729,-0.974978],[-75.227264,-0.96981],[-75.297027,-0.746982],[-75.266641,-0.642699]]]},"properties":{"LOCATION_TYPE":"level1","ADM0_A3":"ECU","LOCATION_ID":"ECU-D","NAME":"Orellana","TYPE_EN":"Province"}},
{"type":"Feature","geometry":{"type":"Polygon","coordinates":[[[-75.58074,-1.54664],[-75.747541,-1.405289],[-75.950191,-1.344517],[-76.063543,-1.276149],[-76.245263,-1.282144],[-76.463673,-1.251344],[-76.562324,-1.046447],[-76.760942,-1.097865],[-76.867938,-1.157397],[-77.045292,-1.099364],[-77.051648,-1.010377],[-77.233756,-1.024537],[-77.54707,-1.135744],[-77.695614,-1.151661],[-77.845966,-1.224731],[-78.116518,-1.233309],[-78.114167,-1.342553],[-78.172561,-1.446991],[-78.069777,-1.520734],[-78.021098,-1.655816],[-77.914128,-1.668115],[-77.838318,-1.912751],[-77.723545,-2.010988],[-77.384263,-2.154338],[-77.123065,-2.313657],[-77.017128,-2.477213],[-76.918271,-2.540361],[-76.669662,-2.564589],[-76.091242,-2.128913],[-75.651476,-1.616696],[-75.58074,-1.54664]]]},"properties":{"LOCATION_TYPE":"level1","ADM0_A3":"ECU","LOCATION_ID":"ECU-Y","NAME":"Pastaza","TYPE_EN":"Province"}},
{"type":"Feature","geometry":{"type":"Polygon","coordinates":[[[-76.669662,-2.564589],[-76.918271,-2.540361],[-77.017128,-2.477213],[-77.123065,-2.313657],[-77.384263,-2.154338],[-77.723545,-2.010988],[-77.838318,-1.912751],[-77.914128,-1.668115],[-78.021098,-1.655816],[-78.069777,-1.520734],[-78.172561,-1.446991],[-78.353377,-1.526366],[-78.359398,-1.621709],[-78.450167,-1.717311],[-78.418335,-1.867534],[-78.489545,-1.964841],[-78.445801,-2.075222],[-78.503239,-2.218314],[-78.579901,-2.311538],[-78.481225,-2.380681],[-78.49373,-2.513283],[-78.549102,-2.562944],[-78.436783,-2.645265],[-78.547629,-2.701799],[-78.576025,-2.853572],[-78.671652,-3.090767],[-78.937579,-3.287809],[-78.938975,-3.322743],[-78.855956,-3.381705],[-78.822186,-3.547018],[-78.375872,-3.529348],[-78.333974,-3.384547],[-78.196411,-3.36367],[-77.941465,-3.054541],[-77.849016,-2.980644],[-77.15402,-2.737661],[-76.669662,-2.564589]]]},"properties":{"LOCATION_TYPE":"level1","ADM0_A3":"ECU","LOCATION_ID":"ECU-S","NAME":"Morona Santiago","TYPE_EN":"Province"}},
{"type":"Feature","geometry":{"type":"Polygon","coordinates":[[[-78.375872,-3.529348],[-78.822186,-3.547018],[-78.855956,-3.381705],[-78.938975,-3.322743],[-79.046074,-3.399172],[-79.050234,-3.552134],[-79.102246,-3.636005],[-79.193559,-3.731038],[-79.119248,-3.883122],[-79.149504,-4.151271],[-79.106174,-4.19008],[-79.113538,-4.407999],[-79.205057,-4.502981],[-79.318357,-4.513419],[-79.331586,-4.608194],[-79.460823,-4.770456],[-79.303217,-4.961246],[-79.104159,-4.980057],[-79.009281,-4.96011],[-78.980342,-4.873965],[-78.900218,-4.843683],[-78.928614,-4.747461],[-78.853063,-4.652273],[-78.672661,-4.550987],[-78.637211,-4.435129],[-78.682428,-4.326918],[-78.57662,-4.100059],[-78.566905,-3.996189],[-78.501767,-3.953711],[-78.375872,-3.529348]]]},"properties":{"LOCATION_TYPE":"level1","ADM0_A3":"ECU","LOCATION_ID":"ECU-Z","NAME":"Zamora Chinchipe","TYPE_EN":"Province"}},
{"type":"Feature","geometry":{"type":"Polygon","coordinates":[[[-80.165074,-3.880696],[-80.304628,-4.005181],[-80.481078,-3.998773],[-80.514073,-4.083419],[-80.469605,-4.21323],[-80.356305,-4.220568],[-80.488545,-4.395958],[-80.408498,-4.477503],[-80.239671,-4.36981],[-80.205048,-4.298186],[-80.079655,-4.309038],[-79.982012,-4.38862],[-79.904084,-4.398645],[-79.795745,-4.484738],[-79.657975,-4.438746],[-79.507209,-4.531557],[-79.527854,-4.618063],[-79.460823,-4.770456],[-79.331586,-4.608194],[-79.318357,-4.513419],[-79.205057,-4.502981],[-79.113538,-4.407999],[-79.106174,-4.19008],[-79.149504,-4.151271],[-79.119248,-3.883122],[-79.193559,-3.731038],[-79.102246,-3.636005],[-79.178779,-3.448161],[-79.256475,-3.460667],[-79.329493,-3.340881],[-79.457754,-3.328014],[-79.461708,-3.500716],[-79.372488,-3.684116],[-79.415302,-3.79336],[-79.571804,-3.790053],[-79.705388,-3.820852],[-79.95421,-3.833874],[-80.165074,-3.880696]]]},"properties":{"LOCATION_TYPE":"level1","ADM0_A3":"ECU","LOCATION_ID":"ECU-L","NAME":"Loja","TYPE_EN":"Province"}},
{"type":"Feature","geometry":{"type":"Polygon","coordinates":[[[-80.165074,-3.880696],[-79.95421,-3.833874],[-79.705388,-3.820852],[-79.571804,-3.790053],[-79.415302,-3.79336],[-79.372488,-3.684116],[-79.461708,-3.500716],[-79.457754,-3.328014],[-79.649965,-3.328789],[-79.600433,-3.161719],[-79.760475,-3.064671],[-79.895893,-3.045438],[-79.953196,-3.197442],[-80.070465,-3.218194],[-80.135569,-3.327569],[-80.259104,-3.348077],[-80.271633,-3.485523],[-80.216391,-3.63156],[-80.221636,-3.769433],[-80.165074,-3.880696]]]},"properties":{"LOCATION_TYPE":"level1","ADM0_A3":"ECU","LOCATION_ID":"ECU-O","NAME":"El Oro","TYPE_EN":"Province"}},
{"type":"Feature","geometry":{"type":"MultiPolygon","coordinates":[[[[-80.059885,-2.662774],[-80.210683,-2.724867],[-80.262204,-2.840848],[-80.26594,-3.018487],[-80.131033,-3.020921],[-79.94579,-2.706638],[-80.059885,-2.662774]]],[[[-79.895893,-3.045438],[-79.760475,-3.064671],[-79.694846,-2.957132],[-79.690557,-2.825719],[-79.424836,-2.555348],[-79.437394,-2.497057],[-79.425663,-2.360734],[-79.352644,-2.303322],[-79.234951,-2.281824],[-79.130074,-2.203689],[-79.235494,-2.154338],[-79.360835,-1.983134],[-79.502015,-1.887688],[-79.649526,-1.90655],[-79.773187,-1.683308],[-79.855353,-1.640726],[-79.847317,-1.399139],[-79.738306,-1.184837],[-79.575628,-1.040298],[-79.517079,-0.860464],[-79.619631,-0.850232],[-79.722363,-0.881238],[-79.853053,-1.088305],[-79.993096,-1.12882],[-80.0433,-1.271808],[-80.185849,-1.423117],[-80.235019,-1.68491],[-80.320932,-1.683618],[-80.445601,-1.838957],[-80.516088,-1.840818],[-80.478271,-1.931161],[-80.347449,-1.98156],[-80.213446,-2.110308],[-80.23202,-2.299777],[-80.276517,-2.367939],[-80.410767,-2.416675],[-80.542747,-2.529762],[-80.467885,-2.617934],[-80.320546,-2.710626],[-80.17512,-2.586684],[-80.068918,-2.560805],[-79.923492,-2.573907],[-79.839467,-2.377048],[-79.725087,-2.569757],[-79.834584,-2.806817],[-79.895893,-3.045438]]]]},"properties":{"LOCATION_TYPE":"level1","ADM0_A3":"ECU","LOCATION_ID":"ECU-G","NAME":"Guayas","TYPE_EN":"Province"}},
{"type":"Feature","geometry":{"type":"MultiPolygon","coordinates":[[[[-90.380686,-1.25449],[-90.471913,-1.216729],[-90.524037,-1.305922],[-90.399322,-1.32586],[-90.380686,-1.25449]]],[[[-89.308095,-0.685642],[-89.413238,-0.713474],[-89.488922,-0.808201],[-89.631418,-0.916681],[-89.554311,-0.953709],[-89.434722,-0.929295],[-89.254791,-0.719171],[-89.308095,-0.685642]]],[[[-90.191965,-0.538263],[-90.246978,-0.492771],[-90.487701,-0.525486],[-90.544545,-0.681573],[-90.428863,-0.762465],[-90.337066,-0.776951],[-90.198801,-0.681573],[-90.191965,-0.538263]]],[[[-91.401112,-0.452895],[-91.399526,-0.307875],[-91.474192,-0.249282],[-91.668568,-0.284926],[-91.643666,-0.403578],[-91.507558,-0.490411],[-91.401112,-0.452895]]],[[[-90.565012,-0.284926],[-90.632476,-0.201267],[-90.810374,-0.1513],[-90.848948,-0.275649],[-90.740061,-0.353936],[-90.586781,-0.363702],[-90.565012,-0.284926]]],[[[-90.811431,-0.730645],[-90.892974,-0.625746],[-90.956044,-0.60711],[-90.96227,-0.44199],[-91.005035,-0.373142],[-91.124135,-0.299574],[-91.18456,-0.211033],[-91.209299,-0.010675],[-91.380605,0.14704],[-91.60436,0.001451],[-91.545522,-0.047947],[-91.423329,-0.028578],[-91.351959,-0.307224],[-91.235707,-0.386407],[-91.208892,-0.484633],[-91.094228,-0.569431],[-91.16808,-0.682712],[-91.234771,-0.661879],[-91.435862,-0.778416],[-91.502309,-0.896254],[-91.399729,-1.018487],[-91.159779,-1.030206],[-91.013051,-0.968683],[-90.9287,-0.97031],[-90.860463,-0.872654],[-90.811431,-0.730645]]]]},"properties":{"LOCATION_TYPE":"level1","ADM0_A3":"ECU","LOCATION_ID":"ECU-W","NAME":"Galápagos","TYPE_EN":"Province"}},
{"type":"Feature","geometry":{"type":"Polygon","coordinates":[[[-80.542747,-2.529762],[-80.410767,-2.416675],[-80.276517,-2.367939],[-80.23202,-2.299777],[-80.213446,-2.110308],[-80.347449,-1.98156],[-80.478271,-1.931161],[-80.516088,-1.840818],[-80.577402,-1.659743],[-80.818165,-1.676979],[-80.733022,-1.903985],[-80.762522,-1.973891],[-80.744979,-2.102915],[-80.951161,-2.237563],[-80.913645,-2.31878],[-80.656646,-2.415785],[-80.542747,-2.529762]]]},"properties":{"LOCATION_TYPE":"level1","ADM0_A3":"ECU","LOCATION_ID":"ECU-SE","NAME":"Santa Elena","TYPE_EN":"Province"}},
{"type":"Feature","geometry":{"type":"Polygon","coordinates":[[[-80.818165,-1.676979],[-80.577402,-1.659743],[-80.516088,-1.840818],[-80.445601,-1.838957],[-80.320932,-1.683618],[-80.235019,-1.68491],[-80.185849,-1.423117],[-80.0433,-1.271808],[-79.993096,-1.12882],[-79.853053,-1.088305],[-79.722363,-0.881238],[-79.619631,-0.850232],[-79.479975,-0.543739],[-79.406931,-0.383439],[-79.412977,-0.204793],[-79.598753,-0.071778],[-79.595549,-0.013591],[-79.568032,0.113172],[-79.702339,0.193735],[-79.659008,0.268149],[-79.741096,0.374086],[-79.961212,0.266082],[-79.999521,0.345102],[-80.048492,0.318305],[-80.036977,0.175971],[-80.066459,0.05221],[-80.231848,-0.139699],[-80.371232,-0.222831],[-80.496464,-0.381374],[-80.421992,-0.5996],[-80.515912,-0.74209],[-80.547212,-0.88849],[-80.61632,-0.941408],[-80.816365,-0.946344],[-80.91618,-1.065525],[-80.833589,-1.231235],[-80.744256,-1.343773],[-80.770862,-1.47783],[-80.851552,-1.576918],[-80.818165,-1.676979]]]},"properties":{"LOCATION_TYPE":"level1","ADM0_A3":"ECU","LOCATION_ID":"ECU-M","NAME":"Manabi","TYPE_EN":"Province"}},
{"type":"Feature","geometry":{"type":"Polygon","coordinates":[[[-79.437394,-2.497057],[-79.424836,-2.555348],[-79.690557,-2.825719],[-79.694846,-2.957132],[-79.760475,-3.064671],[-79.600433,-3.161719],[-79.649965,-3.328789],[-79.457754,-3.328014],[-79.329493,-3.340881],[-79.256475,-3.460667],[-79.178779,-3.448161],[-79.102246,-3.636005],[-79.050234,-3.552134],[-79.046074,-3.399172],[-78.938975,-3.322743],[-78.937579,-3.287809],[-78.671652,-3.090767],[-78.576025,-2.853572],[-78.547629,-2.701799],[-78.436783,-2.645265],[-78.549102,-2.562944],[-78.623645,-2.632914],[-78.76622,-2.687122],[-78.820145,-2.823858],[-78.930009,-2.817089],[-79.072041,-2.649967],[-79.177668,-2.722624],[-79.293992,-2.588007],[-79.437394,-2.497057]]]},"properties":{"LOCATION_TYPE":"level1","ADM0_A3":"ECU","LOCATION_ID":"ECU-A","NAME":"Azuay","TYPE_EN":"Province"}},
{"type":"Feature","geometry":{"type":"Polygon","coordinates":[[[-79.437394,-2.497057],[-79.293992,-2.588007],[-79.177668,-2.722624],[-79.072041,-2.649967],[-78.930009,-2.817089],[-78.820145,-2.823858],[-78.76622,-2.687122],[-78.623645,-2.632914],[-78.549102,-2.562944],[-78.49373,-2.513283],[-78.481225,-2.380681],[-78.579901,-2.311538],[-78.725215,-2.317068],[-78.862442,-2.389983],[-79.028375,-2.345128],[-79.130074,-2.203689],[-79.234951,-2.281824],[-79.352644,-2.303322],[-79.425663,-2.360734],[-79.437394,-2.497057]]]},"properties":{"LOCATION_TYPE":"level1","ADM0_A3":"ECU","LOCATION_ID":"ECU-F","NAME":"Cañar","TYPE_EN":"Province"}},
{"type":"Feature","geometry":{"type":"Polygon","coordinates":[[[-78.391437,-0.963558],[-78.455438,-1.074766],[-78.53272,-1.059367],[-78.677388,-1.142566],[-78.766918,-1.131765],[-78.86624,-1.178326],[-78.923808,-1.397124],[-78.880735,-1.459239],[-78.799965,-1.424357],[-78.698576,-1.478101],[-78.515435,-1.480116],[-78.353377,-1.526366],[-78.172561,-1.446991],[-78.114167,-1.342553],[-78.116518,-1.233309],[-78.221525,-1.139982],[-78.303742,-1.143341],[-78.391437,-0.963558]]]},"properties":{"LOCATION_TYPE":"level1","ADM0_A3":"ECU","LOCATION_ID":"ECU-N","NAME":"Napo","TYPE_EN":"Province"}},
{"type":"Feature","geometry":{"type":"Polygon","coordinates":[[[-78.391437,-0.963558],[-78.303742,-1.143341],[-78.221525,-1.139982],[-78.116518,-1.233309],[-77.845966,-1.224731],[-77.695614,-1.151661],[-77.54707,-1.135744],[-77.233756,-1.024537],[-77.051648,-1.010377],[-77.041726,-0.920409],[-77.247088,-0.829561],[-77.499217,-0.945317],[-77.528466,-0.841189],[-77.509708,-0.655722],[-77.620166,-0.536608],[-77.55154,-0.458008],[-77.395012,-0.496869],[-77.273185,-0.360391],[-77.299411,-0.058549],[-77.36274,-0.140766],[-77.446456,-0.12485],[-77.458962,-0.026148],[-77.588979,-0.100045],[-77.772121,-0.066197],[-77.832686,0.031936],[-77.964486,-0.0478],[-78.00761,-0.131981],[-78.177264,-0.180867],[-78.187444,-0.296467],[-78.25036,-0.414806],[-78.271728,-0.551491],[-78.338029,-0.665644],[-78.39676,-0.684351],[-78.391437,-0.963558]]]},"properties":{"LOCATION_TYPE":"level1","ADM0_A3":"ECU","LOCATION_ID":"ECU-T","NAME":"Tungurahua","TYPE_EN":"Province"}},
{"type":"Feature","geometry":{"type":"Polygon","coordinates":[[[-79.130074,-2.203689],[-79.028375,-2.345128],[-78.862442,-2.389983],[-78.725215,-2.317068],[-78.579901,-2.311538],[-78.503239,-2.218314],[-78.445801,-2.075222],[-78.489545,-1.964841],[-78.418335,-1.867534],[-78.450167,-1.717311],[-78.359398,-1.621709],[-78.353377,-1.526366],[-78.515435,-1.480116],[-78.698576,-1.478101],[-78.799965,-1.424357],[-78.880735,-1.459239],[-78.859755,-1.663929],[-79.005043,-1.791467],[-79.014629,-2.088244],[-79.130074,-2.203689]]]},"properties":{"LOCATION_TYPE":"level1","ADM0_A3":"ECU","LOCATION_ID":"ECU-H","NAME":"Chimborazo","TYPE_EN":"Province"}},
{"type":"Feature","geometry":{"type":"Polygon","coordinates":[[[-78.86624,-1.178326],[-78.951222,-1.20344],[-79.082067,-1.154916],[-79.280711,-1.202614],[-79.343162,-1.291187],[-79.318512,-1.468024],[-79.250093,-1.540888],[-79.340165,-1.642845],[-79.250377,-1.736173],[-79.229448,-1.822938],[-79.278205,-1.953937],[-79.205289,-2.073258],[-79.235494,-2.154338],[-79.130074,-2.203689],[-79.014629,-2.088244],[-79.005043,-1.791467],[-78.859755,-1.663929],[-78.880735,-1.459239],[-78.923808,-1.397124],[-78.86624,-1.178326]]]},"properties":{"LOCATION_TYPE":"level1","ADM0_A3":"ECU","LOCATION_ID":"ECU-B","NAME":"Bolivar","TYPE_EN":"Province"}},
{"type":"Feature","geometry":{"type":"Polygon","coordinates":[[[-77.814082,0.345664],[-78.000453,0.468654],[-78.130807,0.505603],[-78.168608,0.651382],[-78.28904,0.80176],[-78.442106,0.871937],[-78.511197,0.750859],[-78.426319,0.558519],[-78.539206,0.515059],[-78.675373,0.372071],[-78.859961,0.422817],[-79.010701,0.267426],[-78.951661,0.211305],[-78.778106,0.239314],[-78.652325,0.215594],[-78.413994,0.245412],[-78.22677,0.133274],[-78.077683,0.197766],[-77.945366,0.161282],[-77.835502,0.269183],[-77.814082,0.345664]]]},"properties":{"LOCATION_TYPE":"level1","ADM0_A3":"ECU","LOCATION_ID":"ECU-I","NAME":"Imbabura","TYPE_EN":"Province"}},
{"type":"Feature","geometry":{"type":"Polygon","coordinates":[[[-78.39676,-0.684351],[-78.462079,-0.615414],[-78.608555,-0.605337],[-78.707568,-0.655877],[-78.829446,-0.515679],[-78.921585,-0.345147],[-79.007007,-0.424418],[-78.996387,-0.510253],[-79.086821,-0.551904],[-79.166015,-0.75892],[-79.29071,-0.914001],[-79.322982,-1.120965],[-79.280711,-1.202614],[-79.082067,-1.154916],[-78.951222,-1.20344],[-78.86624,-1.178326],[-78.766918,-1.131765],[-78.677388,-1.142566],[-78.53272,-1.059367],[-78.455438,-1.074766],[-78.391437,-0.963558],[-78.39676,-0.684351]]]},"properties":{"LOCATION_TYPE":"level1","ADM0_A3":"ECU","LOCATION_ID":"ECU-X","NAME":"Cotopaxi","TYPE_EN":"Province"}},
{"type":"Feature","geometry":{"type":"Polygon","coordinates":[[[-79.280711,-1.202614],[-79.322982,-1.120965],[-79.29071,-0.914001],[-79.166015,-0.75892],[-79.086821,-0.551904],[-79.131547,-0.555521],[-79.303164,-0.695668],[-79.350758,-0.68249],[-79.373987,-0.545754],[-79.479975,-0.543739],[-79.619631,-0.850232],[-79.517079,-0.860464],[-79.575628,-1.040298],[-79.738306,-1.184837],[-79.847317,-1.399139],[-79.855353,-1.640726],[-79.773187,-1.683308],[-79.649526,-1.90655],[-79.502015,-1.887688],[-79.360835,-1.983134],[-79.235494,-2.154338],[-79.205289,-2.073258],[-79.278205,-1.953937],[-79.229448,-1.822938],[-79.250377,-1.736173],[-79.340165,-1.642845],[-79.250093,-1.540888],[-79.318512,-1.468024],[-79.343162,-1.291187],[-79.280711,-1.202614]]]},"properties":{"LOCATION_TYPE":"level1","ADM0_A3":"ECU","LOCATION_ID":"ECU-R","NAME":"Los Rios","TYPE_EN":"Province"}},
{"type":"Feature","geometry":{"type":"Polygon","coordinates":[[[-77.832686,0.031936],[-77.945366,0.161282],[-78.077683,0.197766],[-78.22677,0.133274],[-78.413994,0.245412],[-78.652325,0.215594],[-78.778106,0.239314],[-78.951661,0.211305],[-79.010701,0.267426],[-79.221877,0.315588],[-79.346727,0.239314],[-79.307066,0.18557],[-79.363832,0.046923],[-79.309513,0.006627],[-79.106675,0.000288],[-79.100336,-0.082115],[-78.922853,-0.075776],[-78.74537,-0.215227],[-78.764386,-0.284953],[-78.89116,-0.29763],[-78.921585,-0.345147],[-78.829446,-0.515679],[-78.707568,-0.655877],[-78.608555,-0.605337],[-78.462079,-0.615414],[-78.39676,-0.684351],[-78.338029,-0.665644],[-78.271728,-0.551491],[-78.25036,-0.414806],[-78.187444,-0.296467],[-78.177264,-0.180867],[-78.00761,-0.131981],[-77.964486,-0.0478],[-77.832686,0.031936]]]},"properties":{"LOCATION_TYPE":"level1","ADM0_A3":"ECU","LOCATION_ID":"ECU-P","NAME":"Pichincha","TYPE_EN":"Province"}},
{"type":"Feature","geometry":{"type":"Polygon","coordinates":[[[-78.921585,-0.345147],[-78.89116,-0.29763],[-78.764386,-0.284953],[-78.74537,-0.215227],[-78.922853,-0.075776],[-79.100336,-0.082115],[-79.106675,0.000288],[-79.309513,0.006627],[-79.363832,0.046923],[-79.492998,-0.025631],[-79.595549,-0.013591],[-79.598753,-0.071778],[-79.412977,-0.204793],[-79.406931,-0.383439],[-79.479975,-0.543739],[-79.373987,-0.545754],[-79.350758,-0.68249],[-79.303164,-0.695668],[-79.131547,-0.555521],[-79.086821,-0.551904],[-78.996387,-0.510253],[-79.007007,-0.424418],[-78.921585,-0.345147]]]},"properties":{"LOCATION_TYPE":"level1","ADM0_A3":"ECU","LOCATION_ID":"ECU-SD","NAME":"Santo Domingo de los Tsáchilas","TYPE_EN":"Province"}}
]}