{"type":"FeatureCollection", "features": [
{"type":"Feature","geometry":{"type":"Polygon","coordinates":[[[34.885509,29.489496],[34.824365,29.7417],[34.599469,30.344506],[34.53384,30.400213],[34.480407,30.651205],[34.200269,31.314267],[34.047048,31.229193],[33.64796,31.117255],[33.499522,31.128079],[33.187673,31.061672],[33.098643,31.189521],[32.968761,31.086493],[32.731293,31.038764],[32.599678,31.061516],[32.602072,30.973743],[32.654007,30.500025],[32.79865,30.254045],[32.829862,29.957577],[32.854822,29.913756],[33.130257,29.925202],[33.768306,29.827043],[34.024363,29.707205],[34.46816,29.546466],[34.885509,29.489496]]]},"properties":{"LOCATION_TYPE":"level1","ADM0_A3":"EGY","LOCATION_ID":"EGY-SIN","NAME":"Shamal Sina'","TYPE_EN":"Governorate"}},
{"type":"Feature","geometry":{"type":"Polygon","coordinates":[[[31.494719,21.995387],[31.591385,22.103612],[31.944593,22.278589],[32.044174,22.372407],[32.109079,22.542061],[32.15874,22.582937],[32.312788,22.46912],[32.537322,22.499299],[32.775085,22.723032],[32.779116,22.826798],[32.837769,22.927541],[32.991041,22.840932],[33.14483,22.830596],[33.290247,22.709338],[33.331537,22.743134],[33.225083,22.952424],[33.061838,23.071279],[33.167826,23.208765],[33.211854,23.343588],[33.140024,23.531406],[33.168446,23.630909],[33.14638,23.767568],[33.059667,23.853609],[33.000394,23.985125],[32.972127,24.155916],[33.011401,24.321074],[33.131497,24.523801],[33.023649,24.729705],[32.979569,25.031186],[32.907583,25.128983],[32.704753,25.269879],[32.653852,25.145701],[32.791208,25.056197],[32.930321,24.649038],[32.883451,24.529976],[32.870738,24.199143],[32.831102,24.037758],[32.672042,24.01577],[32.638659,23.926705],[32.763406,23.807152],[32.549776,23.733513],[32.478979,23.651141],[32.426373,23.448879],[32.501045,23.405755],[32.735811,23.420948],[32.747128,23.334519],[32.633698,23.215508],[32.435984,22.772693],[32.152177,22.862946],[31.833954,22.722593],[31.678304,22.740292],[31.593555,22.648437],[31.620272,22.502684],[31.526996,22.349411],[31.302462,22.280527],[31.22505,22.196888],[31.314388,22.102273],[31.404057,22.223761],[31.490563,22.14821],[31.494719,21.995387]]]},"properties":{"LOCATION_TYPE":"level1","ADM0_A3":"EGY","LOCATION_ID":"EGY-ASN","NAME":"Aswan","TYPE_EN":"Governorate"}},
{"type":"Feature","geometry":{"type":"Polygon","coordinates":[[[31.494719,21.995387],[32.340744,21.995403],[33.181138,21.995407],[34.323103,21.995454],[35.486443,21.995558],[36.883637,21.995714],[36.895383,22.066133],[36.713715,22.169135],[36.562839,22.296677],[36.439823,22.356443],[36.4281,22.426045],[36.313416,22.491613],[36.197765,22.651679],[35.885964,22.735695],[35.695305,22.932126],[35.654642,23.07375],[35.57468,23.212565],[35.541352,23.409573],[35.489431,23.497016],[35.510148,23.756379],[35.474768,23.797915],[35.513927,23.977118],[35.68452,23.910916],[35.717479,23.993355],[35.605261,24.018817],[35.493828,24.1089],[35.391856,24.282782],[35.235455,24.400126],[34.989757,24.905015],[34.681895,25.428697],[34.54656,25.725043],[34.338715,26.001776],[34.014008,26.61164],[33.941417,26.65351],[33.945811,26.817776],[34.003591,26.848944],[33.836762,27.120754],[33.825369,27.259711],[33.691661,27.341864],[33.632986,27.495836],[33.557872,27.53677],[33.522716,27.751899],[33.576182,27.850491],[33.512543,27.959052],[33.338145,28.085435],[33.126475,28.287502],[33.00294,28.489488],[32.868907,28.578925],[32.820649,28.74787],[32.625499,28.972724],[32.656174,29.120649],[32.559853,29.119722],[32.166492,28.973865],[31.869146,28.968206],[31.501106,29.065926],[31.432996,29.103133],[31.255281,29.298755],[31.253266,29.202714],[31.190582,29.081765],[30.99292,28.846043],[30.944189,28.715664],[30.912356,28.471802],[30.815411,28.258715],[30.891738,28.042656],[30.959227,27.715725],[30.941244,27.620149],[30.984238,27.418353],[31.236678,27.31717],[31.333209,27.199322],[31.474854,27.083257],[31.619032,26.833194],[31.831008,26.689973],[31.988466,26.407742],[32.155278,26.346842],[32.307517,26.158197],[32.539802,26.251654],[32.762476,26.238347],[32.880298,26.136777],[32.931148,25.935523],[32.863969,25.762821],[32.66057,25.571876],[32.621141,25.484595],[32.64021,25.356566],[32.704753,25.269879],[32.907583,25.128983],[32.979569,25.031186],[33.023649,24.729705],[33.131497,24.523801],[33.011401,24.321074],[32.972127,24.155916],[33.000394,23.985125],[33.059667,23.853609],[33.14638,23.767568],[33.168446,23.630909],[33.140024,23.531406],[33.211854,23.343588],[33.167826,23.208765],[33.061838,23.071279],[33.225083,22.952424],[33.331537,22.743134],[33.290247,22.709338],[33.14483,22.830596],[32.991041,22.840932],[32.837769,22.927541],[32.779116,22.826798],[32.775085,22.723032],[32.537322,22.499299],[32.312788,22.46912],[32.15874,22.582937],[32.109079,22.542061],[32.044174,22.372407],[31.944593,22.278589],[31.591385,22.103612],[31.494719,21.995387]]]},"properties":{"LOCATION_TYPE":"level1","ADM0_A3":"EGY","LOCATION_ID":"EGY-BA","NAME":"Al Bahr al Ahmar","TYPE_EN":"Governorate"}},
{"type":"Feature","geometry":{"type":"Polygon","coordinates":[[[29.59807,31.009506],[29.218923,30.838039],[29.028087,30.827053],[28.818044,30.951158],[28.404959,31.086493],[28.31837,31.059801],[27.897146,31.114407],[27.863292,31.233547],[27.66033,31.180243],[27.478038,31.213935],[27.383474,31.2685],[27.320649,31.381008],[27.117361,31.390448],[26.965505,31.449652],[26.362153,31.521918],[25.966807,31.616604],[25.824067,31.614936],[25.401866,31.50316],[25.190929,31.53148],[25.149425,31.648871],[25.023723,31.494409],[24.861252,31.38036],[24.859495,31.145955],[24.889571,31.018831],[24.994887,30.785099],[24.907658,30.498656],[24.772369,30.331018],[24.688343,30.144156],[24.811643,29.89089],[24.804925,29.7548],[24.870657,29.638347],[24.873758,29.468332],[24.981245,29.181372],[24.981245,28.491544],[24.981245,27.666503],[27.324772,27.667898],[27.757097,28.483559],[27.906235,28.59288],[28.699158,28.775091],[28.901006,28.908882],[29.550579,29.482826],[30.328619,29.898201],[29.67176,30.251978],[29.62489,30.337089],[29.59807,31.009506]]]},"properties":{"LOCATION_TYPE":"level1","ADM0_A3":"EGY","LOCATION_ID":"EGY-MT","NAME":"Matruh","TYPE_EN":"Governorate"}},
{"type":"Feature","geometry":{"type":"Polygon","coordinates":[[[24.981245,27.666503],[24.981245,26.664523],[24.981245,26.080838],[24.981245,25.205439],[24.981245,24.621728],[24.981245,23.746278],[24.981245,22.870801],[24.981245,21.995351],[26.343797,21.995093],[27.316968,21.994938],[28.290345,21.994783],[29.458232,21.994628],[30.431506,21.994473],[31.248407,21.994369],[31.314388,22.102273],[31.22505,22.196888],[31.302462,22.280527],[31.526996,22.349411],[31.620272,22.502684],[31.593555,22.648437],[31.678304,22.740292],[31.833954,22.722593],[32.152177,22.862946],[32.435984,22.772693],[32.633698,23.215508],[32.747128,23.334519],[32.735811,23.420948],[32.501045,23.405755],[32.426373,23.448879],[32.478979,23.651141],[32.549776,23.733513],[32.763406,23.807152],[32.638659,23.926705],[32.672042,24.01577],[32.831102,24.037758],[32.870738,24.199143],[32.883451,24.529976],[32.930321,24.649038],[32.791208,25.056197],[32.653852,25.145701],[32.504301,25.296441],[32.443012,25.59712],[32.631993,25.763234],[32.748058,26.001152],[32.727284,26.08647],[32.591634,26.097296],[32.361054,26.000145],[32.224059,25.970095],[32.110785,26.005416],[31.952345,26.139852],[31.533972,26.610598],[31.299981,26.83738],[31.174304,27.06424],[31.080408,27.149506],[30.939383,27.208986],[30.773657,27.360087],[30.681001,27.536588],[30.671234,27.634024],[30.687822,27.66764],[28.653218,27.667898],[27.324772,27.667898],[24.981245,27.666503]]]},"properties":{"LOCATION_TYPE":"level1","ADM0_A3":"EGY","LOCATION_ID":"EGY-WAD","NAME":"Al Wadi at Jadid","TYPE_EN":"Governorate"}},
{"type":"Feature","geometry":{"type":"Polygon","coordinates":[[[32.651775,29.790019],[32.854822,29.913756],[32.829862,29.957577],[32.79865,30.254045],[32.608739,30.265646],[32.464251,30.204823],[32.247624,30.242961],[31.887336,30.232367],[31.936377,29.872518],[31.928935,29.783169],[31.932656,29.736764],[31.869146,28.968206],[32.166492,28.973865],[32.559853,29.119722],[32.656174,29.120649],[32.591482,29.349514],[32.387706,29.525621],[32.337657,29.599921],[32.392833,29.734361],[32.563487,29.972398],[32.651775,29.790019]]]},"properties":{"LOCATION_TYPE":"level1","ADM0_A3":"EGY","LOCATION_ID":"EGY-SUZ","NAME":"As Suways","TYPE_EN":"Governorate"}},
{"type":"Feature","geometry":{"type":"Polygon","coordinates":[[[34.885509,29.489496],[34.46816,29.546466],[34.024363,29.707205],[33.768306,29.827043],[33.130257,29.925202],[32.854822,29.913756],[32.651775,29.790019],[32.680837,29.599921],[32.741547,29.455959],[32.817231,29.414049],[32.88559,29.243069],[33.14503,29.031724],[33.194835,28.675116],[33.228689,28.569403],[33.43393,28.3664],[33.564708,28.297105],[33.763357,28.023993],[33.987559,27.886664],[34.078461,27.800686],[34.239513,27.794135],[34.427419,27.983059],[34.455251,28.167467],[34.406912,28.30801],[34.633474,28.770697],[34.674571,29.106513],[34.736583,29.305121],[34.885509,29.489496]]]},"properties":{"LOCATION_TYPE":"level1","ADM0_A3":"EGY","LOCATION_ID":"EGY-JS","NAME":"Janub Sina'","TYPE_EN":"Governorate"}},
{"type":"Feature","geometry":{"type":"Polygon","coordinates":[[[32.256602,31.288804],[32.25646,31.276219],[32.287364,31.170152],[32.289998,31.113786],[32.602072,30.973743],[32.599678,31.061516],[32.331391,31.27143],[32.256602,31.288804]]]},"properties":{"LOCATION_TYPE":"level1","ADM0_A3":"EGY","LOCATION_ID":"EGY-PTS","NAME":"Bur Sa`id","TYPE_EN":"Governorate"}},
{"type":"Feature","geometry":{"type":"Polygon","coordinates":[[[31.794932,31.277696],[31.61221,31.310932],[31.501726,31.374338],[31.571612,31.443752],[31.349907,31.529664],[31.251716,31.478518],[31.296106,31.140244],[31.24846,31.109859],[31.296261,31.032861],[31.230942,30.814011],[31.253731,30.588392],[31.352898,30.573767],[31.361115,30.760448],[31.616396,30.839203],[31.783518,31.065856],[32.052337,31.128774],[31.794932,31.277696]]]},"properties":{"LOCATION_TYPE":"level1","ADM0_A3":"EGY","LOCATION_ID":"EGY-DK","NAME":"Ad Daqahliyah","TYPE_EN":"Governorate"}},
{"type":"Feature","geometry":{"type":"MultiPolygon","coordinates":[[[[32.14184,31.087358],[32.289998,31.113786],[32.287364,31.170152],[32.14184,31.087358]]],[[[32.052337,31.128774],[31.783518,31.065856],[31.616396,30.839203],[31.361115,30.760448],[31.352898,30.573767],[31.272541,30.43698],[31.385661,30.280452],[31.593865,30.190431],[31.843101,30.339027],[31.800416,30.504366],[31.974049,30.559608],[32.098641,30.677275],[32.117916,30.83339],[32.194397,30.965552],[32.142579,31.080269],[32.052337,31.128774]]]]},"properties":{"LOCATION_TYPE":"level1","ADM0_A3":"EGY","LOCATION_ID":"EGY-SHR","NAME":"Ash Sharqiyah","TYPE_EN":"Governorate"}},
{"type":"Feature","geometry":{"type":"Polygon","coordinates":[[[32.142579,31.080269],[32.194397,30.965552],[32.117916,30.83339],[32.098641,30.677275],[31.974049,30.559608],[31.800416,30.504366],[31.843101,30.339027],[31.887336,30.232367],[32.247624,30.242961],[32.464251,30.204823],[32.608739,30.265646],[32.79865,30.254045],[32.654007,30.500025],[32.602072,30.973743],[32.289998,31.113786],[32.14184,31.087358],[32.142579,31.080269]]]},"properties":{"LOCATION_TYPE":"level1","ADM0_A3":"EGY","LOCATION_ID":"EGY-IS","NAME":"Al Isma`iliyah","TYPE_EN":"Governorate"}},
{"type":"Feature","geometry":{"type":"Polygon","coordinates":[[[32.082917,31.359007],[32.093761,31.365668],[31.944835,31.520941],[31.912934,31.534898],[31.837901,31.525336],[31.571612,31.443752],[31.501726,31.374338],[31.61221,31.310932],[31.794932,31.277696],[31.844737,31.497992],[31.917979,31.523993],[31.9935,31.437812],[32.006602,31.395331],[32.082917,31.359007]]]},"properties":{"LOCATION_TYPE":"level1","ADM0_A3":"EGY","LOCATION_ID":"EGY-DT","NAME":"Dumyat","TYPE_EN":"Governorate"}},
{"type":"Feature","geometry":{"type":"Polygon","coordinates":[[[30.398249,31.443582],[30.507988,31.33987],[30.494346,31.244269],[30.699346,31.092159],[30.763632,30.983613],[31.048937,31.034282],[31.070796,31.121227],[31.24846,31.109859],[31.296106,31.140244],[31.251716,31.478518],[31.349907,31.529664],[31.097423,31.607896],[30.996918,31.451117],[30.909434,31.423814],[30.676524,31.496161],[30.398249,31.443582]]]},"properties":{"LOCATION_TYPE":"level1","ADM0_A3":"EGY","LOCATION_ID":"EGY-KFS","NAME":"Kafr ash Shaykh","TYPE_EN":"Governorate"}},
{"type":"Feature","geometry":{"type":"Polygon","coordinates":[[[30.098481,31.284654],[30.011429,31.148693],[29.87521,31.084227],[29.909834,31.00511],[29.874435,30.899122],[30.01267,30.698307],[29.892419,30.569401],[29.728708,30.50279],[29.62489,30.337089],[29.67176,30.251978],[30.328619,29.898201],[30.368979,29.970781],[30.833085,30.333808],[30.851223,30.453206],[30.796084,30.680221],[30.753245,30.775538],[30.789935,30.877805],[30.763632,30.983613],[30.699346,31.092159],[30.494346,31.244269],[30.507988,31.33987],[30.398249,31.443582],[30.165212,31.216783],[30.098481,31.284654]]]},"properties":{"LOCATION_TYPE":"level1","ADM0_A3":"EGY","LOCATION_ID":"EGY-BH","NAME":"Al Buhayrah","TYPE_EN":"Governorate"}},
{"type":"Feature","geometry":{"type":"Polygon","coordinates":[[[29.59807,31.009506],[29.62489,30.337089],[29.728708,30.50279],[29.892419,30.569401],[30.01267,30.698307],[29.874435,30.899122],[29.909834,31.00511],[29.87521,31.084227],[30.011429,31.148693],[30.098481,31.284654],[30.042247,31.320502],[29.83839,31.15412],[29.59807,31.009506]]]},"properties":{"LOCATION_TYPE":"level1","ADM0_A3":"EGY","LOCATION_ID":"EGY-ALX","NAME":"Al Iskandariyah","TYPE_EN":"Governorate"}},
{"type":"Feature","geometry":{"type":"Polygon","coordinates":[[[31.887336,30.232367],[31.843101,30.339027],[31.593865,30.190431],[31.440283,30.184437],[31.237608,30.114777],[31.221175,30.007859],[31.288819,29.885075],[31.29161,29.759863],[31.928935,29.783169],[31.936377,29.872518],[31.887336,30.232367]]]},"properties":{"LOCATION_TYPE":"level1","ADM0_A3":"EGY","LOCATION_ID":"EGY-C","NAME":"Al Qahirah","TYPE_EN":"Governorate"}},
{"type":"Feature","geometry":{"type":"Polygon","coordinates":[[[29.749223,28.759304],[29.814852,29.088432],[30.281594,29.485048],[30.536255,29.630362],[30.74601,29.714285],[30.955816,29.737074],[31.030489,29.680514],[31.101854,29.400118],[31.234817,29.371541],[31.255281,29.298755],[31.432996,29.103133],[31.501106,29.065926],[31.869146,28.968206],[31.932656,29.736764],[31.928935,29.783169],[31.29161,29.759863],[31.288819,29.885075],[31.221175,30.007859],[31.237608,30.114777],[31.145417,30.175445],[30.978812,30.225804],[30.917007,30.336185],[30.833085,30.333808],[30.368979,29.970781],[30.328619,29.898201],[29.550579,29.482826],[28.901006,28.908882],[28.699158,28.775091],[27.906235,28.59288],[27.757097,28.483559],[27.324772,27.667898],[28.653218,27.667898],[28.774864,27.873157],[28.846126,27.920828],[29.308527,28.136448],[29.459939,28.236055],[29.587063,28.384443],[29.749223,28.759304]]]},"properties":{"LOCATION_TYPE":"level1","ADM0_A3":"EGY","LOCATION_ID":"EGY-GZ","NAME":"Al Jizah","TYPE_EN":"Governorate"}},
{"type":"Feature","geometry":{"type":"Polygon","coordinates":[[[28.653218,27.667898],[30.687822,27.66764],[30.671234,27.634024],[30.941244,27.620149],[30.959227,27.715725],[30.891738,28.042656],[30.815411,28.258715],[30.912356,28.471802],[30.944189,28.715664],[30.768696,28.780957],[29.749223,28.759304],[29.587063,28.384443],[29.459939,28.236055],[29.308527,28.136448],[28.846126,27.920828],[28.774864,27.873157],[28.653218,27.667898]]]},"properties":{"LOCATION_TYPE":"level1","ADM0_A3":"EGY","LOCATION_ID":"EGY-MN","NAME":"Al Minya","TYPE_EN":"Governorate"}},
{"type":"Feature","geometry":{"type":"Polygon","coordinates":[[[31.101854,29.400118],[31.030489,29.680514],[30.955816,29.737074],[30.74601,29.714285],[30.536255,29.630362],[30.281594,29.485048],[29.814852,29.088432],[30.249761,29.018126],[30.363708,28.979756],[30.780168,29.082385],[30.932252,29.185997],[31.101854,29.400118]]]},"properties":{"LOCATION_TYPE":"level1","ADM0_A3":"EGY","LOCATION_ID":"EGY-FYM","NAME":"Al Fayyum","TYPE_EN":"Governorate"}},
{"type":"Feature","geometry":{"type":"Polygon","coordinates":[[[31.101854,29.400118],[30.932252,29.185997],[30.780168,29.082385],[30.363708,28.979756],[30.249761,29.018126],[29.814852,29.088432],[29.749223,28.759304],[30.768696,28.780957],[30.944189,28.715664],[30.99292,28.846043],[31.190582,29.081765],[31.253266,29.202714],[31.255281,29.298755],[31.234817,29.371541],[31.101854,29.400118]]]},"properties":{"LOCATION_TYPE":"level1","ADM0_A3":"EGY","LOCATION_ID":"EGY-BNS","NAME":"Bani Suwayf","TYPE_EN":"Governorate"}},
{"type":"Feature","geometry":{"type":"Polygon","coordinates":[[[30.833085,30.333808],[30.917007,30.336185],[30.978812,30.225804],[31.145417,30.175445],[31.103869,30.33249],[31.136064,30.446385],[31.251199,30.565086],[31.064285,30.685182],[30.927601,30.71673],[30.796084,30.680221],[30.851223,30.453206],[30.833085,30.333808]]]},"properties":{"LOCATION_TYPE":"level1","ADM0_A3":"EGY","LOCATION_ID":"EGY-MNF","NAME":"Al Minufiyah","TYPE_EN":"Governorate"}},
{"type":"Feature","geometry":{"type":"Polygon","coordinates":[[[31.593865,30.190431],[31.385661,30.280452],[31.272541,30.43698],[31.352898,30.573767],[31.253731,30.588392],[31.251199,30.565086],[31.136064,30.446385],[31.103869,30.33249],[31.145417,30.175445],[31.237608,30.114777],[31.440283,30.184437],[31.593865,30.190431]]]},"properties":{"LOCATION_TYPE":"level1","ADM0_A3":"EGY","LOCATION_ID":"EGY-KB","NAME":"Al Qalyubiyah","TYPE_EN":"Governorate"}},
{"type":"Feature","geometry":{"type":"Polygon","coordinates":[[[30.796084,30.680221],[30.927601,30.71673],[31.064285,30.685182],[31.251199,30.565086],[31.253731,30.588392],[31.230942,30.814011],[31.296261,31.032861],[31.24846,31.109859],[31.070796,31.121227],[31.048937,31.034282],[30.763632,30.983613],[30.789935,30.877805],[30.753245,30.775538],[30.796084,30.680221]]]},"properties":{"LOCATION_TYPE":"level1","ADM0_A3":"EGY","LOCATION_ID":"EGY-GH","NAME":"Al Gharbiyah","TYPE_EN":"Governorate"}},
{"type":"Feature","geometry":{"type":"Polygon","coordinates":[[[31.952345,26.139852],[32.13714,26.236797],[32.25646,26.131687],[32.307517,26.158197],[32.155278,26.346842],[31.988466,26.407742],[31.831008,26.689973],[31.619032,26.833194],[31.474699,26.935307],[31.299981,26.83738],[31.533972,26.610598],[31.952345,26.139852]]]},"properties":{"LOCATION_TYPE":"level1","ADM0_A3":"EGY","LOCATION_ID":"EGY-SHG","NAME":"Suhaj","TYPE_EN":"Governorate"}},
{"type":"Feature","geometry":{"type":"Polygon","coordinates":[[[32.307517,26.158197],[32.25646,26.131687],[32.13714,26.236797],[31.952345,26.139852],[32.110785,26.005416],[32.224059,25.970095],[32.361054,26.000145],[32.591634,26.097296],[32.727284,26.08647],[32.748058,26.001152],[32.631993,25.763234],[32.443012,25.59712],[32.504301,25.296441],[32.653852,25.145701],[32.704753,25.269879],[32.64021,25.356566],[32.621141,25.484595],[32.66057,25.571876],[32.863969,25.762821],[32.931148,25.935523],[32.880298,26.136777],[32.762476,26.238347],[32.539802,26.251654],[32.307517,26.158197]],[[32.651394,25.683121],[32.624912,25.687206],[32.649684,25.729935],[32.66937,25.721108],[32.651394,25.683121]]]},"properties":{"LOCATION_TYPE":"level1","ADM0_A3":"EGY","LOCATION_ID":"EGY-KN","NAME":"Qina","TYPE_EN":"Governorate"}},
{"type":"Feature","geometry":{"type":"Polygon","coordinates":[[[30.671234,27.634024],[30.681001,27.536588],[30.773657,27.360087],[30.939383,27.208986],[31.080408,27.149506],[31.174304,27.06424],[31.299981,26.83738],[31.474699,26.935307],[31.619032,26.833194],[31.474854,27.083257],[31.333209,27.199322],[31.236678,27.31717],[30.984238,27.418353],[30.941244,27.620149],[30.671234,27.634024]]]},"properties":{"LOCATION_TYPE":"level1","ADM0_A3":"EGY","LOCATION_ID":"EGY-AST","NAME":"Asyut","TYPE_EN":"Governorate"}},
{"type":"Feature","geometry":{"type":"Polygon","coordinates":[[[32.651394,25.683121],[32.66937,25.721108],[32.649684,25.729935],[32.624912,25.687206],[32.651394,25.683121]]]},"properties":{"LOCATION_TYPE":"level1","ADM0_A3":"EGY","LOCATION_ID":"EGY-LX","NAME":"Luxor","TYPE_EN":"Governorate"}}
]}