{"type":"FeatureCollection", "features": [
{"type":"Feature","geometry":{"type":"Polygon","coordinates":[[[40.353687,14.335241],[40.585874,14.19469],[40.833197,14.105962],[41.043623,13.872488],[41.192038,13.615863],[41.530726,13.393783],[41.7118,13.247926],[41.8166,13.112792],[41.946617,12.876166],[42.137304,12.77333],[42.379459,12.465907],[42.521569,12.496241],[42.678252,12.360022],[42.792251,12.429165],[42.852092,12.611738],[43.117686,12.707913],[43.086436,12.820868],[42.963227,12.810452],[42.773936,12.862128],[42.737641,13.017727],[42.520681,13.2355],[42.379405,13.222642],[42.288422,13.574612],[42.09962,13.654364],[41.980968,13.837795],[41.806,13.929674],[41.676524,13.940253],[41.620942,14.063625],[41.335948,14.402004],[41.306814,14.488918],[41.156098,14.641588],[40.808116,14.702826],[40.733735,14.818183],[40.572334,14.951211],[40.575746,14.701532],[40.353687,14.335241]]]},"properties":{"LOCATION_TYPE":"level1","ADM0_A3":"ERI","LOCATION_ID":"ERI-DK","NAME":"Debubawi Keyih Bahri","TYPE_EN":"Region"}},
{"type":"Feature","geometry":{"type":"Polygon","coordinates":[[[40.572334,14.951211],[40.375743,14.986721],[40.301768,14.916897],[40.159434,14.982245],[40.026622,15.237209],[40.072439,15.350735],[39.875255,15.504096],[39.773448,15.39053],[39.854666,15.173489],[39.81129,15.078925],[39.698253,15.123603],[39.718272,15.263902],[39.587169,15.531399],[39.482758,15.614936],[39.427013,15.82038],[39.313487,15.893948],[39.235606,16.10871],[39.163341,16.62816],[39.055919,17.034125],[38.929047,17.397121],[38.601573,18.004828],[38.459285,17.890744],[38.343737,17.655926],[38.160595,17.557327],[38.014424,17.539344],[38.023292,17.417438],[37.993061,16.893078],[38.043497,16.83135],[38.032284,16.684021],[38.08582,16.626014],[38.31361,16.586611],[38.521711,16.206401],[38.498457,16.010031],[38.67395,15.885129],[38.808929,15.86867],[38.924684,15.69806],[38.958687,15.57569],[39.091495,15.350226],[39.326261,15.176025],[39.722985,14.501717],[39.911186,14.42341],[40.104559,14.465966],[40.277055,14.404574],[40.353687,14.335241],[40.575746,14.701532],[40.572334,14.951211]]]},"properties":{"LOCATION_TYPE":"level1","ADM0_A3":"ERI","LOCATION_ID":"ERI-DU","NAME":"Debub","TYPE_EN":"Region"}},
{"type":"Feature","geometry":{"type":"Polygon","coordinates":[[[38.014424,17.539344],[37.872034,17.437283],[37.506785,17.318479],[37.500997,17.195076],[37.403432,17.029918],[37.309795,17.055343],[37.133991,17.01643],[37.000459,17.072602],[36.984957,16.765696],[36.901447,16.655729],[36.877263,16.527313],[36.927313,16.435393],[36.974829,16.402978],[37.069913,16.174904],[37.251453,16.120231],[37.437074,15.921509],[37.551124,15.846165],[37.750337,15.848413],[38.009184,15.757902],[38.106801,15.694262],[38.278573,15.731495],[38.500782,15.550111],[38.786294,15.556803],[38.958687,15.57569],[38.924684,15.69806],[38.808929,15.86867],[38.67395,15.885129],[38.498457,16.010031],[38.521711,16.206401],[38.31361,16.586611],[38.08582,16.626014],[38.032284,16.684021],[38.043497,16.83135],[37.993061,16.893078],[38.023292,17.417438],[38.014424,17.539344]]]},"properties":{"LOCATION_TYPE":"level1","ADM0_A3":"ERI","LOCATION_ID":"ERI-SK","NAME":"Semenawi Keyih Bahri","TYPE_EN":"Region"}},
{"type":"Feature","geometry":{"type":"Polygon","coordinates":[[[36.927313,16.435393],[36.944029,16.252859],[36.885944,16.184853],[36.759544,15.837484],[36.670971,15.723124],[36.524933,15.247908],[36.423647,15.111508],[36.52638,14.263523],[36.748072,14.332072],[37.072703,14.285305],[37.121072,14.420826],[37.293775,14.457439],[37.475366,14.199574],[37.564973,14.116685],[37.891464,14.879532],[38.006703,14.7244],[38.245841,14.652474],[38.212893,14.835968],[38.249686,14.930381],[38.425335,15.094428],[38.788155,15.155613],[38.786294,15.556803],[38.500782,15.550111],[38.278573,15.731495],[38.106801,15.694262],[38.009184,15.757902],[37.750337,15.848413],[37.551124,15.846165],[37.437074,15.921509],[37.251453,16.120231],[37.069913,16.174904],[36.974829,16.402978],[36.927313,16.435393]]]},"properties":{"LOCATION_TYPE":"level1","ADM0_A3":"ERI","LOCATION_ID":"ERI-GB","NAME":"Gash Barka","TYPE_EN":"Region"}},
{"type":"Feature","geometry":{"type":"Polygon","coordinates":[[[38.245841,14.652474],[38.32503,14.504594],[38.426832,14.417183],[38.866082,14.493664],[39.075475,14.637402],[39.20818,14.440179],[39.489403,14.524489],[39.722985,14.501717],[39.326261,15.176025],[39.284404,15.155768],[38.788155,15.155613],[38.425335,15.094428],[38.249686,14.930381],[38.212893,14.835968],[38.245841,14.652474]]]},"properties":{"LOCATION_TYPE":"level1","ADM0_A3":"ERI","LOCATION_ID":"ERI-MA","NAME":"Maekel","TYPE_EN":"Region"}},
{"type":"Feature","geometry":{"type":"Polygon","coordinates":[[[38.788155,15.155613],[39.284404,15.155768],[39.326261,15.176025],[39.091495,15.350226],[38.958687,15.57569],[38.786294,15.556803],[38.788155,15.155613]]]},"properties":{"LOCATION_TYPE":"level1","ADM0_A3":"ERI","LOCATION_ID":"ERI-AN","NAME":"Anseba","TYPE_EN":"Region"}}
]}