{"type":"FeatureCollection", "features": [
{"type":"Feature","geometry":{"type":"Polygon","coordinates":[[[33.777917,34.984687],[33.847423,34.94245],[33.874522,34.94123],[33.859049,34.991819],[33.799001,35.038534],[33.827113,35.061272],[33.855122,35.053417],[33.880133,35.073054],[33.921474,35.080702],[33.889435,35.118994],[33.876929,35.076826],[33.853571,35.058171],[33.824012,35.06675],[33.766135,35.03161],[33.719368,35.06277],[33.678853,35.055794],[33.702211,35.022256],[33.701508,34.972886],[33.777917,34.984687]]]},"properties":{"LOCATION_TYPE":"level1","ADM0_A3":"ESB","LOCATION_ID":"ESB-99","NAME":"Dhekelia","TYPE_EN":null}}
]}