{"type":"FeatureCollection", "features": [
{"type":"Feature","geometry":{"type":"Polygon","coordinates":[[[-5.340728,35.847357],[-5.29186,35.89053],[-5.3662,35.92475],[-5.378401,35.881687],[-5.340728,35.847357]]]},"properties":{"LOCATION_TYPE":"level1","ADM0_A3":"ESP","LOCATION_ID":"ESP-CE","NAME":"Ceuta","TYPE_EN":"Autonomous City"}},
{"type":"Feature","geometry":{"type":"Polygon","coordinates":[[[-2.943046,35.267874],[-2.912913,35.276923],[-2.947825,35.329779],[-2.96692,35.313866],[-2.943046,35.267874]]]},"properties":{"LOCATION_TYPE":"level1","ADM0_A3":"ESP","LOCATION_ID":"ESP-ML","NAME":"Melilla","TYPE_EN":"Autonomous City"}},
{"type":"Feature","geometry":{"type":"Polygon","coordinates":[[[-1.74973,43.294793],[-1.918663,43.192248],[-1.926724,43.114371],[-2.04266,42.994456],[-2.252958,42.900069],[-2.242312,42.839194],[-2.292697,42.663081],[-2.40871,42.660213],[-2.406075,42.497096],[-2.20601,42.446402],[-2.076509,42.442578],[-1.976747,42.393046],[-1.861922,42.284189],[-1.697074,42.215821],[-1.685783,42.14903],[-1.823423,42.145619],[-1.896054,42.07614],[-1.852414,42.001209],[-1.657154,41.962168],[-1.555946,41.911602],[-1.419288,41.908863],[-1.315961,42.03715],[-1.394225,42.127584],[-1.41642,42.220576],[-1.334487,42.34987],[-1.341954,42.414827],[-1.145015,42.641377],[-0.904358,42.742559],[-0.806224,42.904358],[-0.745032,42.918727],[-0.786433,42.953271],[-0.98146,42.957043],[-1.274879,43.046831],[-1.435024,43.035721],[-1.403501,43.243331],[-1.559047,43.284077],[-1.639043,43.255681],[-1.74973,43.294793]]]},"properties":{"LOCATION_TYPE":"level1","ADM0_A3":"ESP","LOCATION_ID":"ESP-NA","NAME":"Navarra","TYPE_EN":"Autonomous Community"}},
{"type":"Feature","geometry":{"type":"Polygon","coordinates":[[[-1.74973,43.294793],[-1.811269,43.395087],[-2.098866,43.304145],[-2.284657,43.303494],[-2.406784,43.329306],[-2.490528,43.222351],[-2.546547,43.088043],[-2.559017,42.962832],[-2.354704,42.950099],[-2.252958,42.900069],[-2.04266,42.994456],[-1.926724,43.114371],[-1.918663,43.192248],[-1.74973,43.294793]]]},"properties":{"LOCATION_TYPE":"level1","ADM0_A3":"ESP","LOCATION_ID":"ESP-SS","NAME":"Gipuzkoa","TYPE_EN":"Autonomous Community"}},
{"type":"Feature","geometry":{"type":"Polygon","coordinates":[[[-0.745032,42.918727],[-0.806224,42.904358],[-0.904358,42.742559],[-0.898191,42.43261],[-0.838909,42.368714],[-0.922482,42.271638],[-0.757391,42.258455],[-0.745108,42.100944],[-0.853686,41.996705],[-0.667995,41.955298],[-0.524898,41.839832],[-0.488775,41.735549],[-0.380669,41.684683],[-0.258304,41.578181],[-0.174906,41.581983],[-0.06991,41.372891],[0.106135,41.350929],[0.240651,41.428482],[0.338305,41.405897],[0.348537,41.472094],[0.441193,41.546147],[0.328538,41.677405],[0.40595,41.752956],[0.597618,41.874395],[0.703141,42.120323],[0.751097,42.347958],[0.701436,42.484332],[0.761484,42.569314],[0.663426,42.696214],[0.275388,42.668689],[0.169168,42.726463],[-0.038933,42.685148],[-0.163629,42.777984],[-0.307418,42.831831],[-0.561175,42.77354],[-0.745032,42.918727]]]},"properties":{"LOCATION_TYPE":"level1","ADM0_A3":"ESP","LOCATION_ID":"ESP-HU","NAME":"Huesca","TYPE_EN":"Autonomous Community"}},
{"type":"Feature","geometry":{"type":"Polygon","coordinates":[[[1.712174,42.493712],[1.447901,42.434646],[1.407593,42.486762],[1.429297,42.595386],[1.319123,42.713363],[1.134328,42.715973],[1.068182,42.776124],[0.921111,42.784366],[0.812901,42.831624],[0.656321,42.83842],[0.663426,42.696214],[0.761484,42.569314],[0.701436,42.484332],[0.751097,42.347958],[0.703141,42.120323],[0.597618,41.874395],[0.40595,41.752956],[0.328538,41.677405],[0.441193,41.546147],[0.348537,41.472094],[0.338305,41.405897],[0.360371,41.232832],[0.438054,41.32476],[0.531372,41.292833],[0.957685,41.354511],[1.07302,41.482732],[1.170227,41.495421],[1.2078,41.572326],[1.392678,41.575028],[1.438513,41.643506],[1.409487,41.782538],[1.560241,41.767838],[1.630224,41.829054],[1.706755,42.130794],[1.715588,42.288118],[1.842546,42.306311],[1.80717,42.418548],[1.712174,42.493712]]]},"properties":{"LOCATION_TYPE":"level1","ADM0_A3":"ESP","LOCATION_ID":"ESP-L","NAME":"Lérida","TYPE_EN":"Autonomous Community"}},
{"type":"Feature","geometry":{"type":"Polygon","coordinates":[[[1.712174,42.493712],[1.80717,42.418548],[1.842546,42.306311],[2.040651,42.293523],[2.058845,42.143439],[2.129333,42.119588],[2.280153,42.14345],[2.365891,42.121345],[2.502649,42.02594],[2.439851,41.94942],[2.436599,41.802874],[2.547429,41.719158],[2.701501,41.748854],[2.778497,41.645582],[3.150165,41.845351],[3.235688,41.965522],[3.214496,42.068334],[3.122488,42.140489],[3.151622,42.256822],[3.263031,42.239854],[3.317719,42.322984],[3.17449,42.363796],[3.18097,42.431484],[2.933702,42.470225],[2.640283,42.372841],[2.464893,42.340621],[2.277411,42.428626],[2.136954,42.416223],[2.051688,42.352351],[1.927458,42.436894],[1.712174,42.493712]]]},"properties":{"LOCATION_TYPE":"level1","ADM0_A3":"ESP","LOCATION_ID":"ESP-GI","NAME":"Gerona","TYPE_EN":"Autonomous Community"}},
{"type":"Feature","geometry":{"type":"Polygon","coordinates":[[[-7.250845,39.270627],[-7.244127,39.195645],[-7.167491,39.113479],[-7.038816,39.109138],[-6.973291,39.013951],[-7.06605,38.904603],[-7.056076,38.855149],[-7.27043,38.737507],[-7.35921,38.446362],[-7.167181,38.272084],[-7.126873,38.1909],[-6.950576,38.198386],[-6.7979,38.172942],[-6.810354,38.113023],[-6.644628,38.093747],[-6.571712,38.023855],[-6.449575,38.051399],[-6.18326,37.938977],[-5.975986,37.998637],[-5.915396,38.114082],[-5.83708,38.174259],[-5.727526,38.188315],[-5.581049,38.135089],[-5.521337,38.26676],[-5.56937,38.425329],[-5.419638,38.515841],[-5.362406,38.583873],[-5.180815,38.666038],[-5.159447,38.717947],[-5.036586,38.728412],[-4.971655,38.769158],[-4.912899,38.882278],[-4.944318,39.009661],[-4.834712,39.047591],[-4.867398,39.10614],[-4.806781,39.198796],[-4.710611,39.225306],[-4.756758,39.316515],[-4.692731,39.449815],[-4.75296,39.418163],[-4.880136,39.366874],[-4.94437,39.391911],[-5.178762,39.309977],[-5.339623,39.323589],[-5.347215,39.228755],[-5.444488,39.15864],[-5.51747,39.209056],[-5.589936,39.117101],[-5.689945,39.082944],[-5.810399,39.144721],[-5.986103,39.065542],[-6.021435,39.12756],[-6.14223,39.031473],[-6.37147,39.162903],[-6.65973,39.198938],[-6.769549,39.19061],[-6.751685,39.302737],[-6.799465,39.377048],[-7.049228,39.436737],[-7.072969,39.380586],[-7.250845,39.270627]]]},"properties":{"LOCATION_TYPE":"level1","ADM0_A3":"ESP","LOCATION_ID":"ESP-BA","NAME":"Badajoz","TYPE_EN":"Autonomous Community"}},
{"type":"Feature","geometry":{"type":"Polygon","coordinates":[[[-6.23161,36.902833],[-6.338206,36.883734],[-6.335194,36.818264],[-6.433339,36.751207],[-6.394683,36.636908],[-6.234893,36.575751],[-6.218373,36.402452],[-6.159454,36.304307],[-6.036773,36.189521],[-5.917185,36.184068],[-5.796051,36.085517],[-5.611765,36.006456],[-5.445505,36.05744],[-5.437896,36.161485],[-5.334055,36.187812],[-5.253651,36.297105],[-5.320002,36.324914],[-5.355356,36.43369],[-5.441302,36.523646],[-5.444938,36.618173],[-5.339283,36.666348],[-5.262708,36.873879],[-5.194077,36.829055],[-5.08808,36.893567],[-5.142243,37.003705],[-5.218994,36.949641],[-5.31497,37.016372],[-5.488972,37.039652],[-5.52371,36.938622],[-5.64222,36.958474],[-5.866242,36.896995],[-5.891038,36.842074],[-6.105184,36.857499],[-6.23161,36.902833]]]},"properties":{"LOCATION_TYPE":"level1","ADM0_A3":"ESP","LOCATION_ID":"ESP-CA","NAME":"Cádiz","TYPE_EN":"Autonomous Community"}},
{"type":"Feature","geometry":{"type":"Polygon","coordinates":[[[-8.222362,42.15363],[-8.191304,42.062085],[-8.108028,42.010899],[-8.231715,41.886049],[-8.179574,41.810705],[-8.048574,41.816389],[-7.72203,41.899252],[-7.588395,41.824218],[-7.251465,41.863699],[-7.145373,41.98749],[-6.983456,41.962996],[-7.024656,42.075727],[-6.932905,42.174119],[-6.78325,42.252873],[-6.755422,42.36266],[-6.839112,42.410125],[-6.821051,42.485056],[-6.919986,42.512832],[-7.071036,42.503452],[-7.15083,42.427227],[-7.255727,42.406221],[-7.418281,42.43317],[-7.617342,42.40209],[-7.861502,42.503977],[-7.930804,42.578454],[-8.018673,42.542067],[-8.173778,42.571928],[-8.342286,42.432544],[-8.261976,42.315232],[-8.222362,42.15363]]]},"properties":{"LOCATION_TYPE":"level1","ADM0_A3":"ESP","LOCATION_ID":"ESP-OR","NAME":"Orense","TYPE_EN":"Autonomous Community"}},
{"type":"Feature","geometry":{"type":"Polygon","coordinates":[[[-7.250845,39.270627],[-7.072969,39.380586],[-7.049228,39.436737],[-6.799465,39.377048],[-6.751685,39.302737],[-6.769549,39.19061],[-6.65973,39.198938],[-6.37147,39.162903],[-6.14223,39.031473],[-6.021435,39.12756],[-5.986103,39.065542],[-5.810399,39.144721],[-5.689945,39.082944],[-5.589936,39.117101],[-5.51747,39.209056],[-5.444488,39.15864],[-5.347215,39.228755],[-5.339623,39.323589],[-5.178762,39.309977],[-4.94437,39.391911],[-5.19761,39.59965],[-5.141722,39.720315],[-5.168129,39.792894],[-5.316931,39.771888],[-5.28931,39.861702],[-5.391009,39.920406],[-5.327964,40.115898],[-5.373077,40.254417],[-5.478136,40.204213],[-5.603813,40.219406],[-5.727733,40.293975],[-5.867621,40.324929],[-5.903691,40.28426],[-6.080037,40.34839],[-6.069107,40.396294],[-6.20667,40.477555],[-6.51554,40.352421],[-6.585148,40.271987],[-6.824513,40.246355],[-6.874509,40.279188],[-7.02476,40.216203],[-7.015769,40.119051],[-6.879705,40.009187],[-6.92425,39.871573],[-7.000266,39.802533],[-7.035767,39.689258],[-7.341433,39.671843],[-7.557286,39.679801],[-7.515841,39.59376],[-7.313528,39.457438],[-7.326654,39.341321],[-7.250845,39.270627]]]},"properties":{"LOCATION_TYPE":"level1","ADM0_A3":"ESP","LOCATION_ID":"ESP-CC","NAME":"Cáceres","TYPE_EN":"Autonomous Community"}},
{"type":"Feature","geometry":{"type":"Polygon","coordinates":[[[-6.874509,40.279188],[-6.824513,40.246355],[-6.585148,40.271987],[-6.51554,40.352421],[-6.20667,40.477555],[-6.069107,40.396294],[-6.080037,40.34839],[-5.903691,40.28426],[-5.867621,40.324929],[-5.727733,40.293975],[-5.687714,40.424584],[-5.590507,40.473583],[-5.459605,40.479746],[-5.363046,40.674391],[-5.161513,40.818543],[-5.09576,41.001663],[-5.125104,41.131994],[-5.288779,41.182091],[-5.301094,41.119865],[-5.611206,41.208689],[-5.660457,41.244076],[-5.811267,41.216577],[-5.889182,41.235276],[-5.946761,41.141145],[-6.321889,41.280474],[-6.482128,41.302992],[-6.646644,41.267611],[-6.818003,41.054136],[-6.942491,41.015999],[-6.836658,40.840247],[-6.814282,40.647184],[-6.857122,40.442132],[-6.794438,40.356401],[-6.874509,40.279188]]]},"properties":{"LOCATION_TYPE":"level1","ADM0_A3":"ESP","LOCATION_ID":"ESP-SA","NAME":"Salamanca","TYPE_EN":"Autonomous Community"}},
{"type":"Feature","geometry":{"type":"Polygon","coordinates":[[[-6.482128,41.302992],[-6.321889,41.280474],[-5.946761,41.141145],[-5.889182,41.235276],[-5.811267,41.216577],[-5.660457,41.244076],[-5.611206,41.208689],[-5.301094,41.119865],[-5.288779,41.182091],[-5.331461,41.480908],[-5.2898,41.563009],[-5.391215,41.760994],[-5.279594,41.813333],[-5.28055,41.97893],[-5.376296,42.041387],[-5.421581,42.030752],[-5.520755,42.096978],[-5.643275,42.12875],[-5.95588,42.125828],[-6.045023,42.157688],[-6.203698,42.148339],[-6.311529,42.208115],[-6.490584,42.184165],[-6.705631,42.217179],[-6.78325,42.252873],[-6.932905,42.174119],[-7.024656,42.075727],[-6.983456,41.962996],[-6.656772,41.933075],[-6.524222,41.86742],[-6.577397,41.739727],[-6.55528,41.674899],[-6.365937,41.663608],[-6.205947,41.57028],[-6.321031,41.419592],[-6.482128,41.302992]]]},"properties":{"LOCATION_TYPE":"level1","ADM0_A3":"ESP","LOCATION_ID":"ESP-ZA","NAME":"Zamora","TYPE_EN":"Autonomous Community"}},
{"type":"Feature","geometry":{"type":"Polygon","coordinates":[[[-8.222362,42.15363],[-8.261976,42.315232],[-8.342286,42.432544],[-8.173778,42.571928],[-8.018673,42.542067],[-7.930804,42.578454],[-7.88041,42.722012],[-7.978518,42.781151],[-7.999809,42.84886],[-8.174448,42.853013],[-8.578053,42.745874],[-8.730946,42.688422],[-8.822987,42.569525],[-8.867502,42.4147],[-8.795766,42.258246],[-8.89859,42.101752],[-8.878733,41.907131],[-8.777089,41.937161],[-8.626885,42.051026],[-8.346747,42.101695],[-8.222362,42.15363]]]},"properties":{"LOCATION_TYPE":"level1","ADM0_A3":"ESP","LOCATION_ID":"ESP-PO","NAME":"Pontevedra","TYPE_EN":"Autonomous Community"}},
{"type":"Feature","geometry":{"type":"Polygon","coordinates":[[[-6.950576,38.198386],[-7.023985,38.022564],[-7.123256,38.040005],[-7.268621,37.949235],[-7.334405,37.811931],[-7.426338,37.750617],[-7.529691,37.567165],[-7.475947,37.49425],[-7.414418,37.192816],[-7.029368,37.205512],[-6.744862,37.101386],[-6.499582,36.959662],[-6.38801,36.808173],[-6.339067,36.904696],[-6.38015,37.073446],[-6.352882,37.114139],[-6.364154,37.398169],[-6.315187,37.438225],[-6.443189,37.623444],[-6.468963,37.724694],[-6.185032,37.803411],[-6.127069,37.90722],[-6.18326,37.938977],[-6.449575,38.051399],[-6.571712,38.023855],[-6.644628,38.093747],[-6.810354,38.113023],[-6.7979,38.172942],[-6.950576,38.198386]]]},"properties":{"LOCATION_TYPE":"level1","ADM0_A3":"ESP","LOCATION_ID":"ESP-H","NAME":"Huelva","TYPE_EN":"Autonomous Community"}},
{"type":"Feature","geometry":{"type":"Polygon","coordinates":[[[2.778497,41.645582],[2.701501,41.748854],[2.547429,41.719158],[2.436599,41.802874],[2.439851,41.94942],[2.502649,42.02594],[2.365891,42.121345],[2.280153,42.14345],[2.129333,42.119588],[2.058845,42.143439],[2.040651,42.293523],[1.842546,42.306311],[1.715588,42.288118],[1.706755,42.130794],[1.630224,41.829054],[1.560241,41.767838],[1.409487,41.782538],[1.438513,41.643506],[1.392678,41.575028],[1.559626,41.366255],[1.62436,41.192165],[2.060313,41.274604],[2.130544,41.303656],[2.296723,41.465318],[2.449474,41.535224],[2.778497,41.645582]]]},"properties":{"LOCATION_TYPE":"level1","ADM0_A3":"ESP","LOCATION_ID":"ESP-B","NAME":"Barcelona","TYPE_EN":"Autonomous Community"}},
{"type":"Feature","geometry":{"type":"Polygon","coordinates":[[[1.62436,41.192165],[1.559626,41.366255],[1.392678,41.575028],[1.2078,41.572326],[1.170227,41.495421],[1.07302,41.482732],[0.957685,41.354511],[0.531372,41.292833],[0.438054,41.32476],[0.360371,41.232832],[0.208908,41.119609],[0.216504,41.07062],[0.289729,40.98246],[0.271901,40.829214],[0.173044,40.730899],[0.29314,40.632145],[0.52376,40.526163],[0.599783,40.613715],[0.872406,40.707099],[0.714203,40.815212],[0.990408,41.0397],[1.183604,41.062567],[1.217784,41.104682],[1.539236,41.187445],[1.62436,41.192165]]]},"properties":{"LOCATION_TYPE":"level1","ADM0_A3":"ESP","LOCATION_ID":"ESP-T","NAME":"Tarragona","TYPE_EN":"Autonomous Community"}},
{"type":"Feature","geometry":{"type":"Polygon","coordinates":[[[0.52376,40.526163],[0.29314,40.632145],[0.173044,40.730899],[-0.074486,40.730847],[-0.165798,40.779914],[-0.294369,40.605765],[-0.289098,40.389215],[-0.442319,40.237751],[-0.53438,40.240412],[-0.61435,40.07174],[-0.7577,40.034611],[-0.839091,39.945831],[-0.79129,39.87754],[-0.533105,39.796188],[-0.478195,39.728084],[-0.30917,39.787388],[-0.194488,39.71544],[0.205251,40.171536],[0.350597,40.284898],[0.52376,40.526163]]]},"properties":{"LOCATION_TYPE":"level1","ADM0_A3":"ESP","LOCATION_ID":"ESP-CS","NAME":"Castellón","TYPE_EN":"Autonomous Community"}},
{"type":"Feature","geometry":{"type":"MultiPolygon","coordinates":[[[[-0.194488,39.71544],[-0.30917,39.787388],[-0.478195,39.728084],[-0.533105,39.796188],[-0.79129,39.87754],[-1.000269,39.979214],[-1.14548,39.972289],[-1.196226,39.950637],[-1.225579,39.796305],[-1.29219,39.672669],[-1.37203,39.683573],[-1.494425,39.567275],[-1.501016,39.422042],[-1.33968,39.341733],[-1.177726,39.304113],[-1.178579,39.220552],[-1.262114,39.073688],[-1.121037,38.932585],[-0.959187,38.940027],[-0.930643,38.785508],[-0.816354,38.740775],[-0.730057,38.752673],[-0.615469,38.693831],[-0.595298,38.795037],[-0.416584,38.819229],[-0.310807,38.88151],[-0.230508,38.853374],[-0.030995,38.882758],[-0.120676,38.951117],[-0.210027,39.07869],[-0.215493,39.181839],[-0.30134,39.322008],[-0.323354,39.516221],[-0.194488,39.71544]]],[[[-1.162714,40.01146],[-1.151061,40.110058],[-1.324539,40.149281],[-1.448537,40.149798],[-1.369549,40.016343],[-1.162714,40.01146]]]]},"properties":{"LOCATION_TYPE":"level1","ADM0_A3":"ESP","LOCATION_ID":"ESP-V","NAME":"Valencia","TYPE_EN":"Autonomous Community"}},
{"type":"Feature","geometry":{"type":"Polygon","coordinates":[[[-0.030995,38.882758],[-0.230508,38.853374],[-0.310807,38.88151],[-0.416584,38.819229],[-0.595298,38.795037],[-0.615469,38.693831],[-0.730057,38.752673],[-0.816354,38.740775],[-0.930643,38.785508],[-0.903479,38.688698],[-1.022128,38.65454],[-1.024015,38.483388],[-1.076673,38.349701],[-0.96916,38.270843],[-1.032903,38.116899],[-0.916683,37.933551],[-0.760575,37.845898],[-0.65453,37.989325],[-0.609486,38.178046],[-0.504018,38.207221],[-0.518788,38.298651],[-0.413686,38.364814],[-0.329416,38.470038],[-0.090199,38.535346],[-0.01476,38.624416],[0.23406,38.75788],[0.153982,38.831],[-0.030995,38.882758]]]},"properties":{"LOCATION_TYPE":"level1","ADM0_A3":"ESP","LOCATION_ID":"ESP-A","NAME":"Alicante","TYPE_EN":"Autonomous Community"}},
{"type":"Feature","geometry":{"type":"Polygon","coordinates":[[[-0.760575,37.845898],[-0.916683,37.933551],[-1.032903,38.116899],[-0.96916,38.270843],[-1.076673,38.349701],[-1.024015,38.483388],[-1.022128,38.65454],[-1.174186,38.754095],[-1.433628,38.655832],[-1.501996,38.534909],[-1.47794,38.403677],[-1.626743,38.311409],[-1.750534,38.380345],[-1.885848,38.306241],[-2.059068,38.290376],[-2.211927,38.195938],[-2.338534,38.026491],[-2.209653,37.91567],[-1.982793,37.870815],[-2.000725,37.653826],[-1.838409,37.45482],[-1.641618,37.381036],[-1.488352,37.433214],[-1.470896,37.482245],[-1.323735,37.561991],[-1.167057,37.543755],[-1.069936,37.582587],[-0.92516,37.555894],[-0.705312,37.619534],[-0.85261,37.723782],[-0.760575,37.845898]]]},"properties":{"LOCATION_TYPE":"level1","ADM0_A3":"ESP","LOCATION_ID":"ESP-MU","NAME":"Murcia","TYPE_EN":"Autonomous Community"}},
{"type":"Feature","geometry":{"type":"Polygon","coordinates":[[[-1.641618,37.381036],[-1.838409,37.45482],[-2.000725,37.653826],[-1.982793,37.870815],[-2.209653,37.91567],[-2.271647,37.881699],[-2.282359,37.764069],[-2.375995,37.612139],[-2.358483,37.522227],[-2.490154,37.489366],[-2.642139,37.383217],[-2.660113,37.212006],[-2.859932,37.260906],[-2.884717,37.179398],[-3.015356,37.069656],[-2.99691,36.970647],[-3.067717,36.914694],[-3.029023,36.844458],[-3.128224,36.746382],[-2.933258,36.751654],[-2.756663,36.680365],[-2.658884,36.69481],[-2.576894,36.811306],[-2.361684,36.836778],[-2.203643,36.737128],[-2.071156,36.775336],[-2.002797,36.88703],[-1.898671,36.950059],[-1.812734,37.207058],[-1.641618,37.381036]]]},"properties":{"LOCATION_TYPE":"level1","ADM0_A3":"ESP","LOCATION_ID":"ESP-AL","NAME":"Almería","TYPE_EN":"Autonomous Community"}},
{"type":"Feature","geometry":{"type":"Polygon","coordinates":[[[-3.128224,36.746382],[-3.029023,36.844458],[-3.067717,36.914694],[-2.99691,36.970647],[-3.015356,37.069656],[-2.884717,37.179398],[-2.859932,37.260906],[-2.660113,37.212006],[-2.642139,37.383217],[-2.490154,37.489366],[-2.358483,37.522227],[-2.375995,37.612139],[-2.282359,37.764069],[-2.271647,37.881699],[-2.209653,37.91567],[-2.338534,38.026491],[-2.547384,38.080647],[-2.598348,38.005746],[-2.78628,37.91245],[-2.88965,37.774319],[-2.902065,37.665664],[-3.090799,37.596022],[-3.251826,37.633035],[-3.315107,37.577817],[-3.424025,37.568523],[-3.507137,37.613347],[-3.627162,37.529423],[-3.79188,37.466295],[-3.841308,37.386337],[-4.000873,37.402113],[-4.209174,37.352356],[-4.320301,37.186572],[-4.260964,37.023975],[-4.148475,36.948466],[-3.768205,36.801919],[-3.777242,36.735803],[-3.6011,36.74255],[-3.415155,36.695516],[-3.329579,36.7449],[-3.128224,36.746382]]]},"properties":{"LOCATION_TYPE":"level1","ADM0_A3":"ESP","LOCATION_ID":"ESP-GR","NAME":"Granada","TYPE_EN":"Autonomous Community"}},
{"type":"Feature","geometry":{"type":"Polygon","coordinates":[[[-3.777242,36.735803],[-3.768205,36.801919],[-4.148475,36.948466],[-4.260964,37.023975],[-4.320301,37.186572],[-4.444941,37.27755],[-4.539313,37.211313],[-4.653231,37.255929],[-4.738089,37.181244],[-4.839888,37.19178],[-4.916595,37.113041],[-5.142243,37.003705],[-5.08808,36.893567],[-5.194077,36.829055],[-5.262708,36.873879],[-5.339283,36.666348],[-5.444938,36.618173],[-5.441302,36.523646],[-5.355356,36.43369],[-5.320002,36.324914],[-5.253651,36.297105],[-5.186554,36.4112],[-4.994166,36.457094],[-4.902659,36.506537],[-4.722768,36.492987],[-4.524826,36.580715],[-4.433258,36.710679],[-4.224721,36.712388],[-4.056711,36.747992],[-3.960961,36.726793],[-3.777242,36.735803]]]},"properties":{"LOCATION_TYPE":"level1","ADM0_A3":"ESP","LOCATION_ID":"ESP-MA","NAME":"Málaga","TYPE_EN":"Autonomous Community"}},
{"type":"Feature","geometry":{"type":"Polygon","coordinates":[[[-6.23161,36.902833],[-6.105184,36.857499],[-5.891038,36.842074],[-5.866242,36.896995],[-5.64222,36.958474],[-5.52371,36.938622],[-5.488972,37.039652],[-5.31497,37.016372],[-5.218994,36.949641],[-5.142243,37.003705],[-4.916595,37.113041],[-4.839888,37.19178],[-4.738089,37.181244],[-4.653231,37.255929],[-4.677247,37.340765],[-4.822069,37.35819],[-4.943885,37.520183],[-4.928021,37.583684],[-5.026645,37.71051],[-5.34437,37.609985],[-5.309708,37.773429],[-5.413375,37.885083],[-5.496069,38.042836],[-5.581049,38.135089],[-5.727526,38.188315],[-5.83708,38.174259],[-5.915396,38.114082],[-5.975986,37.998637],[-6.18326,37.938977],[-6.127069,37.90722],[-6.185032,37.803411],[-6.468963,37.724694],[-6.443189,37.623444],[-6.315187,37.438225],[-6.364154,37.398169],[-6.352882,37.114139],[-6.38015,37.073446],[-6.339067,36.904696],[-6.23161,36.902833]]]},"properties":{"LOCATION_TYPE":"level1","ADM0_A3":"ESP","LOCATION_ID":"ESP-SE","NAME":"Sevilla","TYPE_EN":"Autonomous Community"}},
{"type":"Feature","geometry":{"type":"Polygon","coordinates":[[[-8.730946,42.688422],[-8.578053,42.745874],[-8.174448,42.853013],[-7.999809,42.84886],[-7.911776,42.936729],[-7.961357,43.189953],[-7.931661,43.299926],[-7.78017,43.449054],[-7.696156,43.731513],[-7.952952,43.730129],[-8.308217,43.546332],[-8.333119,43.471503],[-8.213287,43.424954],[-8.443023,43.375312],[-8.505971,43.331529],[-8.693105,43.293402],[-8.841176,43.338935],[-8.970855,43.286566],[-9.052398,43.196357],[-9.2176,43.155341],[-9.250966,43.016791],[-9.141428,42.921413],[-9.113433,42.766059],[-8.977366,42.792304],[-9.070872,42.596137],[-8.980784,42.551215],[-8.903432,42.625474],[-8.730946,42.688422]]]},"properties":{"LOCATION_TYPE":"level1","ADM0_A3":"ESP","LOCATION_ID":"ESP-C","NAME":"La Coruña","TYPE_EN":"Autonomous Community"}},
{"type":"Feature","geometry":{"type":"Polygon","coordinates":[[[-7.696156,43.731513],[-7.78017,43.449054],[-7.931661,43.299926],[-7.961357,43.189953],[-7.911776,42.936729],[-7.999809,42.84886],[-7.978518,42.781151],[-7.88041,42.722012],[-7.930804,42.578454],[-7.861502,42.503977],[-7.617342,42.40209],[-7.418281,42.43317],[-7.255727,42.406221],[-7.15083,42.427227],[-7.071036,42.503452],[-7.014295,42.641325],[-7.032795,42.706257],[-6.863348,42.808447],[-6.828286,42.914797],[-6.945204,43.076725],[-6.866294,43.175298],[-7.050959,43.237309],[-7.166947,43.386215],[-7.046923,43.483678],[-7.032338,43.553005],[-7.230092,43.56863],[-7.367055,43.68008],[-7.541412,43.731635],[-7.696156,43.731513]]]},"properties":{"LOCATION_TYPE":"level1","ADM0_A3":"ESP","LOCATION_ID":"ESP-LU","NAME":"Lugo","TYPE_EN":"Autonomous Community"}},
{"type":"Feature","geometry":{"type":"Polygon","coordinates":[[[-7.046923,43.483678],[-7.166947,43.386215],[-7.050959,43.237309],[-6.866294,43.175298],[-6.945204,43.076725],[-6.828286,42.914797],[-6.5621,42.916657],[-6.449032,42.951074],[-6.364851,43.051429],[-6.234446,43.014352],[-6.079107,43.065098],[-5.971258,43.051404],[-5.844832,42.971693],[-5.729981,43.040577],[-5.541,43.021793],[-5.307474,43.085484],[-5.118132,43.108583],[-5.072114,43.172456],[-4.90848,43.237309],[-4.83187,43.188682],[-4.715676,43.264698],[-4.592608,43.298158],[-4.51383,43.402834],[-4.734934,43.4171],[-4.836537,43.449774],[-5.177887,43.489366],[-5.424224,43.561143],[-5.708852,43.56863],[-5.852203,43.66295],[-5.907379,43.588446],[-6.069163,43.569688],[-6.222768,43.595893],[-6.510121,43.547471],[-6.648671,43.579047],[-7.001373,43.556667],[-7.046923,43.483678]]]},"properties":{"LOCATION_TYPE":"level1","ADM0_A3":"ESP","LOCATION_ID":"ESP-O","NAME":"Asturias","TYPE_EN":"Autonomous Community"}},
{"type":"Feature","geometry":{"type":"Polygon","coordinates":[[[-4.51383,43.402834],[-4.592608,43.298158],[-4.715676,43.264698],[-4.83187,43.188682],[-4.827891,43.108067],[-4.726864,43.015928],[-4.462875,43.050938],[-4.254128,42.957637],[-4.221391,42.850201],[-4.085766,42.763127],[-3.965205,42.762506],[-3.815756,42.810049],[-3.836246,42.927871],[-3.98479,42.92583],[-3.952621,42.999236],[-3.647808,43.176176],[-3.423791,43.140623],[-3.430896,43.243459],[-3.322944,43.300096],[-3.203546,43.292293],[-3.150602,43.360155],[-3.470041,43.454169],[-3.554351,43.516913],[-3.717926,43.482733],[-3.826731,43.497016],[-4.188588,43.405382],[-4.385569,43.383612],[-4.51383,43.402834]]]},"properties":{"LOCATION_TYPE":"level1","ADM0_A3":"ESP","LOCATION_ID":"ESP-S","NAME":"Cantabria","TYPE_EN":"Autonomous Community"}},
{"type":"Feature","geometry":{"type":"Polygon","coordinates":[[[-3.150602,43.360155],[-3.203546,43.292293],[-3.322944,43.300096],[-3.430896,43.243459],[-3.423791,43.140623],[-3.278477,43.197312],[-3.141844,43.165117],[-2.935914,43.146864],[-2.895385,43.047482],[-2.697906,43.02062],[-2.546547,43.088043],[-2.490528,43.222351],[-2.406784,43.329306],[-2.48351,43.370632],[-2.755849,43.450263],[-2.930084,43.437934],[-3.029286,43.372138],[-3.150602,43.360155]]]},"properties":{"LOCATION_TYPE":"level1","ADM0_A3":"ESP","LOCATION_ID":"ESP-BI","NAME":"Bizkaia","TYPE_EN":"Autonomous Community"}},
{"type":"Feature","geometry":{"type":"MultiPolygon","coordinates":[[[[-17.933949,27.852037],[-18.056793,27.756496],[-17.99413,27.642239],[-17.879262,27.814521],[-17.933949,27.852037]]],[[[-17.309673,28.207117],[-17.343221,28.09766],[-17.232706,28.019106],[-17.09842,28.100764],[-17.212721,28.205449],[-17.309673,28.207117]]],[[[-16.427695,28.14967],[-16.358106,28.314631],[-16.355514,28.38115],[-16.231391,28.488416],[-16.30016,28.566636],[-16.408274,28.519843],[-16.507135,28.424134],[-16.770131,28.366278],[-16.916058,28.35497],[-16.837148,28.20897],[-16.67634,27.997096],[-16.545766,28.023993],[-16.427695,28.14967]]],[[[-17.755767,28.818508],[-17.911145,28.855619],[-18.002187,28.749579],[-17.830881,28.45539],[-17.745604,28.621887],[-17.721044,28.730644],[-17.755767,28.818508]]]]},"properties":{"LOCATION_TYPE":"level1","ADM0_A3":"ESP","LOCATION_ID":"ESP-TF","NAME":"Santa Cruz de Tenerife","TYPE_EN":"Autonomous Community"}},
{"type":"Feature","geometry":{"type":"MultiPolygon","coordinates":[[[[-15.391591,28.030219],[-15.415639,28.141506],[-15.706207,28.167385],[-15.725209,28.056871],[-15.81607,27.996039],[-15.786,27.844224],[-15.685699,27.763332],[-15.577952,27.734361],[-15.377838,27.852281],[-15.391591,28.030219]]],[[[-13.972646,28.735907],[-14.036122,28.587388],[-14.146392,28.423326],[-14.213531,28.234931],[-14.270131,28.175971],[-14.436025,28.100531],[-14.30134,28.067857],[-14.212229,28.160549],[-13.966786,28.227973],[-13.847768,28.397406],[-13.828684,28.551581],[-13.83552,28.715481],[-13.972646,28.735907]]],[[[-13.482981,29.239936],[-13.526112,29.150295],[-13.750559,29.080634],[-13.832102,29.000393],[-13.85969,28.859442],[-13.774648,28.839586],[-13.709299,28.9147],[-13.619781,28.928371],[-13.482045,28.999457],[-13.462392,29.132148],[-13.482981,29.239936]]]]},"properties":{"LOCATION_TYPE":"level1","ADM0_A3":"ESP","LOCATION_ID":"ESP-GC","NAME":"Las Palmas","TYPE_EN":"Autonomous Community"}},
{"type":"Feature","geometry":{"type":"MultiPolygon","coordinates":[[[[1.605968,39.091295],[1.53712,39.118028],[1.356781,39.077623],[1.292817,39.033271],[1.212169,38.903225],[1.343516,38.862372],[1.509776,38.930162],[1.623057,39.029202],[1.605968,39.091295]]],[[[3.354503,39.784369],[3.292491,39.749701],[3.124848,39.811103],[3.14088,39.928087],[2.933279,39.914496],[2.703949,39.814154],[2.569672,39.71308],[2.357677,39.611884],[2.382091,39.529242],[2.492686,39.470242],[2.655284,39.564724],[2.754893,39.502631],[2.761729,39.400214],[2.958832,39.363227],[3.060802,39.26907],[3.221039,39.35989],[3.323253,39.523871],[3.406016,39.591986],[3.468516,39.739325],[3.354503,39.784369]]],[[[4.302908,39.925523],[4.254568,39.997463],[4.107839,40.067613],[3.821869,40.047634],[3.869314,39.925523],[4.015066,39.925767],[4.248139,39.816474],[4.302908,39.925523]]]]},"properties":{"LOCATION_TYPE":"level1","ADM0_A3":"ESP","LOCATION_ID":"ESP-PM","NAME":"Baleares","TYPE_EN":"Autonomous Community"}},
{"type":"Feature","geometry":{"type":"Polygon","coordinates":[[[-0.904358,42.742559],[-1.145015,42.641377],[-1.341954,42.414827],[-1.334487,42.34987],[-1.41642,42.220576],[-1.394225,42.127584],[-1.315961,42.03715],[-1.419288,41.908863],[-1.555946,41.911602],[-1.657154,41.962168],[-1.852414,42.001209],[-1.857736,41.954804],[-1.817765,41.836051],[-1.807326,41.670428],[-1.988271,41.595498],[-1.945948,41.415534],[-2.099711,41.442613],[-2.166245,41.345952],[-2.14914,41.193946],[-2.053228,41.150357],[-1.944863,41.164413],[-1.767328,41.064987],[-1.621885,40.946752],[-1.464383,40.951279],[-1.393345,41.070261],[-1.270188,41.054177],[-1.25472,41.12817],[-1.086497,41.159251],[-0.93827,41.082434],[-0.69401,41.11257],[-0.610053,41.191704],[-0.63107,41.309928],[-0.493005,41.354346],[-0.405861,41.272355],[-0.036204,41.13407],[0.072451,41.077051],[0.216504,41.07062],[0.208908,41.119609],[0.360371,41.232832],[0.338305,41.405897],[0.240651,41.428482],[0.106135,41.350929],[-0.06991,41.372891],[-0.174906,41.581983],[-0.258304,41.578181],[-0.380669,41.684683],[-0.488775,41.735549],[-0.524898,41.839832],[-0.667995,41.955298],[-0.853686,41.996705],[-0.745108,42.100944],[-0.757391,42.258455],[-0.922482,42.271638],[-0.838909,42.368714],[-0.898191,42.43261],[-0.904358,42.742559]]]},"properties":{"LOCATION_TYPE":"level1","ADM0_A3":"ESP","LOCATION_ID":"ESP-Z","NAME":"Zaragoza","TYPE_EN":"Autonomous Community"}},
{"type":"Feature","geometry":{"type":"Polygon","coordinates":[[[-2.406075,42.497096],[-2.617871,42.507716],[-2.685644,42.581794],[-2.837315,42.644116],[-3.014152,42.640886],[-3.113887,42.548411],[-3.049214,42.452344],[-3.107867,42.348966],[-3.12045,42.196288],[-3.026321,42.087974],[-2.910179,42.02343],[-2.812846,42.038055],[-2.572938,42.00015],[-2.511572,42.105131],[-2.296133,42.13779],[-2.137874,42.101565],[-2.110641,41.963408],[-1.922461,41.925736],[-1.857736,41.954804],[-1.852414,42.001209],[-1.896054,42.07614],[-1.823423,42.145619],[-1.685783,42.14903],[-1.697074,42.215821],[-1.861922,42.284189],[-1.976747,42.393046],[-2.076509,42.442578],[-2.20601,42.446402],[-2.406075,42.497096]]]},"properties":{"LOCATION_TYPE":"level1","ADM0_A3":"ESP","LOCATION_ID":"ESP-LO","NAME":"La Rioja","TYPE_EN":"Autonomous Community"}},
{"type":"Feature","geometry":{"type":"Polygon","coordinates":[[[-2.837315,42.644116],[-2.685644,42.581794],[-2.617871,42.507716],[-2.406075,42.497096],[-2.40871,42.660213],[-2.292697,42.663081],[-2.242312,42.839194],[-2.252958,42.900069],[-2.354704,42.950099],[-2.559017,42.962832],[-2.546547,43.088043],[-2.697906,43.02062],[-2.895385,43.047482],[-2.935914,43.146864],[-3.141844,43.165117],[-3.165124,43.026676],[-2.987409,43.008925],[-3.075285,42.905573],[-3.188327,42.946733],[-3.279097,42.887202],[-3.063503,42.785296],[-2.837315,42.644116]],[[-2.626294,42.773203],[-2.634071,42.654761],[-2.814138,42.702923],[-2.816593,42.793977],[-2.626294,42.773203]]]},"properties":{"LOCATION_TYPE":"level1","ADM0_A3":"ESP","LOCATION_ID":"ESP-VI","NAME":"Álava","TYPE_EN":"Autonomous Community"}},
{"type":"Feature","geometry":{"type":"Polygon","coordinates":[[[-1.022128,38.65454],[-0.903479,38.688698],[-0.930643,38.785508],[-0.959187,38.940027],[-1.121037,38.932585],[-1.262114,39.073688],[-1.178579,39.220552],[-1.177726,39.304113],[-1.33968,39.341733],[-1.501016,39.422042],[-1.739415,39.321106],[-2.048954,39.266768],[-2.168365,39.280951],[-2.288819,39.226733],[-2.37393,39.232908],[-2.511182,39.342035],[-2.742126,39.318019],[-2.72223,39.268613],[-2.842684,39.134426],[-2.80744,39.053809],[-2.879795,38.945505],[-2.762385,38.880807],[-2.749212,38.811252],[-2.645292,38.70741],[-2.728492,38.624595],[-2.756028,38.533126],[-2.571905,38.500544],[-2.488731,38.398742],[-2.444806,38.188186],[-2.547384,38.080647],[-2.338534,38.026491],[-2.211927,38.195938],[-2.059068,38.290376],[-1.885848,38.306241],[-1.750534,38.380345],[-1.626743,38.311409],[-1.47794,38.403677],[-1.501996,38.534909],[-1.433628,38.655832],[-1.174186,38.754095],[-1.022128,38.65454]]]},"properties":{"LOCATION_TYPE":"level1","ADM0_A3":"ESP","LOCATION_ID":"ESP-AB","NAME":"Albacete","TYPE_EN":"Autonomous Community"}},
{"type":"Feature","geometry":{"type":"Polygon","coordinates":[[[-1.14548,39.972289],[-1.000269,39.979214],[-0.79129,39.87754],[-0.839091,39.945831],[-0.7577,40.034611],[-0.61435,40.07174],[-0.53438,40.240412],[-0.442319,40.237751],[-0.289098,40.389215],[-0.294369,40.605765],[-0.165798,40.779914],[-0.074486,40.730847],[0.173044,40.730899],[0.271901,40.829214],[0.289729,40.98246],[0.216504,41.07062],[0.072451,41.077051],[-0.036204,41.13407],[-0.405861,41.272355],[-0.493005,41.354346],[-0.63107,41.309928],[-0.610053,41.191704],[-0.69401,41.11257],[-0.93827,41.082434],[-1.086497,41.159251],[-1.25472,41.12817],[-1.270188,41.054177],[-1.393345,41.070261],[-1.464383,40.951279],[-1.621885,40.946752],[-1.544551,40.81738],[-1.537446,40.662996],[-1.586745,40.570599],[-1.671055,40.58928],[-1.699762,40.493343],[-1.808256,40.40203],[-1.555093,40.205402],[-1.448537,40.149798],[-1.324539,40.149281],[-1.151061,40.110058],[-1.162714,40.01146],[-1.14548,39.972289]]]},"properties":{"LOCATION_TYPE":"level1","ADM0_A3":"ESP","LOCATION_ID":"ESP-TE","NAME":"Teruel","TYPE_EN":"Autonomous Community"}},
{"type":"Feature","geometry":{"type":"Polygon","coordinates":[[[-1.162714,40.01146],[-1.369549,40.016343],[-1.448537,40.149798],[-1.555093,40.205402],[-1.808256,40.40203],[-1.85643,40.428847],[-1.929896,40.592653],[-2.031102,40.599398],[-2.157049,40.658757],[-2.488001,40.513024],[-2.512797,40.419717],[-2.626879,40.45306],[-2.722911,40.397272],[-2.807692,40.406874],[-2.816295,40.209878],[-2.912765,40.157572],[-2.998129,40.209208],[-3.072753,40.157601],[-3.163548,40.066185],[-2.999503,39.72192],[-2.908239,39.642313],[-2.931222,39.47141],[-2.830676,39.355076],[-2.742126,39.318019],[-2.511182,39.342035],[-2.37393,39.232908],[-2.288819,39.226733],[-2.168365,39.280951],[-2.048954,39.266768],[-1.739415,39.321106],[-1.501016,39.422042],[-1.494425,39.567275],[-1.37203,39.683573],[-1.29219,39.672669],[-1.225579,39.796305],[-1.196226,39.950637],[-1.14548,39.972289],[-1.162714,40.01146]]]},"properties":{"LOCATION_TYPE":"level1","ADM0_A3":"ESP","LOCATION_ID":"ESP-CU","NAME":"Cuenca","TYPE_EN":"Autonomous Community"}},
{"type":"Feature","geometry":{"type":"Polygon","coordinates":[[[-5.327964,40.115898],[-5.391009,39.920406],[-5.28931,39.861702],[-5.316931,39.771888],[-5.168129,39.792894],[-5.141722,39.720315],[-5.19761,39.59965],[-4.94437,39.391911],[-4.862696,39.556038],[-4.774915,39.51942],[-4.75296,39.418163],[-4.692731,39.449815],[-4.618239,39.45426],[-4.512243,39.548534],[-4.42678,39.508807],[-4.242133,39.477936],[-4.158725,39.576769],[-4.041721,39.575396],[-4.118251,39.456996],[-4.140323,39.358965],[-3.972056,39.352318],[-3.966915,39.298452],[-3.841649,39.25967],[-3.780378,39.294376],[-3.556136,39.299144],[-3.294156,39.470729],[-3.143303,39.495426],[-3.069518,39.450129],[-2.931222,39.47141],[-2.908239,39.642313],[-2.999503,39.72192],[-3.163548,40.066185],[-3.502055,40.048667],[-3.632667,39.991719],[-3.624502,40.113211],[-3.986392,40.217055],[-4.174675,40.283665],[-4.296037,40.220801],[-4.371071,40.307979],[-4.439749,40.239172],[-4.571886,40.212016],[-4.815024,40.229844],[-4.988631,40.114038],[-5.057851,40.148557],[-5.141179,40.094788],[-5.327964,40.115898]]]},"properties":{"LOCATION_TYPE":"level1","ADM0_A3":"ESP","LOCATION_ID":"ESP-TO","NAME":"Toledo","TYPE_EN":"Autonomous Community"}},
{"type":"Feature","geometry":{"type":"Polygon","coordinates":[[[-4.83187,43.188682],[-4.90848,43.237309],[-5.072114,43.172456],[-5.118132,43.108583],[-5.307474,43.085484],[-5.541,43.021793],[-5.729981,43.040577],[-5.844832,42.971693],[-5.971258,43.051404],[-6.079107,43.065098],[-6.234446,43.014352],[-6.364851,43.051429],[-6.449032,42.951074],[-6.5621,42.916657],[-6.828286,42.914797],[-6.863348,42.808447],[-7.032795,42.706257],[-7.014295,42.641325],[-7.071036,42.503452],[-6.919986,42.512832],[-6.821051,42.485056],[-6.839112,42.410125],[-6.755422,42.36266],[-6.78325,42.252873],[-6.705631,42.217179],[-6.490584,42.184165],[-6.311529,42.208115],[-6.203698,42.148339],[-6.045023,42.157688],[-5.95588,42.125828],[-5.643275,42.12875],[-5.520755,42.096978],[-5.421581,42.030752],[-5.376296,42.041387],[-5.387205,42.195163],[-5.265334,42.218179],[-5.093848,42.309398],[-5.002233,42.289151],[-4.91131,42.381469],[-4.914398,42.544813],[-4.881933,42.697974],[-4.929767,42.747226],[-4.901917,42.848058],[-4.726864,43.015928],[-4.827891,43.108067],[-4.83187,43.188682]]]},"properties":{"LOCATION_TYPE":"level1","ADM0_A3":"ESP","LOCATION_ID":"ESP-LE","NAME":"León","TYPE_EN":"Autonomous Community"}},
{"type":"Feature","geometry":{"type":"Polygon","coordinates":[[[-1.857736,41.954804],[-1.922461,41.925736],[-2.110641,41.963408],[-2.137874,42.101565],[-2.296133,42.13779],[-2.511572,42.105131],[-2.572938,42.00015],[-2.812846,42.038055],[-2.910179,42.02343],[-3.01685,41.886831],[-3.171439,41.792942],[-3.35435,41.73734],[-3.459709,41.589431],[-3.541733,41.577775],[-3.336915,41.448015],[-3.33263,41.377055],[-3.198791,41.3012],[-2.982267,41.287248],[-2.591929,41.22198],[-2.467622,41.086071],[-2.288356,41.067519],[-2.053228,41.150357],[-2.14914,41.193946],[-2.166245,41.345952],[-2.099711,41.442613],[-1.945948,41.415534],[-1.988271,41.595498],[-1.807326,41.670428],[-1.817765,41.836051],[-1.857736,41.954804]]]},"properties":{"LOCATION_TYPE":"level1","ADM0_A3":"ESP","LOCATION_ID":"ESP-SO","NAME":"Soria","TYPE_EN":"Autonomous Community"}},
{"type":"Feature","geometry":{"type":"MultiPolygon","coordinates":[[[[-2.837315,42.644116],[-3.063503,42.785296],[-3.279097,42.887202],[-3.188327,42.946733],[-3.075285,42.905573],[-2.987409,43.008925],[-3.165124,43.026676],[-3.141844,43.165117],[-3.278477,43.197312],[-3.423791,43.140623],[-3.647808,43.176176],[-3.952621,42.999236],[-3.98479,42.92583],[-3.836246,42.927871],[-3.815756,42.810049],[-3.965205,42.762506],[-4.085766,42.763127],[-4.285046,42.675968],[-4.297065,42.566621],[-4.243935,42.455275],[-4.276982,42.383281],[-4.235025,42.229066],[-4.120306,42.128212],[-4.079931,42.040112],[-3.972672,42.030763],[-3.914466,41.942708],[-4.088731,41.870484],[-4.041028,41.768223],[-4.030383,41.630619],[-3.980615,41.583246],[-3.769919,41.460067],[-3.672767,41.559241],[-3.541733,41.577775],[-3.459709,41.589431],[-3.35435,41.73734],[-3.171439,41.792942],[-3.01685,41.886831],[-2.910179,42.02343],[-3.026321,42.087974],[-3.12045,42.196288],[-3.107867,42.348966],[-3.049214,42.452344],[-3.113887,42.548411],[-3.014152,42.640886],[-2.837315,42.644116]]],[[[-2.626294,42.773203],[-2.816593,42.793977],[-2.814138,42.702923],[-2.634071,42.654761],[-2.626294,42.773203]]]]},"properties":{"LOCATION_TYPE":"level1","ADM0_A3":"ESP","LOCATION_ID":"ESP-BU","NAME":"Burgos","TYPE_EN":"Autonomous Community"}},
{"type":"Feature","geometry":{"type":"Polygon","coordinates":[[[-5.327964,40.115898],[-5.141179,40.094788],[-5.057851,40.148557],[-4.988631,40.114038],[-4.815024,40.229844],[-4.571886,40.212016],[-4.529821,40.296662],[-4.407271,40.408464],[-4.324821,40.41327],[-4.318981,40.544037],[-4.17129,40.629898],[-4.161291,40.68731],[-4.276279,40.692661],[-4.321927,40.657879],[-4.41954,40.633368],[-4.483151,40.81606],[-4.561033,40.841087],[-4.563648,40.946303],[-4.713853,41.090564],[-4.701516,41.154999],[-4.885317,41.105989],[-4.974735,41.155328],[-5.125104,41.131994],[-5.09576,41.001663],[-5.161513,40.818543],[-5.363046,40.674391],[-5.459605,40.479746],[-5.590507,40.473583],[-5.687714,40.424584],[-5.727733,40.293975],[-5.603813,40.219406],[-5.478136,40.204213],[-5.373077,40.254417],[-5.327964,40.115898]]]},"properties":{"LOCATION_TYPE":"level1","ADM0_A3":"ESP","LOCATION_ID":"ESP-AV","NAME":"Ávila","TYPE_EN":"Autonomous Community"}},
{"type":"Feature","geometry":{"type":"Polygon","coordinates":[[[-4.085766,42.763127],[-4.221391,42.850201],[-4.254128,42.957637],[-4.462875,43.050938],[-4.726864,43.015928],[-4.901917,42.848058],[-4.929767,42.747226],[-4.881933,42.697974],[-4.914398,42.544813],[-4.91131,42.381469],[-5.002233,42.289151],[-5.026953,42.153953],[-4.927427,42.150173],[-4.944105,42.018349],[-4.789131,41.817991],[-4.675588,41.896906],[-4.493665,41.780231],[-4.312138,41.771629],[-4.240134,41.804346],[-4.041028,41.768223],[-4.088731,41.870484],[-3.914466,41.942708],[-3.972672,42.030763],[-4.079931,42.040112],[-4.120306,42.128212],[-4.235025,42.229066],[-4.276982,42.383281],[-4.243935,42.455275],[-4.297065,42.566621],[-4.285046,42.675968],[-4.085766,42.763127]]]},"properties":{"LOCATION_TYPE":"level1","ADM0_A3":"ESP","LOCATION_ID":"ESP-P","NAME":"Palencia","TYPE_EN":"Autonomous Community"}},
{"type":"Feature","geometry":{"type":"MultiPolygon","coordinates":[[[[-2.742126,39.318019],[-2.830676,39.355076],[-2.931222,39.47141],[-3.069518,39.450129],[-3.143303,39.495426],[-3.294156,39.470729],[-3.556136,39.299144],[-3.780378,39.294376],[-3.841649,39.25967],[-3.966915,39.298452],[-3.972056,39.352318],[-4.140323,39.358965],[-4.118251,39.456996],[-4.041721,39.575396],[-4.158725,39.576769],[-4.242133,39.477936],[-4.42678,39.508807],[-4.512243,39.548534],[-4.618239,39.45426],[-4.692731,39.449815],[-4.756758,39.316515],[-4.710611,39.225306],[-4.806781,39.198796],[-4.867398,39.10614],[-4.834712,39.047591],[-4.944318,39.009661],[-4.912899,38.882278],[-4.971655,38.769158],[-5.036586,38.728412],[-4.88303,38.685236],[-4.828485,38.604052],[-4.727975,38.579764],[-4.449749,38.395951],[-4.275496,38.350915],[-4.26498,38.401429],[-3.893736,38.381611],[-3.794156,38.426079],[-3.619851,38.401429],[-3.576753,38.443494],[-3.445211,38.406493],[-3.361882,38.473259],[-3.009372,38.43445],[-2.878992,38.460598],[-2.756028,38.533126],[-2.728492,38.624595],[-2.645292,38.70741],[-2.749212,38.811252],[-2.762385,38.880807],[-2.879795,38.945505],[-2.80744,39.053809],[-2.842684,39.134426],[-2.72223,39.268613],[-2.742126,39.318019]]],[[[-4.75296,39.418163],[-4.774915,39.51942],[-4.862696,39.556038],[-4.94437,39.391911],[-4.880136,39.366874],[-4.75296,39.418163]]]]},"properties":{"LOCATION_TYPE":"level1","ADM0_A3":"ESP","LOCATION_ID":"ESP-CR","NAME":"Ciudad Real","TYPE_EN":"Autonomous Community"}},
{"type":"Feature","geometry":{"type":"Polygon","coordinates":[[[-4.000873,37.402113],[-4.213096,37.626267],[-4.171985,37.697151],[-4.283837,37.820483],[-4.284321,38.003691],[-4.168008,38.180758],[-4.275496,38.350915],[-4.449749,38.395951],[-4.727975,38.579764],[-4.828485,38.604052],[-4.88303,38.685236],[-5.036586,38.728412],[-5.159447,38.717947],[-5.180815,38.666038],[-5.362406,38.583873],[-5.419638,38.515841],[-5.56937,38.425329],[-5.521337,38.26676],[-5.581049,38.135089],[-5.496069,38.042836],[-5.413375,37.885083],[-5.309708,37.773429],[-5.34437,37.609985],[-5.026645,37.71051],[-4.928021,37.583684],[-4.943885,37.520183],[-4.822069,37.35819],[-4.677247,37.340765],[-4.653231,37.255929],[-4.539313,37.211313],[-4.444941,37.27755],[-4.320301,37.186572],[-4.209174,37.352356],[-4.000873,37.402113]]]},"properties":{"LOCATION_TYPE":"level1","ADM0_A3":"ESP","LOCATION_ID":"ESP-CO","NAME":"Córdoba","TYPE_EN":"Autonomous Community"}},
{"type":"Feature","geometry":{"type":"Polygon","coordinates":[[[-3.072753,40.157601],[-2.998129,40.209208],[-2.912765,40.157572],[-2.816295,40.209878],[-2.807692,40.406874],[-2.722911,40.397272],[-2.626879,40.45306],[-2.512797,40.419717],[-2.488001,40.513024],[-2.157049,40.658757],[-2.031102,40.599398],[-1.929896,40.592653],[-1.85643,40.428847],[-1.808256,40.40203],[-1.699762,40.493343],[-1.671055,40.58928],[-1.586745,40.570599],[-1.537446,40.662996],[-1.544551,40.81738],[-1.621885,40.946752],[-1.767328,41.064987],[-1.944863,41.164413],[-2.053228,41.150357],[-2.288356,41.067519],[-2.467622,41.086071],[-2.591929,41.22198],[-2.982267,41.287248],[-3.198791,41.3012],[-3.38971,41.25557],[-3.545773,41.161751],[-3.436451,41.077415],[-3.412267,40.989178],[-3.498437,40.796218],[-3.318164,40.646253],[-3.294961,40.538818],[-3.204528,40.513031],[-3.138666,40.394744],[-3.187939,40.274338],[-3.086524,40.239327],[-3.072753,40.157601]]]},"properties":{"LOCATION_TYPE":"level1","ADM0_A3":"ESP","LOCATION_ID":"ESP-GU","NAME":"Guadalajara","TYPE_EN":"Autonomous Community"}},
{"type":"Feature","geometry":{"type":"Polygon","coordinates":[[[-2.547384,38.080647],[-2.444806,38.188186],[-2.488731,38.398742],[-2.571905,38.500544],[-2.756028,38.533126],[-2.878992,38.460598],[-3.009372,38.43445],[-3.361882,38.473259],[-3.445211,38.406493],[-3.576753,38.443494],[-3.619851,38.401429],[-3.794156,38.426079],[-3.893736,38.381611],[-4.26498,38.401429],[-4.275496,38.350915],[-4.168008,38.180758],[-4.284321,38.003691],[-4.283837,37.820483],[-4.171985,37.697151],[-4.213096,37.626267],[-4.000873,37.402113],[-3.841308,37.386337],[-3.79188,37.466295],[-3.627162,37.529423],[-3.507137,37.613347],[-3.424025,37.568523],[-3.315107,37.577817],[-3.251826,37.633035],[-3.090799,37.596022],[-2.902065,37.665664],[-2.88965,37.774319],[-2.78628,37.91245],[-2.598348,38.005746],[-2.547384,38.080647]]]},"properties":{"LOCATION_TYPE":"level1","ADM0_A3":"ESP","LOCATION_ID":"ESP-J","NAME":"Jaén","TYPE_EN":"Autonomous Community"}},
{"type":"Feature","geometry":{"type":"Polygon","coordinates":[[[-3.072753,40.157601],[-3.086524,40.239327],[-3.187939,40.274338],[-3.138666,40.394744],[-3.204528,40.513031],[-3.294961,40.538818],[-3.318164,40.646253],[-3.498437,40.796218],[-3.412267,40.989178],[-3.436451,41.077415],[-3.545773,41.161751],[-3.623882,41.139401],[-3.787128,40.996774],[-3.934793,40.926159],[-3.984092,40.788725],[-4.090107,40.76914],[-4.161291,40.68731],[-4.17129,40.629898],[-4.318981,40.544037],[-4.324821,40.41327],[-4.407271,40.408464],[-4.529821,40.296662],[-4.571886,40.212016],[-4.439749,40.239172],[-4.371071,40.307979],[-4.296037,40.220801],[-4.174675,40.283665],[-3.986392,40.217055],[-3.624502,40.113211],[-3.632667,39.991719],[-3.502055,40.048667],[-3.163548,40.066185],[-3.072753,40.157601]]]},"properties":{"LOCATION_TYPE":"level1","ADM0_A3":"ESP","LOCATION_ID":"ESP-M","NAME":"Madrid","TYPE_EN":"Autonomous Community"}},
{"type":"Feature","geometry":{"type":"Polygon","coordinates":[[[-4.161291,40.68731],[-4.090107,40.76914],[-3.984092,40.788725],[-3.934793,40.926159],[-3.787128,40.996774],[-3.623882,41.139401],[-3.545773,41.161751],[-3.38971,41.25557],[-3.198791,41.3012],[-3.33263,41.377055],[-3.336915,41.448015],[-3.541733,41.577775],[-3.672767,41.559241],[-3.769919,41.460067],[-3.980615,41.583246],[-4.014947,41.513911],[-4.252372,41.452047],[-4.514935,41.409618],[-4.495555,41.341063],[-4.701516,41.154999],[-4.713853,41.090564],[-4.563648,40.946303],[-4.561033,40.841087],[-4.483151,40.81606],[-4.41954,40.633368],[-4.321927,40.657879],[-4.276279,40.692661],[-4.161291,40.68731]]]},"properties":{"LOCATION_TYPE":"level1","ADM0_A3":"ESP","LOCATION_ID":"ESP-SG","NAME":"Segovia","TYPE_EN":"Autonomous Community"}},
{"type":"Feature","geometry":{"type":"Polygon","coordinates":[[[-3.980615,41.583246],[-4.030383,41.630619],[-4.041028,41.768223],[-4.240134,41.804346],[-4.312138,41.771629],[-4.493665,41.780231],[-4.675588,41.896906],[-4.789131,41.817991],[-4.944105,42.018349],[-4.927427,42.150173],[-5.026953,42.153953],[-5.002233,42.289151],[-5.093848,42.309398],[-5.265334,42.218179],[-5.387205,42.195163],[-5.376296,42.041387],[-5.28055,41.97893],[-5.279594,41.813333],[-5.391215,41.760994],[-5.2898,41.563009],[-5.331461,41.480908],[-5.288779,41.182091],[-5.125104,41.131994],[-4.974735,41.155328],[-4.885317,41.105989],[-4.701516,41.154999],[-4.495555,41.341063],[-4.514935,41.409618],[-4.252372,41.452047],[-4.014947,41.513911],[-3.980615,41.583246]]]},"properties":{"LOCATION_TYPE":"level1","ADM0_A3":"ESP","LOCATION_ID":"ESP-VA","NAME":"Valladolid","TYPE_EN":"Autonomous Community"}}
]}