{"type":"FeatureCollection", "features": [
{"type":"Feature","geometry":{"type":"Polygon","coordinates":[[[25.034857,58.048574],[25.16697,58.058731],[25.20211,57.991965],[25.39662,58.023178],[25.551816,57.94986],[25.62069,58.041625],[25.814941,58.098676],[26.071463,58.127718],[26.0387,58.300059],[26.165359,58.412817],[26.131511,58.484673],[25.916589,58.596527],[25.760009,58.603917],[25.777114,58.689777],[25.437755,58.613684],[25.258541,58.633295],[25.23198,58.588],[24.987602,58.485939],[24.954994,58.336284],[25.120565,58.32259],[25.23322,58.279802],[25.010236,58.08524],[25.034857,58.048574]]]},"properties":{"LOCATION_TYPE":"level1","ADM0_A3":"EST","LOCATION_ID":"EST-84","NAME":"Viljandi","TYPE_EN":"County"}},
{"type":"Feature","geometry":{"type":"Polygon","coordinates":[[[25.034857,58.048574],[25.010236,58.08524],[25.23322,58.279802],[25.120565,58.32259],[24.954994,58.336284],[24.987602,58.485939],[25.23198,58.588],[25.258541,58.633295],[25.199837,58.72577],[24.690566,58.751246],[24.524994,58.736467],[24.363505,58.670321],[24.133235,58.701482],[23.864466,58.617198],[23.824572,58.559217],[23.585805,58.544167],[23.663829,58.5362],[23.677419,58.435248],[23.740977,58.343085],[23.980235,58.318427],[24.111664,58.241034],[24.286876,58.318549],[24.361827,58.397284],[24.528819,58.350653],[24.470958,58.250922],[24.464122,58.07217],[24.398285,58.023261],[24.306159,57.868186],[24.401539,57.866469],[24.53383,57.945069],[24.700435,57.95419],[24.949309,58.006435],[25.034857,58.048574]]]},"properties":{"LOCATION_TYPE":"level1","ADM0_A3":"EST","LOCATION_ID":"EST-67","NAME":"Pärnu","TYPE_EN":"County"}},
{"type":"Feature","geometry":{"type":"Polygon","coordinates":[[[25.551816,57.94986],[25.714998,57.923391],[25.792616,57.855979],[26.002733,57.845979],[26.024747,57.774356],[26.168511,57.70405],[26.263182,57.620825],[26.430678,57.561764],[26.464514,57.69374],[26.364882,57.878948],[26.392374,57.940262],[26.54022,57.955636],[26.594997,58.123378],[26.519446,58.167613],[26.378576,58.175364],[26.23905,58.120561],[26.071463,58.127718],[25.814941,58.098676],[25.62069,58.041625],[25.551816,57.94986]]]},"properties":{"LOCATION_TYPE":"level1","ADM0_A3":"EST","LOCATION_ID":"EST-82","NAME":"Valga","TYPE_EN":"County"}},
{"type":"Feature","geometry":{"type":"Polygon","coordinates":[[[26.430678,57.561764],[26.49955,57.515819],[26.838547,57.60987],[26.946551,57.615347],[27.061531,57.555661],[27.319965,57.516129],[27.407712,57.688986],[27.507757,57.714773],[27.556343,57.813087],[27.394173,57.844377],[27.094967,57.957083],[26.766925,57.930211],[26.54022,57.955636],[26.392374,57.940262],[26.364882,57.878948],[26.464514,57.69374],[26.430678,57.561764]]]},"properties":{"LOCATION_TYPE":"level1","ADM0_A3":"EST","LOCATION_ID":"EST-86","NAME":"Võru","TYPE_EN":"County"}},
{"type":"Feature","geometry":{"type":"Polygon","coordinates":[[[27.446269,58.818867],[27.477785,58.875426],[27.694412,58.975936],[27.842414,59.161196],[27.903909,59.290387],[28.076611,59.30527],[28.186475,59.37493],[28.019054,59.481757],[27.873302,59.40762],[27.409028,59.45189],[26.937673,59.4501],[26.780854,59.50255],[26.798912,59.340461],[26.774728,59.243387],[26.938749,59.194682],[26.928775,59.142566],[26.808679,59.117193],[26.81054,59.020119],[26.703001,58.955885],[26.745841,58.886923],[27.446269,58.818867]]]},"properties":{"LOCATION_TYPE":"level1","ADM0_A3":"EST","LOCATION_ID":"EST-44","NAME":"Ida-Viru","TYPE_EN":"County"}},
{"type":"Feature","geometry":{"type":"Polygon","coordinates":[[[27.519585,58.19451],[27.266429,58.22332],[27.243795,58.251897],[27.021896,58.259054],[26.864076,58.237298],[26.812245,58.188748],[26.686878,58.18663],[26.594997,58.123378],[26.54022,57.955636],[26.766925,57.930211],[27.094967,57.957083],[27.394173,57.844377],[27.556343,57.813087],[27.799316,57.861069],[27.673122,57.912823],[27.630437,58.08829],[27.519585,58.19451]]]},"properties":{"LOCATION_TYPE":"level1","ADM0_A3":"EST","LOCATION_ID":"EST-65","NAME":"Põlva","TYPE_EN":"County"}},
{"type":"Feature","geometry":{"type":"Polygon","coordinates":[[[27.428849,58.709403],[27.090936,58.67616],[27.013525,58.602366],[26.862061,58.63314],[26.81178,58.561439],[26.664399,58.562498],[26.323489,58.531776],[26.131511,58.484673],[26.165359,58.412817],[26.0387,58.300059],[26.071463,58.127718],[26.23905,58.120561],[26.378576,58.175364],[26.519446,58.167613],[26.594997,58.123378],[26.686878,58.18663],[26.812245,58.188748],[26.864076,58.237298],[27.021896,58.259054],[27.243795,58.251897],[27.266429,58.22332],[27.519585,58.19451],[27.482849,58.268641],[27.554886,58.395248],[27.428849,58.709403]]]},"properties":{"LOCATION_TYPE":"level1","ADM0_A3":"EST","LOCATION_ID":"EST-78","NAME":"Tartu","TYPE_EN":"County"}},
{"type":"Feature","geometry":{"type":"Polygon","coordinates":[[[27.446269,58.818867],[26.745841,58.886923],[26.703001,58.955885],[26.505029,58.938754],[26.410357,58.885527],[26.294602,58.916094],[26.15368,58.887155],[26.113838,58.835324],[25.965475,58.810545],[25.777114,58.689777],[25.760009,58.603917],[25.916589,58.596527],[26.131511,58.484673],[26.323489,58.531776],[26.664399,58.562498],[26.81178,58.561439],[26.862061,58.63314],[27.013525,58.602366],[27.090936,58.67616],[27.428849,58.709403],[27.446269,58.818867]]]},"properties":{"LOCATION_TYPE":"level1","ADM0_A3":"EST","LOCATION_ID":"EST-49","NAME":"Jõgeva","TYPE_EN":"County"}},
{"type":"Feature","geometry":{"type":"Polygon","coordinates":[[[23.585805,58.544167],[23.824572,58.559217],[23.864466,58.617198],[24.133235,58.701482],[24.074996,58.761116],[24.186875,58.844729],[24.104503,58.984669],[24.147808,59.06115],[24.021821,59.136985],[23.908184,59.131352],[23.718492,59.231437],[23.641856,59.257392],[23.470876,59.212144],[23.519379,59.124986],[23.434825,59.003811],[23.624848,58.972602],[23.422374,58.908677],[23.580333,58.792182],[23.78419,58.800971],[23.783376,58.755845],[23.53004,58.722846],[23.493175,58.673407],[23.585805,58.544167]]]},"properties":{"LOCATION_TYPE":"level1","ADM0_A3":"EST","LOCATION_ID":"EST-57","NAME":"Lääne","TYPE_EN":"County"}},
{"type":"Feature","geometry":{"type":"Polygon","coordinates":[[[23.718492,59.231437],[23.908184,59.131352],[24.021821,59.136985],[24.147808,59.06115],[24.104503,58.984669],[24.290228,59.015261],[24.374358,59.086213],[24.556362,59.095566],[24.663901,59.216851],[24.903628,59.225739],[24.956544,59.146519],[25.184489,59.080787],[25.32045,58.992213],[25.516872,59.211632],[25.489432,59.263773],[25.798663,59.292092],[25.925891,59.27633],[25.888839,59.431541],[25.815096,59.521432],[25.836875,59.576478],[25.497081,59.570868],[25.407725,59.491034],[25.194102,59.52265],[24.69752,59.491034],[24.624848,59.43891],[24.399669,59.478827],[24.306163,59.419094],[24.080577,59.395453],[24.092052,59.312567],[23.935557,59.280585],[23.756847,59.283637],[23.718492,59.231437]]]},"properties":{"LOCATION_TYPE":"level1","ADM0_A3":"EST","LOCATION_ID":"EST-37","NAME":"Harju","TYPE_EN":"County"}},
{"type":"Feature","geometry":{"type":"Polygon","coordinates":[[[25.836875,59.576478],[25.815096,59.521432],[25.888839,59.431541],[25.925891,59.27633],[26.011415,59.155976],[25.927958,59.064509],[26.040922,59.044872],[26.135077,58.981258],[26.15368,58.887155],[26.294602,58.916094],[26.410357,58.885527],[26.505029,58.938754],[26.703001,58.955885],[26.81054,59.020119],[26.808679,59.117193],[26.928775,59.142566],[26.938749,59.194682],[26.774728,59.243387],[26.798912,59.340461],[26.780854,59.50255],[26.66505,59.551947],[26.457693,59.545885],[26.28004,59.587307],[26.090994,59.585639],[26.001801,59.632636],[25.836875,59.576478]]]},"properties":{"LOCATION_TYPE":"level1","ADM0_A3":"EST","LOCATION_ID":"EST-59","NAME":"Lääne-Viru","TYPE_EN":"County"}},
{"type":"Feature","geometry":{"type":"MultiPolygon","coordinates":[[[[23.230642,58.504828],[23.091075,58.57095],[22.899669,58.620266],[22.640798,58.588853],[22.321951,58.584784],[22.113617,58.497992],[21.995616,58.512519],[21.901134,58.468411],[21.990082,58.386949],[21.867849,58.264594],[22.016856,58.233873],[22.072276,58.175849],[22.202973,58.147895],[22.085704,58.082587],[22.004568,57.990953],[22.04835,57.915107],[22.189952,57.983832],[22.323416,58.20661],[22.535004,58.254055],[22.756684,58.242255],[22.969493,58.360175],[23.086762,58.394965],[23.230642,58.504828]]],[[[23.381602,58.579901],[23.288341,58.66649],[23.154633,58.67593],[23.059337,58.603461],[23.223806,58.535468],[23.381602,58.579901]]]]},"properties":{"LOCATION_TYPE":"level1","ADM0_A3":"EST","LOCATION_ID":"EST-74","NAME":"Saare","TYPE_EN":"Municipality"}},
{"type":"Feature","geometry":{"type":"Polygon","coordinates":[[[22.291759,58.895209],[22.382091,58.88227],[22.555675,58.686998],[22.654959,58.702786],[22.736664,58.806464],[23.040538,58.840766],[22.934093,58.984036],[22.736664,59.005072],[22.714122,59.069566],[22.597667,59.089504],[22.463064,58.970893],[22.168224,58.950385],[22.291759,58.895209]]]},"properties":{"LOCATION_TYPE":"level1","ADM0_A3":"EST","LOCATION_ID":"EST-39","NAME":"Hiiu","TYPE_EN":"County"}},
{"type":"Feature","geometry":{"type":"Polygon","coordinates":[[[24.133235,58.701482],[24.363505,58.670321],[24.524994,58.736467],[24.690566,58.751246],[25.199837,58.72577],[25.204074,58.801941],[25.2773,58.853927],[25.32045,58.992213],[25.184489,59.080787],[24.956544,59.146519],[24.903628,59.225739],[24.663901,59.216851],[24.556362,59.095566],[24.374358,59.086213],[24.290228,59.015261],[24.104503,58.984669],[24.186875,58.844729],[24.074996,58.761116],[24.133235,58.701482]]]},"properties":{"LOCATION_TYPE":"level1","ADM0_A3":"EST","LOCATION_ID":"EST-70","NAME":"Rapla","TYPE_EN":"County"}},
{"type":"Feature","geometry":{"type":"Polygon","coordinates":[[[25.777114,58.689777],[25.965475,58.810545],[26.113838,58.835324],[26.15368,58.887155],[26.135077,58.981258],[26.040922,59.044872],[25.927958,59.064509],[26.011415,59.155976],[25.925891,59.27633],[25.798663,59.292092],[25.489432,59.263773],[25.516872,59.211632],[25.32045,58.992213],[25.2773,58.853927],[25.204074,58.801941],[25.199837,58.72577],[25.258541,58.633295],[25.437755,58.613684],[25.777114,58.689777]]]},"properties":{"LOCATION_TYPE":"level1","ADM0_A3":"EST","LOCATION_ID":"EST-51","NAME":"Järva","TYPE_EN":"County"}}
]}