{"type":"FeatureCollection", "features": [
{"type":"Feature","geometry":{"type":"Polygon","coordinates":[[[34.195773,7.09774],[34.297575,6.968568],[34.503661,6.89002],[34.524745,6.752871],[34.733518,6.637606],[34.844725,6.248689],[34.951489,6.08118],[34.984355,5.841014],[35.098663,5.622474],[35.430219,5.427215],[35.80415,5.318023],[35.755884,5.063439],[35.784513,4.764181],[36.041345,4.443683],[36.648857,4.43118],[36.87654,4.726094],[36.87437,4.959026],[36.971521,5.186118],[37.403536,5.165163],[37.68569,5.312958],[37.90056,5.249318],[37.937354,5.618443],[38.087526,5.705724],[37.971667,5.942092],[37.79421,6.008729],[37.867694,6.574586],[38.021483,6.574534],[38.167521,6.457358],[38.193049,6.191638],[38.092073,6.105261],[38.234287,5.864784],[38.436445,6.214246],[38.452878,6.41227],[38.7649,6.41196],[38.993414,6.151873],[39.128806,6.36987],[39.092942,6.523401],[38.937396,6.660989],[38.64005,6.787467],[38.665578,6.973373],[38.331128,7.161449],[38.245345,7.05652],[38.069646,7.096027],[38.42983,7.527215],[38.425903,7.691469],[38.683045,8.183635],[38.646251,8.410417],[38.545586,8.457288],[38.403062,8.277841],[38.239764,8.4145],[37.859529,8.337605],[37.489009,8.383235],[37.604868,8.217716],[37.592155,8.059586],[37.43754,7.901508],[37.394958,7.40407],[37.10712,7.235166],[36.783833,7.259661],[36.612164,7.373504],[36.0646,7.559746],[36.000005,7.744179],[35.757849,7.880165],[35.356736,7.841899],[35.242531,7.676767],[35.263512,7.539592],[35.363248,7.38433],[35.3063,7.12941],[35.064971,7.164266],[34.629856,7.012053],[34.195773,7.09774]]]},"properties":{"LOCATION_TYPE":"level1","ADM0_A3":"ETH","LOCATION_ID":"ETH-SN","NAME":"Southern Nations, Nationalities and Peoples","TYPE_EN":"Administrative State"}},
{"type":"Feature","geometry":{"type":"Polygon","coordinates":[[[39.090441,3.518334],[39.436176,3.462374],[39.745098,3.660579],[39.848451,3.867284],[40.763744,4.284933],[41.114524,3.962343],[41.429543,3.948882],[41.699811,3.996915],[41.835927,3.94945],[42.13534,4.200081],[42.78977,4.285605],[43.119259,4.647702],[43.528485,4.841566],[43.968975,4.953962],[44.941525,4.911484],[45.935986,5.996689],[46.423915,6.496736],[47.298797,7.34038],[47.979169,7.996567],[46.97923,7.996567],[45.51441,8.496537],[44.023855,8.985525],[43.621502,9.336899],[43.419034,9.413018],[43.235273,9.691787],[43.187214,9.883326],[43.067686,9.922522],[42.836279,10.208086],[42.647247,10.63222],[42.911313,10.977367],[42.615621,11.08966],[42.391758,11.005893],[41.954162,10.941271],[41.766523,10.989466],[41.292291,10.967109],[41.092304,10.699244],[40.943165,10.047036],[41.007141,9.929007],[40.73708,9.623599],[40.695118,9.444385],[40.846427,9.307081],[41.2309,9.496578],[41.736915,9.473763],[41.76296,9.640135],[42.040359,9.628999],[42.20314,9.774391],[42.341013,9.720363],[42.48736,9.479267],[42.62575,9.119754],[42.85695,8.840365],[42.896948,8.412381],[42.604459,8.183764],[42.503587,8.492531],[42.207067,8.604772],[42.032298,8.433723],[41.931322,8.115577],[41.95344,7.751439],[41.901453,7.412339],[42.207481,7.293044],[42.177922,7.03368],[41.985789,6.595696],[41.735882,6.511644],[41.621987,6.364005],[41.45931,6.529369],[41.121966,6.692744],[40.858519,6.419919],[40.887251,5.784763],[40.922495,5.699497],[40.546704,5.423519],[40.187449,5.354557],[40.051127,5.399697],[39.919455,5.246502],[39.77042,4.851487],[39.741998,4.657003],[39.488577,4.06182],[39.498602,3.979654],[39.300682,3.642569],[39.090441,3.518334]]]},"properties":{"LOCATION_TYPE":"level1","ADM0_A3":"ETH","LOCATION_ID":"ETH-SO","NAME":"Somali","TYPE_EN":"Administrative State"}},
{"type":"Feature","geometry":{"type":"Polygon","coordinates":[[[41.766523,10.989466],[41.787971,11.259727],[41.74911,11.537953],[41.808228,11.736236],[41.936386,11.827445],[42.379459,12.465907],[42.137304,12.77333],[41.946617,12.876166],[41.7118,13.247926],[41.192038,13.615863],[41.043623,13.872488],[40.833197,14.105962],[40.421646,14.273755],[40.277055,14.404574],[39.999839,14.455238],[39.963587,14.368374],[39.691976,14.303959],[39.792228,14.062036],[39.827988,13.614596],[39.724118,13.481503],[39.721121,13.265392],[39.802046,13.070753],[39.756364,12.889394],[39.89186,12.761056],[39.779722,12.32501],[39.769387,12.213828],[39.97909,11.664043],[40.067353,11.352331],[40.188586,11.15795],[40.115206,10.739681],[40.177011,10.495458],[40.12089,10.203047],[40.017124,10.104035],[40.077275,9.897691],[39.89217,9.606752],[39.895271,9.315349],[39.810728,9.138977],[40.025805,8.998547],[40.039034,8.842923],[40.405317,9.277599],[40.695118,9.444385],[40.73708,9.623599],[41.007141,9.929007],[40.943165,10.047036],[41.092304,10.699244],[41.292291,10.967109],[41.766523,10.989466]]]},"properties":{"LOCATION_TYPE":"level1","ADM0_A3":"ETH","LOCATION_ID":"ETH-AF","NAME":"Afar","TYPE_EN":"Administrative State"}},
{"type":"Feature","geometry":{"type":"Polygon","coordinates":[[[36.439942,13.776176],[36.382099,13.571033],[36.233581,13.36164],[36.114415,12.933889],[36.123614,12.721447],[35.728392,12.67437],[35.616875,12.575151],[35.248379,11.957858],[35.411203,11.784036],[35.544322,11.806928],[35.7656,12.03787],[35.929931,12.005934],[36.190484,11.695204],[36.340759,11.64208],[36.50726,11.345897],[36.488864,11.077774],[36.339209,10.908172],[36.327736,10.624261],[36.392022,10.469155],[36.554286,10.379289],[37.046142,10.302679],[37.172956,10.168217],[37.54544,9.996134],[37.702846,9.842759],[38.433034,10.161473],[38.49794,10.370944],[38.731517,10.382235],[38.863602,10.311903],[38.796836,9.939988],[38.858021,9.749018],[39.220273,9.630937],[39.336338,9.455599],[39.257894,9.299174],[39.362693,9.08743],[39.276187,8.948808],[39.542837,8.761016],[39.768973,8.900051],[39.810728,9.138977],[39.895271,9.315349],[39.89217,9.606752],[40.077275,9.897691],[40.017124,10.104035],[40.12089,10.203047],[40.177011,10.495458],[40.115206,10.739681],[40.188586,11.15795],[40.067353,11.352331],[39.97909,11.664043],[39.769387,12.213828],[39.779722,12.32501],[39.272673,12.312582],[39.190301,12.66592],[39.263681,12.797798],[39.205494,13.023572],[38.995791,13.127106],[38.675087,13.491735],[38.485331,13.537133],[38.136515,13.52486],[38.058484,13.468816],[37.718659,13.548062],[37.486425,13.361795],[37.19311,13.431764],[36.914781,13.389209],[36.706215,13.557984],[36.524624,13.614621],[36.439942,13.776176]]]},"properties":{"LOCATION_TYPE":"level1","ADM0_A3":"ETH","LOCATION_ID":"ETH-AM","NAME":"Amhara","TYPE_EN":"Administrative State"}},
{"type":"Feature","geometry":{"type":"Polygon","coordinates":[[[36.439942,13.776176],[36.524624,13.614621],[36.706215,13.557984],[36.914781,13.389209],[37.19311,13.431764],[37.486425,13.361795],[37.718659,13.548062],[38.058484,13.468816],[38.136515,13.52486],[38.485331,13.537133],[38.675087,13.491735],[38.995791,13.127106],[39.205494,13.023572],[39.263681,12.797798],[39.190301,12.66592],[39.272673,12.312582],[39.779722,12.32501],[39.89186,12.761056],[39.756364,12.889394],[39.802046,13.070753],[39.721121,13.265392],[39.724118,13.481503],[39.827988,13.614596],[39.792228,14.062036],[39.691976,14.303959],[39.963587,14.368374],[39.999839,14.455238],[39.489403,14.524489],[39.20818,14.440179],[39.075475,14.637402],[38.866082,14.493664],[38.426832,14.417183],[38.229325,14.679725],[38.006703,14.7244],[37.891464,14.879532],[37.564973,14.116685],[37.293775,14.457439],[37.121072,14.420826],[37.072703,14.285305],[36.748072,14.332072],[36.52638,14.263523],[36.436566,13.991214],[36.439942,13.776176]]]},"properties":{"LOCATION_TYPE":"level1","ADM0_A3":"ETH","LOCATION_ID":"ETH-TI","NAME":"Tigray","TYPE_EN":"Administrative State"}},
{"type":"Feature","geometry":{"type":"Polygon","coordinates":[[[35.248379,11.957858],[35.048227,11.771376],[35.073135,11.54896],[34.947148,11.274868],[34.933816,10.845308],[34.838524,10.72914],[34.587067,10.879285],[34.437308,10.795673],[34.279489,10.565506],[34.32486,10.268651],[34.066892,9.531176],[34.083096,9.205117],[34.316696,9.188303],[34.405063,9.280829],[34.464078,9.639076],[34.692797,9.59143],[34.805142,9.711449],[34.901984,9.96301],[35.257931,9.932934],[35.517967,9.695093],[35.828852,9.338242],[35.926727,9.334754],[36.083927,9.138745],[36.229758,9.3277],[36.263658,9.534819],[36.118447,9.680262],[36.128059,10.05148],[36.325463,10.132715],[36.502403,10.335313],[37.006455,10.215966],[37.046142,10.302679],[36.554286,10.379289],[36.392022,10.469155],[36.327736,10.624261],[36.339209,10.908172],[36.488864,11.077774],[36.50726,11.345897],[36.340759,11.64208],[36.190484,11.695204],[35.929931,12.005934],[35.7656,12.03787],[35.544322,11.806928],[35.411203,11.784036],[35.248379,11.957858]]]},"properties":{"LOCATION_TYPE":"level1","ADM0_A3":"ETH","LOCATION_ID":"ETH-BE","NAME":"Benshangul-Gumaz","TYPE_EN":"Administrative State"}},
{"type":"Feature","geometry":{"type":"Polygon","coordinates":[[[34.107251,8.601531],[33.970774,8.445377],[33.695545,8.372875],[33.600099,8.463955],[33.174078,8.404475],[33.206893,8.240738],[32.9898,7.917244],[33.051295,7.801127],[33.462329,7.749502],[33.71606,7.657156],[34.006534,7.409936],[34.031132,7.255372],[34.195773,7.09774],[34.629856,7.012053],[35.064971,7.164266],[35.3063,7.12941],[35.363248,7.38433],[35.263512,7.539592],[35.033138,7.595351],[34.892062,7.787329],[34.901467,8.069766],[34.818371,8.191903],[34.35225,8.557798],[34.107251,8.601531]]]},"properties":{"LOCATION_TYPE":"level1","ADM0_A3":"ETH","LOCATION_ID":"ETH-GA","NAME":"Gambela Peoples","TYPE_EN":"Administrative State"}},
{"type":"Feature","geometry":{"type":"Polygon","coordinates":[[[34.107251,8.601531],[34.35225,8.557798],[34.818371,8.191903],[34.901467,8.069766],[34.892062,7.787329],[35.033138,7.595351],[35.263512,7.539592],[35.242531,7.676767],[35.356736,7.841899],[35.757849,7.880165],[36.000005,7.744179],[36.0646,7.559746],[36.612164,7.373504],[36.783833,7.259661],[37.10712,7.235166],[37.394958,7.40407],[37.43754,7.901508],[37.592155,8.059586],[37.604868,8.217716],[37.489009,8.383235],[37.859529,8.337605],[38.239764,8.4145],[38.403062,8.277841],[38.545586,8.457288],[38.646251,8.410417],[38.683045,8.183635],[38.425903,7.691469],[38.42983,7.527215],[38.069646,7.096027],[38.245345,7.05652],[38.331128,7.161449],[38.665578,6.973373],[38.64005,6.787467],[38.937396,6.660989],[39.092942,6.523401],[39.128806,6.36987],[38.993414,6.151873],[38.7649,6.41196],[38.452878,6.41227],[38.436445,6.214246],[38.234287,5.864784],[38.092073,6.105261],[38.193049,6.191638],[38.167521,6.457358],[38.021483,6.574534],[37.867694,6.574586],[37.79421,6.008729],[37.971667,5.942092],[38.087526,5.705724],[37.937354,5.618443],[37.90056,5.249318],[37.68569,5.312958],[37.403536,5.165163],[36.971521,5.186118],[36.87437,4.959026],[36.87654,4.726094],[36.648857,4.43118],[36.844087,4.432237],[37.111874,4.282298],[37.976731,3.72644],[38.101891,3.612649],[38.496906,3.62394],[38.895227,3.513585],[39.090441,3.518334],[39.300682,3.642569],[39.498602,3.979654],[39.488577,4.06182],[39.741998,4.657003],[39.77042,4.851487],[39.919455,5.246502],[40.051127,5.399697],[40.187449,5.354557],[40.546704,5.423519],[40.922495,5.699497],[40.887251,5.784763],[40.858519,6.419919],[41.121966,6.692744],[41.45931,6.529369],[41.621987,6.364005],[41.735882,6.511644],[41.985789,6.595696],[42.177922,7.03368],[42.207481,7.293044],[41.901453,7.412339],[41.95344,7.751439],[41.931322,8.115577],[42.032298,8.433723],[42.207067,8.604772],[42.503587,8.492531],[42.604459,8.183764],[42.896948,8.412381],[42.85695,8.840365],[42.62575,9.119754],[42.48736,9.479267],[42.341013,9.720363],[42.133687,9.617346],[42.07674,9.4749],[41.736915,9.473763],[41.2309,9.496578],[40.846427,9.307081],[40.695118,9.444385],[40.405317,9.277599],[40.039034,8.842923],[40.025805,8.998547],[39.810728,9.138977],[39.768973,8.900051],[39.542837,8.761016],[39.276187,8.948808],[39.362693,9.08743],[39.257894,9.299174],[39.336338,9.455599],[39.220273,9.630937],[38.858021,9.749018],[38.796836,9.939988],[38.863602,10.311903],[38.731517,10.382235],[38.49794,10.370944],[38.433034,10.161473],[37.702846,9.842759],[37.54544,9.996134],[37.172956,10.168217],[37.046142,10.302679],[37.006455,10.215966],[36.502403,10.335313],[36.325463,10.132715],[36.128059,10.05148],[36.118447,9.680262],[36.263658,9.534819],[36.229758,9.3277],[36.083927,9.138745],[35.926727,9.334754],[35.828852,9.338242],[35.517967,9.695093],[35.257931,9.932934],[34.901984,9.96301],[34.805142,9.711449],[34.692797,9.59143],[34.464078,9.639076],[34.405063,9.280829],[34.316696,9.188303],[34.083096,9.205117],[34.107251,8.601531]],[[38.830013,9.078904],[38.907941,8.984517],[38.816577,8.832588],[38.686559,8.92328],[38.830013,9.078904]],[[42.248719,9.188664],[42.063717,9.229825],[42.128726,9.383665],[42.27187,9.362943],[42.248719,9.188664]]]},"properties":{"LOCATION_TYPE":"level1","ADM0_A3":"ETH","LOCATION_ID":"ETH-OR","NAME":"Oromiya","TYPE_EN":"Administrative State"}},
{"type":"Feature","geometry":{"type":"Polygon","coordinates":[[[42.341013,9.720363],[42.20314,9.774391],[42.040359,9.628999],[41.76296,9.640135],[41.736915,9.473763],[42.07674,9.4749],[42.133687,9.617346],[42.341013,9.720363]]]},"properties":{"LOCATION_TYPE":"level1","ADM0_A3":"ETH","LOCATION_ID":"ETH-DD","NAME":"Dire Dawa","TYPE_EN":"Administrative State"}},
{"type":"Feature","geometry":{"type":"Polygon","coordinates":[[[38.830013,9.078904],[38.686559,8.92328],[38.816577,8.832588],[38.907941,8.984517],[38.830013,9.078904]]]},"properties":{"LOCATION_TYPE":"level1","ADM0_A3":"ETH","LOCATION_ID":"ETH-AA","NAME":"Addis Ababa","TYPE_EN":"Administrative State"}},
{"type":"Feature","geometry":{"type":"Polygon","coordinates":[[[42.248719,9.188664],[42.27187,9.362943],[42.128726,9.383665],[42.063717,9.229825],[42.248719,9.188664]]]},"properties":{"LOCATION_TYPE":"level1","ADM0_A3":"ETH","LOCATION_ID":"ETH-HA","NAME":"Harari People","TYPE_EN":"Administrative State"}}
]}