{"type":"FeatureCollection", "features": [
{"type":"Feature","geometry":{"type":"Polygon","coordinates":[[[29.546194,66.431969],[29.32222,66.680065],[29.089159,66.837549],[29.100115,66.991235],[29.519831,67.298167],[29.916241,67.508129],[30.009413,67.685844],[29.651192,67.823562],[29.298656,68.081789],[28.727218,68.172687],[28.663759,68.204003],[28.447441,68.514889],[28.716366,68.727951],[28.801477,68.835489],[28.456226,68.900137],[28.954077,69.027261],[28.826953,69.106842],[28.86478,69.216603],[29.229254,69.376852],[29.344544,69.464392],[29.131224,69.674198],[28.40455,69.802252],[28.381192,69.856202],[28.167355,69.894339],[27.866908,70.07531],[27.612557,70.062055],[27.3118,69.929479],[27.10034,69.901755],[26.864592,69.938084],[26.500687,69.918317],[26.418728,69.835635],[26.198276,69.715436],[26.031982,69.696677],[25.886668,69.520874],[25.877366,69.370806],[25.734119,69.191333],[25.801091,69.013153],[25.651643,68.883497],[25.387215,68.874557],[25.201283,68.812648],[25.117567,68.637672],[24.860942,68.563413],[24.663435,68.666094],[24.332499,68.708624],[23.929009,68.816214],[23.787209,68.799781],[23.734809,68.715445],[23.481595,68.685628],[23.197581,68.618035],[23.019297,68.686713],[22.851659,68.675706],[22.596481,68.724643],[22.428739,68.710071],[22.371378,68.822622],[22.023079,69.012016],[21.662894,69.263215],[21.313562,69.291431],[21.098381,69.239496],[21.033579,69.181205],[21.156362,69.087619],[21.032545,69.041007],[20.744397,69.104362],[20.623165,69.036356],[20.934567,68.966954],[20.905731,68.894607],[21.072129,68.869441],[21.46363,68.686868],[21.919209,68.568219],[22.072172,68.47701],[22.303062,68.476131],[22.607643,68.42492],[23.052164,68.29821],[23.155206,68.217439],[23.151692,68.130261],[23.330906,68.127781],[23.382996,68.051248],[23.661222,67.932857],[23.498855,67.882163],[23.484592,67.737159],[23.553528,67.587038],[23.431262,67.48552],[23.765195,67.420072],[23.735429,67.289692],[23.622258,67.269022],[23.58133,67.153137],[23.683856,67.049526],[23.93335,66.888761],[24.001253,66.812435],[23.892422,66.750914],[23.88188,66.563535],[23.642308,66.436256],[23.724164,66.206632],[23.889322,66.161105],[24.01965,66.048941],[24.05479,65.947914],[24.163414,65.840788],[24.404796,65.769232],[24.518809,65.796047],[24.671072,65.644965],[24.819509,65.662177],[25.093185,65.591918],[25.388249,65.736143],[25.762283,65.746375],[26.128359,65.813942],[26.187994,65.718935],[26.841804,65.705215],[27.10215,65.750845],[27.400323,65.941608],[27.637724,65.953649],[27.764952,65.829315],[28.193969,65.805389],[28.470025,65.838617],[28.49669,65.901507],[28.413594,65.990107],[28.721999,65.998246],[28.608518,66.118083],[28.711044,66.136997],[28.764064,66.238903],[28.573688,66.286083],[28.570897,66.386077],[28.734505,66.484366],[29.169104,66.419202],[29.546194,66.431969]]]},"properties":{"LOCATION_TYPE":"level1","ADM0_A3":"FIN","LOCATION_ID":"FIN-10","NAME":"Lapland","TYPE_EN":"Province"}},
{"type":"Feature","geometry":{"type":"MultiPolygon","coordinates":[[[[29.546194,66.431969],[29.169104,66.419202],[28.734505,66.484366],[28.570897,66.386077],[28.573688,66.286083],[28.764064,66.238903],[28.711044,66.136997],[28.608518,66.118083],[28.721999,65.998246],[28.413594,65.990107],[28.49669,65.901507],[28.470025,65.838617],[28.193969,65.805389],[27.764952,65.829315],[27.637724,65.953649],[27.400323,65.941608],[27.10215,65.750845],[26.841804,65.705215],[26.187994,65.718935],[26.128359,65.813942],[25.762283,65.746375],[25.388249,65.736143],[25.093185,65.591918],[25.351817,65.484117],[25.282481,65.191392],[25.443533,64.966783],[25.259532,64.816474],[25.073741,64.916083],[24.773123,64.86579],[24.543712,64.764716],[24.422862,64.675605],[24.344086,64.530748],[23.996104,64.379869],[23.833507,64.226874],[23.706472,64.168077],[24.093961,64.047719],[24.145224,63.95899],[24.271728,63.868117],[24.408257,63.83414],[24.630363,63.658983],[25.028685,63.458039],[25.231566,63.600924],[25.491395,63.531549],[25.736342,63.517674],[25.912145,63.438531],[26.137764,63.456282],[26.285662,63.588755],[26.238016,63.806855],[26.298581,63.853777],[26.694009,64.005267],[26.872086,64.033404],[26.80346,64.058726],[26.773281,64.244684],[26.689875,64.308375],[26.531332,64.326048],[26.295997,64.480431],[26.535673,64.559419],[26.64626,64.647269],[26.808731,64.658999],[26.90733,64.752069],[27.115276,64.826586],[27.360222,64.817801],[27.405077,64.93167],[27.28095,65.01567],[27.363426,65.085666],[27.903238,65.106517],[27.978169,65.21142],[28.07563,65.241264],[28.553121,65.284646],[28.681795,65.396009],[29.115877,65.455178],[29.282378,65.524063],[29.488774,65.49192],[29.731533,65.496921],[29.838571,65.564888],[29.702869,65.62938],[30.111733,65.712011],[30.075146,65.822805],[29.95846,65.973881],[29.900169,66.108059],[29.650882,66.287893],[29.546194,66.431969]]],[[[24.993437,65.055104],[24.834506,65.0948],[24.562755,65.037177],[24.631602,64.967841],[24.819657,65.04328],[24.993437,65.055104]]]]},"properties":{"LOCATION_TYPE":"level1","ADM0_A3":"FIN","LOCATION_ID":"FIN-14","NAME":"Northern Ostrobothnia","TYPE_EN":"Province"}},
{"type":"Feature","geometry":{"type":"Polygon","coordinates":[[[29.731533,65.496921],[29.488774,65.49192],[29.282378,65.524063],[29.115877,65.455178],[28.681795,65.396009],[28.553121,65.284646],[28.07563,65.241264],[27.978169,65.21142],[27.903238,65.106517],[27.363426,65.085666],[27.28095,65.01567],[27.405077,64.93167],[27.360222,64.817801],[27.115276,64.826586],[26.90733,64.752069],[26.808731,64.658999],[26.64626,64.647269],[26.535673,64.559419],[26.295997,64.480431],[26.531332,64.326048],[26.689875,64.308375],[26.773281,64.244684],[26.80346,64.058726],[26.872086,64.033404],[27.550391,63.952712],[27.744694,63.908296],[28.152008,63.722028],[28.287194,63.685002],[28.358404,63.753422],[28.465477,63.871347],[28.572034,63.883362],[28.934699,63.841995],[29.656206,63.873363],[29.735891,63.732183],[29.998433,63.7471],[30.201546,63.792645],[30.509331,63.991392],[30.586432,64.084668],[30.558475,64.219699],[30.321126,64.317677],[30.093129,64.361241],[30.070391,64.47188],[29.965798,64.578643],[30.136434,64.615385],[30.17054,64.681686],[30.062537,64.78416],[29.78028,64.795581],[29.698321,64.839144],[29.588147,64.991435],[29.667832,65.077941],[29.820484,65.093651],[29.833197,65.205013],[29.580085,65.235399],[29.720129,65.329088],[29.731533,65.496921]]]},"properties":{"LOCATION_TYPE":"level1","ADM0_A3":"FIN","LOCATION_ID":"FIN-05","NAME":"Kainuu","TYPE_EN":"Province"}},
{"type":"Feature","geometry":{"type":"Polygon","coordinates":[[[29.998433,63.7471],[29.735891,63.732183],[29.656206,63.873363],[28.934699,63.841995],[28.572034,63.883362],[28.465477,63.871347],[28.358404,63.753422],[28.549813,63.692857],[28.661228,63.436903],[28.753212,63.335333],[28.618233,63.208804],[28.876925,63.060234],[29.051901,62.999049],[28.987306,62.897867],[29.08146,62.837534],[28.924054,62.781956],[28.796,62.828258],[28.646448,62.744336],[28.65823,62.653334],[28.809849,62.630803],[29.107092,62.491121],[29.084044,62.421255],[29.281448,62.382963],[29.41312,62.244754],[29.459112,62.098742],[29.656412,61.973143],[29.616622,61.923507],[29.693826,61.824857],[29.564015,61.72414],[30.057215,61.848809],[30.145649,61.850469],[30.635008,62.184009],[30.90755,62.292891],[31.222156,62.491716],[31.363336,62.651577],[31.441264,62.788701],[31.569525,62.905929],[31.505446,62.968199],[31.250836,63.115477],[31.22567,63.19604],[30.974936,63.289161],[30.82094,63.375668],[30.488661,63.462122],[30.001145,63.715337],[29.998433,63.7471]]]},"properties":{"LOCATION_TYPE":"level1","ADM0_A3":"FIN","LOCATION_ID":"FIN-13","NAME":"North Karelia","TYPE_EN":"Province"}},
{"type":"Feature","geometry":{"type":"Polygon","coordinates":[[[30.145649,61.850469],[30.057215,61.848809],[29.564015,61.72414],[29.532389,61.684788],[29.272043,61.572056],[29.053348,61.534229],[28.815017,61.530818],[28.653166,61.469582],[28.468888,61.509217],[28.341557,61.418577],[28.181464,61.373308],[27.540262,61.360338],[27.202402,61.399663],[27.22607,61.316103],[27.331076,61.252825],[27.330353,61.168308],[27.213151,61.161797],[27.149692,61.053328],[27.142974,60.946874],[27.371487,60.872926],[27.510807,60.797788],[27.688367,60.798692],[27.852905,60.755672],[28.003782,60.664226],[28.480928,60.933465],[28.614563,60.961939],[28.797601,61.09684],[29.203158,61.245901],[29.539726,61.484956],[29.779143,61.593115],[30.145649,61.850469]]]},"properties":{"LOCATION_TYPE":"level1","ADM0_A3":"FIN","LOCATION_ID":"FIN-02","NAME":"South Karelia","TYPE_EN":"Province"}},
{"type":"Feature","geometry":{"type":"Polygon","coordinates":[[[28.003782,60.664226],[27.852905,60.755672],[27.688367,60.798692],[27.510807,60.797788],[27.371487,60.872926],[27.142974,60.946874],[27.149692,61.053328],[27.213151,61.161797],[26.943606,61.171305],[26.87188,61.283288],[26.698867,61.214171],[26.515105,61.273676],[26.395423,61.199831],[26.052085,61.107614],[26.136627,61.024906],[26.042783,60.955091],[26.215485,60.755413],[26.348294,60.671103],[26.553302,60.59177],[26.527354,60.439887],[26.687348,60.418158],[26.99822,60.488023],[27.054373,60.54682],[27.369314,60.49787],[27.456798,60.46369],[27.705414,60.485419],[28.003782,60.664226]]]},"properties":{"LOCATION_TYPE":"level1","ADM0_A3":"FIN","LOCATION_ID":"FIN-09","NAME":"Kymenlaakso","TYPE_EN":"Province"}},
{"type":"Feature","geometry":{"type":"Polygon","coordinates":[[[26.553302,60.59177],[26.348294,60.671103],[26.215485,60.755413],[26.126085,60.694538],[25.88827,60.734019],[25.610458,60.688441],[25.441993,60.792569],[25.329545,60.757274],[25.193739,60.830137],[25.108886,60.819854],[25.156222,60.771976],[25.027961,60.678364],[24.612379,60.66051],[24.524943,60.558526],[24.397199,60.59625],[23.896661,60.648753],[23.851289,60.501605],[23.744215,60.486282],[23.786073,60.392593],[23.625566,60.261903],[23.650784,60.212785],[23.438704,60.163563],[23.295767,60.181547],[23.193138,60.123256],[23.021254,60.106802],[23.059418,60.03974],[23.205089,60.049709],[23.237153,59.898017],[23.56186,59.977607],[23.771251,59.967963],[24.295909,60.072211],[24.46811,59.996405],[24.608165,60.101223],[24.772634,60.142157],[24.950938,60.143459],[25.177013,60.183295],[25.19752,60.245185],[25.502778,60.246161],[25.526134,60.327094],[25.735525,60.24726],[25.921235,60.265286],[25.884288,60.320014],[26.094574,60.423326],[26.323985,60.383002],[26.485688,60.443793],[26.465831,60.508124],[26.553302,60.59177]]]},"properties":{"LOCATION_TYPE":"level1","ADM0_A3":"FIN","LOCATION_ID":"FIN-18","NAME":"Uusimaa","TYPE_EN":"Province"}},
{"type":"Feature","geometry":{"type":"MultiPolygon","coordinates":[[[[23.021254,60.106802],[23.193138,60.123256],[23.295767,60.181547],[23.438704,60.163563],[23.650784,60.212785],[23.625566,60.261903],[23.786073,60.392593],[23.744215,60.486282],[23.851289,60.501605],[23.896661,60.648753],[23.704631,60.66113],[23.477048,60.746525],[23.267345,60.728206],[23.162442,60.779882],[23.295767,60.946719],[23.197375,60.999946],[22.969792,61.045525],[22.840704,61.091103],[22.80112,60.996561],[22.57023,60.986045],[22.561858,60.943619],[22.246219,60.924576],[22.151134,60.88569],[22.005613,60.89866],[21.905878,60.984624],[21.493396,61.003693],[21.408105,61.048153],[21.325938,60.834866],[21.42213,60.759101],[21.469981,60.608303],[21.661794,60.567328],[21.773936,60.603949],[22.064464,60.436347],[22.291515,60.382636],[22.627615,60.375393],[22.449474,60.245185],[22.736176,60.238186],[22.941173,60.316474],[23.007579,60.277004],[22.867198,60.183743],[23.021254,60.106802]]],[[[22.843516,60.241767],[22.466482,60.183743],[22.4699,59.997504],[22.730479,60.046576],[22.846853,60.111029],[22.843516,60.241767]]],[[[21.997569,60.33393],[21.931977,60.423326],[21.794119,60.373969],[21.997569,60.33393]]]]},"properties":{"LOCATION_TYPE":"level1","ADM0_A3":"FIN","LOCATION_ID":"FIN-19","NAME":"Finland Proper","TYPE_EN":"Region"}},
{"type":"Feature","geometry":{"type":"Polygon","coordinates":[[[21.408105,61.048153],[21.493396,61.003693],[21.905878,60.984624],[22.005613,60.89866],[22.151134,60.88569],[22.246219,60.924576],[22.561858,60.943619],[22.57023,60.986045],[22.80112,60.996561],[22.840704,61.091103],[22.969792,61.045525],[22.990359,61.082215],[22.867266,61.230578],[22.680714,61.241689],[22.580462,61.317239],[22.725363,61.431961],[22.601546,61.552651],[22.721849,61.647736],[22.656116,61.684762],[22.822928,61.822816],[22.593484,62.028204],[22.772802,62.067685],[22.855277,62.17313],[22.838327,62.271186],[22.586973,62.301831],[22.545632,62.236305],[22.338823,62.124038],[22.177696,62.083317],[22.063698,62.010427],[21.932956,61.985312],[21.646565,62.020504],[21.425804,62.009445],[21.316694,61.939187],[21.486095,61.811184],[21.469981,61.759711],[21.623383,61.545885],[21.510265,61.519477],[21.543468,61.225084],[21.442638,61.155748],[21.408105,61.048153]]]},"properties":{"LOCATION_TYPE":"level1","ADM0_A3":"FIN","LOCATION_ID":"FIN-17","NAME":"Satakunta","TYPE_EN":"Region"}},
{"type":"Feature","geometry":{"type":"Polygon","coordinates":[[[21.316694,61.939187],[21.425804,62.009445],[21.646565,62.020504],[21.69049,62.206643],[21.636023,62.365703],[21.53236,62.379087],[21.605431,62.528819],[21.590962,62.60083],[21.780201,62.703589],[21.728524,62.760045],[21.791776,62.856629],[21.991247,62.782292],[22.179039,62.761983],[22.404245,62.875956],[22.42843,62.956674],[22.674203,63.13718],[22.581702,63.183482],[22.578188,63.270815],[22.766394,63.35758],[22.955839,63.338925],[23.118,63.360681],[23.350544,63.488011],[23.549188,63.465351],[23.69936,63.380628],[23.639932,63.532143],[23.459995,63.627228],[23.718687,63.663298],[23.503093,63.767012],[23.197892,63.723811],[22.990733,63.787624],[22.829275,63.646226],[22.675304,63.702379],[22.497244,63.622992],[22.428396,63.488756],[22.271251,63.513739],[22.195567,63.43122],[22.373709,63.321357],[22.202973,63.239407],[21.905528,63.175442],[21.869884,63.259426],[21.615408,63.203925],[21.440766,63.037787],[21.463145,62.951402],[21.382823,62.874579],[21.226736,62.858466],[21.113536,62.781195],[21.149669,62.703803],[21.067882,62.620103],[21.193533,62.600898],[21.115571,62.495795],[21.205089,62.359687],[21.339041,62.355536],[21.316173,62.248236],[21.389903,62.208157],[21.289073,62.121568],[21.236583,61.985012],[21.316694,61.939187]]]},"properties":{"LOCATION_TYPE":"level1","ADM0_A3":"FIN","LOCATION_ID":"FIN-12","NAME":"Ostrobothnia","TYPE_EN":"Province"}},
{"type":"Feature","geometry":{"type":"Polygon","coordinates":[[[22.990733,63.787624],[23.197892,63.723811],[23.503093,63.767012],[23.718687,63.663298],[23.459995,63.627228],[23.639932,63.532143],[23.69936,63.380628],[23.799406,63.301563],[24.043215,63.263064],[24.362782,63.119197],[24.52825,63.159143],[24.736403,63.137077],[24.799861,63.27575],[24.783428,63.352206],[25.028685,63.458039],[24.630363,63.658983],[24.408257,63.83414],[24.271728,63.868117],[24.145224,63.95899],[24.093961,64.047719],[23.706472,64.168077],[23.604503,64.027655],[23.381602,64.048163],[23.37086,63.946519],[23.275238,63.888902],[23.074962,63.857367],[22.990733,63.787624]]]},"properties":{"LOCATION_TYPE":"level1","ADM0_A3":"FIN","LOCATION_ID":"FIN-07","NAME":"Central Ostrobothnia","TYPE_EN":"Province"}},
{"type":"Feature","geometry":{"type":"Polygon","coordinates":[[[26.872086,64.033404],[26.694009,64.005267],[26.298581,63.853777],[26.238016,63.806855],[26.285662,63.588755],[26.137764,63.456282],[26.087225,63.368019],[26.184376,63.228131],[26.160915,63.151443],[26.272019,63.064187],[26.280184,62.944737],[26.063867,62.937528],[26.174144,62.831927],[26.36049,62.757513],[26.52079,62.736352],[26.596961,62.62548],[26.481826,62.524556],[26.711786,62.451279],[26.880458,62.474482],[27.202505,62.464146],[27.380892,62.517295],[27.66935,62.394435],[27.838229,62.27899],[28.068396,62.286121],[28.210402,62.354075],[28.254844,62.429601],[28.395301,62.473965],[28.414938,62.565768],[28.596425,62.590934],[28.65823,62.653334],[28.646448,62.744336],[28.796,62.828258],[28.924054,62.781956],[29.08146,62.837534],[28.987306,62.897867],[29.051901,62.999049],[28.876925,63.060234],[28.618233,63.208804],[28.753212,63.335333],[28.661228,63.436903],[28.549813,63.692857],[28.358404,63.753422],[28.287194,63.685002],[28.152008,63.722028],[27.744694,63.908296],[27.550391,63.952712],[26.872086,64.033404]]]},"properties":{"LOCATION_TYPE":"level1","ADM0_A3":"FIN","LOCATION_ID":"FIN-15","NAME":"Northern Savonia","TYPE_EN":"Province"}},
{"type":"Feature","geometry":{"type":"Polygon","coordinates":[[[28.65823,62.653334],[28.596425,62.590934],[28.414938,62.565768],[28.395301,62.473965],[28.254844,62.429601],[28.210402,62.354075],[28.068396,62.286121],[27.838229,62.27899],[27.66935,62.394435],[27.380892,62.517295],[27.202505,62.464146],[26.880458,62.474482],[26.711786,62.451279],[26.635822,62.24602],[26.499499,62.250955],[26.334031,62.197341],[26.247525,62.100654],[26.390255,61.990299],[26.334135,61.883846],[26.529058,61.686364],[26.319458,61.607635],[26.25693,61.439067],[26.29362,61.370802],[26.515105,61.273676],[26.698867,61.214171],[26.87188,61.283288],[26.943606,61.171305],[27.213151,61.161797],[27.330353,61.168308],[27.331076,61.252825],[27.22607,61.316103],[27.202402,61.399663],[27.540262,61.360338],[28.181464,61.373308],[28.341557,61.418577],[28.468888,61.509217],[28.653166,61.469582],[28.815017,61.530818],[29.053348,61.534229],[29.272043,61.572056],[29.532389,61.684788],[29.564015,61.72414],[29.693826,61.824857],[29.616622,61.923507],[29.656412,61.973143],[29.459112,62.098742],[29.41312,62.244754],[29.281448,62.382963],[29.084044,62.421255],[29.107092,62.491121],[28.809849,62.630803],[28.65823,62.653334]]]},"properties":{"LOCATION_TYPE":"level1","ADM0_A3":"FIN","LOCATION_ID":"FIN-04","NAME":"Southern Savonia","TYPE_EN":"Province"}},
{"type":"Feature","geometry":{"type":"Polygon","coordinates":[[[26.137764,63.456282],[25.912145,63.438531],[25.736342,63.517674],[25.491395,63.531549],[25.231566,63.600924],[25.028685,63.458039],[24.783428,63.352206],[24.799861,63.27575],[24.736403,63.137077],[24.52825,63.159143],[24.362782,63.119197],[24.266147,63.060337],[24.364229,62.917865],[24.365159,62.843477],[24.571141,62.660568],[24.513574,62.503937],[24.198141,62.468797],[24.020271,62.363997],[24.05386,62.295914],[24.245787,62.254753],[24.332603,62.174965],[24.56494,62.180856],[24.742914,62.03394],[24.868798,62.055747],[24.946726,61.917668],[24.930293,61.829456],[24.993958,61.746774],[24.922748,61.709412],[24.906625,61.580221],[24.958198,61.455939],[25.403339,61.484051],[25.46101,61.527046],[25.5162,61.678044],[25.779543,61.701428],[25.862019,61.798037],[26.081644,61.705019],[26.146136,61.626316],[26.319458,61.607635],[26.529058,61.686364],[26.334135,61.883846],[26.390255,61.990299],[26.247525,62.100654],[26.334031,62.197341],[26.499499,62.250955],[26.635822,62.24602],[26.711786,62.451279],[26.481826,62.524556],[26.596961,62.62548],[26.52079,62.736352],[26.36049,62.757513],[26.174144,62.831927],[26.063867,62.937528],[26.280184,62.944737],[26.272019,63.064187],[26.160915,63.151443],[26.184376,63.228131],[26.087225,63.368019],[26.137764,63.456282]]]},"properties":{"LOCATION_TYPE":"level1","ADM0_A3":"FIN","LOCATION_ID":"FIN-08","NAME":"Central Finland","TYPE_EN":"Province"}},
{"type":"Feature","geometry":{"type":"Polygon","coordinates":[[[23.69936,63.380628],[23.549188,63.465351],[23.350544,63.488011],[23.118,63.360681],[22.955839,63.338925],[22.766394,63.35758],[22.578188,63.270815],[22.581702,63.183482],[22.674203,63.13718],[22.42843,62.956674],[22.404245,62.875956],[22.179039,62.761983],[21.991247,62.782292],[21.791776,62.856629],[21.728524,62.760045],[21.780201,62.703589],[21.590962,62.60083],[21.605431,62.528819],[21.53236,62.379087],[21.636023,62.365703],[21.69049,62.206643],[21.646565,62.020504],[21.932956,61.985312],[22.063698,62.010427],[22.177696,62.083317],[22.338823,62.124038],[22.545632,62.236305],[22.586973,62.301831],[22.838327,62.271186],[23.166783,62.318419],[23.288636,62.406837],[23.420721,62.379759],[23.657709,62.417017],[23.817389,62.469676],[24.020271,62.363997],[24.198141,62.468797],[24.513574,62.503937],[24.571141,62.660568],[24.365159,62.843477],[24.364229,62.917865],[24.266147,63.060337],[24.362782,63.119197],[24.043215,63.263064],[23.799406,63.301563],[23.69936,63.380628]]]},"properties":{"LOCATION_TYPE":"level1","ADM0_A3":"FIN","LOCATION_ID":"FIN-03","NAME":"Southern Ostrobothnia","TYPE_EN":"Province"}},
{"type":"Feature","geometry":{"type":"Polygon","coordinates":[[[24.020271,62.363997],[23.817389,62.469676],[23.657709,62.417017],[23.420721,62.379759],[23.288636,62.406837],[23.166783,62.318419],[22.838327,62.271186],[22.855277,62.17313],[22.772802,62.067685],[22.593484,62.028204],[22.822928,61.822816],[22.656116,61.684762],[22.721849,61.647736],[22.601546,61.552651],[22.725363,61.431961],[22.580462,61.317239],[22.680714,61.241689],[22.867266,61.230578],[22.990359,61.082215],[22.969792,61.045525],[23.197375,60.999946],[23.43705,60.969483],[23.707008,61.007],[23.797959,61.075342],[24.228217,61.158283],[24.380352,61.243807],[24.584371,61.294812],[24.804202,61.267475],[24.918304,61.322304],[24.958198,61.455939],[24.906625,61.580221],[24.922748,61.709412],[24.993958,61.746774],[24.930293,61.829456],[24.946726,61.917668],[24.868798,62.055747],[24.742914,62.03394],[24.56494,62.180856],[24.332603,62.174965],[24.245787,62.254753],[24.05386,62.295914],[24.020271,62.363997]]]},"properties":{"LOCATION_TYPE":"level1","ADM0_A3":"FIN","LOCATION_ID":"FIN-11","NAME":"Pirkanmaa","TYPE_EN":"Region"}},
{"type":"Feature","geometry":{"type":"Polygon","coordinates":[[[24.918304,61.322304],[24.804202,61.267475],[24.584371,61.294812],[24.380352,61.243807],[24.228217,61.158283],[23.797959,61.075342],[23.707008,61.007],[23.43705,60.969483],[23.197375,60.999946],[23.295767,60.946719],[23.162442,60.779882],[23.267345,60.728206],[23.477048,60.746525],[23.704631,60.66113],[23.896661,60.648753],[24.397199,60.59625],[24.524943,60.558526],[24.612379,60.66051],[25.027961,60.678364],[25.156222,60.771976],[25.108886,60.819854],[25.141649,60.908711],[25.254304,60.976588],[25.286653,61.075704],[25.187745,61.240035],[25.032405,61.253936],[24.918304,61.322304]]]},"properties":{"LOCATION_TYPE":"level1","ADM0_A3":"FIN","LOCATION_ID":"FIN-06","NAME":"Tavastia Proper","TYPE_EN":"Region"}},
{"type":"Feature","geometry":{"type":"Polygon","coordinates":[[[26.319458,61.607635],[26.146136,61.626316],[26.081644,61.705019],[25.862019,61.798037],[25.779543,61.701428],[25.5162,61.678044],[25.46101,61.527046],[25.403339,61.484051],[24.958198,61.455939],[24.918304,61.322304],[25.032405,61.253936],[25.187745,61.240035],[25.286653,61.075704],[25.254304,60.976588],[25.141649,60.908711],[25.108886,60.819854],[25.193739,60.830137],[25.329545,60.757274],[25.441993,60.792569],[25.610458,60.688441],[25.88827,60.734019],[26.126085,60.694538],[26.215485,60.755413],[26.042783,60.955091],[26.136627,61.024906],[26.052085,61.107614],[26.395423,61.199831],[26.515105,61.273676],[26.29362,61.370802],[26.25693,61.439067],[26.319458,61.607635]]]},"properties":{"LOCATION_TYPE":"level1","ADM0_A3":"FIN","LOCATION_ID":"FIN-16","NAME":"Päijät-Häme","TYPE_EN":"Province"}}
]}