{"type":"FeatureCollection", "features": [
{"type":"Feature","geometry":{"type":"MultiPolygon","coordinates":[[[[-178.293162,-17.882745],[-178.33788,-17.886],[-178.352284,-17.945733],[-178.298289,-17.963311],[-178.239125,-17.934259],[-178.293162,-17.882745]]],[[[178.430349,-18.955255],[178.344981,-18.9249],[178.26588,-18.962091],[178.190684,-18.977227],[178.17213,-19.035333],[178.119477,-19.070408],[178.063243,-19.05641],[178.003673,-19.157485],[178.106619,-19.154555],[178.174327,-19.07586],[178.307302,-18.997166],[178.341482,-19.047784],[178.416677,-19.047784],[178.496593,-19.013279],[178.485606,-18.965102],[178.430349,-18.955255]]],[[[179.943427,-18.556346],[179.830666,-18.589302],[179.871566,-18.628824],[179.921019,-18.622643],[179.943427,-18.556346]]],[[[179.34547,-17.998793],[179.312511,-17.947442],[179.250336,-17.951267],[179.310883,-18.089776],[179.362966,-18.079767],[179.34547,-17.998793]]],[[[178.776378,-17.628839],[178.739355,-17.67333],[178.768077,-17.747166],[178.822909,-17.72913],[178.816758,-17.628951],[178.776378,-17.628839]]],[[[179.451915,-17.290297],[179.437836,-17.241795],[179.378673,-17.249444],[179.383474,-17.390558],[179.432872,-17.358331],[179.451915,-17.290297]]]]},"properties":{"LOCATION_TYPE":"level1","ADM0_A3":"FJI","LOCATION_ID":"FJI-E","NAME":"Eastern","TYPE_EN":"Division"}},
{"type":"Feature","geometry":{"type":"Polygon","coordinates":[[[177.783376,-18.223158],[177.826076,-18.123028],[177.782358,-18.106956],[177.769232,-18.057709],[177.815224,-17.985362],[177.93532,-18.000451],[178.007616,-17.953322],[177.971287,-17.86294],[178.024514,-17.738038],[178.009114,-17.668895],[178.050559,-17.578462],[178.139235,-17.668224],[178.322273,-17.643471],[178.426866,-17.664193],[178.448261,-17.550258],[178.374278,-17.491388],[178.348318,-17.440118],[178.303722,-17.430271],[178.262706,-17.335626],[178.190115,-17.300551],[178.151052,-17.346856],[178.042247,-17.356866],[177.926606,-17.405938],[177.833263,-17.366469],[177.622081,-17.454685],[177.539561,-17.51214],[177.515147,-17.50506],[177.465099,-17.587986],[177.388927,-17.640558],[177.435313,-17.743259],[177.370291,-17.749688],[177.37143,-17.823419],[177.282074,-17.851739],[177.251638,-17.952244],[177.335948,-18.105564],[177.474457,-18.15781],[177.591645,-18.166681],[177.64503,-18.191095],[177.783376,-18.223158]]]},"properties":{"LOCATION_TYPE":"level1","ADM0_A3":"FJI","LOCATION_ID":"FJI-W","NAME":"Western","TYPE_EN":"Division"}},
{"type":"Feature","geometry":{"type":"Polygon","coordinates":[[[178.448261,-17.550258],[178.426866,-17.664193],[178.322273,-17.643471],[178.139235,-17.668224],[178.050559,-17.578462],[178.009114,-17.668895],[178.024514,-17.738038],[177.971287,-17.86294],[178.007616,-17.953322],[177.93532,-18.000451],[177.815224,-17.985362],[177.769232,-18.057709],[177.782358,-18.106956],[177.826076,-18.123028],[177.783376,-18.223158],[177.859386,-18.265802],[178.03891,-18.264907],[178.113048,-18.239435],[178.168305,-18.248468],[178.277029,-18.146254],[178.403087,-18.101332],[178.470225,-18.14186],[178.52711,-18.09002],[178.559744,-18.127048],[178.684581,-18.070408],[178.698416,-18.019301],[178.62615,-17.971449],[178.5949,-17.926039],[178.635997,-17.863702],[178.602306,-17.786554],[178.567719,-17.754978],[178.602306,-17.649998],[178.448261,-17.550258]]]},"properties":{"LOCATION_TYPE":"level1","ADM0_A3":"FJI","LOCATION_ID":"FJI-C","NAME":"Central","TYPE_EN":"Division"}},
{"type":"Feature","geometry":{"type":"MultiPolygon","coordinates":[[[[-180,-16.786733],[-180,-16.964144],[-179.9829,-16.932387],[-179.890126,-16.867852],[-179.820994,-16.779962],[-179.855702,-16.693048],[-179.915883,-16.694513],[-180,-16.786733]]],[[[-180,-16.489939],[-180,-16.541115],[-179.921986,-16.497491],[-179.959055,-16.446873],[-180,-16.489939]]],[[[180,-16.962782],[180,-16.785349],[179.967296,-16.858331],[179.895274,-16.939142],[179.917491,-16.998793],[180,-16.962782]]],[[[180,-16.168951],[180,-16.149112],[179.910655,-16.179864],[179.855968,-16.231134],[179.764415,-16.18141],[179.554373,-16.272638],[179.486095,-16.265232],[179.458181,-16.31992],[179.397716,-16.347833],[179.329275,-16.407973],[179.240408,-16.398126],[179.05421,-16.454034],[178.917003,-16.470636],[178.930919,-16.512628],[178.848643,-16.546319],[178.680919,-16.668064],[178.571788,-16.615492],[178.533946,-16.629002],[178.540212,-16.704034],[178.483572,-16.759942],[178.511567,-16.814223],[178.602306,-16.779718],[178.670421,-16.899021],[178.705333,-16.998793],[178.762706,-17.00506],[178.800955,-16.977716],[178.8213,-16.902602],[178.8838,-16.85768],[179.026866,-16.92311],[179.044444,-16.823826],[179.123383,-16.789646],[179.172048,-16.722589],[179.266368,-16.689874],[179.35141,-16.731378],[179.296886,-16.806817],[179.596853,-16.788751],[179.643809,-16.745701],[179.726329,-16.717706],[179.802013,-16.717706],[179.875743,-16.769464],[179.903819,-16.717706],[179.890147,-16.614679],[179.953461,-16.499607],[179.939464,-16.463311],[179.851085,-16.508559],[179.722667,-16.604425],[179.698416,-16.649509],[179.548106,-16.766046],[179.48878,-16.707615],[179.571462,-16.625584],[179.597911,-16.539809],[179.738455,-16.459242],[179.851248,-16.290948],[179.91212,-16.22796],[180,-16.168951]]]]},"properties":{"LOCATION_TYPE":"level1","ADM0_A3":"FJI","LOCATION_ID":"FJI-N","NAME":"Northern","TYPE_EN":"Division"}},
{"type":"Feature","geometry":{"type":"Polygon","coordinates":[[[177.124766,-12.486098],[177.059744,-12.475274],[177.04363,-12.508477],[177.113617,-12.511407],[177.124766,-12.486098]]]},"properties":{"LOCATION_TYPE":"level1","ADM0_A3":"FJI","LOCATION_ID":"FJI-R","NAME":"Rotuma","TYPE_EN":"Division"}}
]}