{"type":"FeatureCollection", "features": [
{"type":"Feature","geometry":{"type":"MultiPolygon","coordinates":[[[[-60.947621,-51.947361],[-60.879303,-51.858575],[-60.98233,-51.776625],[-61.059478,-51.823907],[-61.121897,-51.82586],[-61.119537,-51.892755],[-61.043813,-51.940606],[-60.947621,-51.947361]]],[[[-59.632395,-51.741306],[-59.522532,-51.618341],[-59.433176,-51.621352],[-59.371409,-51.5263],[-59.26183,-51.456964],[-59.255971,-51.387384],[-59.419504,-51.337823],[-59.443959,-51.400323],[-59.748525,-51.447035],[-59.791615,-51.410577],[-60.029612,-51.392511],[-60.153147,-51.487481],[-60.324452,-51.453302],[-60.461578,-51.385675],[-60.60558,-51.344008],[-60.61205,-51.417413],[-60.478017,-51.435724],[-60.515289,-51.486505],[-60.490387,-51.526462],[-60.248769,-51.611586],[-60.219594,-51.654229],[-60.368804,-51.666762],[-60.490102,-51.700372],[-60.624989,-51.66961],[-60.610178,-51.742771],[-60.510162,-51.765883],[-60.357981,-51.73504],[-60.33845,-51.709161],[-60.180409,-51.707208],[-60.214711,-51.778497],[-60.372222,-51.76922],[-60.454742,-51.799981],[-60.447336,-51.879083],[-60.399892,-51.916599],[-60.483022,-51.972263],[-60.632192,-51.971775],[-60.845204,-51.954767],[-60.742177,-52.008884],[-60.88679,-52.036228],[-61.019765,-52.012465],[-61.036936,-52.046563],[-60.867299,-52.115167],[-60.796783,-52.172052],[-60.657867,-52.184828],[-60.646718,-52.233087],[-60.53661,-52.217055],[-60.425364,-52.144789],[-60.360422,-52.153578],[-60.26301,-52.067153],[-60.259877,-51.985447],[-59.994862,-51.994561],[-59.871734,-51.948989],[-59.725657,-51.799249],[-59.632395,-51.741306]]],[[[-60.169911,-51.392511],[-60.129384,-51.40545],[-60.049143,-51.346449],[-60.07429,-51.299981],[-60.2058,-51.302911],[-60.169911,-51.392511]]],[[[-57.816233,-51.693536],[-57.780995,-51.619399],[-57.84968,-51.599054],[-58.028554,-51.591078],[-58.145172,-51.542657],[-58.011342,-51.507257],[-57.927235,-51.538832],[-57.802602,-51.549493],[-57.819651,-51.477797],[-57.906402,-51.376642],[-58.227447,-51.392511],[-58.337026,-51.481215],[-58.230051,-51.52158],[-58.290395,-51.56756],[-58.384674,-51.539646],[-58.445465,-51.476251],[-58.329091,-51.416274],[-58.343617,-51.368422],[-58.481435,-51.300958],[-58.615142,-51.325453],[-58.73351,-51.328302],[-58.900868,-51.277765],[-58.873606,-51.371759],[-59.084299,-51.40602],[-59.125315,-51.456964],[-59.014272,-51.491795],[-59.100697,-51.621759],[-59.072825,-51.684666],[-59.207183,-51.707208],[-59.350575,-51.776625],[-59.363759,-51.822361],[-59.581288,-51.91131],[-59.604726,-51.940525],[-59.55663,-52.01572],[-59.628285,-52.11061],[-59.714426,-52.118748],[-59.573598,-52.195082],[-59.562815,-52.237888],[-59.466705,-52.295668],[-59.373891,-52.299086],[-59.352162,-52.24212],[-59.433746,-52.211196],[-59.385976,-52.111912],[-59.262441,-52.159601],[-59.221669,-52.207208],[-59.084706,-52.231541],[-59.04898,-52.212498],[-59.145741,-52.125584],[-59.200266,-52.007582],[-59.138295,-51.983331],[-58.947743,-52.056573],[-58.925771,-52.101658],[-58.795277,-52.031915],[-58.7294,-52.051039],[-58.604482,-52.002048],[-58.660715,-51.955011],[-58.784169,-51.957127],[-58.757802,-51.89129],[-58.51122,-51.882989],[-58.419057,-51.892185],[-58.199859,-51.822035],[-58.144399,-51.762302],[-57.86384,-51.726251],[-57.816233,-51.693536]]],[[[-59.748402,-51.283298],[-59.635813,-51.289483],[-59.576772,-51.330255],[-59.447377,-51.324151],[-59.502024,-51.26214],[-59.690745,-51.26214],[-59.748402,-51.283298]]],[[[-59.744239,-51.328978],[-59.75231,-51.398281],[-59.625967,-51.385071],[-59.744239,-51.328978]]]]},"properties":{"LOCATION_TYPE":"level1","ADM0_A3":"FLK","LOCATION_ID":"FLK-X01~","NAME":"Falkland Islands","TYPE_EN":null}}
]}