{"type":"FeatureCollection", "features": [
{"type":"Feature","geometry":{"type":"Polygon","coordinates":[[[-54.211182,3.127407],[-54.177076,3.116555],[-54.163433,2.969742],[-54.212526,2.776421],[-54.285338,2.677977],[-54.359442,2.508013],[-54.423469,2.435925],[-54.493387,2.417063],[-54.520311,2.348902],[-54.588162,2.324355],[-54.476644,2.21413],[-54.373911,2.196508],[-54.263789,2.14819],[-54.188548,2.161316],[-54.134908,2.110673],[-54.069279,2.188343],[-53.946134,2.221984],[-53.866811,2.304925],[-53.764801,2.368694],[-53.748162,2.319343],[-53.531792,2.247047],[-53.473243,2.254127],[-53.344104,2.349625],[-53.234188,2.250975],[-53.061227,2.186276],[-52.959683,2.175217],[-52.880153,2.26038],[-52.707708,2.358927],[-52.619187,2.463468],[-52.553454,2.573384],[-52.571593,2.6386],[-52.353208,3.058419],[-52.361838,3.131955],[-52.299103,3.225334],[-52.227918,3.260112],[-52.012764,3.619108],[-51.988424,3.704555],[-51.83541,3.867543],[-51.783191,3.980947],[-51.683217,4.039374],[-51.650706,4.190009],[-51.716786,4.333564],[-51.801503,4.612698],[-51.896392,4.6647],[-51.931264,4.590399],[-52.094106,4.758124],[-52.242747,4.856187],[-52.299957,4.945054],[-52.402333,4.973822],[-52.540924,5.079006],[-52.752949,5.267352],[-52.783168,5.316884],[-52.896519,5.405668],[-52.994581,5.457624],[-53.082509,5.472154],[-53.251664,5.548627],[-53.30271,5.535476],[-53.517322,5.580775],[-53.776742,5.714156],[-53.94435,5.744641],[-53.991925,5.661348],[-54.007192,5.558173],[-54.106679,5.381171],[-54.269163,5.269085],[-54.430239,5.053388],[-54.482122,4.912802],[-54.47866,4.755189],[-54.435458,4.709404],[-54.423469,4.563392],[-54.450806,4.484224],[-54.402954,4.312942],[-54.41055,4.208581],[-54.338565,4.152332],[-54.355153,4.066523],[-54.18736,3.814678],[-54.125503,3.788736],[-54.050675,3.640554],[-53.988819,3.610995],[-54.00303,3.455397],[-54.19046,3.178102],[-54.211182,3.127407]]]},"properties":{"LOCATION_TYPE":"level1","ADM0_A3":"FRA","LOCATION_ID":"FRA-GF","NAME":"Guyane française","TYPE_EN":"Overseas department"}},
{"type":"Feature","geometry":{"type":"Polygon","coordinates":[[[4.131665,49.974987],[4.210006,50.06015],[4.128151,50.146243],[4.157296,50.212698],[4.022731,50.338117],[3.895917,50.325301],[3.755047,50.346334],[3.661719,50.319307],[3.644356,50.445501],[3.462868,50.51914],[3.343599,50.49294],[3.271045,50.526943],[3.229808,50.65541],[3.146195,50.768892],[2.971425,50.757833],[2.900112,50.703108],[2.786734,50.723365],[2.691856,50.808838],[2.620439,50.816486],[2.576928,50.911519],[2.60845,50.961128],[2.5218,51.087541],[2.063324,51.01432],[2.222299,50.80573],[2.362419,50.786746],[2.371472,50.674312],[2.489201,50.633256],[2.811167,50.610372],[2.824218,50.524953],[2.985652,50.501486],[3.055481,50.426263],[3.001911,50.381307],[3.13478,50.261248],[3.088265,50.050021],[3.156994,50.018681],[3.448615,50.015374],[3.683217,50.059319],[3.985935,50.030645],[4.131665,49.974987]]]},"properties":{"LOCATION_TYPE":"level1","ADM0_A3":"FRA","LOCATION_ID":"FRA-59","NAME":"Nord","TYPE_EN":"Metropolitan department"}},
{"type":"Feature","geometry":{"type":"Polygon","coordinates":[[[5.391166,49.608817],[5.259244,49.691335],[5.192478,49.682808],[4.98908,49.790554],[4.849037,49.794171],[4.844593,49.931734],[4.788265,49.974263],[4.862886,50.084076],[4.788575,50.153374],[4.681915,50.083921],[4.656697,49.989095],[4.435109,49.93225],[4.215945,49.954411],[4.247893,49.854523],[4.230974,49.727378],[4.046447,49.6257],[4.073166,49.567308],[4.05528,49.407292],[4.196565,49.394624],[4.448855,49.276104],[4.551225,49.286925],[4.636523,49.235015],[4.723117,49.252483],[4.978747,49.235674],[5.113879,49.421761],[5.071252,49.500522],[5.100849,49.563539],[5.302141,49.549532],[5.391166,49.608817]]]},"properties":{"LOCATION_TYPE":"level1","ADM0_A3":"FRA","LOCATION_ID":"FRA-08","NAME":"Ardennes","TYPE_EN":"Metropolitan department"}},
{"type":"Feature","geometry":{"type":"Polygon","coordinates":[[[4.131665,49.974987],[3.985935,50.030645],[3.683217,50.059319],[3.448615,50.015374],[3.156994,50.018681],[3.193073,49.975582],[3.084067,49.861082],[3.118564,49.705768],[3.121399,49.51532],[3.100437,49.418948],[3.010788,49.284168],[2.994594,49.187576],[3.10259,49.188378],[3.079738,49.1062],[3.175957,49.004346],[3.418645,48.852856],[3.477905,48.850098],[3.665793,49.00884],[3.587461,49.0368],[3.635866,49.146663],[3.702597,49.1463],[3.650149,49.302834],[3.84988,49.345779],[3.877939,49.381012],[4.032033,49.359831],[4.05528,49.407292],[4.073166,49.567308],[4.046447,49.6257],[4.230974,49.727378],[4.247893,49.854523],[4.215945,49.954411],[4.131665,49.974987]]]},"properties":{"LOCATION_TYPE":"level1","ADM0_A3":"FRA","LOCATION_ID":"FRA-02","NAME":"Aisne","TYPE_EN":"Metropolitan department"}},
{"type":"Feature","geometry":{"type":"Polygon","coordinates":[[[5.391166,49.608817],[5.302141,49.549532],[5.100849,49.563539],[5.071252,49.500522],[5.113879,49.421761],[4.978747,49.235674],[4.955434,49.165219],[5.00261,48.929881],[4.92164,48.878465],[4.917158,48.787674],[4.992085,48.692895],[5.035854,48.618067],[5.356303,48.481386],[5.455246,48.419214],[5.71716,48.46283],[5.765237,48.496602],[5.722785,48.587536],[5.757942,48.627262],[5.723906,48.729985],[5.760227,48.779258],[5.84146,49.055575],[5.760073,49.109145],[5.75614,49.289266],[5.717907,49.382309],[5.643596,49.43579],[5.50987,49.409192],[5.477724,49.495224],[5.391166,49.608817]]]},"properties":{"LOCATION_TYPE":"level1","ADM0_A3":"FRA","LOCATION_ID":"FRA-55","NAME":"Meuse","TYPE_EN":"Metropolitan department"}},
{"type":"Feature","geometry":{"type":"Polygon","coordinates":[[[5.928142,49.482306],[5.757095,49.548398],[5.644647,49.543799],[5.477724,49.495224],[5.50987,49.409192],[5.643596,49.43579],[5.717907,49.382309],[5.75614,49.289266],[5.760073,49.109145],[5.84146,49.055575],[5.760227,48.779258],[5.723906,48.729985],[5.757942,48.627262],[5.722785,48.587536],[5.765237,48.496602],[5.895886,48.487637],[5.881274,48.409568],[5.976855,48.357493],[6.117217,48.361305],[6.173642,48.399439],[6.501804,48.414512],[6.606218,48.46929],[6.663852,48.423114],[6.807246,48.396044],[7.08865,48.523442],[6.970437,48.610992],[6.706897,48.668099],[6.298337,48.859085],[6.287527,48.931276],[6.143166,48.934561],[5.935041,49.084008],[6.015549,49.15198],[6.004035,49.293089],[5.927549,49.370081],[5.928142,49.482306]]]},"properties":{"LOCATION_TYPE":"level1","ADM0_A3":"FRA","LOCATION_ID":"FRA-54","NAME":"Meurthe-et-Moselle","TYPE_EN":"Metropolitan department"}},
{"type":"Feature","geometry":{"type":"Polygon","coordinates":[[[7.644932,49.036295],[7.520863,49.083672],[7.476112,49.151523],[7.391052,49.170023],[7.268062,49.105634],[7.154994,49.114419],[7.009474,49.181702],[6.843489,49.211054],[6.725563,49.155554],[6.574306,49.361794],[6.494518,49.435537],[6.13609,49.495275],[6.06333,49.448456],[5.928142,49.482306],[5.927549,49.370081],[6.004035,49.293089],[6.015549,49.15198],[5.935041,49.084008],[6.143166,48.934561],[6.287527,48.931276],[6.298337,48.859085],[6.706897,48.668099],[6.970437,48.610992],[7.08865,48.523442],[7.19302,48.533527],[7.270495,48.584218],[7.264914,48.684886],[7.304136,48.775468],[7.191636,48.847351],[7.096714,48.852471],[6.980786,48.930068],[7.077268,49.029461],[7.341709,48.943372],[7.572905,48.94368],[7.644932,49.036295]]]},"properties":{"LOCATION_TYPE":"level1","ADM0_A3":"FRA","LOCATION_ID":"FRA-57","NAME":"Moselle","TYPE_EN":"Metropolitan department"}},
{"type":"Feature","geometry":{"type":"Polygon","coordinates":[[[6.933185,43.480346],[6.945203,43.527253],[7.088427,43.568674],[7.151622,43.654771],[7.330533,43.686424],[7.372655,43.745832],[7.502289,43.792222],[7.477869,43.865515],[7.630934,43.993543],[7.691912,44.084649],[7.624733,44.180095],[7.38082,44.122941],[7.033451,44.242934],[6.878435,44.354623],[6.730803,44.245937],[6.695032,44.153091],[6.75761,44.037251],[6.81865,44.00672],[6.799314,43.907766],[6.636387,43.788905],[6.749436,43.738159],[6.775232,43.655081],[6.906936,43.568234],[6.933185,43.480346]]]},"properties":{"LOCATION_TYPE":"level1","ADM0_A3":"FRA","LOCATION_ID":"FRA-06","NAME":"Alpes-Maritimes","TYPE_EN":"Metropolitan department"}},
{"type":"Feature","geometry":{"type":"Polygon","coordinates":[[[6.9383,44.65797],[6.684001,44.540601],[6.630366,44.452403],[6.51279,44.449228],[6.365244,44.53469],[6.258699,44.467794],[6.073491,44.467597],[5.955805,44.395526],[5.805117,44.210703],[5.678884,44.190653],[5.506157,44.12178],[5.538545,44.021211],[5.50842,43.969553],[5.586203,43.921565],[5.5474,43.838245],[5.662756,43.812119],[5.753775,43.732055],[5.941238,43.744004],[6.036599,43.675614],[6.213215,43.791531],[6.385986,43.741049],[6.427339,43.793838],[6.636387,43.788905],[6.799314,43.907766],[6.81865,44.00672],[6.75761,44.037251],[6.695032,44.153091],[6.730803,44.245937],[6.878435,44.354623],[6.9178,44.436307],[6.838838,44.502918],[6.9383,44.65797]]]},"properties":{"LOCATION_TYPE":"level1","ADM0_A3":"FRA","LOCATION_ID":"FRA-04","NAME":"Alpes-de-Haute-Provence","TYPE_EN":"Metropolitan department"}},
{"type":"Feature","geometry":{"type":"Polygon","coordinates":[[[6.9383,44.65797],[7.018982,44.738872],[6.982808,44.846979],[6.86602,44.855661],[6.72794,44.928732],[6.629385,45.123545],[6.520041,45.104013],[6.459375,45.053585],[6.266367,45.124788],[6.227102,45.006663],[6.32532,44.999478],[6.365068,44.868169],[6.128862,44.854887],[5.973098,44.808063],[5.812038,44.712053],[5.793054,44.654903],[5.657922,44.641411],[5.61479,44.573197],[5.651264,44.495941],[5.492512,44.42364],[5.459289,44.370269],[5.683982,44.259417],[5.678884,44.190653],[5.805117,44.210703],[5.955805,44.395526],[6.073491,44.467597],[6.258699,44.467794],[6.365244,44.53469],[6.51279,44.449228],[6.630366,44.452403],[6.684001,44.540601],[6.9383,44.65797]]]},"properties":{"LOCATION_TYPE":"level1","ADM0_A3":"FRA","LOCATION_ID":"FRA-05","NAME":"Hautes-Alpes","TYPE_EN":"Metropolitan department"}},
{"type":"Feature","geometry":{"type":"Polygon","coordinates":[[[6.629385,45.123545],[6.736415,45.157348],[6.844109,45.130115],[6.958727,45.2098],[7.062183,45.218533],[7.092569,45.323953],[7.160679,45.410924],[6.982808,45.511125],[6.963378,45.640729],[6.843075,45.682742],[6.783868,45.764995],[6.602724,45.796646],[6.512263,45.906597],[6.330241,45.703877],[6.24279,45.686629],[6.136838,45.759073],[6.0032,45.75214],[5.897314,45.822881],[5.840353,45.938766],[5.759145,45.720733],[5.600486,45.655581],[5.741111,45.450939],[5.910805,45.394173],[5.983908,45.483305],[6.125412,45.435086],[6.189529,45.329925],[6.130949,45.261249],[6.169863,45.152276],[6.266367,45.124788],[6.459375,45.053585],[6.520041,45.104013],[6.629385,45.123545]]]},"properties":{"LOCATION_TYPE":"level1","ADM0_A3":"FRA","LOCATION_ID":"FRA-73","NAME":"Savoie","TYPE_EN":"Metropolitan department"}},
{"type":"Feature","geometry":{"type":"Polygon","coordinates":[[[6.783868,45.764995],[6.800804,45.826455],[6.969166,45.869759],[7.022083,45.92526],[6.853927,46.122612],[6.774346,46.134808],[6.827676,46.269477],[6.750368,46.345518],[6.762667,46.42926],[6.613684,46.455899],[6.482942,46.448587],[6.301558,46.394482],[6.214122,46.315469],[6.281198,46.240073],[6.107875,46.138632],[5.95884,46.130467],[5.8252,46.095287],[5.840353,45.938766],[5.897314,45.822881],[6.0032,45.75214],[6.136838,45.759073],[6.24279,45.686629],[6.330241,45.703877],[6.512263,45.906597],[6.602724,45.796646],[6.783868,45.764995]]]},"properties":{"LOCATION_TYPE":"level1","ADM0_A3":"FRA","LOCATION_ID":"FRA-74","NAME":"Haute-Savoie","TYPE_EN":"Metropolitan department"}},
{"type":"Feature","geometry":{"type":"Polygon","coordinates":[[[-1.513987,43.538642],[-1.661,43.399685],[-1.796914,43.341128],[-1.639043,43.255681],[-1.559047,43.284077],[-1.403501,43.243331],[-1.425774,43.135275],[-1.487837,43.081816],[-1.435024,43.035721],[-1.274879,43.046831],[-0.98146,42.957043],[-0.759665,42.946501],[-0.730106,42.877513],[-0.561175,42.77354],[-0.305139,42.830812],[-0.290032,42.987606],[-0.18497,43.046471],[-0.191408,43.091845],[-0.080688,43.172506],[0.023232,43.339169],[-0.047278,43.522223],[-0.109681,43.574804],[-0.236342,43.587053],[-0.562251,43.543108],[-0.799974,43.567421],[-0.983753,43.545228],[-1.153997,43.489989],[-1.172981,43.551095],[-1.316639,43.508699],[-1.440663,43.499086],[-1.513987,43.538642]]]},"properties":{"LOCATION_TYPE":"level1","ADM0_A3":"FRA","LOCATION_ID":"FRA-64","NAME":"Pyrénées-Atlantiques","TYPE_EN":"Metropolitan department"}},
{"type":"Feature","geometry":{"type":"Polygon","coordinates":[[[0.466927,42.690444],[0.643609,42.684476],[0.656321,42.83842],[0.856102,42.812763],[0.832485,42.884148],[0.886604,42.958987],[0.992248,42.990309],[0.996599,43.09469],[1.236584,43.1848],[1.44093,43.212969],[1.515219,43.296729],[1.647341,43.247949],[1.702558,43.266736],[1.725388,43.316218],[1.893764,43.393628],[2.031687,43.422566],[1.728859,43.657465],[1.643803,43.792421],[1.580324,43.814328],[1.555693,43.918324],[1.373649,43.883948],[1.358357,43.821315],[1.246164,43.774337],[1.164843,43.815635],[0.953928,43.787334],[1.067351,43.669967],[1.192331,43.598787],[1.035183,43.475476],[1.025339,43.377478],[0.788869,43.413667],[0.606716,43.310934],[0.615307,43.291345],[0.441635,43.131077],[0.562946,43.073827],[0.644904,42.956878],[0.549939,42.867119],[0.457763,42.826294],[0.466927,42.690444]]]},"properties":{"LOCATION_TYPE":"level1","ADM0_A3":"FRA","LOCATION_ID":"FRA-31","NAME":"Haute-Garonne","TYPE_EN":"Metropolitan department"}},
{"type":"Feature","geometry":{"type":"Polygon","coordinates":[[[-0.305139,42.830812],[-0.163629,42.777984],[-0.038933,42.685148],[0.169168,42.726463],[0.275388,42.668689],[0.354169,42.717497],[0.466927,42.690444],[0.457763,42.826294],[0.549939,42.867119],[0.644904,42.956878],[0.562946,43.073827],[0.441635,43.131077],[0.615307,43.291345],[0.606716,43.310934],[0.195717,43.371612],[0.123603,43.504887],[0.02455,43.53555],[-0.00586,43.608697],[-0.109681,43.574804],[-0.047278,43.522223],[0.023232,43.339169],[-0.080688,43.172506],[-0.191408,43.091845],[-0.18497,43.046471],[-0.290032,42.987606],[-0.305139,42.830812]]]},"properties":{"LOCATION_TYPE":"level1","ADM0_A3":"FRA","LOCATION_ID":"FRA-65","NAME":"Hautes-Pyrénées","TYPE_EN":"Metropolitan department"}},
{"type":"Feature","geometry":{"type":"Polygon","coordinates":[[[0.856102,42.812763],[1.068182,42.776124],[1.134328,42.715973],[1.319123,42.713363],[1.429297,42.595386],[1.466814,42.641455],[1.721993,42.609855],[1.761107,42.567646],[1.938303,42.571796],[2.005649,42.656127],[2.166074,42.663835],[2.055615,42.744259],[1.912683,42.756619],[1.865485,42.81589],[1.977238,42.863736],[1.989521,42.960525],[1.952717,43.095745],[1.71361,43.189711],[1.702558,43.266736],[1.647341,43.247949],[1.515219,43.296729],[1.44093,43.212969],[1.236584,43.1848],[0.996599,43.09469],[0.992248,42.990309],[0.886604,42.958987],[0.832485,42.884148],[0.856102,42.812763]]]},"properties":{"LOCATION_TYPE":"level1","ADM0_A3":"FRA","LOCATION_ID":"FRA-09","NAME":"Ariège","TYPE_EN":"Metropolitan department"}},
{"type":"Feature","geometry":{"type":"Polygon","coordinates":[[[1.761107,42.567646],[1.707006,42.502781],[1.927458,42.436894],[1.963735,42.367234],[2.051688,42.352351],[2.136954,42.416223],[2.277411,42.428626],[2.422518,42.383693],[2.464893,42.340621],[2.640283,42.372841],[2.933702,42.470225],[3.06558,42.432011],[3.18097,42.431484],[3.13738,42.524929],[3.05185,42.554877],[3.046276,42.837076],[2.85531,42.9138],[2.703962,42.834039],[2.374987,42.847256],[2.33091,42.822405],[2.342995,42.71876],[2.166074,42.663835],[2.005649,42.656127],[1.938303,42.571796],[1.761107,42.567646]]]},"properties":{"LOCATION_TYPE":"level1","ADM0_A3":"FRA","LOCATION_ID":"FRA-66","NAME":"Pyrénées-Orientales","TYPE_EN":"Metropolitan department"}},
{"type":"Feature","geometry":{"type":"Polygon","coordinates":[[[7.644932,49.036295],[7.572905,48.94368],[7.341709,48.943372],[7.077268,49.029461],[6.980786,48.930068],[7.096714,48.852471],[7.191636,48.847351],[7.304136,48.775468],[7.264914,48.684886],[7.270495,48.584218],[7.19302,48.533527],[7.08865,48.523442],[7.127717,48.4841],[7.109875,48.342266],[7.20873,48.303407],[7.466096,48.207277],[7.581976,48.121353],[7.75196,48.355344],[7.738318,48.406607],[7.810252,48.615018],[7.970138,48.757283],[8.10274,48.821311],[8.18873,48.965746],[7.931898,49.034838],[7.644932,49.036295]]]},"properties":{"LOCATION_TYPE":"level1","ADM0_A3":"FRA","LOCATION_ID":"FRA-67","NAME":"Bas-Rhin","TYPE_EN":"Metropolitan department"}},
{"type":"Feature","geometry":{"type":"Polygon","coordinates":[[[7.581976,48.121353],[7.466096,48.207277],[7.20873,48.303407],[7.083157,48.164507],[7.086892,48.125385],[6.959824,47.967511],[6.868923,47.818998],[7.050307,47.715584],[7.026533,47.623606],[7.148701,47.532035],[7.142169,47.487651],[7.244808,47.417727],[7.378547,47.430646],[7.482726,47.491263],[7.482726,47.542267],[7.586028,47.584619],[7.521794,47.670425],[7.525928,47.783157],[7.618945,48.002652],[7.581976,48.121353]]]},"properties":{"LOCATION_TYPE":"level1","ADM0_A3":"FRA","LOCATION_ID":"FRA-68","NAME":"Haute-Rhin","TYPE_EN":"Metropolitan department"}},
{"type":"Feature","geometry":{"type":"Polygon","coordinates":[[[6.93917,47.426844],[6.9733,47.489092],[7.142169,47.487651],[7.148701,47.532035],[7.026533,47.623606],[7.050307,47.715584],[6.868923,47.818998],[6.836012,47.824165],[6.760818,47.713848],[6.80707,47.562863],[6.893752,47.551756],[6.93917,47.426844]]]},"properties":{"LOCATION_TYPE":"level1","ADM0_A3":"FRA","LOCATION_ID":"FRA-90","NAME":"Territoire de Belfort","TYPE_EN":"Metropolitan department"}},
{"type":"Feature","geometry":{"type":"Polygon","coordinates":[[[6.93917,47.426844],[6.893752,47.551756],[6.80707,47.562863],[6.595935,47.538363],[6.553835,47.490419],[6.424548,47.517687],[6.307698,47.492298],[6.074524,47.355474],[5.927087,47.343015],[5.698835,47.265002],[5.814917,47.133649],[5.778464,47.065226],[5.837351,47.008965],[5.962156,46.976292],[6.024756,46.858189],[6.206645,46.766398],[6.089136,46.696492],[6.053782,46.616347],[6.137978,46.557588],[6.131853,46.595607],[6.429199,46.760816],[6.442635,46.944164],[6.665412,47.021291],[6.746027,47.103948],[6.956247,47.245231],[6.985599,47.362123],[6.93917,47.426844]]]},"properties":{"LOCATION_TYPE":"level1","ADM0_A3":"FRA","LOCATION_ID":"FRA-25","NAME":"Doubs","TYPE_EN":"Metropolitan department"}},
{"type":"Feature","geometry":{"type":"Polygon","coordinates":[[[5.95884,46.130467],[5.95853,46.211961],[6.089685,46.246377],[6.1364,46.359342],[6.059013,46.417386],[5.880923,46.275474],[5.730542,46.271233],[5.647859,46.34404],[5.50987,46.260686],[5.391789,46.346918],[5.310974,46.455353],[5.178589,46.505429],[4.937153,46.500518],[4.797824,46.171752],[4.749023,46.059439],[4.746738,45.966615],[4.909094,45.874165],[4.916894,45.811346],[5.102431,45.826188],[5.239167,45.785659],[5.333496,45.867991],[5.450193,45.792987],[5.600486,45.655581],[5.759145,45.720733],[5.840353,45.938766],[5.8252,46.095287],[5.95884,46.130467]]]},"properties":{"LOCATION_TYPE":"level1","ADM0_A3":"FRA","LOCATION_ID":"FRA-01","NAME":"Ain","TYPE_EN":"Metropolitan department"}},
{"type":"Feature","geometry":{"type":"Polygon","coordinates":[[[6.137978,46.557588],[6.053782,46.616347],[6.089136,46.696492],[6.206645,46.766398],[6.024756,46.858189],[5.962156,46.976292],[5.837351,47.008965],[5.778464,47.065226],[5.814917,47.133649],[5.698835,47.265002],[5.521714,47.289259],[5.485854,47.19113],[5.382649,47.081365],[5.250626,46.981225],[5.375991,46.822362],[5.423012,46.631519],[5.36373,46.568732],[5.403413,46.474942],[5.310974,46.455353],[5.391789,46.346918],[5.50987,46.260686],[5.647859,46.34404],[5.730542,46.271233],[5.880923,46.275474],[6.059013,46.417386],[6.137978,46.557588]]]},"properties":{"LOCATION_TYPE":"level1","ADM0_A3":"FRA","LOCATION_ID":"FRA-39","NAME":"Jura","TYPE_EN":"Metropolitan department"}},
{"type":"Feature","geometry":{"type":"Polygon","coordinates":[[[6.933185,43.480346],[6.906936,43.568234],[6.775232,43.655081],[6.749436,43.738159],[6.636387,43.788905],[6.427339,43.793838],[6.385986,43.741049],[6.213215,43.791531],[6.036599,43.675614],[5.941238,43.744004],[5.753775,43.732055],[5.707317,43.64349],[5.713381,43.476685],[5.682685,43.399088],[5.761018,43.278634],[5.672189,43.180416],[5.776127,43.130811],[6.027008,43.078195],[6.280374,43.118666],[6.342258,43.090763],[6.422018,43.152342],[6.505683,43.150971],[6.679801,43.201553],[6.672358,43.276196],[6.731146,43.407847],[6.894028,43.427628],[6.933185,43.480346]]]},"properties":{"LOCATION_TYPE":"level1","ADM0_A3":"FRA","LOCATION_ID":"FRA-83","NAME":"Var","TYPE_EN":"Metropolitan department"}},
{"type":"Feature","geometry":{"type":"Polygon","coordinates":[[[5.672189,43.180416],[5.761018,43.278634],[5.682685,43.399088],[5.713381,43.476685],[5.707317,43.64349],[5.753775,43.732055],[5.582512,43.666034],[5.413564,43.695181],[5.336572,43.739763],[5.192629,43.749091],[5.08716,43.786807],[4.968508,43.866721],[4.77282,43.932826],[4.64094,43.8706],[4.604926,43.696038],[4.499546,43.706277],[4.33708,43.532122],[4.205903,43.459906],[4.513031,43.455797],[4.566289,43.371094],[4.820279,43.346356],[4.928477,43.440131],[5.027599,43.416978],[5.022309,43.552191],[5.213552,43.457831],[5.05714,43.422065],[5.064795,43.328019],[5.338883,43.334289],[5.34698,43.215899],[5.537836,43.20739],[5.672189,43.180416]]]},"properties":{"LOCATION_TYPE":"level1","ADM0_A3":"FRA","LOCATION_ID":"FRA-13","NAME":"Bouches-du-Rhône","TYPE_EN":"Metropolitan department"}},
{"type":"Feature","geometry":{"type":"Polygon","coordinates":[[[4.205903,43.459906],[4.33708,43.532122],[4.499546,43.706277],[4.604926,43.696038],[4.64094,43.8706],[4.77282,43.932826],[4.849812,44.012664],[4.723469,44.094007],[4.721294,44.190247],[4.657837,44.281719],[4.520837,44.336826],[4.373093,44.339672],[4.251145,44.281796],[4.130581,44.331685],[3.993999,44.457852],[3.894836,44.390231],[3.962402,44.262119],[3.920412,44.166428],[3.790993,44.135996],[3.690403,44.180161],[3.616289,44.116836],[3.517939,44.113441],[3.376721,44.168263],[3.306452,44.069145],[3.442419,44.000238],[3.342004,43.903932],[3.545075,43.866414],[3.667617,43.913787],[3.721604,43.970652],[3.823689,43.936001],[3.831445,43.871533],[3.954382,43.87183],[3.980661,43.79854],[4.141633,43.738148],[4.1807,43.6407],[4.105317,43.551866],[4.205903,43.459906]]]},"properties":{"LOCATION_TYPE":"level1","ADM0_A3":"FRA","LOCATION_ID":"FRA-30","NAME":"Gard","TYPE_EN":"Metropolitan department"}},
{"type":"Feature","geometry":{"type":"Polygon","coordinates":[[[4.105317,43.551866],[4.1807,43.6407],[4.141633,43.738148],[3.980661,43.79854],[3.954382,43.87183],[3.831445,43.871533],[3.823689,43.936001],[3.721604,43.970652],[3.667617,43.913787],[3.545075,43.866414],[3.342004,43.903932],[3.189448,43.813141],[3.052932,43.810142],[3.05091,43.701465],[2.934477,43.693665],[2.775637,43.617903],[2.641384,43.633097],[2.62385,43.558478],[2.656721,43.460788],[2.567512,43.42283],[2.583112,43.324601],[2.755642,43.257958],[2.839533,43.316196],[2.996176,43.316856],[3.010986,43.282556],[3.244314,43.219428],[3.385427,43.283922],[3.513357,43.281073],[3.622162,43.374905],[3.739919,43.412828],[3.939301,43.532538],[4.105317,43.551866]]]},"properties":{"LOCATION_TYPE":"level1","ADM0_A3":"FRA","LOCATION_ID":"FRA-34","NAME":"Hérault","TYPE_EN":"Metropolitan department"}},
{"type":"Feature","geometry":{"type":"Polygon","coordinates":[[[3.244314,43.219428],[3.010986,43.282556],[2.996176,43.316856],[2.839533,43.316196],[2.755642,43.257958],[2.583112,43.324601],[2.567512,43.42283],[2.261499,43.442254],[2.217158,43.384202],[2.031687,43.422566],[1.893764,43.393628],[1.725388,43.316218],[1.702558,43.266736],[1.71361,43.189711],[1.952717,43.095745],[1.989521,42.960525],[1.977238,42.863736],[1.865485,42.81589],[1.912683,42.756619],[2.055615,42.744259],[2.166074,42.663835],[2.342995,42.71876],[2.33091,42.822405],[2.374987,42.847256],[2.703962,42.834039],[2.85531,42.9138],[3.046276,42.837076],[3.038992,42.942776],[3.114024,43.106309],[3.244314,43.219428]]]},"properties":{"LOCATION_TYPE":"level1","ADM0_A3":"FRA","LOCATION_ID":"FRA-11","NAME":"Aude","TYPE_EN":"Metropolitan department"}},
{"type":"Feature","geometry":{"type":"Polygon","coordinates":[[[-1.513987,43.538642],[-1.440663,43.499086],[-1.316639,43.508699],[-1.172981,43.551095],[-1.153997,43.489989],[-0.983753,43.545228],[-0.799974,43.567421],[-0.562251,43.543108],[-0.236342,43.587053],[-0.267005,43.623176],[-0.195275,43.738852],[-0.16748,43.930915],[0.055268,43.907041],[0.08524,43.967321],[0.060322,44.024859],[0.13549,44.117276],[-0.129203,44.152487],[-0.14064,44.226502],[-0.238968,44.197959],[-0.379878,44.208836],[-0.384119,44.280269],[-0.51768,44.339101],[-0.680552,44.451458],[-0.84115,44.422992],[-1.007758,44.436439],[-1.000232,44.504379],[-1.0794,44.529768],[-1.251303,44.468215],[-1.346099,44.019192],[-1.476877,43.580064],[-1.513987,43.538642]]]},"properties":{"LOCATION_TYPE":"level1","ADM0_A3":"FRA","LOCATION_ID":"FRA-40","NAME":"Landes","TYPE_EN":"Metropolitan department"}},
{"type":"Feature","geometry":{"type":"Polygon","coordinates":[[[-1.251303,44.468215],[-1.0794,44.529768],[-1.000232,44.504379],[-1.007758,44.436439],[-0.84115,44.422992],[-0.680552,44.451458],[-0.51768,44.339101],[-0.384119,44.280269],[-0.379878,44.208836],[-0.238968,44.197959],[-0.14064,44.226502],[-0.034732,44.275863],[-0.073536,44.354361],[0.015959,44.381211],[-0.006145,44.509114],[0.170163,44.637434],[0.110419,44.71034],[0.297407,44.762338],[0.25111,44.879221],[0.17447,44.826674],[0.031076,44.840275],[0.005148,44.94626],[0.065881,45.063506],[-0.033556,45.120119],[-0.173808,45.101145],[-0.394281,45.166492],[-0.468934,45.283332],[-0.706603,45.322155],[-0.766184,45.326077],[-0.915273,45.450426],[-1.059234,45.527045],[-1.139963,45.490058],[-1.157867,45.27912],[-1.199452,45.120836],[-1.233632,44.706855],[-1.165354,44.778713],[-1.065297,44.717475],[-1.065012,44.659125],[-1.186513,44.665473],[-1.257232,44.556057],[-1.251303,44.468215]]]},"properties":{"LOCATION_TYPE":"level1","ADM0_A3":"FRA","LOCATION_ID":"FRA-33","NAME":"Gironde","TYPE_EN":"Metropolitan department"}},
{"type":"Feature","geometry":{"type":"MultiPolygon","coordinates":[[[[-0.706603,45.322155],[-0.468934,45.283332],[-0.394281,45.166492],[-0.173808,45.101145],[-0.033556,45.120119],[0.000336,45.192024],[-0.143881,45.290132],[-0.265719,45.307469],[-0.310643,45.376682],[-0.248306,45.434998],[-0.296525,45.564417],[-0.420451,45.620161],[-0.413189,45.783155],[-0.272059,45.803963],[-0.204009,45.776024],[-0.128061,45.831956],[-0.152308,45.921187],[-0.102957,45.969713],[-0.259611,46.065174],[-0.489983,46.102659],[-0.637101,46.154482],[-0.751392,46.245141],[-0.756589,46.301204],[-0.969833,46.362442],[-1.11919,46.311011],[-1.179596,46.229478],[-1.150543,46.153266],[-1.048695,46.038804],[-1.096588,45.985419],[-1.073354,45.904364],[-1.230295,45.792426],[-1.194203,45.710191],[-0.841786,45.514553],[-0.753041,45.424058],[-0.706603,45.322155]]],[[[-1.21939,45.943915],[-1.233632,45.991685],[-1.378326,45.975979],[-1.260365,45.881822],[-1.21939,45.943915]]]]},"properties":{"LOCATION_TYPE":"level1","ADM0_A3":"FRA","LOCATION_ID":"FRA-17","NAME":"Charente-Maritime","TYPE_EN":"Metropolitan department"}},
{"type":"Feature","geometry":{"type":"Polygon","coordinates":[[[-1.11919,46.311011],[-0.969833,46.362442],[-0.756589,46.301204],[-0.565416,46.356993],[-0.633882,46.422801],[-0.615953,46.54755],[-0.712017,46.802049],[-0.803434,46.854816],[-0.833614,46.919251],[-0.946004,47.000385],[-1.148614,47.029499],[-1.269683,47.076322],[-1.367989,47.023994],[-1.546648,47.020105],[-1.499957,46.882677],[-1.550142,46.859947],[-1.720331,46.8846],[-1.990716,47.035387],[-2.102162,46.93065],[-2.118764,46.819973],[-2.050282,46.79206],[-1.857411,46.635321],[-1.804799,46.503607],[-1.598785,46.425035],[-1.504465,46.419338],[-1.44872,46.343411],[-1.370229,46.354193],[-1.240102,46.284247],[-1.11919,46.311011]]]},"properties":{"LOCATION_TYPE":"level1","ADM0_A3":"FRA","LOCATION_ID":"FRA-85","NAME":"Vendée","TYPE_EN":"Metropolitan department"}},
{"type":"Feature","geometry":{"type":"Polygon","coordinates":[[[-1.990716,47.035387],[-1.720331,46.8846],[-1.550142,46.859947],[-1.499957,46.882677],[-1.546648,47.020105],[-1.367989,47.023994],[-1.269683,47.076322],[-1.148614,47.029499],[-1.23011,47.109424],[-1.161852,47.185823],[-1.334722,47.323855],[-1.128761,47.381534],[-0.94162,47.412284],[-0.965593,47.491759],[-1.128959,47.504976],[-1.031324,47.601414],[-1.158084,47.631473],[-1.251006,47.780392],[-1.461713,47.823437],[-1.685318,47.718484],[-2.023433,47.672858],[-2.088549,47.632626],[-2.109972,47.542318],[-2.461097,47.452644],[-2.556386,47.383246],[-2.404897,47.286444],[-2.278391,47.246405],[-2.206288,47.273424],[-2.165191,47.167873],[-2.030019,47.092108],[-1.990716,47.035387]]]},"properties":{"LOCATION_TYPE":"level1","ADM0_A3":"FRA","LOCATION_ID":"FRA-44","NAME":"Loire-Atlantique","TYPE_EN":"Metropolitan department"}},
{"type":"Feature","geometry":{"type":"Polygon","coordinates":[[[-2.461097,47.452644],[-2.109972,47.542318],[-2.088549,47.632626],[-2.051668,47.836104],[-2.105984,47.944978],[-2.25542,47.997394],[-2.235206,48.078583],[-2.287347,48.133691],[-2.507667,48.164936],[-2.537901,48.100116],[-2.795772,48.129439],[-3.101148,48.207464],[-3.162737,48.155916],[-3.564925,48.185733],[-3.708231,48.143271],[-3.730533,48.101204],[-3.646136,47.994076],[-3.393923,47.95246],[-3.391286,47.883971],[-3.553367,47.805243],[-3.539297,47.773749],[-3.460683,47.707587],[-3.345123,47.721259],[-3.073842,47.576483],[-2.758209,47.639065],[-2.741444,47.551337],[-2.501698,47.526679],[-2.461097,47.452644]]]},"properties":{"LOCATION_TYPE":"level1","ADM0_A3":"FRA","LOCATION_ID":"FRA-56","NAME":"Morbihan","TYPE_EN":"Metropolitan department"}},
{"type":"Feature","geometry":{"type":"Polygon","coordinates":[[[-3.539297,47.773749],[-3.553367,47.805243],[-3.391286,47.883971],[-3.393923,47.95246],[-3.646136,47.994076],[-3.730533,48.101204],[-3.708231,48.143271],[-3.564925,48.185733],[-3.525572,48.292146],[-3.596653,48.487176],[-3.568001,48.540701],[-3.638539,48.687812],[-3.731923,48.71898],[-3.949534,48.669338],[-3.973988,48.732815],[-4.173899,48.691107],[-4.283111,48.643256],[-4.343251,48.67886],[-4.563629,48.629625],[-4.721995,48.568183],[-4.764556,48.520209],[-4.783355,48.37641],[-4.618886,48.348456],[-4.426503,48.403713],[-4.324696,48.362738],[-4.457631,48.248969],[-4.302358,48.196357],[-4.361928,48.115709],[-4.683705,48.067328],[-4.434641,47.975653],[-4.34732,47.862942],[-4.371816,47.807196],[-4.225168,47.802436],[-4.09439,47.875474],[-3.894521,47.855292],[-3.851715,47.801011],[-3.539297,47.773749]]]},"properties":{"LOCATION_TYPE":"level1","ADM0_A3":"FRA","LOCATION_ID":"FRA-29","NAME":"Finistère","TYPE_EN":"Metropolitan department"}},
{"type":"Feature","geometry":{"type":"Polygon","coordinates":[[[-3.638539,48.687812],[-3.568001,48.540701],[-3.596653,48.487176],[-3.525572,48.292146],[-3.564925,48.185733],[-3.162737,48.155916],[-3.101148,48.207464],[-2.795772,48.129439],[-2.537901,48.100116],[-2.507667,48.164936],[-2.287347,48.133691],[-2.16018,48.26066],[-1.982432,48.280336],[-1.932664,48.36392],[-1.948545,48.5383],[-2.052358,48.650092],[-2.219228,48.603664],[-2.312489,48.686957],[-2.577056,48.582465],[-2.636342,48.538804],[-2.812978,48.598578],[-2.826975,48.657538],[-3.077056,48.828274],[-3.091461,48.871283],[-3.371816,48.822496],[-3.515289,48.841946],[-3.542836,48.745673],[-3.638539,48.687812]]]},"properties":{"LOCATION_TYPE":"level1","ADM0_A3":"FRA","LOCATION_ID":"FRA-22","NAME":"Côtes-d'Armor","TYPE_EN":"Metropolitan department"}},
{"type":"Feature","geometry":{"type":"Polygon","coordinates":[[[-1.948545,48.5383],[-1.932664,48.36392],[-1.982432,48.280336],[-2.16018,48.26066],[-2.287347,48.133691],[-2.235206,48.078583],[-2.25542,47.997394],[-2.105984,47.944978],[-2.051668,47.836104],[-2.088549,47.632626],[-2.023433,47.672858],[-1.685318,47.718484],[-1.461713,47.823437],[-1.251006,47.780392],[-1.242964,47.809539],[-1.167697,47.960799],[-1.040629,48.001514],[-1.101658,48.267394],[-1.069776,48.318184],[-1.079081,48.498689],[-1.265728,48.535483],[-1.448255,48.465752],[-1.528763,48.530736],[-1.589671,48.641808],[-1.838206,48.623765],[-1.843739,48.712144],[-1.976959,48.691107],[-2.028717,48.643256],[-1.948545,48.5383]]]},"properties":{"LOCATION_TYPE":"level1","ADM0_A3":"FRA","LOCATION_ID":"FRA-35","NAME":"Ille-et-Vilaine","TYPE_EN":"Metropolitan department"}},
{"type":"Feature","geometry":{"type":"Polygon","coordinates":[[[-1.589671,48.641808],[-1.528763,48.530736],[-1.448255,48.465752],[-1.265728,48.535483],[-1.079081,48.498689],[-0.862706,48.501798],[-0.785691,48.559598],[-0.736813,48.686127],[-0.840887,48.752298],[-1.092166,48.78719],[-1.131178,48.85001],[-1.064195,48.926849],[-0.86264,49.026385],[-0.923493,49.210977],[-1.008923,49.197376],[-1.122785,49.276203],[-1.118764,49.346202],[-1.306264,49.558092],[-1.232249,49.641425],[-1.271148,49.698432],[-1.391265,49.712714],[-1.59732,49.652289],[-1.811838,49.690741],[-1.869496,49.661689],[-1.843739,49.571845],[-1.884674,49.530911],[-1.819569,49.396796],[-1.714752,49.338528],[-1.610422,49.215888],[-1.59675,49.037421],[-1.545766,49.030341],[-1.571848,48.874213],[-1.553619,48.747138],[-1.507965,48.701606],[-1.589671,48.641808]]]},"properties":{"LOCATION_TYPE":"level1","ADM0_A3":"FRA","LOCATION_ID":"FRA-50","NAME":"Manche","TYPE_EN":"Metropolitan department"}},
{"type":"Feature","geometry":{"type":"Polygon","coordinates":[[[-1.118764,49.346202],[-1.122785,49.276203],[-1.008923,49.197376],[-0.923493,49.210977],[-0.86264,49.026385],[-1.064195,48.926849],[-1.131178,48.85001],[-1.092166,48.78719],[-0.840887,48.752298],[-0.612898,48.831916],[-0.410926,48.870049],[-0.140365,48.8255],[0.148037,48.929771],[0.379826,48.963521],[0.417177,48.946121],[0.377893,49.050653],[0.422585,49.130436],[0.304987,49.313062],[0.294264,49.434715],[0.162364,49.415188],[-0.033844,49.320054],[-0.219472,49.280097],[-0.411122,49.34276],[-0.822133,49.362698],[-1.072255,49.396796],[-1.118764,49.346202]]]},"properties":{"LOCATION_TYPE":"level1","ADM0_A3":"FRA","LOCATION_ID":"FRA-14","NAME":"Calvados","TYPE_EN":"Metropolitan department"}},
{"type":"Feature","geometry":{"type":"Polygon","coordinates":[[[0.294264,49.434715],[0.304987,49.313062],[0.422585,49.130436],[0.377893,49.050653],[0.417177,48.946121],[0.421355,48.883628],[0.591884,48.878003],[0.729499,48.713439],[0.816423,48.665088],[1.038918,48.747727],[1.258205,48.751595],[1.451367,48.870763],[1.492807,48.939549],[1.454004,49.048632],[1.619875,49.082591],[1.698054,49.230664],[1.749909,49.310997],[1.717984,49.410994],[1.539016,49.439756],[1.350117,49.442008],[1.266511,49.348064],[1.193891,49.351569],[1.00341,49.258042],[0.873552,49.315105],[0.919101,49.361292],[0.80469,49.41986],[0.663977,49.407709],[0.493175,49.493598],[0.411306,49.452053],[0.294264,49.434715]]]},"properties":{"LOCATION_TYPE":"level1","ADM0_A3":"FRA","LOCATION_ID":"FRA-27","NAME":"Eure","TYPE_EN":"Metropolitan department"}},
{"type":"Feature","geometry":{"type":"Polygon","coordinates":[[[0.493175,49.493598],[0.663977,49.407709],[0.80469,49.41986],[0.919101,49.361292],[0.873552,49.315105],[1.00341,49.258042],[1.193891,49.351569],[1.266511,49.348064],[1.350117,49.442008],[1.539016,49.439756],[1.717984,49.410994],[1.737495,49.464629],[1.680871,49.64508],[1.754546,49.765622],[1.680871,49.888482],[1.516384,50.000674],[1.373069,50.06572],[1.172618,49.961005],[0.760916,49.875067],[0.674815,49.8758],[0.23585,49.729315],[0.170909,49.691636],[0.079682,49.542182],[0.104421,49.493598],[0.256847,49.464057],[0.42213,49.464423],[0.493175,49.493598]]]},"properties":{"LOCATION_TYPE":"level1","ADM0_A3":"FRA","LOCATION_ID":"FRA-76","NAME":"Seine-Maritime","TYPE_EN":"Metropolitan department"}},
{"type":"Feature","geometry":{"type":"Polygon","coordinates":[[[1.373069,50.06572],[1.516384,50.000674],[1.680871,49.888482],[1.754546,49.765622],[1.856213,49.701407],[1.972207,49.715293],[2.066425,49.684455],[2.238647,49.697847],[2.521062,49.629787],[2.653359,49.577657],[2.798247,49.622349],[2.873173,49.699967],[3.118564,49.705768],[3.084067,49.861082],[3.193073,49.975582],[3.156994,50.018681],[3.088265,50.050021],[2.964602,50.038083],[2.67676,50.079886],[2.574345,50.129445],[2.39406,50.159372],[2.410319,50.224839],[2.112876,50.203141],[2.05656,50.248515],[1.819607,50.354654],[1.680564,50.338735],[1.594981,50.372667],[1.551524,50.349066],[1.521007,50.214667],[1.373069,50.06572]]]},"properties":{"LOCATION_TYPE":"level1","ADM0_A3":"FRA","LOCATION_ID":"FRA-80","NAME":"Somme","TYPE_EN":"Metropolitan department"}},
{"type":"Feature","geometry":{"type":"Polygon","coordinates":[[[1.594981,50.372667],[1.680564,50.338735],[1.819607,50.354654],[2.05656,50.248515],[2.112876,50.203141],[2.410319,50.224839],[2.39406,50.159372],[2.574345,50.129445],[2.67676,50.079886],[2.964602,50.038083],[3.088265,50.050021],[3.13478,50.261248],[3.001911,50.381307],[3.055481,50.426263],[2.985652,50.501486],[2.824218,50.524953],[2.811167,50.610372],[2.489201,50.633256],[2.371472,50.674312],[2.362419,50.786746],[2.222299,50.80573],[2.063324,51.01432],[1.729828,50.943915],[1.580577,50.868801],[1.605642,50.790025],[1.563162,50.67829],[1.594981,50.372667]]]},"properties":{"LOCATION_TYPE":"level1","ADM0_A3":"FRA","LOCATION_ID":"FRA-62","NAME":"Pas-de-Calais","TYPE_EN":"Metropolitan department"}},
{"type":"Feature","geometry":{"type":"Polygon","coordinates":[[[-60.810414,14.461982],[-60.848378,14.596096],[-60.93456,14.688463],[-61.002268,14.811428],[-61.170969,14.87637],[-61.228831,14.821967],[-61.159576,14.666938],[-61.043813,14.565009],[-61.105865,14.516588],[-61.005971,14.476264],[-60.810414,14.461982]]]},"properties":{"LOCATION_TYPE":"level1","ADM0_A3":"FRA","LOCATION_ID":"FRA-MQ","NAME":"Martinique","TYPE_EN":"Overseas department"}},
{"type":"Feature","geometry":{"type":"MultiPolygon","coordinates":[[[[-61.194,15.932074],[-61.2683,16.009263],[-61.332021,15.931952],[-61.240712,15.881822],[-61.194,15.932074]]],[[[-61.551666,16.285549],[-61.722035,16.350898],[-61.770823,16.348822],[-61.797353,16.2508],[-61.768625,16.087633],[-61.694936,15.949164],[-61.597483,15.996731],[-61.557729,16.08633],[-61.579457,16.222317],[-61.551666,16.285549]]],[[[-61.544179,16.285386],[-61.503407,16.213284],[-61.188385,16.263821],[-61.394154,16.38935],[-61.397613,16.45185],[-61.459299,16.511786],[-61.534291,16.449286],[-61.499664,16.353217],[-61.544179,16.285386]]]]},"properties":{"LOCATION_TYPE":"level1","ADM0_A3":"FRA","LOCATION_ID":"FRA-GP","NAME":"Guadeloupe","TYPE_EN":"Overseas department"}},
{"type":"Feature","geometry":{"type":"Polygon","coordinates":[[[55.787852,-21.103448],[55.70281,-20.949395],[55.57838,-20.87477],[55.40797,-20.863214],[55.302989,-20.905206],[55.225434,-21.048272],[55.354503,-21.274591],[55.554454,-21.363539],[55.706554,-21.367446],[55.820811,-21.324965],[55.854503,-21.156996],[55.787852,-21.103448]]]},"properties":{"LOCATION_TYPE":"level1","ADM0_A3":"FRA","LOCATION_ID":"FRA-RE","NAME":"La Réunion","TYPE_EN":"Overseas department"}},
{"type":"Feature","geometry":{"type":"Polygon","coordinates":[[[45.200694,-12.722914],[45.087169,-12.759698],[45.113292,-12.863377],[45.08839,-12.940362],[45.131847,-12.98919],[45.213145,-12.851821],[45.200694,-12.722914]]]},"properties":{"LOCATION_TYPE":"level1","ADM0_A3":"FRA","LOCATION_ID":"FRA-YT","NAME":"Mayotte","TYPE_EN":"Overseas department"}},
{"type":"Feature","geometry":{"type":"Polygon","coordinates":[[[8.570486,42.381781],[8.868083,42.321428],[8.887068,42.267716],[9.049336,42.196701],[9.168889,42.025457],[9.22114,42.027533],[9.243157,41.88949],[9.312832,41.834053],[9.395832,41.860441],[9.403168,41.952948],[9.552745,42.113023],[9.559581,42.294582],[9.532237,42.373725],[9.528087,42.563544],[9.456554,42.606431],[9.450369,42.708889],[9.484386,42.832424],[9.422374,43.017401],[9.305675,42.83926],[9.34254,42.749091],[9.236827,42.722561],[9.107107,42.725898],[9.018321,42.650133],[8.812836,42.599595],[8.667491,42.509711],[8.65089,42.423285],[8.570486,42.381781]]]},"properties":{"LOCATION_TYPE":"level1","ADM0_A3":"FRA","LOCATION_ID":"FRA-2B","NAME":"Haute-Corse","TYPE_EN":"Metropolitan department"}},
{"type":"Feature","geometry":{"type":"Polygon","coordinates":[[[9.395832,41.860441],[9.312832,41.834053],[9.243157,41.88949],[9.22114,42.027533],[9.168889,42.025457],[9.049336,42.196701],[8.887068,42.267716],[8.868083,42.321428],[8.570486,42.381781],[8.680837,42.272773],[8.586274,42.243354],[8.565766,42.174506],[8.738048,42.043931],[8.664561,42.014472],[8.614268,41.900784],[8.744395,41.932807],[8.805431,41.906928],[8.695567,41.729438],[8.899181,41.695461],[8.778087,41.59162],[8.93572,41.489203],[9.105154,41.445502],[9.210704,41.440863],[9.264659,41.530829],[9.341075,41.569281],[9.401622,41.706448],[9.395832,41.860441]]]},"properties":{"LOCATION_TYPE":"level1","ADM0_A3":"FRA","LOCATION_ID":"FRA-2A","NAME":"Corse-du-Sud","TYPE_EN":"Metropolitan department"}},
{"type":"Feature","geometry":{"type":"Polygon","coordinates":[[[-0.109681,43.574804],[-0.00586,43.608697],[0.02455,43.53555],[0.123603,43.504887],[0.195717,43.371612],[0.606716,43.310934],[0.788869,43.413667],[1.025339,43.377478],[1.035183,43.475476],[1.192331,43.598787],[1.067351,43.669967],[0.953928,43.787334],[0.873772,43.919577],[0.786408,43.957776],[0.848371,44.024419],[0.741738,44.067024],[0.658901,44.03757],[0.5925,44.072814],[0.466311,44.056334],[0.31426,43.999228],[0.221623,44.018552],[0.08524,43.967321],[0.055268,43.907041],[-0.16748,43.930915],[-0.195275,43.738852],[-0.267005,43.623176],[-0.236342,43.587053],[-0.109681,43.574804]]]},"properties":{"LOCATION_TYPE":"level1","ADM0_A3":"FRA","LOCATION_ID":"FRA-32","NAME":"Gers","TYPE_EN":"Metropolitan department"}},
{"type":"Feature","geometry":{"type":"Polygon","coordinates":[[[1.893567,45.696165],[1.885305,45.773003],[1.764983,45.852544],[1.616491,45.850446],[1.494961,46.132871],[1.385119,46.237318],[1.414431,46.350939],[1.35405,46.391226],[1.177016,46.387018],[1.047927,46.35407],[0.987107,46.283527],[0.891657,46.273815],[0.790781,46.21873],[0.796362,46.132893],[0.806491,46.067261],[0.924111,45.973734],[0.810051,45.921901],[0.794187,45.824595],[0.72717,45.802578],[0.635896,45.710337],[0.734597,45.692506],[0.818884,45.595563],[1.00864,45.61458],[1.126413,45.489106],[1.255302,45.446473],[1.407224,45.527569],[1.444358,45.584291],[1.566394,45.559803],[1.789328,45.678037],[1.893567,45.696165]]]},"properties":{"LOCATION_TYPE":"level1","ADM0_A3":"FRA","LOCATION_ID":"FRA-87","NAME":"Haute-Vienne","TYPE_EN":"Metropolitan department"}},
{"type":"Feature","geometry":{"type":"Polygon","coordinates":[[[1.893567,45.696165],[1.789328,45.678037],[1.566394,45.559803],[1.444358,45.584291],[1.407224,45.527569],[1.255302,45.446473],[1.272927,45.390251],[1.246999,45.224632],[1.289055,45.14675],[1.401862,45.12748],[1.45864,45.015078],[1.609812,45.029086],[1.799567,44.932868],[1.907871,44.968419],[2.058713,44.97511],[2.206875,45.159494],[2.194636,45.223698],[2.367033,45.36886],[2.488674,45.396974],[2.518645,45.47924],[2.465097,45.584555],[2.52205,45.649176],[2.489944,45.736086],[2.288964,45.675225],[2.040564,45.760347],[1.893567,45.696165]]]},"properties":{"LOCATION_TYPE":"level1","ADM0_A3":"FRA","LOCATION_ID":"FRA-19","NAME":"Corrèze","TYPE_EN":"Metropolitan department"}},
{"type":"Feature","geometry":{"type":"Polygon","coordinates":[[[1.977443,44.170645],[1.868913,44.292595],[1.882053,44.33999],[1.7674,44.328169],[1.653559,44.274336],[1.473603,44.284147],[1.364333,44.220481],[1.280837,44.240388],[1.064524,44.378741],[0.901106,44.367116],[0.944743,44.279104],[0.905918,44.201024],[0.741738,44.067024],[0.848371,44.024419],[0.786408,43.957776],[0.873772,43.919577],[0.953928,43.787334],[1.164843,43.815635],[1.246164,43.774337],[1.358357,43.821315],[1.373649,43.883948],[1.555693,43.918324],[1.85384,44.146763],[1.977443,44.170645]]]},"properties":{"LOCATION_TYPE":"level1","ADM0_A3":"FRA","LOCATION_ID":"FRA-82","NAME":"Tarn-et-Garonne","TYPE_EN":"Metropolitan department"}},
{"type":"Feature","geometry":{"type":"Polygon","coordinates":[[[1.977443,44.170645],[1.85384,44.146763],[1.555693,43.918324],[1.580324,43.814328],[1.643803,43.792421],[1.728859,43.657465],[2.031687,43.422566],[2.217158,43.384202],[2.261499,43.442254],[2.567512,43.42283],[2.656721,43.460788],[2.62385,43.558478],[2.641384,43.633097],[2.775637,43.617903],[2.934477,43.693665],[2.817275,43.754749],[2.740634,43.729019],[2.613808,43.798288],[2.521589,43.980716],[2.460109,44.046743],[2.155173,44.190642],[1.977443,44.170645]]]},"properties":{"LOCATION_TYPE":"level1","ADM0_A3":"FRA","LOCATION_ID":"FRA-81","NAME":"Tarn","TYPE_EN":"Metropolitan department"}},
{"type":"Feature","geometry":{"type":"Polygon","coordinates":[[[4.811382,45.296284],[4.967541,45.340493],[5.13071,45.283595],[5.173293,45.237771],[5.170744,45.099563],[5.390823,45.046719],[5.493171,44.99538],[5.459861,44.81817],[5.65467,44.723886],[5.812038,44.712053],[5.973098,44.808063],[6.128862,44.854887],[6.365068,44.868169],[6.32532,44.999478],[6.227102,45.006663],[6.266367,45.124788],[6.169863,45.152276],[6.130949,45.261249],[6.189529,45.329925],[6.125412,45.435086],[5.983908,45.483305],[5.910805,45.394173],[5.741111,45.450939],[5.600486,45.655581],[5.450193,45.792987],[5.333496,45.867991],[5.239167,45.785659],[5.102431,45.826188],[5.145827,45.725037],[5.014343,45.612361],[4.819731,45.600441],[4.870027,45.549673],[4.760009,45.444457],[4.769826,45.365707],[4.811382,45.296284]]]},"properties":{"LOCATION_TYPE":"level1","ADM0_A3":"FRA","LOCATION_ID":"FRA-38","NAME":"Isère","TYPE_EN":"Metropolitan department"}},
{"type":"Feature","geometry":{"type":"Polygon","coordinates":[[[5.812038,44.712053],[5.65467,44.723886],[5.459861,44.81817],[5.493171,44.99538],[5.390823,45.046719],[5.170744,45.099563],[5.173293,45.237771],[5.13071,45.283595],[4.967541,45.340493],[4.811382,45.296284],[4.822763,45.111198],[4.892571,44.949534],[4.777588,44.795429],[4.789453,44.658462],[4.721338,44.573428],[4.657529,44.326752],[4.743816,44.326258],[4.844846,44.238795],[5.05229,44.29621],[5.163537,44.247376],[5.378935,44.202057],[5.506157,44.12178],[5.678884,44.190653],[5.683982,44.259417],[5.459289,44.370269],[5.492512,44.42364],[5.651264,44.495941],[5.61479,44.573197],[5.657922,44.641411],[5.793054,44.654903],[5.812038,44.712053]],[[4.897009,44.312382],[4.938449,44.416389],[5.043391,44.367863],[4.980593,44.312525],[4.897009,44.312382]]]},"properties":{"LOCATION_TYPE":"level1","ADM0_A3":"FRA","LOCATION_ID":"FRA-26","NAME":"Drôme","TYPE_EN":"Metropolitan department"}},
{"type":"Feature","geometry":{"type":"Polygon","coordinates":[[[2.205315,44.622339],[2.062998,44.586612],[1.833999,44.488339],[1.882053,44.33999],[1.868913,44.292595],[1.977443,44.170645],[2.155173,44.190642],[2.460109,44.046743],[2.521589,43.980716],[2.613808,43.798288],[2.740634,43.729019],[2.817275,43.754749],[2.934477,43.693665],[3.05091,43.701465],[3.052932,43.810142],[3.189448,43.813141],[3.342004,43.903932],[3.442419,44.000238],[3.306452,44.069145],[3.376721,44.168263],[3.249499,44.191148],[3.123354,44.263394],[3.140735,44.42096],[3.066247,44.56421],[2.980114,44.644279],[2.925798,44.690817],[2.926567,44.768589],[2.726726,44.935351],[2.594033,44.83499],[2.537234,44.729698],[2.454704,44.66156],[2.300456,44.668723],[2.205315,44.622339]]]},"properties":{"LOCATION_TYPE":"level1","ADM0_A3":"FRA","LOCATION_ID":"FRA-12","NAME":"Aveyron","TYPE_EN":"Metropolitan department"}},
{"type":"Feature","geometry":{"type":"Polygon","coordinates":[[[2.205315,44.622339],[2.132255,44.698672],[2.158513,44.774533],[2.093737,44.865741],[2.058713,44.97511],[1.907871,44.968419],[1.799567,44.932868],[1.609812,45.029086],[1.45864,45.015078],[1.43726,44.88344],[1.287956,44.717371],[1.174995,44.673041],[1.077211,44.574533],[1.01299,44.547566],[1.064524,44.378741],[1.280837,44.240388],[1.364333,44.220481],[1.473603,44.284147],[1.653559,44.274336],[1.7674,44.328169],[1.882053,44.33999],[1.833999,44.488339],[2.062998,44.586612],[2.205315,44.622339]]]},"properties":{"LOCATION_TYPE":"level1","ADM0_A3":"FRA","LOCATION_ID":"FRA-46","NAME":"Lot","TYPE_EN":"Metropolitan department"}},
{"type":"Feature","geometry":{"type":"Polygon","coordinates":[[[1.326672,47.186274],[1.239133,47.27824],[1.098794,47.325921],[1.119558,47.442596],[0.98737,47.621969],[0.855732,47.614268],[0.838659,47.675989],[0.609572,47.689217],[0.384704,47.624123],[0.241772,47.602886],[0.177063,47.377447],[0.099499,47.286722],[0.06676,47.153688],[0.311799,47.032223],[0.308239,46.951452],[0.433923,46.932742],[0.671777,46.965976],[0.713371,46.90008],[0.880751,46.750453],[0.979834,46.755269],[1.074294,47.014019],[1.236804,47.016996],[1.356928,47.151864],[1.326672,47.186274]]]},"properties":{"LOCATION_TYPE":"level1","ADM0_A3":"FRA","LOCATION_ID":"FRA-37","NAME":"Indre-et-Loire","TYPE_EN":"Metropolitan department"}},
{"type":"Feature","geometry":{"type":"Polygon","coordinates":[[[1.326672,47.186274],[1.356928,47.151864],[1.236804,47.016996],[1.074294,47.014019],[0.979834,46.755269],[0.880751,46.750453],[0.916003,46.615138],[1.038786,46.534422],[1.101452,46.534367],[1.194682,46.42792],[1.177016,46.387018],[1.35405,46.391226],[1.414431,46.350939],[1.511418,46.411924],[1.612448,46.383788],[1.881525,46.438203],[2.139175,46.421365],[2.19123,46.477798],[2.157985,46.560701],[2.187407,46.622719],[2.077653,46.839062],[2.129443,46.89295],[2.05188,47.096416],[1.774387,47.13065],[1.838986,47.219244],[1.724377,47.289215],[1.603857,47.284656],[1.524733,47.225747],[1.326672,47.186274]]]},"properties":{"LOCATION_TYPE":"level1","ADM0_A3":"FRA","LOCATION_ID":"FRA-36","NAME":"Indre","TYPE_EN":"Metropolitan department"}},
{"type":"Feature","geometry":{"type":"Polygon","coordinates":[[[1.838986,47.219244],[1.949948,47.284513],[2.100791,47.270132],[2.148669,47.308584],[2.115688,47.391674],[2.245129,47.411241],[2.253545,47.469226],[2.132761,47.587703],[2.239109,47.620959],[2.171652,47.677187],[1.970383,47.664124],[1.547849,47.769439],[1.57894,47.865514],[1.519658,47.985525],[1.371496,47.955459],[1.211799,47.967742],[1.018945,48.129285],[0.832551,48.09448],[0.840593,47.954646],[0.779619,47.907098],[0.744704,47.787522],[0.609572,47.689217],[0.838659,47.675989],[0.855732,47.614268],[0.98737,47.621969],[1.119558,47.442596],[1.098794,47.325921],[1.239133,47.27824],[1.326672,47.186274],[1.524733,47.225747],[1.603857,47.284656],[1.724377,47.289215],[1.838986,47.219244]]]},"properties":{"LOCATION_TYPE":"level1","ADM0_A3":"FRA","LOCATION_ID":"FRA-41","NAME":"Loir-et-Cher","TYPE_EN":"Metropolitan department"}},
{"type":"Feature","geometry":{"type":"Polygon","coordinates":[[[1.893567,45.696165],[2.040564,45.760347],[2.288964,45.675225],[2.489944,45.736086],[2.400564,45.829187],[2.501594,45.869859],[2.595285,45.971197],[2.566743,46.135948],[2.474084,46.271409],[2.331657,46.329054],[2.253896,46.419801],[2.139175,46.421365],[1.881525,46.438203],[1.612448,46.383788],[1.511418,46.411924],[1.414431,46.350939],[1.385119,46.237318],[1.494961,46.132871],[1.616491,45.850446],[1.764983,45.852544],[1.885305,45.773003],[1.893567,45.696165]]]},"properties":{"LOCATION_TYPE":"level1","ADM0_A3":"FRA","LOCATION_ID":"FRA-23","NAME":"Creuse","TYPE_EN":"Metropolitan department"}},
{"type":"Feature","geometry":{"type":"Polygon","coordinates":[[[-0.419792,47.761781],[-0.443819,47.8394],[-0.363267,47.938189],[-0.342415,48.026585],[-0.221939,48.096941],[-0.231519,48.163892],[-0.1383,48.229316],[-0.153362,48.337641],[-0.052728,48.380641],[-0.056705,48.431563],[-0.171116,48.545096],[-0.352632,48.491878],[-0.501025,48.501227],[-0.554297,48.468312],[-0.809631,48.451152],[-0.862706,48.501798],[-1.079081,48.498689],[-1.069776,48.318184],[-1.101658,48.267394],[-1.040629,48.001514],[-1.167697,47.960799],[-1.242964,47.809539],[-1.138539,47.777536],[-0.956452,47.793411],[-0.626939,47.735052],[-0.502266,47.778865],[-0.419792,47.761781]]]},"properties":{"LOCATION_TYPE":"level1","ADM0_A3":"FRA","LOCATION_ID":"FRA-53","NAME":"Mayenne","TYPE_EN":"Metropolitan department"}},
{"type":"Feature","geometry":{"type":"Polygon","coordinates":[[[-0.419792,47.761781],[-0.208492,47.690953],[-0.142618,47.634329],[-0.044136,47.651314],[0.151464,47.588011],[0.241772,47.602886],[0.384704,47.624123],[0.609572,47.689217],[0.744704,47.787522],[0.779619,47.907098],[0.840593,47.954646],[0.832551,48.09448],[0.912575,48.141458],[0.798383,48.185953],[0.667119,48.24786],[0.501071,48.271064],[0.390461,48.332917],[0.371521,48.448515],[0.192487,48.460193],[0.047204,48.378807],[-0.052728,48.380641],[-0.153362,48.337641],[-0.1383,48.229316],[-0.231519,48.163892],[-0.221939,48.096941],[-0.342415,48.026585],[-0.363267,47.938189],[-0.443819,47.8394],[-0.419792,47.761781]]]},"properties":{"LOCATION_TYPE":"level1","ADM0_A3":"FRA","LOCATION_ID":"FRA-72","NAME":"Sarthe","TYPE_EN":"Metropolitan department"}},
{"type":"Feature","geometry":{"type":"MultiPolygon","coordinates":[[[[5.753775,43.732055],[5.662756,43.812119],[5.5474,43.838245],[5.586203,43.921565],[5.50842,43.969553],[5.538545,44.021211],[5.506157,44.12178],[5.378935,44.202057],[5.163537,44.247376],[5.05229,44.29621],[4.844846,44.238795],[4.743816,44.326258],[4.657529,44.326752],[4.657837,44.281719],[4.721294,44.190247],[4.723469,44.094007],[4.849812,44.012664],[4.77282,43.932826],[4.968508,43.866721],[5.08716,43.786807],[5.192629,43.749091],[5.336572,43.739763],[5.413564,43.695181],[5.582512,43.666034],[5.753775,43.732055]]],[[[4.897009,44.312382],[4.980593,44.312525],[5.043391,44.367863],[4.938449,44.416389],[4.897009,44.312382]]]]},"properties":{"LOCATION_TYPE":"level1","ADM0_A3":"FRA","LOCATION_ID":"FRA-84","NAME":"Vaucluse","TYPE_EN":"Metropolitan department"}},
{"type":"Feature","geometry":{"type":"Polygon","coordinates":[[[4.992085,48.692895],[4.802131,48.678426],[4.772863,48.535098],[4.670229,48.531813],[4.643598,48.452162],[4.819643,48.344419],[4.862446,48.19829],[4.827597,48.111465],[4.695212,48.07877],[4.698508,48.022026],[4.79332,47.996889],[4.98635,47.813879],[4.931572,47.773438],[4.971452,47.693424],[5.079931,47.660015],[5.167734,47.675407],[5.293769,47.589812],[5.374892,47.607841],[5.420683,47.671067],[5.586709,47.657862],[5.700923,47.693062],[5.715952,47.812945],[5.891755,47.93263],[5.798086,47.964226],[5.787956,48.022542],[5.659328,48.100787],[5.713008,48.21143],[5.584402,48.283775],[5.455246,48.419214],[5.356303,48.481386],[5.035854,48.618067],[4.992085,48.692895]]]},"properties":{"LOCATION_TYPE":"level1","ADM0_A3":"FRA","LOCATION_ID":"FRA-52","NAME":"Haute-Marne","TYPE_EN":"Metropolitan department"}},
{"type":"Feature","geometry":{"type":"Polygon","coordinates":[[[4.992085,48.692895],[4.917158,48.787674],[4.92164,48.878465],[5.00261,48.929881],[4.955434,49.165219],[4.978747,49.235674],[4.723117,49.252483],[4.636523,49.235015],[4.551225,49.286925],[4.448855,49.276104],[4.196565,49.394624],[4.05528,49.407292],[4.032033,49.359831],[3.877939,49.381012],[3.84988,49.345779],[3.650149,49.302834],[3.702597,49.1463],[3.635866,49.146663],[3.587461,49.0368],[3.665793,49.00884],[3.477905,48.850098],[3.394914,48.760153],[3.46738,48.638787],[3.537802,48.61342],[3.635647,48.541283],[3.84843,48.525804],[3.888508,48.577637],[4.078615,48.694532],[4.307175,48.705683],[4.328181,48.611167],[4.526111,48.52888],[4.670229,48.531813],[4.772863,48.535098],[4.802131,48.678426],[4.992085,48.692895]]]},"properties":{"LOCATION_TYPE":"level1","ADM0_A3":"FRA","LOCATION_ID":"FRA-51","NAME":"Marne","TYPE_EN":"Metropolitan department"}},
{"type":"Feature","geometry":{"type":"Polygon","coordinates":[[[-0.033556,45.120119],[0.065881,45.063506],[0.005148,44.94626],[0.031076,44.840275],[0.17447,44.826674],[0.25111,44.879221],[0.297407,44.762338],[0.375278,44.657462],[0.640752,44.699892],[0.831936,44.677172],[0.840769,44.602091],[0.972231,44.638357],[1.077211,44.574533],[1.174995,44.673041],[1.287956,44.717371],[1.43726,44.88344],[1.45864,45.015078],[1.401862,45.12748],[1.289055,45.14675],[1.246999,45.224632],[1.272927,45.390251],[1.255302,45.446473],[1.126413,45.489106],[1.00864,45.61458],[0.818884,45.595563],[0.734597,45.692506],[0.635896,45.710337],[0.517199,45.634477],[0.498435,45.559857],[0.424914,45.48392],[0.288332,45.428516],[0.249418,45.293],[0.124636,45.213986],[0.000336,45.192024],[-0.033556,45.120119]]]},"properties":{"LOCATION_TYPE":"level1","ADM0_A3":"FRA","LOCATION_ID":"FRA-24","NAME":"Dordogne","TYPE_EN":"Metropolitan department"}},
{"type":"Feature","geometry":{"type":"Polygon","coordinates":[[[4.797824,46.171752],[4.704089,46.247459],[4.408491,46.289811],[4.383947,46.224772],[4.356987,46.141803],[4.258352,46.066679],[4.393835,45.842832],[4.384167,45.654373],[4.497041,45.584731],[4.640215,45.581314],[4.654255,45.491215],[4.760009,45.444457],[4.870027,45.549673],[4.819731,45.600441],[5.014343,45.612361],[5.145827,45.725037],[5.102431,45.826188],[4.916894,45.811346],[4.909094,45.874165],[4.746738,45.966615],[4.749023,46.059439],[4.797824,46.171752]]]},"properties":{"LOCATION_TYPE":"level1","ADM0_A3":"FRA","LOCATION_ID":"FRA-69","NAME":"Rhône","TYPE_EN":"Metropolitan department"}},
{"type":"Feature","geometry":{"type":"Polygon","coordinates":[[[7.08865,48.523442],[6.807246,48.396044],[6.663852,48.423114],[6.606218,48.46929],[6.501804,48.414512],[6.173642,48.399439],[6.117217,48.361305],[5.976855,48.357493],[5.881274,48.409568],[5.895886,48.487637],[5.765237,48.496602],[5.71716,48.46283],[5.455246,48.419214],[5.584402,48.283775],[5.713008,48.21143],[5.659328,48.100787],[5.787956,48.022542],[5.798086,47.964226],[5.891755,47.93263],[5.982261,47.943693],[6.070986,48.00436],[6.146902,48.001613],[6.243845,47.932212],[6.37344,47.95302],[6.498662,47.90467],[6.613799,47.941309],[6.836012,47.824165],[6.868923,47.818998],[6.959824,47.967511],[7.086892,48.125385],[7.083157,48.164507],[7.20873,48.303407],[7.109875,48.342266],[7.127717,48.4841],[7.08865,48.523442]]]},"properties":{"LOCATION_TYPE":"level1","ADM0_A3":"FRA","LOCATION_ID":"FRA-88","NAME":"Vosges","TYPE_EN":"Metropolitan department"}},
{"type":"Feature","geometry":{"type":"Polygon","coordinates":[[[4.811382,45.296284],[4.769826,45.365707],[4.630261,45.325431],[4.592907,45.242847],[4.46265,45.236496],[4.439494,45.125568],[4.351714,45.076272],[4.296628,44.974176],[4.215417,44.958938],[4.15352,44.875354],[4.023508,44.861083],[3.872204,44.750912],[3.922016,44.580272],[3.993999,44.457852],[4.130581,44.331685],[4.251145,44.281796],[4.373093,44.339672],[4.520837,44.336826],[4.657837,44.281719],[4.657529,44.326752],[4.721338,44.573428],[4.789453,44.658462],[4.777588,44.795429],[4.892571,44.949534],[4.822763,45.111198],[4.811382,45.296284]]]},"properties":{"LOCATION_TYPE":"level1","ADM0_A3":"FRA","LOCATION_ID":"FRA-07","NAME":"Ardèche","TYPE_EN":"Metropolitan department"}},
{"type":"Feature","geometry":{"type":"Polygon","coordinates":[[[4.760009,45.444457],[4.654255,45.491215],[4.640215,45.581314],[4.497041,45.584731],[4.384167,45.654373],[4.393835,45.842832],[4.258352,46.066679],[4.356987,46.141803],[4.383947,46.224772],[4.289026,46.172741],[3.897671,46.213203],[3.886465,46.276199],[3.772251,46.23377],[3.81758,46.008616],[3.679504,45.957035],[3.730393,45.892029],[3.697016,45.789296],[3.803935,45.649099],[3.920632,45.5767],[3.968884,45.482371],[3.88552,45.358676],[4.003205,45.3448],[4.170901,45.387614],[4.32561,45.380901],[4.353559,45.278498],[4.46265,45.236496],[4.592907,45.242847],[4.630261,45.325431],[4.769826,45.365707],[4.760009,45.444457]]]},"properties":{"LOCATION_TYPE":"level1","ADM0_A3":"FRA","LOCATION_ID":"FRA-42","NAME":"Loire","TYPE_EN":"Metropolitan department"}},
{"type":"Feature","geometry":{"type":"Polygon","coordinates":[[[3.679504,45.957035],[3.58445,46.004782],[3.14625,46.067041],[3.016963,46.102494],[2.923777,46.174422],[2.890268,46.260862],[2.744304,46.221399],[2.67799,46.138892],[2.566743,46.135948],[2.595285,45.971197],[2.501594,45.869859],[2.400564,45.829187],[2.489944,45.736086],[2.52205,45.649176],[2.465097,45.584555],[2.518645,45.47924],[2.668037,45.434525],[2.703479,45.388031],[2.83382,45.396414],[2.948562,45.30916],[3.033991,45.300262],[3.103535,45.354468],[3.2005,45.35972],[3.343542,45.421891],[3.505041,45.416442],[3.607346,45.354116],[3.88552,45.358676],[3.968884,45.482371],[3.920632,45.5767],[3.803935,45.649099],[3.697016,45.789296],[3.730393,45.892029],[3.679504,45.957035]]]},"properties":{"LOCATION_TYPE":"level1","ADM0_A3":"FRA","LOCATION_ID":"FRA-63","NAME":"Puy-de-Dôme","TYPE_EN":"Metropolitan department"}},
{"type":"Feature","geometry":{"type":"Polygon","coordinates":[[[2.566743,46.135948],[2.67799,46.138892],[2.744304,46.221399],[2.890268,46.260862],[2.923777,46.174422],[3.016963,46.102494],[3.14625,46.067041],[3.58445,46.004782],[3.679504,45.957035],[3.81758,46.008616],[3.772251,46.23377],[3.886465,46.276199],[3.999734,46.326341],[3.978816,46.462637],[3.74094,46.54933],[3.742961,46.61015],[3.62488,46.739262],[3.4607,46.65147],[3.368349,46.686242],[3.051526,46.750325],[3.029773,46.790941],[2.931379,46.78324],[2.838149,46.725935],[2.715871,46.730923],[2.591396,46.634002],[2.613479,46.549462],[2.399641,46.521765],[2.253896,46.419801],[2.331657,46.329054],[2.474084,46.271409],[2.566743,46.135948]]]},"properties":{"LOCATION_TYPE":"level1","ADM0_A3":"FRA","LOCATION_ID":"FRA-03","NAME":"Allier","TYPE_EN":"Metropolitan department"}},
{"type":"Feature","geometry":{"type":"Polygon","coordinates":[[[1.519658,47.985525],[1.57894,47.865514],[1.547849,47.769439],[1.970383,47.664124],[2.171652,47.677187],[2.239109,47.620959],[2.441916,47.606929],[2.566281,47.572762],[2.661643,47.492012],[2.73312,47.52496],[2.874717,47.520525],[2.96926,47.567587],[2.914636,47.67745],[2.834897,47.749125],[3,47.801222],[2.992199,47.899869],[3.085012,47.948758],[3.112346,48.025651],[3.008064,48.141864],[2.925644,48.155927],[2.788337,48.159959],[2.684824,48.122594],[2.49632,48.12177],[2.513679,48.206618],[2.390661,48.313602],[2.207644,48.339069],[1.988444,48.276744],[1.976469,48.200531],[1.854543,48.086164],[1.537434,48.040461],[1.519658,47.985525]]]},"properties":{"LOCATION_TYPE":"level1","ADM0_A3":"FRA","LOCATION_ID":"FRA-45","NAME":"Loiret","TYPE_EN":"Metropolitan department"}},
{"type":"Feature","geometry":{"type":"Polygon","coordinates":[[[-1.251006,47.780392],[-1.158084,47.631473],[-1.031324,47.601414],[-1.128959,47.504976],[-0.965593,47.491759],[-0.94162,47.412284],[-1.128761,47.381534],[-1.334722,47.323855],[-1.161852,47.185823],[-1.23011,47.109424],[-1.148614,47.029499],[-0.946004,47.000385],[-0.63241,46.992431],[-0.555132,47.060952],[-0.170578,47.098262],[-0.109043,47.06961],[-0.004047,47.156556],[0.06676,47.153688],[0.099499,47.286722],[0.177063,47.377447],[0.241772,47.602886],[0.151464,47.588011],[-0.044136,47.651314],[-0.142618,47.634329],[-0.208492,47.690953],[-0.419792,47.761781],[-0.502266,47.778865],[-0.626939,47.735052],[-0.956452,47.793411],[-1.138539,47.777536],[-1.242964,47.809539],[-1.251006,47.780392]]]},"properties":{"LOCATION_TYPE":"level1","ADM0_A3":"FRA","LOCATION_ID":"FRA-49","NAME":"Maine-et-Loire","TYPE_EN":"Metropolitan department"}},
{"type":"Feature","geometry":{"type":"Polygon","coordinates":[[[4.670229,48.531813],[4.526111,48.52888],[4.328181,48.611167],[4.307175,48.705683],[4.078615,48.694532],[3.888508,48.577637],[3.84843,48.525804],[3.635647,48.541283],[3.537802,48.61342],[3.389487,48.467895],[3.395376,48.411744],[3.522751,48.338652],[3.606687,48.257474],[3.581572,48.180965],[3.717319,48.16231],[3.89844,47.986353],[4.028935,47.922292],[4.223635,47.968412],[4.28841,47.924258],[4.541777,47.965292],[4.698508,48.022026],[4.695212,48.07877],[4.827597,48.111465],[4.862446,48.19829],[4.819643,48.344419],[4.643598,48.452162],[4.670229,48.531813]]]},"properties":{"LOCATION_TYPE":"level1","ADM0_A3":"FRA","LOCATION_ID":"FRA-10","NAME":"Aube","TYPE_EN":"Metropolitan department"}},
{"type":"Feature","geometry":{"type":"Polygon","coordinates":[[[2.266596,48.901141],[2.331965,48.817117],[2.47342,48.859201],[2.376613,48.901217],[2.266596,48.901141]]]},"properties":{"LOCATION_TYPE":"level1","ADM0_A3":"FRA","LOCATION_ID":"FRA-75","NAME":"Paris","TYPE_EN":"Metropolitan department"}},
{"type":"Feature","geometry":{"type":"Polygon","coordinates":[[[2.266596,48.901141],[2.318847,48.958127],[2.151613,48.882881],[2.22654,48.776072],[2.320759,48.748705],[2.331965,48.817117],[2.266596,48.901141]]]},"properties":{"LOCATION_TYPE":"level1","ADM0_A3":"FRA","LOCATION_ID":"FRA-92","NAME":"Hauts-de-Seine","TYPE_EN":"Metropolitan department"}},
{"type":"Feature","geometry":{"type":"Polygon","coordinates":[[[2.266596,48.901141],[2.376613,48.901217],[2.47342,48.859201],[2.592385,48.807471],[2.592297,48.933583],[2.55312,49.009784],[2.441191,48.955446],[2.318847,48.958127],[2.266596,48.901141]]]},"properties":{"LOCATION_TYPE":"level1","ADM0_A3":"FRA","LOCATION_ID":"FRA-93","NAME":"Seine-Saint-Denis","TYPE_EN":"Metropolitan department"}},
{"type":"Feature","geometry":{"type":"Polygon","coordinates":[[[2.318847,48.958127],[2.441191,48.955446],[2.55312,49.009784],[2.583332,49.084546],[2.334931,49.176381],[2.23779,49.163099],[2.081037,49.210691],[1.8857,49.167801],[1.737495,49.189455],[1.698054,49.230664],[1.619875,49.082591],[1.854719,49.055839],[1.977942,49.009543],[2.177387,48.984977],[2.151613,48.882881],[2.318847,48.958127]]]},"properties":{"LOCATION_TYPE":"level1","ADM0_A3":"FRA","LOCATION_ID":"FRA-95","NAME":"Val-d'Oise","TYPE_EN":"Metropolitan department"}},
{"type":"Feature","geometry":{"type":"Polygon","coordinates":[[[1.619875,49.082591],[1.454004,49.048632],[1.492807,48.939549],[1.570371,48.845396],[1.575183,48.703958],[1.748042,48.562069],[1.800952,48.467796],[1.91934,48.444483],[1.948916,48.548864],[2.029116,48.579043],[2.031335,48.669725],[2.123642,48.755989],[2.22654,48.776072],[2.151613,48.882881],[2.177387,48.984977],[1.977942,49.009543],[1.854719,49.055839],[1.619875,49.082591]]]},"properties":{"LOCATION_TYPE":"level1","ADM0_A3":"FRA","LOCATION_ID":"FRA-78","NAME":"Yvelines","TYPE_EN":"Metropolitan department"}},
{"type":"Feature","geometry":{"type":"Polygon","coordinates":[[[-0.102957,45.969713],[-0.152308,45.921187],[-0.128061,45.831956],[-0.204009,45.776024],[-0.272059,45.803963],[-0.413189,45.783155],[-0.420451,45.620161],[-0.296525,45.564417],[-0.248306,45.434998],[-0.310643,45.376682],[-0.265719,45.307469],[-0.143881,45.290132],[0.000336,45.192024],[0.124636,45.213986],[0.249418,45.293],[0.288332,45.428516],[0.424914,45.48392],[0.498435,45.559857],[0.517199,45.634477],[0.635896,45.710337],[0.72717,45.802578],[0.794187,45.824595],[0.810051,45.921901],[0.924111,45.973734],[0.806491,46.067261],[0.796362,46.132893],[0.646794,46.091035],[0.50028,46.1323],[0.40281,46.06324],[0.197365,46.09554],[0.035778,46.08039],[-0.102957,45.969713]]]},"properties":{"LOCATION_TYPE":"level1","ADM0_A3":"FRA","LOCATION_ID":"FRA-16","NAME":"Charente","TYPE_EN":"Metropolitan department"}},
{"type":"Feature","geometry":{"type":"Polygon","coordinates":[[[1.838986,47.219244],[1.774387,47.13065],[2.05188,47.096416],[2.129443,46.89295],[2.077653,46.839062],[2.187407,46.622719],[2.157985,46.560701],[2.19123,46.477798],[2.139175,46.421365],[2.253896,46.419801],[2.399641,46.521765],[2.613479,46.549462],[2.591396,46.634002],[2.715871,46.730923],[2.838149,46.725935],[2.931379,46.78324],[3.029773,46.790941],[3.073235,46.870318],[3.068423,47.045506],[2.97205,47.266935],[2.875041,47.337116],[2.93028,47.452923],[2.874717,47.520525],[2.73312,47.52496],[2.661643,47.492012],[2.566281,47.572762],[2.441916,47.606929],[2.239109,47.620959],[2.132761,47.587703],[2.253545,47.469226],[2.245129,47.411241],[2.115688,47.391674],[2.148669,47.308584],[2.100791,47.270132],[1.949948,47.284513],[1.838986,47.219244]]]},"properties":{"LOCATION_TYPE":"level1","ADM0_A3":"FRA","LOCATION_ID":"FRA-18","NAME":"Cher","TYPE_EN":"Metropolitan department"}},
{"type":"Feature","geometry":{"type":"Polygon","coordinates":[[[0.832551,48.09448],[1.018945,48.129285],[1.211799,47.967742],[1.371496,47.955459],[1.519658,47.985525],[1.537434,48.040461],[1.854543,48.086164],[1.976469,48.200531],[1.988444,48.276744],[1.999738,48.319942],[1.91934,48.444483],[1.800952,48.467796],[1.748042,48.562069],[1.575183,48.703958],[1.570371,48.845396],[1.492807,48.939549],[1.451367,48.870763],[1.258205,48.751595],[1.038918,48.747727],[0.816423,48.665088],[0.850371,48.582976],[0.94549,48.523002],[0.979812,48.433112],[0.894909,48.359449],[0.788606,48.334982],[0.798383,48.185953],[0.912575,48.141458],[0.832551,48.09448]]]},"properties":{"LOCATION_TYPE":"level1","ADM0_A3":"FRA","LOCATION_ID":"FRA-28","NAME":"Eure-et-Loir","TYPE_EN":"Metropolitan department"}},
{"type":"Feature","geometry":{"type":"Polygon","coordinates":[[[3.103535,45.354468],[3.112302,45.284716],[3.226516,45.268006],[3.296323,45.039095],[3.369734,44.954236],[3.460085,44.836616],[3.737841,44.816204],[3.872204,44.750912],[4.023508,44.861083],[4.15352,44.875354],[4.215417,44.958938],[4.296628,44.974176],[4.351714,45.076272],[4.439494,45.125568],[4.46265,45.236496],[4.353559,45.278498],[4.32561,45.380901],[4.170901,45.387614],[4.003205,45.3448],[3.88552,45.358676],[3.607346,45.354116],[3.505041,45.416442],[3.343542,45.421891],[3.2005,45.35972],[3.103535,45.354468]]]},"properties":{"LOCATION_TYPE":"level1","ADM0_A3":"FRA","LOCATION_ID":"FRA-43","NAME":"Haute-Loire","TYPE_EN":"Metropolitan department"}},
{"type":"Feature","geometry":{"type":"Polygon","coordinates":[[[3.103535,45.354468],[3.033991,45.300262],[2.948562,45.30916],[2.83382,45.396414],[2.703479,45.388031],[2.668037,45.434525],[2.518645,45.47924],[2.488674,45.396974],[2.367033,45.36886],[2.194636,45.223698],[2.206875,45.159494],[2.058713,44.97511],[2.093737,44.865741],[2.158513,44.774533],[2.132255,44.698672],[2.205315,44.622339],[2.300456,44.668723],[2.454704,44.66156],[2.537234,44.729698],[2.594033,44.83499],[2.726726,44.935351],[2.926567,44.768589],[2.925798,44.690817],[2.980114,44.644279],[3.044648,44.791792],[3.244226,44.922068],[3.369734,44.954236],[3.296323,45.039095],[3.226516,45.268006],[3.112302,45.284716],[3.103535,45.354468]]]},"properties":{"LOCATION_TYPE":"level1","ADM0_A3":"FRA","LOCATION_ID":"FRA-15","NAME":"Cantal","TYPE_EN":"Metropolitan department"}},
{"type":"Feature","geometry":{"type":"Polygon","coordinates":[[[-0.14064,44.226502],[-0.129203,44.152487],[0.13549,44.117276],[0.060322,44.024859],[0.08524,43.967321],[0.221623,44.018552],[0.31426,43.999228],[0.466311,44.056334],[0.5925,44.072814],[0.658901,44.03757],[0.741738,44.067024],[0.905918,44.201024],[0.944743,44.279104],[0.901106,44.367116],[1.064524,44.378741],[1.01299,44.547566],[1.077211,44.574533],[0.972231,44.638357],[0.840769,44.602091],[0.831936,44.677172],[0.640752,44.699892],[0.375278,44.657462],[0.297407,44.762338],[0.110419,44.71034],[0.170163,44.637434],[-0.006145,44.509114],[0.015959,44.381211],[-0.073536,44.354361],[-0.034732,44.275863],[-0.14064,44.226502]]]},"properties":{"LOCATION_TYPE":"level1","ADM0_A3":"FRA","LOCATION_ID":"FRA-47","NAME":"Lot-et-Garonne","TYPE_EN":"Metropolitan department"}},
{"type":"Feature","geometry":{"type":"Polygon","coordinates":[[[3.993999,44.457852],[3.922016,44.580272],[3.872204,44.750912],[3.737841,44.816204],[3.460085,44.836616],[3.369734,44.954236],[3.244226,44.922068],[3.044648,44.791792],[2.980114,44.644279],[3.066247,44.56421],[3.140735,44.42096],[3.123354,44.263394],[3.249499,44.191148],[3.376721,44.168263],[3.517939,44.113441],[3.616289,44.116836],[3.690403,44.180161],[3.790993,44.135996],[3.920412,44.166428],[3.962402,44.262119],[3.894836,44.390231],[3.993999,44.457852]]]},"properties":{"LOCATION_TYPE":"level1","ADM0_A3":"FRA","LOCATION_ID":"FRA-48","NAME":"Lozère","TYPE_EN":"Metropolitan department"}},
{"type":"Feature","geometry":{"type":"Polygon","coordinates":[[[4.106125,47.339247],[3.977036,47.326855],[3.950691,47.39308],[3.804485,47.385928],[3.644699,47.456724],[3.415437,47.508821],[3.332358,47.481333],[3.145129,47.525356],[3.098723,47.57876],[2.96926,47.567587],[2.874717,47.520525],[2.93028,47.452923],[2.875041,47.337116],[2.97205,47.266935],[3.068423,47.045506],[3.073235,46.870318],[3.029773,46.790941],[3.051526,46.750325],[3.368349,46.686242],[3.4607,46.65147],[3.62488,46.739262],[3.738742,46.75205],[3.809275,46.701754],[4.04726,46.785624],[4.048403,47.095076],[4.209748,47.155325],[4.191467,47.244589],[4.124978,47.249818],[4.106125,47.339247]]]},"properties":{"LOCATION_TYPE":"level1","ADM0_A3":"FRA","LOCATION_ID":"FRA-58","NAME":"Nièvre","TYPE_EN":"Metropolitan department"}},
{"type":"Feature","geometry":{"type":"Polygon","coordinates":[[[4.106125,47.339247],[4.124978,47.249818],[4.191467,47.244589],[4.209748,47.155325],[4.440879,47.034102],[4.552807,47.016106],[4.671789,46.909879],[5.038337,46.981104],[5.250626,46.981225],[5.382649,47.081365],[5.485854,47.19113],[5.521714,47.289259],[5.421606,47.492089],[5.492666,47.531025],[5.478713,47.598568],[5.374892,47.607841],[5.293769,47.589812],[5.167734,47.675407],[5.079931,47.660015],[4.971452,47.693424],[4.931572,47.773438],[4.98635,47.813879],[4.79332,47.996889],[4.698508,48.022026],[4.541777,47.965292],[4.28841,47.924258],[4.33029,47.76032],[4.258637,47.733865],[4.244531,47.655796],[4.068178,47.424534],[4.106125,47.339247]]]},"properties":{"LOCATION_TYPE":"level1","ADM0_A3":"FRA","LOCATION_ID":"FRA-21","NAME":"Côte-d'Or","TYPE_EN":"Metropolitan department"}},
{"type":"Feature","geometry":{"type":"Polygon","coordinates":[[[3.118564,49.705768],[2.873173,49.699967],[2.798247,49.622349],[2.653359,49.577657],[2.521062,49.629787],[2.238647,49.697847],[2.066425,49.684455],[1.972207,49.715293],[1.856213,49.701407],[1.754546,49.765622],[1.680871,49.64508],[1.737495,49.464629],[1.717984,49.410994],[1.749909,49.310997],[1.698054,49.230664],[1.737495,49.189455],[1.8857,49.167801],[2.081037,49.210691],[2.23779,49.163099],[2.334931,49.176381],[2.583332,49.084546],[2.978554,49.078141],[3.079738,49.1062],[3.10259,49.188378],[2.994594,49.187576],[3.010788,49.284168],[3.100437,49.418948],[3.121399,49.51532],[3.118564,49.705768]]]},"properties":{"LOCATION_TYPE":"level1","ADM0_A3":"FRA","LOCATION_ID":"FRA-60","NAME":"Oise","TYPE_EN":"Metropolitan department"}},
{"type":"Feature","geometry":{"type":"Polygon","coordinates":[[[-0.862706,48.501798],[-0.809631,48.451152],[-0.554297,48.468312],[-0.501025,48.501227],[-0.352632,48.491878],[-0.171116,48.545096],[-0.056705,48.431563],[-0.052728,48.380641],[0.047204,48.378807],[0.192487,48.460193],[0.371521,48.448515],[0.390461,48.332917],[0.501071,48.271064],[0.667119,48.24786],[0.798383,48.185953],[0.788606,48.334982],[0.894909,48.359449],[0.979812,48.433112],[0.94549,48.523002],[0.850371,48.582976],[0.816423,48.665088],[0.729499,48.713439],[0.591884,48.878003],[0.421355,48.883628],[0.417177,48.946121],[0.379826,48.963521],[0.148037,48.929771],[-0.140365,48.8255],[-0.410926,48.870049],[-0.612898,48.831916],[-0.840887,48.752298],[-0.736813,48.686127],[-0.785691,48.559598],[-0.862706,48.501798]]]},"properties":{"LOCATION_TYPE":"level1","ADM0_A3":"FRA","LOCATION_ID":"FRA-61","NAME":"Orne","TYPE_EN":"Metropolitan department"}},
{"type":"Feature","geometry":{"type":"Polygon","coordinates":[[[5.521714,47.289259],[5.698835,47.265002],[5.927087,47.343015],[6.074524,47.355474],[6.307698,47.492298],[6.424548,47.517687],[6.553835,47.490419],[6.595935,47.538363],[6.80707,47.562863],[6.760818,47.713848],[6.836012,47.824165],[6.613799,47.941309],[6.498662,47.90467],[6.37344,47.95302],[6.243845,47.932212],[6.146902,48.001613],[6.070986,48.00436],[5.982261,47.943693],[5.891755,47.93263],[5.715952,47.812945],[5.700923,47.693062],[5.586709,47.657862],[5.420683,47.671067],[5.374892,47.607841],[5.478713,47.598568],[5.492666,47.531025],[5.421606,47.492089],[5.521714,47.289259]]]},"properties":{"LOCATION_TYPE":"level1","ADM0_A3":"FRA","LOCATION_ID":"FRA-70","NAME":"Haute-Saône","TYPE_EN":"Metropolitan department"}},
{"type":"Feature","geometry":{"type":"Polygon","coordinates":[[[4.209748,47.155325],[4.048403,47.095076],[4.04726,46.785624],[3.809275,46.701754],[3.738742,46.75205],[3.62488,46.739262],[3.742961,46.61015],[3.74094,46.54933],[3.978816,46.462637],[3.999734,46.326341],[3.886465,46.276199],[3.897671,46.213203],[4.289026,46.172741],[4.383947,46.224772],[4.408491,46.289811],[4.704089,46.247459],[4.797824,46.171752],[4.937153,46.500518],[5.178589,46.505429],[5.310974,46.455353],[5.403413,46.474942],[5.36373,46.568732],[5.423012,46.631519],[5.375991,46.822362],[5.250626,46.981225],[5.038337,46.981104],[4.671789,46.909879],[4.552807,47.016106],[4.440879,47.034102],[4.209748,47.155325]]]},"properties":{"LOCATION_TYPE":"level1","ADM0_A3":"FRA","LOCATION_ID":"FRA-71","NAME":"Saône-et-Loire","TYPE_EN":"Metropolitan department"}},
{"type":"Feature","geometry":{"type":"Polygon","coordinates":[[[-0.756589,46.301204],[-0.751392,46.245141],[-0.637101,46.154482],[-0.489983,46.102659],[-0.259611,46.065174],[-0.102957,45.969713],[0.035778,46.08039],[0.197365,46.09554],[0.108728,46.188836],[0.176272,46.308949],[0.066496,46.306873],[-0.014605,46.411737],[-0.029832,46.519348],[0.017244,46.588233],[-0.029151,46.650042],[0.012026,46.725496],[-0.040225,46.978951],[-0.109043,47.06961],[-0.170578,47.098262],[-0.555132,47.060952],[-0.63241,46.992431],[-0.946004,47.000385],[-0.833614,46.919251],[-0.803434,46.854816],[-0.712017,46.802049],[-0.615953,46.54755],[-0.633882,46.422801],[-0.565416,46.356993],[-0.756589,46.301204]]]},"properties":{"LOCATION_TYPE":"level1","ADM0_A3":"FRA","LOCATION_ID":"FRA-79","NAME":"Deux-Sèvres","TYPE_EN":"Metropolitan department"}},
{"type":"Feature","geometry":{"type":"Polygon","coordinates":[[[0.796362,46.132893],[0.790781,46.21873],[0.891657,46.273815],[0.987107,46.283527],[1.047927,46.35407],[1.177016,46.387018],[1.194682,46.42792],[1.101452,46.534367],[1.038786,46.534422],[0.916003,46.615138],[0.880751,46.750453],[0.713371,46.90008],[0.671777,46.965976],[0.433923,46.932742],[0.308239,46.951452],[0.311799,47.032223],[0.06676,47.153688],[-0.004047,47.156556],[-0.109043,47.06961],[-0.040225,46.978951],[0.012026,46.725496],[-0.029151,46.650042],[0.017244,46.588233],[-0.029832,46.519348],[-0.014605,46.411737],[0.066496,46.306873],[0.176272,46.308949],[0.108728,46.188836],[0.197365,46.09554],[0.40281,46.06324],[0.50028,46.1323],[0.646794,46.091035],[0.796362,46.132893]]]},"properties":{"LOCATION_TYPE":"level1","ADM0_A3":"FRA","LOCATION_ID":"FRA-86","NAME":"Vienne","TYPE_EN":"Metropolitan department"}},
{"type":"Feature","geometry":{"type":"Polygon","coordinates":[[[2.96926,47.567587],[3.098723,47.57876],[3.145129,47.525356],[3.332358,47.481333],[3.415437,47.508821],[3.644699,47.456724],[3.804485,47.385928],[3.950691,47.39308],[3.977036,47.326855],[4.106125,47.339247],[4.068178,47.424534],[4.244531,47.655796],[4.258637,47.733865],[4.33029,47.76032],[4.28841,47.924258],[4.223635,47.968412],[4.028935,47.922292],[3.89844,47.986353],[3.717319,48.16231],[3.581572,48.180965],[3.606687,48.257474],[3.522751,48.338652],[3.395376,48.411744],[3.355012,48.374313],[3.042341,48.361756],[3.029926,48.268317],[2.925644,48.155927],[3.008064,48.141864],[3.112346,48.025651],[3.085012,47.948758],[2.992199,47.899869],[3,47.801222],[2.834897,47.749125],[2.914636,47.67745],[2.96926,47.567587]]]},"properties":{"LOCATION_TYPE":"level1","ADM0_A3":"FRA","LOCATION_ID":"FRA-89","NAME":"Yonne","TYPE_EN":"Metropolitan department"}},
{"type":"Feature","geometry":{"type":"Polygon","coordinates":[[[2.22654,48.776072],[2.123642,48.755989],[2.031335,48.669725],[2.029116,48.579043],[1.948916,48.548864],[1.91934,48.444483],[1.999738,48.319942],[1.988444,48.276744],[2.207644,48.339069],[2.390661,48.313602],[2.505373,48.432969],[2.52405,48.629712],[2.571731,48.691961],[2.494629,48.733764],[2.320759,48.748705],[2.22654,48.776072]]]},"properties":{"LOCATION_TYPE":"level1","ADM0_A3":"FRA","LOCATION_ID":"FRA-91","NAME":"Essonne","TYPE_EN":"Metropolitan department"}},
{"type":"Feature","geometry":{"type":"Polygon","coordinates":[[[2.390661,48.313602],[2.513679,48.206618],[2.49632,48.12177],[2.684824,48.122594],[2.788337,48.159959],[2.925644,48.155927],[3.029926,48.268317],[3.042341,48.361756],[3.355012,48.374313],[3.395376,48.411744],[3.389487,48.467895],[3.537802,48.61342],[3.46738,48.638787],[3.394914,48.760153],[3.477905,48.850098],[3.418645,48.852856],[3.175957,49.004346],[3.079738,49.1062],[2.978554,49.078141],[2.583332,49.084546],[2.55312,49.009784],[2.592297,48.933583],[2.592385,48.807471],[2.571731,48.691961],[2.52405,48.629712],[2.505373,48.432969],[2.390661,48.313602]]]},"properties":{"LOCATION_TYPE":"level1","ADM0_A3":"FRA","LOCATION_ID":"FRA-77","NAME":"Seien-et-Marne","TYPE_EN":"Metropolitan department"}},
{"type":"Feature","geometry":{"type":"Polygon","coordinates":[[[2.47342,48.859201],[2.331965,48.817117],[2.320759,48.748705],[2.494629,48.733764],[2.571731,48.691961],[2.592385,48.807471],[2.47342,48.859201]]]},"properties":{"LOCATION_TYPE":"level1","ADM0_A3":"FRA","LOCATION_ID":"FRA-94","NAME":"Val-de-Marne","TYPE_EN":"Metropolitan department"}}
]}