{"type":"FeatureCollection", "features": [
{"type":"Feature","geometry":{"type":"MultiPolygon","coordinates":[[[[-6.654775,61.395941],[-6.715566,61.498969],[-6.737457,61.579047],[-6.825673,61.600165],[-6.914174,61.595201],[-6.923085,61.566107],[-6.827463,61.471869],[-6.654775,61.395941]]],[[[-6.612538,61.821112],[-6.66686,61.866034],[-6.789703,61.8994],[-6.907338,61.909857],[-6.867665,61.839342],[-6.746653,61.821112],[-6.66804,61.748847],[-6.612538,61.821112]]],[[[-7.383697,62.094875],[-7.325754,62.0539],[-7.184885,62.026557],[-7.071848,62.052558],[-7.038319,62.088609],[-7.160146,62.132554],[-7.286122,62.15526],[-7.383697,62.094875]]],[[[-7.222646,62.1706],[-7.126943,62.127143],[-7.030873,62.116604],[-6.856923,61.994778],[-6.734486,61.938218],[-6.698842,61.982082],[-6.715566,62.034003],[-6.810536,62.046332],[-6.784088,62.076728],[-6.856068,62.147895],[-6.997385,62.184231],[-6.997222,62.20718],[-7.072621,62.290269],[-7.190256,62.309801],[-7.222646,62.1706]]],[[[-7.055084,62.290351],[-6.957509,62.189602],[-6.859609,62.163764],[-6.691396,62.073391],[-6.59203,62.116604],[-6.600087,62.153388],[-6.722401,62.184231],[-6.608632,62.202379],[-6.763499,62.242418],[-6.737131,62.262112],[-6.940663,62.336982],[-7.055084,62.290351]]],[[[-6.537465,62.191067],[-6.407094,62.191067],[-6.436513,62.242377],[-6.386586,62.259955],[-6.551096,62.307766],[-6.571278,62.213324],[-6.537465,62.191067]]]]},"properties":{"LOCATION_TYPE":"level1","ADM0_A3":"FRO","LOCATION_ID":"FRO-X00~","NAME":"Eysturoyar","TYPE_EN":"Region"}}
]}