{"type":"FeatureCollection", "features": [
{"type":"Feature","geometry":{"type":"Polygon","coordinates":[[[163.026052,5.340888],[163.01059,5.379706],[162.924083,5.321031],[162.916189,5.286933],[163.019216,5.272691],[163.042979,5.31094],[163.026052,5.340888]]]},"properties":{"LOCATION_TYPE":"level1","ADM0_A3":"FSM","LOCATION_ID":"FSM-KSA","NAME":"Kosrae","TYPE_EN":null}},
{"type":"Feature","geometry":{"type":"Polygon","coordinates":[[[158.290782,6.937974],[158.277354,6.963202],[158.180919,6.978949],[158.141856,6.950995],[158.125824,6.907416],[158.166026,6.85399],[158.160492,6.828111],[158.193533,6.793443],[158.292491,6.795071],[158.317556,6.824693],[158.306407,6.855211],[158.338227,6.879096],[158.324962,6.931138],[158.290782,6.937974]]]},"properties":{"LOCATION_TYPE":"level1","ADM0_A3":"FSM","LOCATION_ID":"FSM-PNI","NAME":"Pohnpei","TYPE_EN":null}},
{"type":"Feature","geometry":{"type":"Polygon","coordinates":[[[151.588634,7.383612],[151.644542,7.336086],[151.650157,7.369371],[151.622406,7.39175],[151.588634,7.383612]]]},"properties":{"LOCATION_TYPE":"level1","ADM0_A3":"FSM","LOCATION_ID":"FSM-TRK","NAME":"Chuuk","TYPE_EN":null}},
{"type":"Feature","geometry":{"type":"Polygon","coordinates":[[[138.192393,9.575873],[138.126231,9.565985],[138.063813,9.436103],[138.079845,9.425442],[138.134451,9.511868],[138.188731,9.506822],[138.192393,9.575873]]]},"properties":{"LOCATION_TYPE":"level1","ADM0_A3":"FSM","LOCATION_ID":"FSM-YAP","NAME":"Yap","TYPE_EN":null}}
]}