{"type":"FeatureCollection", "features": [
{"type":"Feature","geometry":{"type":"Polygon","coordinates":[[[13.184885,1.222623],[13.239481,1.427976],[13.129617,1.592462],[13.192455,1.844746],[13.206925,1.993575],[13.281132,2.044967],[13.298392,2.215835],[13.242891,2.27149],[13.083521,2.249528],[12.808189,2.264049],[12.749898,2.236712],[12.334006,2.309576],[12.202645,2.279552],[11.75275,2.281877],[11.671204,2.320996],[11.351637,2.300584],[11.329727,2.127442],[11.336341,0.999165],[10.415045,1.002234],[10.409629,0.860155],[10.365549,0.717683],[10.426682,0.640581],[10.948355,0.820725],[10.950526,0.613193],[10.874975,0.468447],[10.80702,0.231769],[11.582839,0.230115],[11.485429,0.360185],[12.204816,0.848166],[12.218769,0.983868],[12.354833,1.234705],[13.184885,1.222623]]]},"properties":{"LOCATION_TYPE":"level1","ADM0_A3":"GAB","LOCATION_ID":"GAB-9","NAME":"Wouleu-Ntem","TYPE_EN":"Province"}},
{"type":"Feature","geometry":{"type":"Polygon","coordinates":[[[13.184885,1.222623],[12.354833,1.234705],[12.218769,0.983868],[12.204816,0.848166],[11.485429,0.360185],[11.582839,0.230115],[11.570281,0.159836],[11.356134,0.043409],[11.280273,-0.080357],[11.400369,-0.357497],[11.426156,-0.488755],[11.513179,-0.599705],[11.56253,-0.753494],[12.300366,-0.482089],[12.457566,-0.402352],[12.608874,0.273369],[12.730986,0.28143],[12.904308,0.219057],[12.944668,0.251613],[13.087398,0.193425],[13.123726,0.088005],[13.281391,0.04067],[13.522979,0.033848],[13.722863,-0.009456],[13.888054,-0.092088],[13.871225,0.196423],[13.945226,0.350419],[14.040414,0.413774],[14.075967,0.539451],[14.231823,0.542552],[14.328768,0.621204],[14.33838,0.693912],[14.447624,0.81623],[14.468088,0.913227],[14.400805,0.970329],[14.274715,1.155641],[14.252184,1.330824],[14.183868,1.380847],[14.049509,1.376403],[13.98357,1.41684],[13.794744,1.434436],[13.758157,1.376506],[13.642247,1.357386],[13.543442,1.283489],[13.41394,1.295529],[13.184885,1.222623]]]},"properties":{"LOCATION_TYPE":"level1","ADM0_A3":"GAB","LOCATION_ID":"GAB-6","NAME":"Ogooué-Ivindo","TYPE_EN":"Province"}},
{"type":"Feature","geometry":{"type":"Polygon","coordinates":[[[13.888054,-0.092088],[13.722863,-0.009456],[13.522979,0.033848],[13.281391,0.04067],[13.222738,-0.106195],[13.303095,-0.239572],[13.552331,-0.729309],[13.557447,-0.769617],[13.432958,-0.953688],[13.270798,-1.151041],[13.166618,-1.108976],[13.15928,-1.271085],[12.900743,-1.484354],[12.776306,-1.749867],[12.741014,-1.890672],[12.804572,-1.919107],[13.010658,-2.287766],[13.361024,-2.428843],[13.44536,-2.427086],[13.593361,-2.326834],[13.770663,-2.119094],[13.863887,-2.321459],[13.884971,-2.488477],[14.080928,-2.49995],[14.226966,-2.323113],[14.151208,-2.259034],[14.238438,-2.120231],[14.252184,-1.967579],[14.37073,-1.921277],[14.402976,-1.670853],[14.37383,-1.604087],[14.482144,-1.388596],[14.432328,-1.350149],[14.465814,-1.224369],[14.391814,-1.023347],[14.457133,-0.856122],[14.451552,-0.751219],[14.498991,-0.630916],[14.466538,-0.552678],[14.292698,-0.436406],[14.159683,-0.455113],[14.121443,-0.302151],[14.058811,-0.258846],[13.831228,-0.205413],[13.888054,-0.092088]]]},"properties":{"LOCATION_TYPE":"level1","ADM0_A3":"GAB","LOCATION_ID":"GAB-2","NAME":"Haut-Ogooué","TYPE_EN":"Province"}},
{"type":"Feature","geometry":{"type":"Polygon","coordinates":[[[12.741014,-1.890672],[12.776306,-1.749867],[12.900743,-1.484354],[13.15928,-1.271085],[13.166618,-1.108976],[13.270798,-1.151041],[13.432958,-0.953688],[13.557447,-0.769617],[13.552331,-0.729309],[13.303095,-0.239572],[13.222738,-0.106195],[13.281391,0.04067],[13.123726,0.088005],[13.087398,0.193425],[12.944668,0.251613],[12.904308,0.219057],[12.730986,0.28143],[12.608874,0.273369],[12.457566,-0.402352],[12.300366,-0.482089],[11.56253,-0.753494],[11.504342,-0.83907],[11.504652,-0.947694],[11.556329,-1.121792],[11.757608,-1.072079],[11.824012,-1.225765],[12.026171,-1.397589],[12.015784,-1.589412],[12.219079,-1.820302],[12.450009,-1.899298],[12.632386,-1.825159],[12.741014,-1.890672]]]},"properties":{"LOCATION_TYPE":"level1","ADM0_A3":"GAB","LOCATION_ID":"GAB-7","NAME":"Ogooué-Lolo","TYPE_EN":"Province"}},
{"type":"Feature","geometry":{"type":"Polygon","coordinates":[[[12.450009,-1.899298],[12.219079,-1.820302],[12.015784,-1.589412],[12.026171,-1.397589],[11.824012,-1.225765],[11.757608,-1.072079],[11.556329,-1.121792],[11.504652,-0.947694],[11.504342,-0.83907],[11.56253,-0.753494],[11.326213,-0.696856],[11.172579,-0.578466],[10.927736,-0.595002],[10.782009,-0.648849],[10.712349,-0.615156],[10.543832,-0.790287],[10.515255,-0.897774],[10.391128,-1.114557],[10.152332,-1.167112],[10.066497,-1.255479],[9.967382,-1.414074],[9.956478,-1.601142],[9.8724,-1.674419],[9.98614,-1.828622],[10.216875,-1.911873],[10.365859,-1.910219],[10.459238,-1.964221],[10.449936,-2.053156],[10.607136,-2.309885],[11.039926,-2.253764],[11.192785,-2.388484],[11.224566,-2.477006],[11.535566,-2.804996],[11.61033,-2.678853],[11.55824,-2.349365],[11.669654,-2.352672],[11.756057,-2.415097],[11.938372,-2.329107],[12.062292,-2.414994],[12.45927,-2.329934],[12.470225,-2.156301],[12.431468,-2.005406],[12.450009,-1.899298]]]},"properties":{"LOCATION_TYPE":"level1","ADM0_A3":"GAB","LOCATION_ID":"GAB-4","NAME":"Ngounié","TYPE_EN":"Province"}},
{"type":"Feature","geometry":{"type":"Polygon","coordinates":[[[11.535566,-2.804996],[11.224566,-2.477006],[11.192785,-2.388484],[11.039926,-2.253764],[10.607136,-2.309885],[10.464251,-2.380785],[10.325654,-2.644799],[9.961721,-2.745406],[10.452594,-3.133279],[10.635427,-3.313653],[10.646434,-3.451914],[10.98463,-3.714614],[11.021289,-3.857816],[11.114016,-3.936856],[11.212524,-3.697293],[11.413959,-3.587635],[11.482585,-3.509294],[11.569815,-3.54495],[11.64919,-3.673315],[11.819723,-3.710418],[11.898477,-3.622362],[11.827784,-3.548051],[11.944366,-3.303208],[11.687534,-3.17102],[11.706448,-3.04989],[11.763705,-2.982608],[11.636788,-2.833263],[11.535566,-2.804996]]]},"properties":{"LOCATION_TYPE":"level1","ADM0_A3":"GAB","LOCATION_ID":"GAB-5","NAME":"Nyanga","TYPE_EN":"Province"}},
{"type":"Feature","geometry":{"type":"Polygon","coordinates":[[[10.415045,1.002234],[10.029444,1.003506],[9.908625,0.935086],[9.745128,1.059719],[9.668793,1.058173],[9.561534,0.962795],[9.618175,0.806789],[9.625011,0.639309],[9.52003,0.683539],[9.308849,0.614],[9.305675,0.544257],[9.411388,0.469916],[9.498057,0.290961],[9.572113,0.298326],[9.679698,0.222154],[9.712413,0.134833],[9.424327,0.208197],[9.378673,0.307563],[9.30714,0.318996],[9.355317,0.016181],[9.306107,-0.271648],[9.402713,-0.457646],[9.570145,-0.578001],[9.561877,-0.42509],[9.902838,-0.302255],[9.996062,-0.408915],[10.231138,-0.299671],[10.548173,-0.049092],[10.639434,0.07891],[10.666254,0.206758],[10.80702,0.231769],[10.874975,0.468447],[10.950526,0.613193],[10.948355,0.820725],[10.426682,0.640581],[10.365549,0.717683],[10.409629,0.860155],[10.415045,1.002234]]]},"properties":{"LOCATION_TYPE":"level1","ADM0_A3":"GAB","LOCATION_ID":"GAB-1","NAME":"Estuaire","TYPE_EN":"Province"}},
{"type":"Feature","geometry":{"type":"Polygon","coordinates":[[[9.961721,-2.745406],[10.325654,-2.644799],[10.464251,-2.380785],[10.607136,-2.309885],[10.449936,-2.053156],[10.459238,-1.964221],[10.365859,-1.910219],[10.216875,-1.911873],[9.98614,-1.828622],[9.8724,-1.674419],[9.956478,-1.601142],[9.967382,-1.414074],[10.066497,-1.255479],[9.911364,-1.143186],[9.944386,-1.073991],[9.923457,-0.939167],[9.748429,-0.897361],[9.635619,-0.786722],[9.570145,-0.578001],[9.402713,-0.457646],[9.306107,-0.271648],[9.267426,-0.412367],[9.100841,-0.599705],[9.087169,-0.68963],[9.004649,-0.805108],[8.929047,-0.68727],[8.800304,-0.733657],[8.877452,-0.973728],[9.015798,-1.169854],[9.03004,-1.299086],[9.15797,-1.395196],[9.28533,-1.415785],[9.299815,-1.577407],[9.244314,-1.785821],[9.359711,-1.914727],[9.368012,-1.995212],[9.565766,-2.19256],[9.597016,-2.352227],[9.908946,-2.470392],[10.137462,-2.527439],[10.039561,-2.613214],[9.84254,-2.500584],[9.725108,-2.481378],[9.961721,-2.745406]]]},"properties":{"LOCATION_TYPE":"level1","ADM0_A3":"GAB","LOCATION_ID":"GAB-8","NAME":"Ogooué-Maritime","TYPE_EN":"Province"}},
{"type":"Feature","geometry":{"type":"Polygon","coordinates":[[[11.582839,0.230115],[10.80702,0.231769],[10.666254,0.206758],[10.639434,0.07891],[10.548173,-0.049092],[10.231138,-0.299671],[9.996062,-0.408915],[9.902838,-0.302255],[9.561877,-0.42509],[9.570145,-0.578001],[9.635619,-0.786722],[9.748429,-0.897361],[9.923457,-0.939167],[9.944386,-1.073991],[9.911364,-1.143186],[10.066497,-1.255479],[10.152332,-1.167112],[10.391128,-1.114557],[10.515255,-0.897774],[10.543832,-0.790287],[10.712349,-0.615156],[10.782009,-0.648849],[10.927736,-0.595002],[11.172579,-0.578466],[11.326213,-0.696856],[11.56253,-0.753494],[11.513179,-0.599705],[11.426156,-0.488755],[11.400369,-0.357497],[11.280273,-0.080357],[11.356134,0.043409],[11.570281,0.159836],[11.582839,0.230115]]]},"properties":{"LOCATION_TYPE":"level1","ADM0_A3":"GAB","LOCATION_ID":"GAB-3","NAME":"Moyen-Ogooué","TYPE_EN":"Province"}}
]}