{"type":"FeatureCollection", "features": [
{"type":"Feature","geometry":{"type":"Polygon","coordinates":[[[42.154334,43.217498],[42.011316,43.181861],[41.550569,43.226277],[41.380657,43.334772],[41.011791,43.375416],[40.651916,43.538971],[40.479834,43.508741],[40.23313,43.575765],[40.059187,43.535199],[39.985976,43.38899],[40.219086,43.319037],[40.335134,43.140855],[40.855968,43.063056],[41.023123,42.989976],[41.150238,42.79564],[41.383474,42.75727],[41.500173,42.64057],[41.551195,42.406457],[41.93835,42.617993],[41.907964,42.987247],[42.057309,43.016884],[42.154334,43.217498]]]},"properties":{"LOCATION_TYPE":"level1","ADM0_A3":"GEO","LOCATION_ID":"GEO-AB","NAME":"Abkhazia","TYPE_EN":"Autonomous Republic"}},
{"type":"Feature","geometry":{"type":"Polygon","coordinates":[[[43.175228,42.934471],[43.000093,43.098662],[42.75153,43.176952],[42.59588,43.140029],[42.422867,43.22899],[42.154334,43.217498],[42.057309,43.016884],[41.907964,42.987247],[41.93835,42.617993],[41.551195,42.406457],[41.715249,42.059343],[41.755105,42.132545],[42.00615,42.158616],[42.228978,42.097198],[42.526738,42.517147],[42.614381,42.524097],[42.564875,42.677886],[42.352588,42.793796],[42.491908,42.88715],[42.794318,42.872215],[43.06562,42.822064],[43.175228,42.934471]]]},"properties":{"LOCATION_TYPE":"level1","ADM0_A3":"GEO","LOCATION_ID":"GEO-SZ","NAME":"Samegrelo-Zemo Svaneti","TYPE_EN":"Region"}},
{"type":"Feature","geometry":{"type":"Polygon","coordinates":[[[43.908152,42.566213],[43.808003,42.451466],[43.587448,42.394725],[43.608222,42.170191],[43.426218,41.916615],[43.672198,41.791429],[43.886241,41.734197],[44.227203,41.720089],[44.479177,41.747969],[44.573228,41.878891],[44.493026,42.006325],[44.261929,42.033972],[44.362595,42.239644],[44.286941,42.429374],[44.33438,42.494719],[44.185803,42.626508],[43.908152,42.566213]]]},"properties":{"LOCATION_TYPE":"level1","ADM0_A3":"GEO","LOCATION_ID":"GEO-SK","NAME":"Shida Kartli","TYPE_EN":"Region"}},
{"type":"Feature","geometry":{"type":"Polygon","coordinates":[[[43.908152,42.566213],[43.751107,42.598745],[43.800613,42.746462],[43.517426,42.86046],[43.175228,42.934471],[43.06562,42.822064],[42.794318,42.872215],[42.491908,42.88715],[42.352588,42.793796],[42.564875,42.677886],[42.614381,42.524097],[42.837417,42.469759],[43.050013,42.339586],[43.293926,42.420383],[43.587448,42.394725],[43.808003,42.451466],[43.908152,42.566213]]]},"properties":{"LOCATION_TYPE":"level1","ADM0_A3":"GEO","LOCATION_ID":"GEO-RL","NAME":"Racha-Lechkhumi-Kvemo Svaneti","TYPE_EN":"Region"}},
{"type":"Feature","geometry":{"type":"Polygon","coordinates":[[[45.301571,42.559842],[45.184198,42.674838],[44.85936,42.75951],[44.558293,42.753102],[44.272005,42.702382],[44.185803,42.626508],[44.33438,42.494719],[44.286941,42.429374],[44.362595,42.239644],[44.261929,42.033972],[44.493026,42.006325],[44.573228,41.878891],[44.479177,41.747969],[44.680715,41.705491],[44.892175,41.76975],[45.066221,41.837498],[45.054956,42.104459],[45.301571,42.559842]]]},"properties":{"LOCATION_TYPE":"level1","ADM0_A3":"GEO","LOCATION_ID":"GEO-MM","NAME":"Mtskheta-Mtianeti","TYPE_EN":"Region"}},
{"type":"Feature","geometry":{"type":"Polygon","coordinates":[[[45.301571,42.559842],[45.054956,42.104459],[45.066221,41.837498],[45.18549,41.766986],[45.208331,41.548575],[45.333096,41.444352],[45.720702,41.342387],[45.709747,41.267715],[45.969163,41.168289],[46.210595,41.200174],[46.496779,41.044834],[46.621113,41.114597],[46.694803,41.269782],[46.591554,41.372928],[46.29674,41.510387],[46.192767,41.610174],[46.430892,41.890442],[46.224341,41.993484],[45.947562,42.022914],[45.62138,42.224478],[45.736412,42.447539],[45.698688,42.507587],[45.301571,42.559842]]]},"properties":{"LOCATION_TYPE":"level1","ADM0_A3":"GEO","LOCATION_ID":"GEO-KA","NAME":"Kakheti","TYPE_EN":"Region"}},
{"type":"Feature","geometry":{"type":"Polygon","coordinates":[[[42.586648,41.579107],[42.957719,41.437007],[43.230622,41.17263],[43.322606,41.19206],[43.729713,41.106691],[43.978186,41.164617],[43.951457,41.335358],[43.847381,41.521859],[43.672714,41.5185],[43.733073,41.698721],[43.886241,41.734197],[43.672198,41.791429],[43.426218,41.916615],[43.127425,41.825432],[42.649624,41.833442],[42.481676,41.798663],[42.586648,41.579107]]]},"properties":{"LOCATION_TYPE":"level1","ADM0_A3":"GEO","LOCATION_ID":"GEO-SJ","NAME":"Samtskhe-Javakheti","TYPE_EN":"Region"}},
{"type":"Feature","geometry":{"type":"Polygon","coordinates":[[[41.773936,41.902615],[41.676036,41.662177],[41.520763,41.514228],[41.800787,41.42569],[41.947961,41.505581],[42.158387,41.499897],[42.437854,41.430857],[42.586648,41.579107],[42.481676,41.798663],[42.062994,41.811428],[41.773936,41.902615]]]},"properties":{"LOCATION_TYPE":"level1","ADM0_A3":"GEO","LOCATION_ID":"GEO-AJ","NAME":"Ajaria","TYPE_EN":"Autonomous Republic"}},
{"type":"Feature","geometry":{"type":"Polygon","coordinates":[[[43.978186,41.164617],[44.190977,41.230043],[44.551523,41.177023],[44.821532,41.20622],[45.24962,41.4445],[45.333096,41.444352],[45.208331,41.548575],[45.18549,41.766986],[45.066221,41.837498],[44.892175,41.76975],[44.904887,41.626788],[44.680715,41.705491],[44.479177,41.747969],[44.227203,41.720089],[43.886241,41.734197],[43.733073,41.698721],[43.672714,41.5185],[43.847381,41.521859],[43.951457,41.335358],[43.978186,41.164617]]]},"properties":{"LOCATION_TYPE":"level1","ADM0_A3":"GEO","LOCATION_ID":"GEO-KK","NAME":"Kvemo Kartli","TYPE_EN":"Region"}},
{"type":"Feature","geometry":{"type":"Polygon","coordinates":[[[42.481676,41.798663],[42.649624,41.833442],[42.632261,41.927415],[42.228978,42.097198],[42.00615,42.158616],[41.755105,42.132545],[41.715249,42.059343],[41.773936,41.902615],[42.062994,41.811428],[42.481676,41.798663]]]},"properties":{"LOCATION_TYPE":"level1","ADM0_A3":"GEO","LOCATION_ID":"GEO-GU","NAME":"Guria","TYPE_EN":"Region"}},
{"type":"Feature","geometry":{"type":"Polygon","coordinates":[[[44.892175,41.76975],[44.680715,41.705491],[44.904887,41.626788],[44.892175,41.76975]]]},"properties":{"LOCATION_TYPE":"level1","ADM0_A3":"GEO","LOCATION_ID":"GEO-TB","NAME":"Tbilisi","TYPE_EN":"Independent City"}},
{"type":"Feature","geometry":{"type":"Polygon","coordinates":[[[43.426218,41.916615],[43.608222,42.170191],[43.587448,42.394725],[43.293926,42.420383],[43.050013,42.339586],[42.837417,42.469759],[42.614381,42.524097],[42.526738,42.517147],[42.228978,42.097198],[42.632261,41.927415],[42.649624,41.833442],[43.127425,41.825432],[43.426218,41.916615]]]},"properties":{"LOCATION_TYPE":"level1","ADM0_A3":"GEO","LOCATION_ID":"GEO-IM","NAME":"Imereti","TYPE_EN":"Region"}}
]}