{"type":"FeatureCollection", "features": [
{"type":"Feature","geometry":{"type":"Polygon","coordinates":[[[-0.091564,10.700254],[-0.032061,10.813165],[0.016205,11.062582],[-0.166109,11.13498],[-0.405888,11.101468],[-0.516475,10.988633],[-0.860795,10.992922],[-1.070343,11.013902],[-1.10755,10.994343],[-1.355287,10.99672],[-1.423584,11.017911],[-1.453058,10.851948],[-1.56685,10.724772],[-1.555636,10.588475],[-1.363736,10.456881],[-1.365751,10.390632],[-1.232374,10.298597],[-1.214003,10.381615],[-1.124138,10.489773],[-1.01926,10.528195],[-0.853069,10.535559],[-0.79191,10.63656],[-0.715377,10.640074],[-0.635899,10.544938],[-0.512754,10.55362],[-0.400203,10.607467],[-0.091564,10.700254]]]},"properties":{"LOCATION_TYPE":"level1","ADM0_A3":"GHA","LOCATION_ID":"GHA-UE","NAME":"Upper East","TYPE_EN":"Region"}},
{"type":"Feature","geometry":{"type":"Polygon","coordinates":[[[-0.091564,10.700254],[-0.400203,10.607467],[-0.512754,10.55362],[-0.635899,10.544938],[-0.715377,10.640074],[-0.79191,10.63656],[-0.853069,10.535559],[-1.01926,10.528195],[-1.124138,10.489773],[-1.214003,10.381615],[-1.232374,10.298597],[-1.365751,10.390632],[-1.49011,10.426237],[-1.619611,10.27883],[-1.643072,10.160336],[-1.56685,10.093389],[-1.684388,10.012929],[-1.699606,9.880793],[-1.763608,9.833793],[-1.941039,9.840149],[-2.071212,9.81152],[-2.329697,9.811985],[-2.522502,9.770463],[-2.630222,9.668687],[-2.743404,9.653325],[-2.761093,9.566239],[-2.675672,9.471723],[-2.659807,9.272898],[-2.759388,9.134818],[-2.774839,9.054978],[-2.660789,9.014903],[-2.619448,8.923617],[-2.603118,8.78515],[-2.49408,8.712595],[-2.389642,8.58113],[-2.320215,8.450337],[-2.285023,8.31262],[-2.13095,8.157694],[-1.955973,8.169062],[-1.891636,8.250143],[-1.78526,8.233425],[-1.770326,8.325435],[-1.877735,8.335822],[-1.913159,8.418815],[-1.878717,8.587331],[-1.816499,8.641282],[-1.741981,8.617691],[-1.646328,8.67792],[-1.541012,8.670918],[-1.468509,8.756804],[-1.377972,8.761533],[-1.268961,8.686059],[-1.171628,8.664329],[-1.142276,8.567333],[-1.269943,8.356777],[-1.202893,8.28673],[-1.096413,7.990572],[-1.012982,8.01331],[-1.021663,8.14294],[-0.816585,8.318536],[-0.690366,8.316521],[-0.482885,8.147307],[-0.394906,8.139297],[-0.353797,8.203711],[-0.23011,8.207897],[-0.071592,8.335202],[0.045817,8.295179],[0.103074,8.240402],[0.19759,8.254044],[0.208132,8.39401],[0.100904,8.387809],[0.093152,8.507285],[0.192629,8.765667],[0.368084,8.761481],[0.47349,8.793547],[0.505633,8.866333],[0.43127,9.02759],[0.504703,9.187166],[0.537569,9.377646],[0.430444,9.489189],[0.333783,9.479474],[0.23136,9.418961],[0.230197,9.575747],[0.354608,9.571096],[0.32244,9.760671],[0.370189,9.947017],[0.349777,10.02882],[0.366597,10.304488],[0.283114,10.396808],[0.176971,10.397687],[0.126018,10.491609],[0.020339,10.588037],[-0.088129,10.633486],[-0.091564,10.700254]]]},"properties":{"LOCATION_TYPE":"level1","ADM0_A3":"GHA","LOCATION_ID":"GHA-NP","NAME":"Northern","TYPE_EN":"Region"}},
{"type":"Feature","geometry":{"type":"Polygon","coordinates":[[[0.673572,5.759063],[0.914399,5.777086],[0.995291,5.839342],[1.011729,5.926256],[1.098806,6.047024],[1.185395,6.100491],[1.009685,6.244452],[0.983536,6.324602],[0.907262,6.324912],[0.766805,6.419351],[0.71792,6.48883],[0.714612,6.583914],[0.626659,6.644893],[0.634307,6.711607],[0.519275,6.832246],[0.543873,6.897926],[0.494574,6.973116],[0.59803,7.0312],[0.59772,7.158892],[0.645676,7.323585],[0.548214,7.383271],[0.500568,7.45505],[0.499432,7.562382],[0.612293,7.699428],[0.573846,8.203945],[0.705207,8.282751],[0.685053,8.382564],[0.616324,8.488759],[0.443518,8.606866],[0.368084,8.761481],[0.192629,8.765667],[0.093152,8.507285],[0.100904,8.387809],[0.208132,8.39401],[0.19759,8.254044],[0.103074,8.240402],[0.045817,8.295179],[-0.071592,8.335202],[-0.23011,8.207897],[-0.353797,8.203711],[-0.394906,8.139297],[-0.318192,8.114776],[-0.178847,8.003594],[-0.057898,7.754462],[0.004372,7.734464],[0.104935,7.525742],[0.135837,7.400608],[0.236813,7.342575],[0.223635,7.167315],[0.201466,6.935081],[0.146379,6.856171],[0.210458,6.763386],[0.207357,6.694114],[0.134907,6.635693],[0.216504,6.408188],[0.173509,6.300753],[0.091344,6.256259],[0.097338,6.138153],[0.317066,6.051],[0.320012,5.944237],[0.401609,6.000254],[0.560979,5.978989],[0.673572,5.759063]]]},"properties":{"LOCATION_TYPE":"level1","ADM0_A3":"GHA","LOCATION_ID":"GHA-TV","NAME":"Volta","TYPE_EN":"Region"}},
{"type":"Feature","geometry":{"type":"Polygon","coordinates":[[[-2.603118,8.78515],[-2.506328,8.209267],[-2.619448,8.123097],[-2.610559,8.040001],[-2.690865,8.009745],[-2.840003,7.820247],[-2.941521,7.577161],[-2.990459,7.270668],[-2.9817,7.195531],[-3.045933,7.071249],[-3.097274,7.054053],[-3.068644,6.959136],[-2.968831,6.956191],[-2.886511,6.905289],[-2.842302,6.806226],[-2.827393,6.650034],[-2.635596,6.580296],[-2.521158,6.418988],[-2.425764,6.386716],[-2.44106,6.451493],[-2.377343,6.545131],[-2.417495,6.645228],[-2.30665,6.70016],[-2.252725,6.851443],[-2.339464,6.86046],[-2.312541,6.98916],[-2.249392,7.058148],[-2.055425,7.040372],[-1.856367,7.234107],[-1.988064,7.315264],[-2.141466,7.354358],[-2.112682,7.458718],[-1.859907,7.469183],[-1.822958,7.388283],[-1.739914,7.338622],[-1.614728,7.356993],[-1.523803,7.406577],[-1.53481,7.475797],[-1.406937,7.6038],[-1.318028,7.570598],[-1.289244,7.469338],[-1.085897,7.483471],[-1.038639,7.539411],[-0.788809,7.495641],[-0.698479,7.540729],[-0.579675,7.390144],[-0.288711,7.302061],[-0.21378,7.192843],[0.223635,7.167315],[0.236813,7.342575],[0.135837,7.400608],[0.104935,7.525742],[0.004372,7.734464],[-0.057898,7.754462],[-0.178847,8.003594],[-0.318192,8.114776],[-0.394906,8.139297],[-0.482885,8.147307],[-0.690366,8.316521],[-0.816585,8.318536],[-1.021663,8.14294],[-1.012982,8.01331],[-1.096413,7.990572],[-1.202893,8.28673],[-1.269943,8.356777],[-1.142276,8.567333],[-1.171628,8.664329],[-1.268961,8.686059],[-1.377972,8.761533],[-1.468509,8.756804],[-1.541012,8.670918],[-1.646328,8.67792],[-1.741981,8.617691],[-1.816499,8.641282],[-1.878717,8.587331],[-1.913159,8.418815],[-1.877735,8.335822],[-1.770326,8.325435],[-1.78526,8.233425],[-1.891636,8.250143],[-1.955973,8.169062],[-2.13095,8.157694],[-2.285023,8.31262],[-2.320215,8.450337],[-2.389642,8.58113],[-2.49408,8.712595],[-2.603118,8.78515]]]},"properties":{"LOCATION_TYPE":"level1","ADM0_A3":"GHA","LOCATION_ID":"GHA-BA","NAME":"Brong Ahafo","TYPE_EN":"Region"}},
{"type":"Feature","geometry":{"type":"Polygon","coordinates":[[[-3.097274,7.054053],[-3.224941,6.849402],[-3.210419,6.715999],[-3.262509,6.617142],[-3.183599,6.263908],[-3.118074,6.163475],[-3.087765,5.996689],[-3.019966,5.818354],[-3.029759,5.704252],[-2.969504,5.621441],[-2.877494,5.636815],[-2.781815,5.578885],[-2.732671,5.355721],[-2.789567,5.346858],[-2.780885,5.150875],[-2.929026,5.122016],[-2.964996,5.045315],[-2.690419,5.010199],[-2.356597,4.919623],[-2.090566,4.737128],[-1.981435,4.752427],[-1.912099,4.820868],[-1.748606,4.877183],[-1.706654,4.936916],[-1.568803,5.019269],[-1.545817,5.177152],[-1.424791,5.24844],[-1.607209,5.449771],[-1.620697,5.59214],[-1.822183,5.668879],[-1.793968,5.778588],[-1.850192,5.902276],[-1.91241,5.93509],[-2.075113,6.10539],[-2.154721,6.143398],[-2.167847,6.216959],[-2.07023,6.297652],[-2.227946,6.382066],[-2.211513,6.466557],[-2.32422,6.510223],[-2.367654,6.377234],[-2.425764,6.386716],[-2.521158,6.418988],[-2.635596,6.580296],[-2.827393,6.650034],[-2.842302,6.806226],[-2.886511,6.905289],[-2.968831,6.956191],[-3.068644,6.959136],[-3.097274,7.054053]]]},"properties":{"LOCATION_TYPE":"level1","ADM0_A3":"GHA","LOCATION_ID":"GHA-WP","NAME":"Western","TYPE_EN":"Region"}},
{"type":"Feature","geometry":{"type":"Polygon","coordinates":[[[-1.423584,11.017911],[-1.598683,10.997133],[-2.750706,10.985842],[-2.864239,10.864273],[-2.932504,10.634313],[-2.81463,10.393708],[-2.833182,10.305987],[-2.758354,10.266119],[-2.798455,10.189534],[-2.788481,10.038768],[-2.736753,9.832579],[-2.795303,9.720002],[-2.743404,9.653325],[-2.630222,9.668687],[-2.522502,9.770463],[-2.329697,9.811985],[-2.071212,9.81152],[-1.941039,9.840149],[-1.763608,9.833793],[-1.699606,9.880793],[-1.684388,10.012929],[-1.56685,10.093389],[-1.643072,10.160336],[-1.619611,10.27883],[-1.49011,10.426237],[-1.365751,10.390632],[-1.363736,10.456881],[-1.555636,10.588475],[-1.56685,10.724772],[-1.453058,10.851948],[-1.423584,11.017911]]]},"properties":{"LOCATION_TYPE":"level1","ADM0_A3":"GHA","LOCATION_ID":"GHA-UW","NAME":"Upper West","TYPE_EN":"Region"}},
{"type":"Feature","geometry":{"type":"Polygon","coordinates":[[[-0.359307,5.498672],[-0.390332,5.587411],[-0.506553,5.725904],[-0.57828,5.747634],[-0.747106,5.734121],[-1.014661,5.777115],[-1.116386,5.778356],[-1.177364,5.887057],[-1.23948,5.915298],[-1.361875,5.917546],[-1.462877,5.885662],[-1.547213,5.922352],[-1.671934,5.913283],[-1.773245,5.957518],[-1.810117,6.020356],[-1.911842,6.013845],[-2.012895,6.128205],[-2.009252,6.276775],[-2.07023,6.297652],[-2.167847,6.216959],[-2.154721,6.143398],[-2.075113,6.10539],[-1.91241,5.93509],[-1.850192,5.902276],[-1.793968,5.778588],[-1.822183,5.668879],[-1.620697,5.59214],[-1.607209,5.449771],[-1.424791,5.24844],[-1.545817,5.177152],[-1.568803,5.019269],[-1.319244,5.09455],[-1.233632,5.100735],[-1.049794,5.198676],[-0.79955,5.21483],[-0.637766,5.340888],[-0.507436,5.368842],[-0.359307,5.498672]]]},"properties":{"LOCATION_TYPE":"level1","ADM0_A3":"GHA","LOCATION_ID":"GHA-CP","NAME":"Central","TYPE_EN":"Region"}},
{"type":"Feature","geometry":{"type":"Polygon","coordinates":[[[0.673572,5.759063],[0.560979,5.978989],[0.401609,6.000254],[0.320012,5.944237],[0.242549,5.870831],[0.1054,5.992425],[-0.111564,5.884421],[-0.157737,5.787115],[-0.26233,5.784402],[-0.330672,5.738565],[-0.436118,5.791326],[-0.506553,5.725904],[-0.390332,5.587411],[-0.359307,5.498672],[0.034516,5.628363],[0.1574,5.724555],[0.321951,5.779202],[0.673572,5.759063]]]},"properties":{"LOCATION_TYPE":"level1","ADM0_A3":"GHA","LOCATION_ID":"GHA-AA","NAME":"Greater Accra","TYPE_EN":"Region"}},
{"type":"Feature","geometry":{"type":"Polygon","coordinates":[[[-0.21378,7.192843],[-0.288711,7.302061],[-0.579675,7.390144],[-0.698479,7.540729],[-0.788809,7.495641],[-1.038639,7.539411],[-1.085897,7.483471],[-1.289244,7.469338],[-1.318028,7.570598],[-1.406937,7.6038],[-1.53481,7.475797],[-1.523803,7.406577],[-1.614728,7.356993],[-1.739914,7.338622],[-1.822958,7.388283],[-1.859907,7.469183],[-2.112682,7.458718],[-2.141466,7.354358],[-1.988064,7.315264],[-1.856367,7.234107],[-2.055425,7.040372],[-2.249392,7.058148],[-2.312541,6.98916],[-2.339464,6.86046],[-2.252725,6.851443],[-2.30665,6.70016],[-2.417495,6.645228],[-2.377343,6.545131],[-2.44106,6.451493],[-2.425764,6.386716],[-2.367654,6.377234],[-2.32422,6.510223],[-2.211513,6.466557],[-2.227946,6.382066],[-2.07023,6.297652],[-2.009252,6.276775],[-2.012895,6.128205],[-1.911842,6.013845],[-1.810117,6.020356],[-1.773245,5.957518],[-1.671934,5.913283],[-1.547213,5.922352],[-1.462877,5.885662],[-1.361875,5.917546],[-1.23948,5.915298],[-1.24351,5.977129],[-1.114164,6.351654],[-0.890767,6.613731],[-0.947663,6.741113],[-0.792943,6.796976],[-0.613239,7.047038],[-0.453171,7.062334],[-0.289253,7.176229],[-0.21378,7.192843]]]},"properties":{"LOCATION_TYPE":"level1","ADM0_A3":"GHA","LOCATION_ID":"GHA-AH","NAME":"Ashanti","TYPE_EN":"Region"}},
{"type":"Feature","geometry":{"type":"Polygon","coordinates":[[[-0.21378,7.192843],[-0.289253,7.176229],[-0.453171,7.062334],[-0.613239,7.047038],[-0.792943,6.796976],[-0.947663,6.741113],[-0.890767,6.613731],[-1.114164,6.351654],[-1.24351,5.977129],[-1.23948,5.915298],[-1.177364,5.887057],[-1.116386,5.778356],[-1.014661,5.777115],[-0.747106,5.734121],[-0.57828,5.747634],[-0.506553,5.725904],[-0.436118,5.791326],[-0.330672,5.738565],[-0.26233,5.784402],[-0.157737,5.787115],[-0.111564,5.884421],[0.1054,5.992425],[0.242549,5.870831],[0.320012,5.944237],[0.317066,6.051],[0.097338,6.138153],[0.091344,6.256259],[0.173509,6.300753],[0.216504,6.408188],[0.134907,6.635693],[0.207357,6.694114],[0.210458,6.763386],[0.146379,6.856171],[0.201466,6.935081],[0.223635,7.167315],[-0.21378,7.192843]]]},"properties":{"LOCATION_TYPE":"level1","ADM0_A3":"GHA","LOCATION_ID":"GHA-EP","NAME":"Eastern","TYPE_EN":"Region"}}
]}