{"type":"FeatureCollection", "features": [
{"type":"Feature","geometry":{"type":"Polygon","coordinates":[[[-11.449173,9.99504],[-11.199596,9.982157],[-11.16027,9.872758],[-11.010098,9.74274],[-10.852589,9.512082],[-10.854862,9.455264],[-10.675132,9.306461],[-10.746342,9.083814],[-10.593101,9.047617],[-10.478244,9.185176],[-10.391591,9.292539],[-10.417731,9.611739],[-10.414036,9.740052],[-10.321638,9.895469],[-10.353755,9.999054],[-10.219836,10.167881],[-10.224228,10.326838],[-10.137438,10.398926],[-10.237535,10.512511],[-10.441709,10.505948],[-10.598107,10.662089],[-10.809204,10.608469],[-10.88131,10.65654],[-11.019513,10.608469],[-11.16072,10.473271],[-11.377037,10.395156],[-11.392059,10.166821],[-11.449173,9.99504]]]},"properties":{"LOCATION_TYPE":"level1","ADM0_A3":"GIN","LOCATION_ID":"GIN-FA","NAME":"Faranah","TYPE_EN":"Prefecture"}},
{"type":"Feature","geometry":{"type":"Polygon","coordinates":[[[-12.109807,9.881676],[-12.125482,10.099823],[-12.228964,10.257798],[-12.409676,10.277047],[-12.415128,10.491246],[-12.524346,10.609327],[-12.649532,10.528712],[-12.896014,10.469938],[-13.134615,10.404169],[-13.113585,10.241931],[-13.281831,9.998574],[-13.218739,9.938486],[-13.233761,9.746204],[-13.107576,9.650063],[-13.089549,9.562935],[-12.924307,9.683112],[-12.710994,9.695129],[-12.601552,9.651712],[-12.508327,9.860381],[-12.253588,9.928413],[-12.109807,9.881676]]]},"properties":{"LOCATION_TYPE":"level1","ADM0_A3":"GIN","LOCATION_ID":"GIN-KD","NAME":"Kindia","TYPE_EN":"Prefecture"}},
{"type":"Feature","geometry":{"type":"Polygon","coordinates":[[[-11.587519,9.994283],[-11.553269,10.795698],[-11.602878,10.9653],[-11.423079,11.064169],[-11.249235,11.184279],[-11.306152,11.326182],[-11.472731,11.245102],[-11.502884,11.169267],[-11.663598,11.030774],[-11.813149,11.002455],[-11.821689,10.803756],[-12.028994,10.761694],[-12.19724,10.593447],[-12.415128,10.491246],[-12.409676,10.277047],[-12.228964,10.257798],[-12.125482,10.099823],[-12.109807,9.881676],[-11.921774,9.922212],[-11.910095,9.992518],[-11.587519,9.994283]]]},"properties":{"LOCATION_TYPE":"level1","ADM0_A3":"GIN","LOCATION_ID":"GIN-MM","NAME":"Mamou","TYPE_EN":"Prefecture"}},
{"type":"Feature","geometry":{"type":"Polygon","coordinates":[[[-11.449173,9.99504],[-11.392059,10.166821],[-11.377037,10.395156],[-11.16072,10.473271],[-11.019513,10.608469],[-10.88131,10.65654],[-10.809204,10.608469],[-10.598107,10.662089],[-10.68712,10.74968],[-10.864267,10.808023],[-10.890622,10.871352],[-10.711537,11.055837],[-10.703088,11.112552],[-10.833239,11.089174],[-11.025521,10.959985],[-11.193768,11.026082],[-11.423079,11.064169],[-11.602878,10.9653],[-11.553269,10.795698],[-11.587519,9.994283],[-11.449173,9.99504]]]},"properties":{"LOCATION_TYPE":"level1","ADM0_A3":"GIN","LOCATION_ID":"GIN-DB","NAME":"Dabola","TYPE_EN":"Prefecture"}},
{"type":"Feature","geometry":{"type":"Polygon","coordinates":[[[-12.601552,9.651712],[-12.710994,9.695129],[-12.924307,9.683112],[-13.089549,9.562935],[-13.206721,9.562935],[-13.317884,9.638045],[-13.486684,9.569078],[-13.513987,9.449612],[-13.322174,9.345404],[-13.315297,9.182074],[-13.115913,9.043945],[-13.028864,9.095983],[-12.957912,9.272433],[-12.835827,9.281967],[-12.701597,9.420227],[-12.601552,9.651712]]]},"properties":{"LOCATION_TYPE":"level1","ADM0_A3":"GIN","LOCATION_ID":"GIN-FO","NAME":"Forécariah","TYPE_EN":"Prefecture"}},
{"type":"Feature","geometry":{"type":"Polygon","coordinates":[[[-10.593101,9.047617],[-10.600201,8.819024],[-10.481862,8.672469],[-10.638855,8.519895],[-10.669086,8.399075],[-10.519276,8.33479],[-10.389775,8.489095],[-10.091085,8.510102],[-10.04039,8.425663],[-9.872804,8.500361],[-9.907882,8.75475],[-9.769992,8.900258],[-9.97998,8.94302],[-10.202188,8.872327],[-10.441631,9.085001],[-10.478244,9.185176],[-10.593101,9.047617]]]},"properties":{"LOCATION_TYPE":"level1","ADM0_A3":"GIN","LOCATION_ID":"GIN-GU","NAME":"Guéckédou","TYPE_EN":"Prefecture"}},
{"type":"Feature","geometry":{"type":"Polygon","coordinates":[[[-8.152392,9.949988],[-8.339581,10.004583],[-8.429713,10.178839],[-8.67307,10.232918],[-8.748181,10.392152],[-8.946471,10.503315],[-8.964498,10.665553],[-9.159784,10.680575],[-9.373097,10.749676],[-9.667529,10.437218],[-9.718604,10.202874],[-9.700578,9.902433],[-9.850798,9.701138],[-9.955201,9.668997],[-9.833413,9.553117],[-9.629252,9.536628],[-9.54948,9.459037],[-9.344307,9.467244],[-9.221203,9.42621],[-9.177811,9.638045],[-9.024586,9.731182],[-8.883379,9.740195],[-8.814278,9.683112],[-8.57092,9.626028],[-8.474779,9.520874],[-8.479098,9.380759],[-8.319546,9.335173],[-8.070433,9.397541],[-8.16159,9.575644],[-8.123505,9.844852],[-8.152392,9.949988]]]},"properties":{"LOCATION_TYPE":"level1","ADM0_A3":"GIN","LOCATION_ID":"GIN-K","NAME":"Kankan","TYPE_EN":"Prefecture"}},
{"type":"Feature","geometry":{"type":"Polygon","coordinates":[[[-8.152392,9.949988],[-7.96801,10.209998],[-7.981549,10.307021],[-8.228873,10.423422],[-8.295535,10.537446],[-8.311142,11.000803],[-8.505755,11.052789],[-8.541567,10.983775],[-8.696906,10.996048],[-8.483224,11.28492],[-8.427724,11.40008],[-8.549577,11.490127],[-8.656754,11.496431],[-8.726517,11.649471],[-8.853335,11.428672],[-8.922436,11.131236],[-9.069652,11.017068],[-9.237899,10.953976],[-9.343053,10.866848],[-9.373097,10.749676],[-9.159784,10.680575],[-8.964498,10.665553],[-8.946471,10.503315],[-8.748181,10.392152],[-8.67307,10.232918],[-8.429713,10.178839],[-8.339581,10.004583],[-8.152392,9.949988]]]},"properties":{"LOCATION_TYPE":"level1","ADM0_A3":"GIN","LOCATION_ID":"GIN-MD","NAME":"Mandiana","TYPE_EN":"Prefecture"}},
{"type":"Feature","geometry":{"type":"Polygon","coordinates":[[[-8.070433,9.397541],[-8.319546,9.335173],[-8.479098,9.380759],[-8.667295,9.194943],[-8.727963,9.072108],[-8.969148,8.961937],[-8.967502,8.745736],[-8.856339,8.463322],[-8.910419,8.29808],[-8.736163,8.358168],[-8.588947,8.349155],[-8.429713,8.216961],[-8.279493,8.19593],[-8.067229,8.020752],[-8.021702,8.117723],[-8.265977,8.245984],[-8.200296,8.491834],[-7.970542,8.49695],[-7.77102,8.386518],[-7.689578,8.438659],[-7.691593,8.606142],[-7.803679,8.749054],[-7.958915,8.781997],[-7.916747,9.012345],[-7.759392,9.091668],[-7.929563,9.183885],[-7.865381,9.409918],[-8.070433,9.397541]]]},"properties":{"LOCATION_TYPE":"level1","ADM0_A3":"GIN","LOCATION_ID":"GIN-BE","NAME":"Beyla","TYPE_EN":"Prefecture"}},
{"type":"Feature","geometry":{"type":"Polygon","coordinates":[[[-8.067229,8.020752],[-8.279493,8.19593],[-8.429713,8.216961],[-8.54989,7.934546],[-8.510832,7.763295],[-8.567405,7.688214],[-8.485446,7.557989],[-8.303235,7.589305],[-8.228976,7.544295],[-8.12738,7.713019],[-8.128879,7.882569],[-8.067229,8.020752]]]},"properties":{"LOCATION_TYPE":"level1","ADM0_A3":"GIN","LOCATION_ID":"GIN-LO","NAME":"Lola","TYPE_EN":"Prefecture"}},
{"type":"Feature","geometry":{"type":"Polygon","coordinates":[[[-12.57813,12.361528],[-12.773272,12.435056],[-12.913135,12.536342],[-12.981038,12.466992],[-13.082711,12.515671],[-13.076458,12.635922],[-13.728279,12.673388],[-13.663399,12.475777],[-13.695324,12.292493],[-13.379709,12.243272],[-13.211066,12.015428],[-13.018063,12.016913],[-12.827713,12.154246],[-12.798877,12.239692],[-12.57813,12.361528]]]},"properties":{"LOCATION_TYPE":"level1","ADM0_A3":"GIN","LOCATION_ID":"GIN-KN","NAME":"Koundara","TYPE_EN":"Prefecture"}},
{"type":"Feature","geometry":{"type":"Polygon","coordinates":[[[-11.470794,12.134609],[-11.507794,12.191608],[-11.416017,12.40498],[-11.515391,12.431645],[-11.757805,12.383328],[-12.07918,12.408133],[-12.36092,12.305607],[-12.505072,12.390253],[-12.57813,12.361528],[-12.798877,12.239692],[-12.827713,12.154246],[-12.780222,11.891833],[-12.808696,11.722153],[-12.500577,11.725678],[-12.31747,11.727772],[-12.200245,11.729113],[-11.956492,11.65294],[-11.806667,11.714091],[-11.626403,11.729113],[-11.473178,12.056593],[-11.470794,12.134609]]]},"properties":{"LOCATION_TYPE":"level1","ADM0_A3":"GIN","LOCATION_ID":"GIN-ML","NAME":"Mali","TYPE_EN":"Prefecture"}},
{"type":"Feature","geometry":{"type":"Polygon","coordinates":[[[-9.872804,8.500361],[-9.683513,8.487054],[-9.579178,8.387293],[-9.42234,8.015791],[-9.43867,7.866239],[-9.367753,7.757545],[-9.194325,7.903876],[-9.069404,8.053227],[-8.910419,8.29808],[-8.856339,8.463322],[-8.967502,8.745736],[-8.969148,8.961937],[-9.239815,8.9192],[-9.3361,9.089725],[-9.421745,8.928732],[-9.592613,8.860002],[-9.769992,8.900258],[-9.907882,8.75475],[-9.872804,8.500361]]]},"properties":{"LOCATION_TYPE":"level1","ADM0_A3":"GIN","LOCATION_ID":"GIN-MC","NAME":"Macenta","TYPE_EN":"Prefecture"}},
{"type":"Feature","geometry":{"type":"Polygon","coordinates":[[[-9.367753,7.757545],[-9.353507,7.62243],[-9.438101,7.421564],[-9.234341,7.381308],[-9.11962,7.237957],[-8.925419,7.248603],[-8.729617,7.50869],[-8.727576,7.622017],[-8.884521,7.666022],[-9.014769,8.01335],[-9.069404,8.053227],[-9.194325,7.903876],[-9.367753,7.757545]]]},"properties":{"LOCATION_TYPE":"level1","ADM0_A3":"GIN","LOCATION_ID":"GIN-YO","NAME":"Yomou","TYPE_EN":"Prefecture"}},
{"type":"Feature","geometry":{"type":"Polygon","coordinates":[[[-8.567405,7.688214],[-8.510832,7.763295],[-8.54989,7.934546],[-8.429713,8.216961],[-8.588947,8.349155],[-8.736163,8.358168],[-8.910419,8.29808],[-9.069404,8.053227],[-9.014769,8.01335],[-8.884521,7.666022],[-8.727576,7.622017],[-8.567405,7.688214]]]},"properties":{"LOCATION_TYPE":"level1","ADM0_A3":"GIN","LOCATION_ID":"GIN-NZ","NAME":"Nzérékoré","TYPE_EN":"Prefecture"}},
{"type":"Feature","geometry":{"type":"Polygon","coordinates":[[[-13.695324,12.292493],[-13.840003,12.277133],[-13.964853,12.14789],[-13.723938,12.002783],[-13.729932,11.709829],[-14.015135,11.63712],[-14.047955,11.533827],[-13.933788,11.485756],[-13.909753,11.377597],[-13.806599,11.29196],[-13.551131,11.364242],[-13.264198,11.33104],[-13.245672,11.142395],[-12.968712,11.168475],[-12.989718,11.256161],[-12.930265,11.385352],[-12.704154,11.566219],[-12.808696,11.722153],[-12.780222,11.891833],[-12.827713,12.154246],[-13.018063,12.016913],[-13.211066,12.015428],[-13.379709,12.243272],[-13.695324,12.292493]]]},"properties":{"LOCATION_TYPE":"level1","ADM0_A3":"GIN","LOCATION_ID":"GIN-GA","NAME":"Gaoual","TYPE_EN":"Prefecture"}},
{"type":"Feature","geometry":{"type":"Polygon","coordinates":[[[-14.015135,11.63712],[-14.278736,11.665077],[-14.520944,11.51289],[-14.686773,11.51072],[-14.828212,11.334787],[-14.959056,11.035762],[-15.081125,10.878241],[-14.973215,10.820054],[-14.898793,10.993232],[-14.749257,10.816107],[-14.792836,10.745022],[-14.535593,10.507473],[-14.40548,10.593447],[-14.27629,10.599456],[-14.144532,10.669068],[-13.989652,10.861877],[-13.860139,10.88992],[-13.760162,11.164538],[-13.806599,11.29196],[-13.909753,11.377597],[-13.933788,11.485756],[-14.047955,11.533827],[-14.015135,11.63712]]]},"properties":{"LOCATION_TYPE":"level1","ADM0_A3":"GIN","LOCATION_ID":"GIN-BK","NAME":"Boke","TYPE_EN":"Prefecture"}},
{"type":"Feature","geometry":{"type":"Polygon","coordinates":[[[-8.726517,11.649471],[-8.847233,11.657946],[-8.797004,11.913227],[-8.819793,12.012653],[-8.926298,12.064278],[-8.913896,12.169853],[-8.995906,12.26101],[-8.993839,12.387514],[-9.147318,12.465493],[-9.321519,12.496603],[-9.308497,12.345036],[-9.421513,12.257082],[-9.628167,12.170163],[-9.722994,12.025417],[-9.888772,12.060557],[-10.207718,11.814861],[-10.065078,11.641037],[-10.029466,11.377515],[-9.874833,11.302487],[-9.832772,11.038099],[-9.68856,10.872857],[-9.343053,10.866848],[-9.237899,10.953976],[-9.069652,11.017068],[-8.922436,11.131236],[-8.853335,11.428672],[-8.726517,11.649471]]]},"properties":{"LOCATION_TYPE":"level1","ADM0_A3":"GIN","LOCATION_ID":"GIN-SI","NAME":"Siguiri","TYPE_EN":"Prefecture"}},
{"type":"Feature","geometry":{"type":"Polygon","coordinates":[[[-11.470794,12.134609],[-11.473178,12.056593],[-11.626403,11.729113],[-11.806667,11.714091],[-11.956492,11.65294],[-12.200245,11.729113],[-12.31747,11.727772],[-12.055486,11.291017],[-12.005489,11.286598],[-11.800659,11.434681],[-11.623399,11.509791],[-11.524253,11.623959],[-11.353002,11.666021],[-11.351318,12.040403],[-11.470794,12.134609]]]},"properties":{"LOCATION_TYPE":"level1","ADM0_A3":"GIN","LOCATION_ID":"GIN-KB","NAME":"Koubia","TYPE_EN":"Prefecture"}},
{"type":"Feature","geometry":{"type":"Polygon","coordinates":[[[-11.351318,12.040403],[-11.353002,11.666021],[-11.524253,11.623959],[-11.623399,11.509791],[-11.800659,11.434681],[-12.005489,11.286598],[-11.91149,11.173479],[-11.888132,11.006099],[-11.813149,11.002455],[-11.663598,11.030774],[-11.502884,11.169267],[-11.472731,11.245102],[-11.306152,11.326182],[-11.145877,11.460386],[-11.215821,11.56193],[-11.139138,11.657555],[-11.119313,11.891057],[-11.184624,12.021072],[-11.351318,12.040403]]]},"properties":{"LOCATION_TYPE":"level1","ADM0_A3":"GIN","LOCATION_ID":"GIN-TO","NAME":"Tougué","TYPE_EN":"Prefecture"}},
{"type":"Feature","geometry":{"type":"Polygon","coordinates":[[[-9.888772,12.060557],[-10.26694,12.217808],[-10.381403,12.180136],[-10.711357,11.890386],[-10.804943,12.095955],[-10.909794,12.200135],[-11.052318,12.202512],[-11.184624,12.021072],[-11.119313,11.891057],[-11.139138,11.657555],[-11.215821,11.56193],[-11.145877,11.460386],[-11.306152,11.326182],[-11.249235,11.184279],[-11.423079,11.064169],[-11.193768,11.026082],[-11.025521,10.959985],[-10.833239,11.089174],[-10.703088,11.112552],[-10.695394,11.227948],[-10.549389,11.174532],[-10.374894,11.178093],[-10.343442,11.269474],[-10.399822,11.398882],[-10.321478,11.466543],[-10.139861,11.373954],[-10.029466,11.377515],[-10.065078,11.641037],[-10.207718,11.814861],[-9.888772,12.060557]]]},"properties":{"LOCATION_TYPE":"level1","ADM0_A3":"GIN","LOCATION_ID":"GIN-DI","NAME":"Dinguiraye","TYPE_EN":"Prefecture"}},
{"type":"Feature","geometry":{"type":"Polygon","coordinates":[[[-13.690362,9.950763],[-13.913435,10.116902],[-13.818969,10.296093],[-13.810607,10.395156],[-13.624334,10.55439],[-13.612442,10.714778],[-13.800005,10.740843],[-14.030743,10.640621],[-14.144532,10.669068],[-14.27629,10.599456],[-14.40548,10.593447],[-14.535593,10.507473],[-14.537262,10.403632],[-14.153188,10.05565],[-13.945383,9.966946],[-13.784657,9.850246],[-13.690362,9.950763]]]},"properties":{"LOCATION_TYPE":"level1","ADM0_A3":"GIN","LOCATION_ID":"GIN-BF","NAME":"Boffa","TYPE_EN":"Prefecture"}},
{"type":"Feature","geometry":{"type":"Polygon","coordinates":[[[-13.673329,9.573798],[-13.643267,9.542543],[-13.515614,9.524482],[-13.528193,9.650063],[-13.474114,9.734186],[-13.474114,9.899429],[-13.392995,9.992566],[-13.281831,9.998574],[-13.113585,10.241931],[-13.134615,10.404169],[-13.212094,10.397239],[-13.483923,10.239199],[-13.818969,10.296093],[-13.913435,10.116902],[-13.690362,9.950763],[-13.747182,9.767768],[-13.624379,9.720282],[-13.673329,9.573798]]]},"properties":{"LOCATION_TYPE":"level1","ADM0_A3":"GIN","LOCATION_ID":"GIN-DU","NAME":"Dubréka","TYPE_EN":"Prefecture"}},
{"type":"Feature","geometry":{"type":"Polygon","coordinates":[[[-13.643267,9.542543],[-13.673329,9.573798],[-13.7058,9.528062],[-13.677968,9.522691],[-13.643267,9.542543]]]},"properties":{"LOCATION_TYPE":"level1","ADM0_A3":"GIN","LOCATION_ID":"GIN-C","NAME":"Conakry","TYPE_EN":"Administrative Zone"}},
{"type":"Feature","geometry":{"type":"Polygon","coordinates":[[[-13.486684,9.569078],[-13.317884,9.638045],[-13.206721,9.562935],[-13.089549,9.562935],[-13.107576,9.650063],[-13.233761,9.746204],[-13.218739,9.938486],[-13.281831,9.998574],[-13.392995,9.992566],[-13.474114,9.899429],[-13.474114,9.734186],[-13.528193,9.650063],[-13.515614,9.524482],[-13.486684,9.569078]]]},"properties":{"LOCATION_TYPE":"level1","ADM0_A3":"GIN","LOCATION_ID":"GIN-CO","NAME":"Coyah","TYPE_EN":"Prefecture"}},
{"type":"Feature","geometry":{"type":"Polygon","coordinates":[[[-9.955201,9.668997],[-10.169064,9.702586],[-10.252935,9.605305],[-10.417731,9.611739],[-10.391591,9.292539],[-10.478244,9.185176],[-10.441631,9.085001],[-10.202188,8.872327],[-9.97998,8.94302],[-9.769992,8.900258],[-9.592613,8.860002],[-9.421745,8.928732],[-9.3361,9.089725],[-9.237616,9.245657],[-9.221203,9.42621],[-9.344307,9.467244],[-9.54948,9.459037],[-9.629252,9.536628],[-9.833413,9.553117],[-9.955201,9.668997]]]},"properties":{"LOCATION_TYPE":"level1","ADM0_A3":"GIN","LOCATION_ID":"GIN-KS","NAME":"Kissidougou","TYPE_EN":"Prefecture"}},
{"type":"Feature","geometry":{"type":"Polygon","coordinates":[[[-9.3361,9.089725],[-9.239815,8.9192],[-8.969148,8.961937],[-8.727963,9.072108],[-8.667295,9.194943],[-8.479098,9.380759],[-8.474779,9.520874],[-8.57092,9.626028],[-8.814278,9.683112],[-8.883379,9.740195],[-9.024586,9.731182],[-9.177811,9.638045],[-9.221203,9.42621],[-9.237616,9.245657],[-9.3361,9.089725]]]},"properties":{"LOCATION_TYPE":"level1","ADM0_A3":"GIN","LOCATION_ID":"GIN-KE","NAME":"Kérouané","TYPE_EN":"Prefecture"}},
{"type":"Feature","geometry":{"type":"Polygon","coordinates":[[[-12.968712,11.168475],[-13.245672,11.142395],[-13.264198,11.33104],[-13.551131,11.364242],[-13.806599,11.29196],[-13.760162,11.164538],[-13.860139,10.88992],[-13.989652,10.861877],[-14.144532,10.669068],[-14.030743,10.640621],[-13.800005,10.740843],[-13.612442,10.714778],[-13.404903,10.700676],[-13.208933,10.59637],[-13.212094,10.397239],[-13.134615,10.404169],[-12.896014,10.469938],[-12.953545,10.88484],[-12.874868,10.9861],[-12.968712,11.168475]]]},"properties":{"LOCATION_TYPE":"level1","ADM0_A3":"GIN","LOCATION_ID":"GIN-TE","NAME":"Télimélé","TYPE_EN":"Prefecture"}},
{"type":"Feature","geometry":{"type":"Polygon","coordinates":[[[-12.874868,10.9861],[-12.812649,11.00013],[-12.751516,11.191074],[-12.648318,11.313522],[-12.525667,11.299206],[-12.461628,11.512796],[-12.500577,11.725678],[-12.808696,11.722153],[-12.704154,11.566219],[-12.930265,11.385352],[-12.989718,11.256161],[-12.968712,11.168475],[-12.874868,10.9861]]]},"properties":{"LOCATION_TYPE":"level1","ADM0_A3":"GIN","LOCATION_ID":"GIN-LE","NAME":"Lélouma","TYPE_EN":"Prefecture"}},
{"type":"Feature","geometry":{"type":"Polygon","coordinates":[[[-12.005489,11.286598],[-12.055486,11.291017],[-12.121839,11.293032],[-12.257329,11.029086],[-12.383514,10.953976],[-12.440597,10.836804],[-12.617857,10.73165],[-12.649532,10.528712],[-12.524346,10.609327],[-12.415128,10.491246],[-12.19724,10.593447],[-12.028994,10.761694],[-11.821689,10.803756],[-11.813149,11.002455],[-11.888132,11.006099],[-11.91149,11.173479],[-12.005489,11.286598]]]},"properties":{"LOCATION_TYPE":"level1","ADM0_A3":"GIN","LOCATION_ID":"GIN-DL","NAME":"Dalaba","TYPE_EN":"Prefecture"}},
{"type":"Feature","geometry":{"type":"Polygon","coordinates":[[[-12.121839,11.293032],[-12.055486,11.291017],[-12.31747,11.727772],[-12.500577,11.725678],[-12.461628,11.512796],[-12.525667,11.299206],[-12.416343,11.148415],[-12.254389,11.196423],[-12.121839,11.293032]]]},"properties":{"LOCATION_TYPE":"level1","ADM0_A3":"GIN","LOCATION_ID":"GIN-LA","NAME":"Labé","TYPE_EN":"Prefecture"}},
{"type":"Feature","geometry":{"type":"Polygon","coordinates":[[[-12.121839,11.293032],[-12.254389,11.196423],[-12.416343,11.148415],[-12.525667,11.299206],[-12.648318,11.313522],[-12.751516,11.191074],[-12.812649,11.00013],[-12.874868,10.9861],[-12.953545,10.88484],[-12.896014,10.469938],[-12.649532,10.528712],[-12.617857,10.73165],[-12.440597,10.836804],[-12.383514,10.953976],[-12.257329,11.029086],[-12.121839,11.293032]]]},"properties":{"LOCATION_TYPE":"level1","ADM0_A3":"GIN","LOCATION_ID":"GIN-PI","NAME":"Pita","TYPE_EN":"Prefecture"}},
{"type":"Feature","geometry":{"type":"Polygon","coordinates":[[[-9.955201,9.668997],[-9.850798,9.701138],[-9.700578,9.902433],[-9.718604,10.202874],[-9.667529,10.437218],[-9.373097,10.749676],[-9.343053,10.866848],[-9.68856,10.872857],[-9.832772,11.038099],[-9.874833,11.302487],[-10.029466,11.377515],[-10.139861,11.373954],[-10.321478,11.466543],[-10.399822,11.398882],[-10.343442,11.269474],[-10.374894,11.178093],[-10.549389,11.174532],[-10.695394,11.227948],[-10.703088,11.112552],[-10.711537,11.055837],[-10.890622,10.871352],[-10.864267,10.808023],[-10.68712,10.74968],[-10.598107,10.662089],[-10.441709,10.505948],[-10.237535,10.512511],[-10.137438,10.398926],[-10.224228,10.326838],[-10.219836,10.167881],[-10.353755,9.999054],[-10.321638,9.895469],[-10.414036,9.740052],[-10.417731,9.611739],[-10.252935,9.605305],[-10.169064,9.702586],[-9.955201,9.668997]]]},"properties":{"LOCATION_TYPE":"level1","ADM0_A3":"GIN","LOCATION_ID":"GIN-KO","NAME":"Kouroussa","TYPE_EN":"Prefecture"}},
{"type":"Feature","geometry":{"type":"Polygon","coordinates":[[[-13.612442,10.714778],[-13.624334,10.55439],[-13.810607,10.395156],[-13.818969,10.296093],[-13.483923,10.239199],[-13.212094,10.397239],[-13.208933,10.59637],[-13.404903,10.700676],[-13.612442,10.714778]]]},"properties":{"LOCATION_TYPE":"level1","ADM0_A3":"GIN","LOCATION_ID":"GIN-FR","NAME":"Fria","TYPE_EN":"Prefecture"}}
]}