{"type":"FeatureCollection", "features": [
{"type":"Feature","geometry":{"type":"Polygon","coordinates":[[[-14.462135,13.516656],[-14.585539,13.660459],[-14.728579,13.619325],[-14.802942,13.65232],[-14.915803,13.792441],[-15.097704,13.819984],[-15.267255,13.741798],[-15.394069,13.771512],[-15.49803,13.641522],[-15.379314,13.632605],[-15.30191,13.496161],[-15.299957,13.496161],[-15.181331,13.559843],[-14.779636,13.410888],[-14.731577,13.359005],[-14.552109,13.323094],[-14.462135,13.516656]]]},"properties":{"LOCATION_TYPE":"level1","ADM0_A3":"GMB","LOCATION_ID":"GMB-M","NAME":"Central River","TYPE_EN":"Division"}},
{"type":"Feature","geometry":{"type":"Polygon","coordinates":[[[-15.49803,13.641522],[-15.518195,13.5831],[-16.561399,13.586914],[-16.52184,13.359036],[-16.321889,13.342841],[-16.141591,13.454576],[-15.769887,13.465074],[-15.556142,13.528306],[-15.332875,13.454576],[-15.30191,13.496161],[-15.379314,13.632605],[-15.49803,13.641522]]]},"properties":{"LOCATION_TYPE":"level1","ADM0_A3":"GMB","LOCATION_ID":"GMB-N","NAME":"North Bank","TYPE_EN":"Division"}},
{"type":"Feature","geometry":{"type":"Polygon","coordinates":[[[-14.462135,13.516656],[-14.552109,13.323094],[-14.394982,13.242965],[-14.201687,13.229555],[-14.056579,13.297174],[-13.851036,13.33575],[-13.818713,13.429362],[-13.967489,13.575581],[-14.092882,13.554729],[-14.329947,13.456441],[-14.462135,13.516656]]]},"properties":{"LOCATION_TYPE":"level1","ADM0_A3":"GMB","LOCATION_ID":"GMB-U","NAME":"Upper River","TYPE_EN":"Division"}},
{"type":"Feature","geometry":{"type":"Polygon","coordinates":[[[-15.181331,13.559843],[-15.299957,13.496161],[-15.340566,13.440823],[-15.555409,13.509223],[-15.785024,13.43476],[-15.994862,13.413031],[-16.161204,13.428697],[-16.22761,13.341946],[-16.151275,13.283881],[-15.824367,13.248512],[-15.807118,13.339781],[-15.519539,13.3866],[-15.379237,13.362519],[-15.227774,13.425176],[-15.181331,13.559843]]]},"properties":{"LOCATION_TYPE":"level1","ADM0_A3":"GMB","LOCATION_ID":"GMB-L","NAME":"Lower River","TYPE_EN":"Division"}},
{"type":"Feature","geometry":{"type":"Polygon","coordinates":[[[-15.824367,13.248512],[-16.151275,13.283881],[-16.257965,13.324897],[-16.419667,13.255561],[-16.545766,13.290107],[-16.59553,13.385077],[-16.704388,13.337791],[-16.762929,13.404975],[-16.829701,13.338528],[-16.796742,13.177232],[-16.673525,13.164314],[-15.833318,13.156847],[-15.824367,13.248512]]]},"properties":{"LOCATION_TYPE":"level1","ADM0_A3":"GMB","LOCATION_ID":"GMB-W","NAME":"West Coast","TYPE_EN":"Division"}},
{"type":"Feature","geometry":{"type":"Polygon","coordinates":[[[-16.762929,13.404975],[-16.704388,13.337791],[-16.59553,13.385077],[-16.678822,13.496161],[-16.762929,13.404975]]]},"properties":{"LOCATION_TYPE":"level1","ADM0_A3":"GMB","LOCATION_ID":"GMB-B","NAME":"Banjul","TYPE_EN":"Independent City"}}
]}