{"type":"FeatureCollection", "features": [
{"type":"Feature","geometry":{"type":"Polygon","coordinates":[[[-14.432268,11.560575],[-14.339223,11.61061],[-14.278736,11.665077],[-14.161844,11.660943],[-14.118565,11.637999],[-14.015135,11.63712],[-13.873515,11.694533],[-13.815767,11.686833],[-13.729932,11.709829],[-13.719365,11.784036],[-13.734635,11.901859],[-13.723938,12.002783],[-13.807757,12.044279],[-13.842406,12.091304],[-13.964853,12.14789],[-13.943925,12.218635],[-13.840003,12.277133],[-13.808558,12.256101],[-13.71182,12.267521],[-13.68301,12.33868],[-13.663399,12.475777],[-13.725075,12.558149],[-13.728279,12.673388],[-14.343108,12.675897],[-14.413947,12.627653],[-14.41914,12.514844],[-14.458879,12.453865],[-14.554842,12.362036],[-14.482392,12.324519],[-14.450663,12.133627],[-14.51916,12.116677],[-14.489911,12.054768],[-14.503399,11.980148],[-14.468956,11.923717],[-14.475778,11.768429],[-14.507093,11.641564],[-14.463892,11.631745],[-14.432268,11.560575]]]},"properties":{"LOCATION_TYPE":"level1","ADM0_A3":"GNB","LOCATION_ID":"GNB-GA","NAME":"Gabú","TYPE_EN":"Region"}},
{"type":"Feature","geometry":{"type":"Polygon","coordinates":[[[-14.432268,11.560575],[-14.463892,11.631745],[-14.507093,11.641564],[-14.626311,11.621358],[-14.683284,11.631745],[-14.733875,11.597639],[-14.829787,11.698614],[-14.898904,11.589784],[-14.914459,11.51816],[-14.955593,11.448087],[-15.089228,11.407056],[-15.196328,11.472995],[-15.273183,11.419989],[-15.329701,11.368476],[-15.377919,11.378363],[-15.41393,11.336412],[-15.409535,11.189602],[-15.358225,11.144232],[-15.206614,11.125149],[-15.214508,11.081448],[-15.271108,11.039211],[-15.230133,10.994818],[-15.154775,11.086982],[-15.099355,11.057685],[-15.117177,10.98428],[-15.085194,10.927639],[-15.020985,10.967475],[-14.959056,11.035762],[-14.863145,11.218645],[-14.828212,11.334787],[-14.728993,11.478009],[-14.686773,11.51072],[-14.520944,11.51289],[-14.432268,11.560575]]]},"properties":{"LOCATION_TYPE":"level1","ADM0_A3":"GNB","LOCATION_ID":"GNB-TO","NAME":"Tombali","TYPE_EN":"Region"}},
{"type":"Feature","geometry":{"type":"Polygon","coordinates":[[[-14.87216,12.678109],[-14.863868,12.622692],[-14.899266,12.531328],[-14.849708,12.481099],[-14.959391,12.427459],[-14.955593,12.329274],[-14.919265,12.268192],[-14.928773,12.191608],[-15.039877,12.211555],[-15.070341,12.16732],[-15.029361,12.074922],[-14.956213,12.035235],[-14.94934,11.971673],[-14.993777,11.957572],[-15.070221,11.860745],[-15.046702,11.823472],[-14.925404,11.769436],[-14.837564,11.72993],[-14.829787,11.698614],[-14.733875,11.597639],[-14.683284,11.631745],[-14.626311,11.621358],[-14.507093,11.641564],[-14.475778,11.768429],[-14.468956,11.923717],[-14.503399,11.980148],[-14.489911,12.054768],[-14.51916,12.116677],[-14.450663,12.133627],[-14.482392,12.324519],[-14.554842,12.362036],[-14.458879,12.453865],[-14.41914,12.514844],[-14.413947,12.627653],[-14.343108,12.675897],[-14.87216,12.678109]]]},"properties":{"LOCATION_TYPE":"level1","ADM0_A3":"GNB","LOCATION_ID":"GNB-BA","NAME":"Bafatá","TYPE_EN":"Region"}},
{"type":"Feature","geometry":{"type":"Polygon","coordinates":[[[-14.87216,12.678109],[-15.195114,12.679434],[-15.249736,12.663621],[-15.421731,12.557122],[-15.40076,12.490194],[-15.411043,12.411336],[-15.454452,12.38219],[-15.518711,12.404101],[-15.693274,12.296614],[-15.752651,12.246385],[-15.651933,12.146959],[-15.665757,12.031462],[-15.624131,11.965885],[-15.545557,11.898084],[-15.497385,11.936998],[-15.35851,11.963202],[-15.313059,11.932807],[-15.215077,11.909613],[-15.079701,11.987942],[-14.993777,11.957572],[-14.94934,11.971673],[-14.956213,12.035235],[-15.029361,12.074922],[-15.070341,12.16732],[-15.039877,12.211555],[-14.928773,12.191608],[-14.919265,12.268192],[-14.955593,12.329274],[-14.959391,12.427459],[-14.849708,12.481099],[-14.899266,12.531328],[-14.863868,12.622692],[-14.87216,12.678109]]]},"properties":{"LOCATION_TYPE":"level1","ADM0_A3":"GNB","LOCATION_ID":"GNB-OI","NAME":"Oio","TYPE_EN":"Region"}},
{"type":"Feature","geometry":{"type":"Polygon","coordinates":[[[-15.421731,12.557122],[-15.677049,12.439294],[-15.973258,12.437226],[-16.090512,12.464305],[-16.181876,12.443376],[-16.23288,12.452884],[-16.382019,12.373819],[-16.533327,12.347826],[-16.668874,12.356715],[-16.609609,12.281317],[-16.576405,12.282701],[-16.471913,12.186265],[-16.365346,12.192328],[-16.331776,12.004625],[-16.27538,11.981106],[-16.215199,11.913804],[-16.134267,11.888861],[-16.055653,11.920233],[-15.981597,11.921291],[-15.932769,11.995307],[-15.790761,12.018378],[-15.706288,12.008287],[-15.665757,12.031462],[-15.651933,12.146959],[-15.752651,12.246385],[-15.693274,12.296614],[-15.518711,12.404101],[-15.454452,12.38219],[-15.411043,12.411336],[-15.40076,12.490194],[-15.421731,12.557122]]]},"properties":{"LOCATION_TYPE":"level1","ADM0_A3":"GNB","LOCATION_ID":"GNB-CA","NAME":"Cacheu","TYPE_EN":"Region"}},
{"type":"Feature","geometry":{"type":"MultiPolygon","coordinates":[[[[-15.676792,11.804753],[-15.671467,11.881136],[-15.624131,11.965885],[-15.665757,12.031462],[-15.706288,12.008287],[-15.781972,12.002834],[-15.865346,11.972235],[-15.925933,11.892971],[-15.969553,11.768256],[-15.880035,11.774359],[-15.830393,11.748358],[-15.676792,11.804753]]],[[[-16.165517,11.871243],[-16.154775,11.807766],[-16.083608,11.755113],[-16.029408,11.769192],[-15.989084,11.861518],[-15.994862,11.899115],[-16.093251,11.871243],[-16.165517,11.871243]]]]},"properties":{"LOCATION_TYPE":"level1","ADM0_A3":"GNB","LOCATION_ID":"GNB-BM","NAME":"Biombo","TYPE_EN":"Region"}},
{"type":"Feature","geometry":{"type":"Polygon","coordinates":[[[-15.545557,11.898084],[-15.624131,11.965885],[-15.671467,11.881136],[-15.676792,11.804753],[-15.58495,11.851264],[-15.545557,11.898084]]]},"properties":{"LOCATION_TYPE":"level1","ADM0_A3":"GNB","LOCATION_ID":"GNB-BS","NAME":"Bissau","TYPE_EN":"Autonomous Sector"}},
{"type":"Feature","geometry":{"type":"Polygon","coordinates":[[[-15.427555,11.680361],[-15.341384,11.682805],[-15.285024,11.65644],[-15.240102,11.693671],[-15.194447,11.642808],[-15.294749,11.604926],[-15.35436,11.525051],[-15.396067,11.532131],[-15.489003,11.40469],[-15.449452,11.347073],[-15.384185,11.404731],[-15.343129,11.378363],[-15.273183,11.419989],[-15.196328,11.472995],[-15.089228,11.407056],[-14.955593,11.448087],[-14.914459,11.51816],[-14.898904,11.589784],[-14.829787,11.698614],[-14.837564,11.72993],[-14.925404,11.769436],[-14.982411,11.754136],[-15.069447,11.803616],[-15.089915,11.940131],[-15.189198,11.871243],[-15.43871,11.885443],[-15.551381,11.73314],[-15.500885,11.708564],[-15.476145,11.654364],[-15.427555,11.680361]]]},"properties":{"LOCATION_TYPE":"level1","ADM0_A3":"GNB","LOCATION_ID":"GNB-QU","NAME":"Quinara","TYPE_EN":"Region"}},
{"type":"Feature","geometry":{"type":"MultiPolygon","coordinates":[[[[-15.341384,11.682805],[-15.427555,11.680361],[-15.468861,11.60578],[-15.343129,11.604926],[-15.341384,11.682805]]],[[[-15.973785,11.159247],[-16.034535,11.190497],[-16.056142,11.148586],[-16.017079,11.068671],[-15.973785,11.159247]]],[[[-16.048899,11.118313],[-16.067698,11.147895],[-16.05663,11.185207],[-16.099965,11.208197],[-16.169749,11.13227],[-16.248036,11.104682],[-16.188466,11.039618],[-16.076161,11.036119],[-16.048899,11.118313]]],[[[-15.658437,11.30268],[-15.723541,11.299018],[-15.775136,11.233791],[-15.734202,11.179145],[-15.658437,11.30268]]],[[[-16.172963,11.220771],[-16.158762,11.296454],[-16.229319,11.304104],[-16.278228,11.230373],[-16.172963,11.220771]]],[[[-16.275543,11.49551],[-16.244537,11.552151],[-16.38915,11.547675],[-16.391469,11.501899],[-16.275543,11.49551]]],[[[-16.022125,11.512152],[-16.083608,11.46776],[-16.035227,11.419989],[-15.89802,11.453518],[-15.906077,11.578437],[-15.95226,11.606757],[-16.001332,11.569037],[-16.022125,11.512152]]],[[[-15.4735,11.63227],[-15.528717,11.624823],[-15.630279,11.528998],[-15.552235,11.519517],[-15.490834,11.563381],[-15.4735,11.63227]]]]},"properties":{"LOCATION_TYPE":"level1","ADM0_A3":"GNB","LOCATION_ID":"GNB-BL","NAME":"Bolama","TYPE_EN":"Region"}}
]}