{"type":"FeatureCollection", "features": [
{"type":"Feature","geometry":{"type":"Polygon","coordinates":[[[10.189983,2.165616],[9.990997,2.165605],[9.786388,2.248114],[9.765473,2.085395],[9.799083,1.901109],[9.617524,1.671454],[9.56422,1.503404],[9.407563,1.28384],[9.360199,1.146959],[9.506521,1.1376],[9.584321,1.042955],[9.755138,1.105943],[9.804371,0.998354],[9.908625,0.935086],[10.000384,0.999742],[10.096779,1.090218],[10.219821,1.090838],[10.149386,1.274858],[10.115693,1.481719],[9.929813,1.557993],[10.106081,1.817357],[10.111507,1.925361],[10.196567,2.062458],[10.189983,2.165616]]]},"properties":{"LOCATION_TYPE":"level1","ADM0_A3":"GNQ","LOCATION_ID":"GNQ-LI","NAME":"Litoral","TYPE_EN":"Province"}},
{"type":"Feature","geometry":{"type":"Polygon","coordinates":[[[10.409686,2.165654],[10.421101,1.956237],[10.517374,1.914948],[10.702427,1.989207],[10.817097,1.940399],[10.959052,1.949494],[10.988405,1.762425],[11.035275,1.732013],[11.332001,1.732611],[11.322078,2.16576],[10.409686,2.165654]]]},"properties":{"LOCATION_TYPE":"level1","ADM0_A3":"GNQ","LOCATION_ID":"GNQ-KN","NAME":"Kié-Ntem","TYPE_EN":"Province"}},
{"type":"Feature","geometry":{"type":"Polygon","coordinates":[[[10.189983,2.165616],[10.196567,2.062458],[10.111507,1.925361],[10.106081,1.817357],[9.929813,1.557993],[10.115693,1.481719],[10.149386,1.274858],[10.219821,1.090838],[10.096779,1.090218],[10.000384,0.999742],[10.963834,1.000425],[10.903965,1.182409],[10.777203,1.322194],[10.872804,1.480478],[10.96267,1.565512],[10.57489,1.587242],[10.610391,1.830225],[10.517374,1.914948],[10.421101,1.956237],[10.409686,2.165654],[10.189983,2.165616]]]},"properties":{"LOCATION_TYPE":"level1","ADM0_A3":"GNQ","LOCATION_ID":"GNQ-CS","NAME":"Centro Sur","TYPE_EN":"Province"}},
{"type":"Feature","geometry":{"type":"Polygon","coordinates":[[[11.332001,1.732611],[11.035275,1.732013],[10.988405,1.762425],[10.959052,1.949494],[10.817097,1.940399],[10.702427,1.989207],[10.517374,1.914948],[10.610391,1.830225],[10.57489,1.587242],[10.96267,1.565512],[10.872804,1.480478],[10.777203,1.322194],[10.903965,1.182409],[10.963834,1.000425],[11.336341,0.999165],[11.332001,1.732611]]]},"properties":{"LOCATION_TYPE":"level1","ADM0_A3":"GNQ","LOCATION_ID":"GNQ-WN","NAME":"Wele-Nzás","TYPE_EN":"Province"}},
{"type":"Feature","geometry":{"type":"Polygon","coordinates":[[[5.626231,-1.456231],[5.646251,-1.438409],[5.633067,-1.415785],[5.618663,-1.433038],[5.626231,-1.456231]]]},"properties":{"LOCATION_TYPE":"level1","ADM0_A3":"GNQ","LOCATION_ID":"GNQ-AN","NAME":"Annobón","TYPE_EN":"Province"}},
{"type":"Feature","geometry":{"type":"Polygon","coordinates":[[[8.626814,3.633108],[8.842076,3.562341],[8.863536,3.515123],[8.95753,3.643012],[8.922699,3.750718],[8.702403,3.760932],[8.626814,3.633108]]]},"properties":{"LOCATION_TYPE":"level1","ADM0_A3":"GNQ","LOCATION_ID":"GNQ-BN","NAME":"Bioko Norte","TYPE_EN":"Province"}},
{"type":"Feature","geometry":{"type":"Polygon","coordinates":[[[8.863536,3.515123],[8.842076,3.562341],[8.626814,3.633108],[8.562755,3.456529],[8.473888,3.46308],[8.422048,3.339301],[8.450206,3.272935],[8.695486,3.208564],[8.774669,3.316555],[8.863536,3.515123]]]},"properties":{"LOCATION_TYPE":"level1","ADM0_A3":"GNQ","LOCATION_ID":"GNQ-BS","NAME":"Bioko Sur","TYPE_EN":"Province"}}
]}