{"type":"FeatureCollection", "features": [
{"type":"Feature","geometry":{"type":"Polygon","coordinates":[[[21.757091,40.922506],[21.685115,40.927994],[21.581556,40.866292],[21.509519,40.900502],[21.381258,40.900502],[21.295372,40.860866],[21.183027,40.870168],[20.965262,40.849394],[20.963505,40.736068],[21.036679,40.639743],[21.018799,40.558972],[20.911932,40.459547],[20.826666,40.464818],[20.768995,40.412573],[20.739552,40.309166],[20.843927,40.326634],[20.960819,40.138403],[20.932294,40.086985],[21.040297,39.981668],[21.058798,39.861986],[21.094868,39.827724],[21.224886,39.848162],[21.291238,39.804832],[21.383429,39.815839],[21.465491,39.863536],[21.748885,39.826613],[21.892028,39.855578],[21.84645,39.926917],[21.954144,39.990324],[22.094807,40.167368],[22.171081,40.281159],[22.074963,40.369888],[21.923654,40.457066],[21.870014,40.526674],[21.857612,40.651472],[21.745784,40.673254],[21.699172,40.826811],[21.792913,40.837456],[21.757091,40.922506]]]},"properties":{"LOCATION_TYPE":"level1","ADM0_A3":"GRC","LOCATION_ID":"GRC-C","NAME":"Dytiki Makedonia","TYPE_EN":"Region"}},
{"type":"Feature","geometry":{"type":"Polygon","coordinates":[[[20.739552,40.309166],[20.659855,40.172743],[20.640218,40.090112],[20.432789,40.063809],[20.317964,39.918391],[20.392998,39.835451],[20.298326,39.805427],[20.28272,39.704399],[20.204172,39.660319],[20.141287,39.537828],[20.263927,39.508612],[20.223643,39.435858],[20.292817,39.333441],[20.365571,39.287665],[20.448253,39.289496],[20.488292,39.21662],[20.686534,39.072455],[20.735118,38.9501],[20.79184,39.080797],[20.893891,39.077216],[21.003184,39.015123],[21.060313,39.039049],[21.10479,39.094229],[21.229433,39.09596],[21.362345,39.153941],[21.333096,39.201173],[21.385083,39.279696],[21.275219,39.333723],[21.178687,39.418886],[21.166078,39.565234],[21.110371,39.659207],[21.216204,39.668742],[21.198427,39.755558],[21.291238,39.804832],[21.224886,39.848162],[21.094868,39.827724],[21.058798,39.861986],[21.040297,39.981668],[20.932294,40.086985],[20.960819,40.138403],[20.843927,40.326634],[20.739552,40.309166]]]},"properties":{"LOCATION_TYPE":"level1","ADM0_A3":"GRC","LOCATION_ID":"GRC-D","NAME":"Ipeiros","TYPE_EN":"Region"}},
{"type":"Feature","geometry":{"type":"Polygon","coordinates":[[[23.624847,41.377094],[23.414519,41.399903],[23.287705,41.398198],[23.115209,41.312673],[22.826027,41.340992],[22.751303,41.315205],[22.727222,41.165809],[22.656115,41.178056],[22.590176,41.125139],[22.421814,41.114649],[22.183173,41.159918],[22.103384,41.121522],[22.029074,41.138575],[21.909081,41.097493],[21.894301,41.053826],[21.757091,40.922506],[21.792913,40.837456],[21.699172,40.826811],[21.745784,40.673254],[21.857612,40.651472],[21.870014,40.526674],[21.923654,40.457066],[22.074963,40.369888],[22.171081,40.281159],[22.094807,40.167368],[22.297275,40.150134],[22.376547,40.022157],[22.496849,39.932653],[22.709808,39.935047],[22.5713,40.054267],[22.552501,40.166571],[22.661143,40.369045],[22.606456,40.41356],[22.602875,40.481269],[22.710948,40.511623],[22.910492,40.644599],[22.983165,40.55268],[22.830903,40.485785],[22.897716,40.402045],[23.029145,40.325751],[23.299083,40.235419],[23.305919,40.104478],[23.378429,40.010972],[23.616466,39.923326],[23.670258,39.98607],[23.498871,40.042304],[23.337657,40.208441],[23.398285,40.277737],[23.675466,40.217922],[23.793305,40.093817],[23.824067,40.021918],[23.97283,39.961859],[24.019216,40.016303],[23.991222,40.11872],[23.896739,40.171332],[23.778575,40.202704],[23.711436,40.261135],[23.699718,40.326361],[23.833507,40.372016],[23.922618,40.36933],[24.001671,40.319771],[24.003928,40.38735],[23.868175,40.41352],[23.826671,40.461371],[23.877615,40.560248],[23.799001,40.586615],[23.691742,40.69538],[23.710704,40.737616],[23.85434,40.781155],[23.942859,40.803091],[24.093651,40.902852],[24.12166,40.953935],[24.006421,41.077751],[23.951128,41.063515],[23.816045,41.126482],[23.701634,41.227716],[23.718687,41.2804],[23.634144,41.311329],[23.624847,41.377094]]]},"properties":{"LOCATION_TYPE":"level1","ADM0_A3":"GRC","LOCATION_ID":"GRC-B","NAME":"Kentriki Makedonia","TYPE_EN":"Region"}},
{"type":"Feature","geometry":{"type":"MultiPolygon","coordinates":[[[[23.85434,40.781155],[23.986339,40.732164],[24.110118,40.727851],[24.340668,40.831285],[24.312673,40.879706],[24.415538,40.945543],[24.566661,40.951728],[24.628673,40.858588],[24.802013,40.853461],[24.863536,40.905219],[24.989757,40.942125],[25.057302,41.009467],[25.134044,40.962877],[25.2588,40.931952],[25.299653,40.95185],[25.537771,40.870429],[25.732188,40.851752],[25.91863,40.852973],[26.012218,40.824449],[26.046886,40.742499],[26.134508,40.767125],[26.260391,40.920449],[26.359093,40.964684],[26.374183,41.03114],[26.322403,41.088553],[26.331705,41.254124],[26.39506,41.258981],[26.540168,41.351792],[26.636596,41.378457],[26.596288,41.59754],[26.46441,41.648518],[26.35961,41.714897],[26.23445,41.745825],[26.108359,41.727893],[26.048105,41.689084],[26.16448,41.517725],[26.174299,41.445998],[26.120865,41.357787],[25.882017,41.304043],[25.811013,41.341044],[25.691227,41.298411],[25.551494,41.31567],[25.285722,41.239396],[25.177098,41.293863],[24.886367,41.400627],[24.718728,41.395717],[24.595842,41.429772],[24.530936,41.547543],[24.286817,41.517622],[24.181604,41.537362],[24.047348,41.525735],[24.052516,41.471475],[23.949887,41.437575],[23.902861,41.463517],[23.754446,41.400678],[23.624847,41.377094],[23.634144,41.311329],[23.718687,41.2804],[23.701634,41.227716],[23.816045,41.126482],[23.951128,41.063515],[24.006421,41.077751],[24.12166,40.953935],[24.093651,40.902852],[23.942859,40.803091],[23.85434,40.781155]]],[[[25.690684,40.447699],[25.575857,40.514716],[25.466319,40.455756],[25.589122,40.398139],[25.690684,40.447699]]],[[[24.786388,40.735053],[24.642263,40.803941],[24.566661,40.755561],[24.511974,40.666815],[24.642263,40.570624],[24.7824,40.620185],[24.786388,40.735053]]]]},"properties":{"LOCATION_TYPE":"level1","ADM0_A3":"GRC","LOCATION_ID":"GRC-A","NAME":"Anatoliki Makedonia kai Thraki","TYPE_EN":"Region"}},
{"type":"Feature","geometry":{"type":"Polygon","coordinates":[[[24.003928,40.38735],[24.001671,40.319771],[24.168956,40.275295],[24.299978,40.128079],[24.383311,40.179145],[24.18686,40.346625],[24.003928,40.38735]]]},"properties":{"LOCATION_TYPE":"level1","ADM0_A3":"GRC","LOCATION_ID":"GRC-69","NAME":"Ayion Oros","TYPE_EN":"Autonomous Monastic State"}},
{"type":"Feature","geometry":{"type":"Polygon","coordinates":[[[22.709808,39.935047],[22.496849,39.932653],[22.376547,40.022157],[22.297275,40.150134],[22.094807,40.167368],[21.954144,39.990324],[21.84645,39.926917],[21.892028,39.855578],[21.748885,39.826613],[21.465491,39.863536],[21.383429,39.815839],[21.291238,39.804832],[21.198427,39.755558],[21.216204,39.668742],[21.110371,39.659207],[21.166078,39.565234],[21.178687,39.418886],[21.275219,39.333723],[21.385083,39.279696],[21.333096,39.201173],[21.362345,39.153941],[21.477583,39.211199],[21.637677,39.243729],[21.697002,39.121618],[21.830947,39.132444],[21.969956,39.035757],[22.116718,39.104797],[22.235883,39.240163],[22.493852,39.119189],[22.51597,39.028652],[22.630795,39.032708],[22.869436,38.957028],[22.996664,38.963397],[23.023285,39.00845],[22.961111,39.119045],[22.826182,39.221259],[22.84254,39.288479],[23.020518,39.317532],[23.151378,39.284857],[23.213552,39.168118],[23.30128,39.151353],[23.342296,39.192613],[23.271332,39.322943],[23.125662,39.454413],[23.101817,39.497382],[22.925141,39.599514],[22.858653,39.773261],[22.740896,39.874701],[22.709808,39.935047]]]},"properties":{"LOCATION_TYPE":"level1","ADM0_A3":"GRC","LOCATION_ID":"GRC-E","NAME":"Thessalia","TYPE_EN":"Region"}},
{"type":"Feature","geometry":{"type":"MultiPolygon","coordinates":[[[[22.996664,38.963397],[22.869436,38.957028],[22.630795,39.032708],[22.51597,39.028652],[22.493852,39.119189],[22.235883,39.240163],[22.116718,39.104797],[21.969956,39.035757],[21.830947,39.132444],[21.697002,39.121618],[21.637677,39.243729],[21.477583,39.211199],[21.362345,39.153941],[21.396348,39.078804],[21.36927,39.0001],[21.469315,38.952558],[21.474793,38.8945],[21.577939,38.862822],[21.536805,38.802257],[21.560679,38.731047],[21.647496,38.690352],[21.803558,38.692884],[21.959621,38.760839],[21.998379,38.742726],[21.982669,38.509123],[21.875699,38.454294],[21.85123,38.388006],[21.987641,38.41059],[22.132579,38.372748],[22.367524,38.341864],[22.408376,38.415595],[22.463064,38.426093],[22.545665,38.302639],[22.646495,38.38996],[22.691417,38.32217],[22.89503,38.241156],[23.010427,38.220038],[23.066661,38.183173],[23.213367,38.160267],[23.282848,38.231672],[23.552289,38.122299],[23.615437,38.165319],[23.624222,38.259991],[23.766845,38.341599],[23.709972,38.336737],[23.594005,38.426093],[23.601329,38.473944],[23.418468,38.50434],[23.293305,38.579088],[23.320974,38.643256],[23.204926,38.682685],[23.090505,38.649115],[23.059418,38.727729],[22.914887,38.77558],[22.769542,38.784817],[22.702647,38.850653],[22.563324,38.836249],[22.621593,38.914496],[22.688975,38.877997],[22.792003,38.877997],[22.996664,38.963397]]],[[[24.676524,38.80976],[24.584158,38.870917],[24.573985,38.932603],[24.461111,38.967678],[24.4546,38.884833],[24.563813,38.838568],[24.61378,38.773098],[24.676524,38.80976]]],[[[24.587657,38.159247],[24.477794,38.138739],[24.326996,38.18594],[24.245128,38.241156],[24.252452,38.292385],[24.185069,38.40762],[24.216075,38.539537],[24.126475,38.598578],[24.07309,38.679389],[23.857595,38.682522],[23.702647,38.765082],[23.619965,38.76553],[23.450694,38.874579],[23.425629,38.954332],[23.299083,39.042467],[23.138031,39.008979],[22.969412,38.889106],[23.083507,38.845649],[23.202322,38.829901],[23.445974,38.676744],[23.505138,38.597398],[23.635509,38.528551],[23.604015,38.468411],[23.63852,38.415513],[23.912364,38.392035],[24.049083,38.394517],[24.054861,38.329291],[24.121593,38.309475],[24.269298,38.095404],[24.371755,37.97191],[24.552094,37.978176],[24.594493,38.062405],[24.587657,38.159247]]]]},"properties":{"LOCATION_TYPE":"level1","ADM0_A3":"GRC","LOCATION_ID":"GRC-H","NAME":"Stereá Elláda","TYPE_EN":"Region"}},
{"type":"Feature","geometry":{"type":"MultiPolygon","coordinates":[[[[23.766845,38.341599],[23.624222,38.259991],[23.615437,38.165319],[23.552289,38.122299],[23.282848,38.231672],[23.213367,38.160267],[23.216645,38.103339],[23.076321,38.05974],[23.159434,37.940538],[23.226817,37.973619],[23.408946,37.974311],[23.449962,38.02143],[23.581309,38.046291],[23.552989,37.980455],[23.680186,37.945868],[23.764496,37.815985],[23.902517,37.781887],[23.949718,37.677436],[24.032725,37.651516],[24.072113,37.689521],[24.087413,37.785224],[24.066905,37.864407],[24.011729,37.89175],[24.032725,38.007758],[23.989024,38.122626],[24.069021,38.204739],[23.95102,38.29092],[23.766845,38.341599]]],[[[23.186953,37.608332],[23.178978,37.507142],[23.305069,37.451022],[23.430539,37.452288],[23.441805,37.414414],[23.525645,37.459703],[23.374278,37.555894],[23.323009,37.537421],[23.186953,37.608332]]],[[[23.011729,36.308295],[22.956391,36.38345],[22.899669,36.328192],[22.908702,36.205959],[22.949555,36.164984],[23.052013,36.144843],[23.076915,36.270738],[23.011729,36.308295]]],[[[23.546153,37.7744],[23.425629,37.768215],[23.457367,37.69245],[23.525645,37.69245],[23.546153,37.7744]]],[[[23.408376,37.898586],[23.467052,37.884223],[23.543468,37.92886],[23.478201,37.998847],[23.408376,37.898586]]]]},"properties":{"LOCATION_TYPE":"level1","ADM0_A3":"GRC","LOCATION_ID":"GRC-A1","NAME":"Attiki","TYPE_EN":"Region"}},
{"type":"Feature","geometry":{"type":"Polygon","coordinates":[[[23.159434,37.940538],[23.076321,38.05974],[22.942882,38.083482],[22.887462,38.033637],[22.975352,37.97899],[22.867198,37.939521],[22.680431,38.066596],[22.511485,38.129299],[22.357256,38.16295],[22.372206,38.089846],[22.327764,38.000006],[22.232266,37.963316],[22.228649,37.835365],[22.14638,37.794153],[22.010574,37.778883],[21.83136,37.853581],[21.773586,37.778986],[21.790743,37.580342],[21.858439,37.57179],[21.950216,37.513705],[21.852754,37.381543],[21.681977,37.378974],[21.682302,37.283922],[21.592133,37.22016],[21.567556,37.156317],[21.599294,37.045722],[21.702647,36.957261],[21.707367,36.81802],[21.822765,36.80858],[21.874034,36.726711],[21.945079,36.789944],[21.921723,36.863227],[21.937348,36.979967],[22.048106,37.035142],[22.153168,37.021186],[22.137869,36.917141],[22.221528,36.897528],[22.291677,36.820136],[22.370616,36.67357],[22.384044,36.572496],[22.354503,36.511908],[22.4699,36.452338],[22.533458,36.707221],[22.622569,36.803453],[22.765147,36.804185],[22.819347,36.702786],[22.884288,36.654242],[22.972423,36.520209],[23.035655,36.528022],[23.094737,36.443183],[23.145356,36.541938],[23.080577,36.579291],[23.025645,36.715644],[23.088634,36.732896],[23.095551,36.807034],[23.011729,36.93891],[22.999848,37.033271],[22.89503,37.133857],[22.911632,37.183417],[22.757986,37.398261],[22.723155,37.541653],[22.963878,37.521796],[23.011241,37.469062],[23.132009,37.448635],[23.07309,37.355211],[23.203624,37.30268],[23.230235,37.384589],[23.441805,37.414414],[23.430539,37.452288],[23.305069,37.451022],[23.178978,37.507142],[23.186953,37.608332],[23.163829,37.681586],[23.182384,37.809149],[23.114106,37.850775],[23.012543,37.847561],[23.015147,37.925238],[23.159434,37.940538]]]},"properties":{"LOCATION_TYPE":"level1","ADM0_A3":"GRC","LOCATION_ID":"GRC-J","NAME":"Peloponnisos","TYPE_EN":"Region"}},
{"type":"Feature","geometry":{"type":"MultiPolygon","coordinates":[[[[21.681977,37.378974],[21.852754,37.381543],[21.950216,37.513705],[21.858439,37.57179],[21.790743,37.580342],[21.773586,37.778986],[21.83136,37.853581],[22.010574,37.778883],[22.14638,37.794153],[22.228649,37.835365],[22.232266,37.963316],[22.327764,38.000006],[22.372206,38.089846],[22.357256,38.16295],[22.226573,38.18594],[22.143321,38.249091],[22.037852,38.282131],[21.955903,38.336737],[21.849457,38.341295],[21.764171,38.295803],[21.674815,38.179674],[21.603038,38.151801],[21.473969,38.196031],[21.375743,38.204291],[21.325938,38.02143],[21.207774,37.946031],[21.133556,37.946357],[21.122081,37.837388],[21.295258,37.771674],[21.298676,37.672593],[21.402192,37.655422],[21.549978,37.561469],[21.681977,37.378974]]],[[[21.85123,38.388006],[21.875699,38.454294],[21.982669,38.509123],[21.998379,38.742726],[21.959621,38.760839],[21.803558,38.692884],[21.647496,38.690352],[21.560679,38.731047],[21.536805,38.802257],[21.577939,38.862822],[21.474793,38.8945],[21.469315,38.952558],[21.36927,39.0001],[21.396348,39.078804],[21.362345,39.153941],[21.229433,39.09596],[21.10479,39.094229],[21.060313,39.039049],[21.159923,38.997748],[21.085216,38.864325],[20.975352,38.946845],[20.817068,38.921373],[20.764496,38.891791],[20.72934,38.803534],[20.769298,38.765041],[20.883149,38.779364],[20.9074,38.698554],[20.979015,38.672553],[21.024669,38.608466],[21.035818,38.506903],[21.085216,38.501858],[21.140391,38.398871],[21.097911,38.340725],[21.15561,38.3039],[21.369884,38.408189],[21.535411,38.313951],[21.59962,38.35102],[21.782237,38.363674],[21.85123,38.388006]]]]},"properties":{"LOCATION_TYPE":"level1","ADM0_A3":"GRC","LOCATION_ID":"GRC-G","NAME":"Dytiki Ellada","TYPE_EN":"Region"}},
{"type":"Feature","geometry":{"type":"Polygon","coordinates":[[[26.321137,35.315253],[26.155121,35.197943],[26.067393,35.233303],[25.896658,35.184882],[25.830333,35.122382],[25.728526,35.133368],[25.712738,35.182847],[25.766368,35.335679],[25.638845,35.345893],[25.481944,35.297431],[25.375987,35.343166],[25.251801,35.335679],[25.055349,35.355211],[24.971202,35.424506],[24.840831,35.403998],[24.720958,35.427232],[24.593598,35.391181],[24.340099,35.348334],[24.263438,35.378485],[24.252452,35.479071],[24.186697,35.451809],[24.182953,35.585598],[24.081798,35.589911],[24.044688,35.527655],[23.817149,35.534817],[23.767833,35.653876],[23.711192,35.648871],[23.718435,35.512844],[23.641775,35.507025],[23.573497,35.43476],[23.51824,35.307766],[23.587169,35.239488],[23.782074,35.234687],[23.826671,35.25259],[24.084646,35.204535],[24.293224,35.182278],[24.40211,35.191107],[24.564626,35.106147],[24.70753,35.096137],[24.758962,35.04149],[24.738536,34.931627],[25.097423,34.937893],[25.303966,34.984768],[25.506196,34.984565],[25.601248,35.013577],[25.808116,35.005764],[25.984874,35.03913],[26.147227,35.002265],[26.240977,35.039049],[26.311778,35.182359],[26.265961,35.259996],[26.321137,35.315253]]]},"properties":{"LOCATION_TYPE":"level1","ADM0_A3":"GRC","LOCATION_ID":"GRC-M","NAME":"Kriti","TYPE_EN":"Region"}},
{"type":"Feature","geometry":{"type":"MultiPolygon","coordinates":[[[[27.211925,35.520697],[27.158539,35.612047],[27.218761,35.726142],[27.161794,35.746894],[27.115408,35.642239],[27.119802,35.493109],[27.211925,35.520697]]],[[[28.239757,36.432522],[28.118419,36.42768],[27.899669,36.340155],[27.807872,36.274237],[27.763357,36.192206],[27.700694,36.163398],[27.757091,36.084377],[27.71225,35.952704],[27.780447,35.890041],[27.863536,35.940985],[27.932302,36.025336],[28.130544,36.185452],[28.236339,36.373033],[28.239757,36.432522]]],[[[24.474376,36.747138],[24.354259,36.753974],[24.322927,36.665351],[24.48463,36.665229],[24.474376,36.747138]]],[[[25.27296,36.719875],[25.337901,36.66828],[25.399425,36.727973],[25.306977,36.794989],[25.27296,36.719875]]],[[[27.280935,36.907904],[27.164236,36.891181],[27.061209,36.839342],[27.047537,36.775092],[27.129893,36.76081],[27.214203,36.823879],[27.323416,36.8487],[27.280935,36.907904]]],[[[26.911632,36.945787],[26.983409,36.929511],[27.04127,37.00788],[26.951182,37.021186],[26.911632,36.945787]]],[[[25.279796,37.048814],[25.259288,37.123969],[25.150076,37.110541],[25.103363,37.012885],[25.204438,36.988959],[25.279796,37.048814]]],[[[25.526134,37.196234],[25.341807,37.076728],[25.447602,36.92475],[25.552501,36.96894],[25.595063,37.099677],[25.526134,37.196234]]],[[[24.367931,37.411933],[24.411794,37.323961],[24.477794,37.390815],[24.430512,37.446031],[24.367931,37.411933]]],[[[25.395193,37.418158],[25.462901,37.470038],[25.347992,37.508124],[25.306977,37.411933],[25.395193,37.418158]]],[[[25.091319,37.582587],[25.215994,37.532904],[25.245616,37.624213],[24.997895,37.681871],[24.997895,37.637885],[25.091319,37.582587]]],[[[24.374766,37.686265],[24.278087,37.62287],[24.312999,37.538235],[24.395763,37.624661],[24.374766,37.686265]]],[[[24.99171,37.768215],[24.94337,37.843329],[24.953868,37.905992],[24.840831,37.919013],[24.757009,37.996568],[24.695486,37.924628],[24.95753,37.706732],[24.99171,37.768215]]]]},"properties":{"LOCATION_TYPE":"level1","ADM0_A3":"GRC","LOCATION_ID":"GRC-L","NAME":"Notio Aigaio","TYPE_EN":"Region"}},
{"type":"Feature","geometry":{"type":"MultiPolygon","coordinates":[[[[26.362153,37.686265],[26.197439,37.63227],[26.074229,37.637885],[25.979747,37.548651],[26.057872,37.519232],[26.230642,37.571357],[26.362153,37.686265]]],[[[27.047537,37.72724],[27.021007,37.777167],[26.916677,37.777818],[26.771821,37.814114],[26.658051,37.792792],[26.580251,37.74079],[26.589529,37.687079],[26.708263,37.713568],[26.787446,37.647203],[26.86085,37.643378],[27.047537,37.72724]]],[[[26.163585,38.542792],[25.995372,38.604234],[25.848888,38.58039],[25.843272,38.515326],[25.931895,38.463202],[25.989024,38.379299],[25.964366,38.302639],[25.867524,38.259711],[25.974864,38.166002],[26.112071,38.222602],[26.163585,38.302639],[26.139334,38.418891],[26.163585,38.542792]]],[[[26.612315,39.049262],[26.470714,39.225165],[26.379649,39.28266],[26.417491,39.330471],[26.343028,39.383002],[26.163585,39.378852],[26.162771,39.323635],[26.060557,39.289496],[25.858653,39.259223],[25.845958,39.190375],[25.888927,39.144721],[26.042979,39.093207],[26.097423,39.105658],[26.17335,39.195014],[26.293468,39.177151],[26.160167,39.097724],[26.165701,39.022406],[26.276378,39.010647],[26.424164,38.967353],[26.612315,39.049262]]],[[[25.44988,40.0362],[25.28712,39.961086],[25.225108,40.008857],[25.045421,39.984687],[25.067393,39.858059],[25.169932,39.848456],[25.23878,39.919501],[25.295258,39.807685],[25.44988,40.0362]]]]},"properties":{"LOCATION_TYPE":"level1","ADM0_A3":"GRC","LOCATION_ID":"GRC-K","NAME":"Voreio Aigaio","TYPE_EN":"Region"}},
{"type":"Feature","geometry":{"type":"MultiPolygon","coordinates":[[[[20.901378,37.792426],[20.850108,37.836412],[20.741954,37.862291],[20.68572,37.929592],[20.619477,37.864407],[20.704356,37.738349],[20.815115,37.651516],[20.893891,37.733466],[20.901378,37.792426]]],[[[20.733572,38.062405],[20.797699,38.131293],[20.670665,38.275295],[20.625824,38.351752],[20.55128,38.385159],[20.489024,38.31273],[20.398204,38.332709],[20.339041,38.200181],[20.380056,38.151801],[20.472911,38.182074],[20.509776,38.110785],[20.614594,38.119818],[20.733572,38.062405]]],[[[20.58546,38.617906],[20.681651,38.604234],[20.720714,38.638414],[20.717784,38.822699],[20.60255,38.781724],[20.562348,38.69123],[20.58546,38.617906]]],[[[20.092052,39.433539],[19.932465,39.478705],[19.911876,39.583401],[19.858653,39.65884],[19.948009,39.790351],[19.851817,39.82453],[19.676931,39.795152],[19.636404,39.756415],[19.689708,39.67414],[19.840831,39.551988],[19.865571,39.468573],[19.999278,39.399359],[20.092052,39.433539]]]]},"properties":{"LOCATION_TYPE":"level1","ADM0_A3":"GRC","LOCATION_ID":"GRC-F","NAME":"Ionioi Nisoi","TYPE_EN":"Region"}}
]}