{"type":"FeatureCollection", "features": [
{"type":"Feature","geometry":{"type":"Polygon","coordinates":[[[-61.682973,12.025377],[-61.676513,12.084575],[-61.686383,12.110896],[-61.751047,12.110093],[-61.756418,12.087836],[-61.729644,12.015815],[-61.682973,12.025377]]]},"properties":{"LOCATION_TYPE":"level1","ADM0_A3":"GRD","LOCATION_ID":"GRD-03","NAME":"Saint George","TYPE_EN":"Parish"}},
{"type":"Feature","geometry":{"type":"Polygon","coordinates":[[[-61.624501,12.069037],[-61.676513,12.084575],[-61.682973,12.025377],[-61.631581,12.044094],[-61.624501,12.069037]]]},"properties":{"LOCATION_TYPE":"level1","ADM0_A3":"GRD","LOCATION_ID":"GRD-02","NAME":"Saint David","TYPE_EN":"Parish"}},
{"type":"Feature","geometry":{"type":"Polygon","coordinates":[[[-61.603222,12.176691],[-61.65595,12.179165],[-61.66253,12.158602],[-61.686383,12.110896],[-61.676513,12.084575],[-61.624501,12.069037],[-61.603222,12.176691]]]},"properties":{"LOCATION_TYPE":"level1","ADM0_A3":"GRD","LOCATION_ID":"GRD-01","NAME":"Saint Andrew","TYPE_EN":"Parish"}},
{"type":"Feature","geometry":{"type":"Polygon","coordinates":[[[-61.682134,12.223333],[-61.65595,12.179165],[-61.603222,12.176691],[-61.627675,12.236721],[-61.682134,12.223333]]]},"properties":{"LOCATION_TYPE":"level1","ADM0_A3":"GRD","LOCATION_ID":"GRD-06","NAME":"Saint Patrick","TYPE_EN":"Parish"}},
{"type":"Feature","geometry":{"type":"Polygon","coordinates":[[[-61.715148,12.183947],[-61.66253,12.158602],[-61.65595,12.179165],[-61.682134,12.223333],[-61.715148,12.183947]]]},"properties":{"LOCATION_TYPE":"level1","ADM0_A3":"GRD","LOCATION_ID":"GRD-05","NAME":"Saint Mark","TYPE_EN":"Parish"}},
{"type":"Feature","geometry":{"type":"Polygon","coordinates":[[[-61.751047,12.110093],[-61.686383,12.110896],[-61.66253,12.158602],[-61.715148,12.183947],[-61.751047,12.110093]]]},"properties":{"LOCATION_TYPE":"level1","ADM0_A3":"GRD","LOCATION_ID":"GRD-04","NAME":"Saint John","TYPE_EN":"Parish"}},
{"type":"Feature","geometry":{"type":"Polygon","coordinates":[[[-61.428049,12.454657],[-61.42162,12.513373],[-61.443471,12.516547],[-61.467275,12.475572],[-61.428049,12.454657]]]},"properties":{"LOCATION_TYPE":"level1","ADM0_A3":"GRD","LOCATION_ID":"GRD-10","NAME":"Carriacou and Petite Martinique","TYPE_EN":"Dependency"}}
]}