{"type":"FeatureCollection", "features": [
{"type":"Feature","geometry":{"type":"Polygon","coordinates":[[[-90.240563,13.788716],[-90.098307,13.731404],[-90.099044,13.858509],[-90.022976,13.936954],[-89.880116,14.042684],[-89.762268,14.029997],[-89.709868,14.148724],[-89.638322,14.200556],[-89.530939,14.225567],[-89.598351,14.32799],[-89.569877,14.412015],[-89.496148,14.422897],[-89.519388,14.525935],[-89.594526,14.52299],[-89.685502,14.577612],[-89.762345,14.500459],[-90.051888,14.433486],[-90.08093,14.357935],[-90.155473,14.338918],[-90.191053,14.252929],[-90.058296,14.16973],[-90.050338,14.098158],[-90.156688,13.97677],[-90.292855,14.004003],[-90.232549,13.85502],[-90.240563,13.788716]]]},"properties":{"LOCATION_TYPE":"level1","ADM0_A3":"GTM","LOCATION_ID":"GTM-JU","NAME":"Jutiapa","TYPE_EN":"Department"}},
{"type":"Feature","geometry":{"type":"Polygon","coordinates":[[[-89.496148,14.422897],[-89.361822,14.415506],[-89.245685,14.572988],[-89.160393,14.581282],[-89.144502,14.708302],[-89.227676,14.834574],[-89.189215,14.913059],[-89.448669,14.913819],[-89.509105,14.866741],[-89.670413,14.901055],[-89.736352,14.779873],[-89.667002,14.759875],[-89.685502,14.577612],[-89.594526,14.52299],[-89.519388,14.525935],[-89.496148,14.422897]]]},"properties":{"LOCATION_TYPE":"level1","ADM0_A3":"GTM","LOCATION_ID":"GTM-CQ","NAME":"Chiquimula","TYPE_EN":"Department"}},
{"type":"Feature","geometry":{"type":"Polygon","coordinates":[[[-89.236022,15.906493],[-89.184353,16.495872],[-89.149205,17.036271],[-89.160496,17.814314],[-90.259654,17.815348],[-90.962221,17.81602],[-90.990901,17.801964],[-90.991986,17.25192],[-91.430771,17.254969],[-91.364884,17.189753],[-91.290418,17.189081],[-91.1712,17.028006],[-91.121229,17.018394],[-91.066866,16.918193],[-90.73531,16.746576],[-90.633765,16.592167],[-90.648183,16.529586],[-90.543719,16.490209],[-90.475842,16.430729],[-90.394917,16.419206],[-90.398793,16.347582],[-90.459435,16.25906],[-90.447841,16.079687],[-90.216813,16.052147],[-89.887273,15.962669],[-89.858902,15.915747],[-89.742553,15.930863],[-89.679533,15.892002],[-89.515512,15.89518],[-89.513032,15.843116],[-89.396347,15.86128],[-89.358003,15.912931],[-89.236022,15.906493]]]},"properties":{"LOCATION_TYPE":"level1","ADM0_A3":"GTM","LOCATION_ID":"GTM-PE","NAME":"Petén","TYPE_EN":"Department"}},
{"type":"Feature","geometry":{"type":"Polygon","coordinates":[[[-92.105931,15.454469],[-92.204651,15.289507],[-92.20336,15.237159],[-92.073807,15.073706],[-92.154215,14.995933],[-92.15468,14.900797],[-92.190828,14.814239],[-92.161734,14.702334],[-92.208062,14.570507],[-92.162395,14.487326],[-92.016626,14.530948],[-92.072436,14.70179],[-91.951488,14.736103],[-91.850667,14.728972],[-91.795347,14.782974],[-91.736488,14.933766],[-91.673288,15.033191],[-91.699126,15.122385],[-91.616108,15.22088],[-91.71574,15.350123],[-91.849608,15.361233],[-92.055228,15.288499],[-92.067553,15.407122],[-92.105931,15.454469]]]},"properties":{"LOCATION_TYPE":"level1","ADM0_A3":"GTM","LOCATION_ID":"GTM-SM","NAME":"San Marcos","TYPE_EN":"Department"}},
{"type":"Feature","geometry":{"type":"Polygon","coordinates":[[[-92.105931,15.454469],[-92.067553,15.407122],[-92.055228,15.288499],[-91.849608,15.361233],[-91.71574,15.350123],[-91.616108,15.22088],[-91.518827,15.155974],[-91.445782,15.228787],[-91.315351,15.263151],[-91.17908,15.292245],[-91.184377,15.386787],[-91.263571,15.399293],[-91.332197,15.517141],[-91.303414,15.610985],[-91.192258,15.687777],[-90.994798,16.069869],[-91.723776,16.068788],[-91.751888,16.046308],[-92.105931,15.454469]]]},"properties":{"LOCATION_TYPE":"level1","ADM0_A3":"GTM","LOCATION_ID":"GTM-HU","NAME":"Huehuetenango","TYPE_EN":"Department"}},
{"type":"Feature","geometry":{"type":"Polygon","coordinates":[[[-90.994798,16.069869],[-91.192258,15.687777],[-91.303414,15.610985],[-91.332197,15.517141],[-91.263571,15.399293],[-91.184377,15.386787],[-91.17908,15.292245],[-91.315351,15.263151],[-91.315196,15.201631],[-91.234555,15.097218],[-91.243004,15.01743],[-91.182982,14.910666],[-91.087432,14.826279],[-91.024593,14.916558],[-90.852899,14.941879],[-90.657613,14.903948],[-90.707274,15.000222],[-90.797243,15.054947],[-90.871915,15.148481],[-90.865663,15.256847],[-90.691565,15.214937],[-90.541315,15.212508],[-90.503773,15.262195],[-90.493515,15.339736],[-90.650818,15.363094],[-90.692159,15.44898],[-90.603741,15.514066],[-90.632705,15.622923],[-90.780629,15.678914],[-90.811816,15.76511],[-90.767245,15.839395],[-90.763524,15.962282],[-90.660145,16.039796],[-90.46933,16.010703],[-90.448195,16.07926],[-90.485738,16.0707],[-90.994798,16.069869]]]},"properties":{"LOCATION_TYPE":"level1","ADM0_A3":"GTM","LOCATION_ID":"GTM-QC","NAME":"Quiché","TYPE_EN":"Department"}},
{"type":"Feature","geometry":{"type":"Polygon","coordinates":[[[-90.448195,16.07926],[-90.46933,16.010703],[-90.660145,16.039796],[-90.763524,15.962282],[-90.767245,15.839395],[-90.811816,15.76511],[-90.780629,15.678914],[-90.632705,15.622923],[-90.603741,15.514066],[-90.692159,15.44898],[-90.650818,15.363094],[-90.493515,15.339736],[-90.503773,15.262195],[-90.400549,15.260981],[-90.296214,15.21287],[-90.256372,15.289119],[-90.07801,15.268836],[-89.952101,15.288499],[-89.928846,15.217934],[-89.973004,15.156543],[-89.877997,15.15985],[-89.605507,15.179901],[-89.647055,15.290695],[-89.638296,15.422909],[-89.588144,15.481226],[-89.654031,15.577706],[-89.527656,15.750021],[-89.396347,15.86128],[-89.513032,15.843116],[-89.515512,15.89518],[-89.679533,15.892002],[-89.742553,15.930863],[-89.858902,15.915747],[-89.887273,15.962669],[-90.216813,16.052147],[-90.447841,16.079687],[-90.448195,16.07926]]]},"properties":{"LOCATION_TYPE":"level1","ADM0_A3":"GTM","LOCATION_ID":"GTM-AV","NAME":"Alta Verapaz","TYPE_EN":"Department"}},
{"type":"Feature","geometry":{"type":"Polygon","coordinates":[[[-89.14694,15.071284],[-88.973427,15.140395],[-88.398992,15.572797],[-88.316672,15.6746],[-88.23262,15.721419],[-88.344838,15.811957],[-88.447906,15.85871],[-88.625966,15.753892],[-88.787343,15.859076],[-89.040323,15.901718],[-89.236022,15.906493],[-89.358003,15.912931],[-89.396347,15.86128],[-89.527656,15.750021],[-89.654031,15.577706],[-89.588144,15.481226],[-89.638296,15.422909],[-89.647055,15.290695],[-89.605507,15.179901],[-89.431306,15.226384],[-89.250516,15.302891],[-89.175559,15.275605],[-89.197211,15.21039],[-89.14694,15.071284]]]},"properties":{"LOCATION_TYPE":"level1","ADM0_A3":"GTM","LOCATION_ID":"GTM-IZ","NAME":"Izabal","TYPE_EN":"Department"}},
{"type":"Feature","geometry":{"type":"Polygon","coordinates":[[[-89.14694,15.071284],[-89.197211,15.21039],[-89.175559,15.275605],[-89.250516,15.302891],[-89.431306,15.226384],[-89.605507,15.179901],[-89.877997,15.15985],[-89.796555,15.043268],[-89.849084,15.017998],[-89.768675,14.90953],[-89.833994,14.876508],[-89.793661,14.785713],[-89.736352,14.779873],[-89.670413,14.901055],[-89.509105,14.866741],[-89.448669,14.913819],[-89.189215,14.913059],[-89.188582,14.996088],[-89.14694,15.071284]]]},"properties":{"LOCATION_TYPE":"level1","ADM0_A3":"GTM","LOCATION_ID":"GTM-ZA","NAME":"Zacapa","TYPE_EN":"Department"}},
{"type":"Feature","geometry":{"type":"Polygon","coordinates":[[[-91.658501,14.117349],[-91.603938,14.331115],[-91.608356,14.537149],[-91.568979,14.652233],[-91.510507,14.712952],[-91.600915,14.70701],[-91.666001,14.661999],[-91.761034,14.696519],[-91.855783,14.523455],[-92.016626,14.530948],[-92.162395,14.487326],[-91.908193,14.28384],[-91.658501,14.117349]]]},"properties":{"LOCATION_TYPE":"level1","ADM0_A3":"GTM","LOCATION_ID":"GTM-RE","NAME":"Retalhuleu","TYPE_EN":"Department"}},
{"type":"Feature","geometry":{"type":"Polygon","coordinates":[[[-91.551869,14.057278],[-91.456919,14.189884],[-91.461724,14.269879],[-91.423329,14.336645],[-91.28773,14.280421],[-91.171096,14.272049],[-91.111332,14.430437],[-91.114149,14.530431],[-91.176083,14.571049],[-91.257189,14.557406],[-91.302587,14.640502],[-91.383977,14.656832],[-91.476607,14.629857],[-91.469683,14.739566],[-91.510507,14.712952],[-91.568979,14.652233],[-91.608356,14.537149],[-91.603938,14.331115],[-91.658501,14.117349],[-91.551869,14.057278]]]},"properties":{"LOCATION_TYPE":"level1","ADM0_A3":"GTM","LOCATION_ID":"GTM-SU","NAME":"Suchitepéquez","TYPE_EN":"Department"}},
{"type":"Feature","geometry":{"type":"Polygon","coordinates":[[[-90.627335,13.920672],[-90.627124,14.055887],[-90.51571,14.202544],[-90.564932,14.256236],[-90.596351,14.415089],[-90.650508,14.46873],[-90.763007,14.459324],[-90.820213,14.404909],[-90.890545,14.489297],[-91.015989,14.408733],[-91.111332,14.430437],[-91.171096,14.272049],[-91.28773,14.280421],[-91.423329,14.336645],[-91.461724,14.269879],[-91.456919,14.189884],[-91.551869,14.057278],[-91.316461,13.955679],[-91.165761,13.926703],[-90.910333,13.911135],[-90.707278,13.928889],[-90.627335,13.920672]]]},"properties":{"LOCATION_TYPE":"level1","ADM0_A3":"GTM","LOCATION_ID":"GTM-ES","NAME":"Escuintla","TYPE_EN":"Department"}},
{"type":"Feature","geometry":{"type":"Polygon","coordinates":[[[-90.240563,13.788716],[-90.232549,13.85502],[-90.292855,14.004003],[-90.156688,13.97677],[-90.050338,14.098158],[-90.058296,14.16973],[-90.191053,14.252929],[-90.155473,14.338918],[-90.08093,14.357935],[-90.051888,14.433486],[-90.128007,14.519062],[-90.285207,14.514308],[-90.388276,14.496531],[-90.447755,14.387908],[-90.443828,14.328583],[-90.564932,14.256236],[-90.51571,14.202544],[-90.627124,14.055887],[-90.627335,13.920672],[-90.500209,13.8947],[-90.240563,13.788716]]]},"properties":{"LOCATION_TYPE":"level1","ADM0_A3":"GTM","LOCATION_ID":"GTM-SR","NAME":"Santa Rosa","TYPE_EN":"Department"}},
{"type":"Feature","geometry":{"type":"Polygon","coordinates":[[[-90.765229,14.77791],[-90.657613,14.903948],[-90.852899,14.941879],[-91.024593,14.916558],[-91.087432,14.826279],[-91.068828,14.744837],[-91.114149,14.530431],[-91.111332,14.430437],[-91.015989,14.408733],[-90.890545,14.489297],[-90.864397,14.564228],[-90.77187,14.670939],[-90.765229,14.77791]]]},"properties":{"LOCATION_TYPE":"level1","ADM0_A3":"GTM","LOCATION_ID":"GTM-CM","NAME":"Chimaltenango","TYPE_EN":"Department"}},
{"type":"Feature","geometry":{"type":"Polygon","coordinates":[[[-90.890545,14.489297],[-90.820213,14.404909],[-90.763007,14.459324],[-90.650508,14.46873],[-90.619476,14.647582],[-90.691591,14.748816],[-90.765229,14.77791],[-90.77187,14.670939],[-90.864397,14.564228],[-90.890545,14.489297]]]},"properties":{"LOCATION_TYPE":"level1","ADM0_A3":"GTM","LOCATION_ID":"GTM-SA","NAME":"Sacatepéquez","TYPE_EN":"Department"}},
{"type":"Feature","geometry":{"type":"Polygon","coordinates":[[[-90.765229,14.77791],[-90.691591,14.748816],[-90.619476,14.647582],[-90.650508,14.46873],[-90.596351,14.415089],[-90.564932,14.256236],[-90.443828,14.328583],[-90.447755,14.387908],[-90.388276,14.496531],[-90.285207,14.514308],[-90.265803,14.611512],[-90.209088,14.674298],[-90.338847,14.750986],[-90.350139,14.854856],[-90.399929,14.899039],[-90.489794,14.907773],[-90.594155,14.883536],[-90.657613,14.903948],[-90.765229,14.77791]]]},"properties":{"LOCATION_TYPE":"level1","ADM0_A3":"GTM","LOCATION_ID":"GTM-GU","NAME":"Guatemala","TYPE_EN":"Department"}},
{"type":"Feature","geometry":{"type":"Polygon","coordinates":[[[-90.285207,14.514308],[-90.128007,14.519062],[-90.051888,14.433486],[-89.762345,14.500459],[-89.685502,14.577612],[-89.667002,14.759875],[-89.736352,14.779873],[-89.793661,14.785713],[-89.833994,14.876508],[-89.922413,14.819302],[-90.038555,14.782612],[-90.069716,14.726285],[-90.209088,14.674298],[-90.265803,14.611512],[-90.285207,14.514308]]]},"properties":{"LOCATION_TYPE":"level1","ADM0_A3":"GTM","LOCATION_ID":"GTM-JA","NAME":"Jalapa","TYPE_EN":"Department"}},
{"type":"Feature","geometry":{"type":"Polygon","coordinates":[[[-90.399929,14.899039],[-90.350139,14.854856],[-90.338847,14.750986],[-90.209088,14.674298],[-90.069716,14.726285],[-90.038555,14.782612],[-89.922413,14.819302],[-89.833994,14.876508],[-89.768675,14.90953],[-89.849084,15.017998],[-89.796555,15.043268],[-89.877997,15.15985],[-89.973004,15.156543],[-90.282572,14.954488],[-90.303397,14.889582],[-90.399929,14.899039]]]},"properties":{"LOCATION_TYPE":"level1","ADM0_A3":"GTM","LOCATION_ID":"GTM-PR","NAME":"El Progreso","TYPE_EN":"Department"}},
{"type":"Feature","geometry":{"type":"Polygon","coordinates":[[[-91.087432,14.826279],[-91.182982,14.910666],[-91.22962,14.860024],[-91.378706,14.858783],[-91.42829,14.817649],[-91.469683,14.739566],[-91.476607,14.629857],[-91.383977,14.656832],[-91.302587,14.640502],[-91.257189,14.557406],[-91.176083,14.571049],[-91.114149,14.530431],[-91.068828,14.744837],[-91.087432,14.826279]]]},"properties":{"LOCATION_TYPE":"level1","ADM0_A3":"GTM","LOCATION_ID":"GTM-SO","NAME":"Sololá","TYPE_EN":"Department"}},
{"type":"Feature","geometry":{"type":"Polygon","coordinates":[[[-91.42829,14.817649],[-91.470484,14.91015],[-91.56022,14.985907],[-91.587479,15.131015],[-91.518827,15.155974],[-91.616108,15.22088],[-91.699126,15.122385],[-91.673288,15.033191],[-91.736488,14.933766],[-91.795347,14.782974],[-91.850667,14.728972],[-91.951488,14.736103],[-92.072436,14.70179],[-92.016626,14.530948],[-91.855783,14.523455],[-91.761034,14.696519],[-91.666001,14.661999],[-91.600915,14.70701],[-91.510507,14.712952],[-91.469683,14.739566],[-91.42829,14.817649]]]},"properties":{"LOCATION_TYPE":"level1","ADM0_A3":"GTM","LOCATION_ID":"GTM-QZ","NAME":"Quezaltenango","TYPE_EN":"Department"}},
{"type":"Feature","geometry":{"type":"Polygon","coordinates":[[[-90.399929,14.899039],[-90.303397,14.889582],[-90.282572,14.954488],[-89.973004,15.156543],[-89.928846,15.217934],[-89.952101,15.288499],[-90.07801,15.268836],[-90.256372,15.289119],[-90.296214,15.21287],[-90.400549,15.260981],[-90.503773,15.262195],[-90.541315,15.212508],[-90.691565,15.214937],[-90.865663,15.256847],[-90.871915,15.148481],[-90.797243,15.054947],[-90.707274,15.000222],[-90.657613,14.903948],[-90.594155,14.883536],[-90.489794,14.907773],[-90.399929,14.899039]]]},"properties":{"LOCATION_TYPE":"level1","ADM0_A3":"GTM","LOCATION_ID":"GTM-BV","NAME":"Baja Verapaz","TYPE_EN":"Department"}},
{"type":"Feature","geometry":{"type":"Polygon","coordinates":[[[-91.518827,15.155974],[-91.587479,15.131015],[-91.56022,14.985907],[-91.470484,14.91015],[-91.42829,14.817649],[-91.378706,14.858783],[-91.22962,14.860024],[-91.182982,14.910666],[-91.243004,15.01743],[-91.234555,15.097218],[-91.315196,15.201631],[-91.315351,15.263151],[-91.445782,15.228787],[-91.518827,15.155974]]]},"properties":{"LOCATION_TYPE":"level1","ADM0_A3":"GTM","LOCATION_ID":"GTM-TO","NAME":"Totonicapán","TYPE_EN":"Department"}}
]}