{"type":"FeatureCollection", "features": [
{"type":"Feature","geometry":{"type":"Polygon","coordinates":[[[-58.501754,1.453781],[-58.413458,1.47203],[-58.331913,1.593392],[-58.027229,1.516859],[-57.991003,1.650417],[-57.790757,1.704936],[-57.561159,1.708967],[-57.429487,1.900299],[-57.341482,1.968847],[-57.238439,1.948539],[-57.104494,2.021454],[-57.011167,1.918566],[-56.806476,1.873582],[-56.639561,1.93686],[-56.88443,2.303736],[-56.994113,2.504861],[-57.027238,2.648212],[-57.174619,2.818951],[-57.274923,3.13428],[-57.283553,3.343802],[-57.565138,3.349822],[-57.658207,3.39522],[-57.644048,3.51666],[-57.829773,3.662439],[-57.853854,3.76667],[-58.032138,3.987716],[-58.067691,4.151143],[-57.964958,4.282039],[-57.952659,4.409732],[-57.837421,4.65088],[-57.918501,4.829758],[-57.85034,4.922801],[-57.720477,4.9898],[-57.490259,4.99135],[-57.315231,5.026103],[-57.288979,5.171029],[-57.324119,5.33859],[-57.161518,5.638906],[-57.183055,5.73141],[-57.137259,5.882092],[-57.167307,6.08511],[-57.289824,6.234739],[-57.46637,6.337906],[-57.520427,6.277993],[-57.625366,6.165903],[-57.597383,6.080094],[-57.689419,5.980462],[-57.682959,5.875042],[-57.607589,5.773782],[-57.698411,5.347297],[-57.872431,5.014759],[-57.995498,4.870685],[-58.066037,4.65398],[-58.282173,4.634265],[-58.378369,4.447455],[-58.439942,4.25124],[-58.364416,4.138817],[-58.282173,3.752588],[-58.151587,3.53441],[-58.100453,3.20443],[-57.995059,3.05369],[-57.932401,2.878274],[-58.030871,2.706553],[-58.03932,2.4745],[-58.107998,2.341614],[-58.26711,1.89712],[-58.501754,1.453781]]]},"properties":{"LOCATION_TYPE":"level1","ADM0_A3":"GUY","LOCATION_ID":"GUY-MA","NAME":"Mahaica-Berbice","TYPE_EN":"Region"}},
{"type":"Feature","geometry":{"type":"Polygon","coordinates":[[[-60.348273,7.152684],[-60.31342,7.040243],[-60.420958,6.942213],[-60.620688,6.845888],[-60.721534,6.759692],[-60.79352,6.793824],[-60.933821,6.731735],[-61.12983,6.715844],[-61.204787,6.595826],[-61.138977,6.424803],[-61.121562,6.186652],[-61.269382,6.107225],[-61.379608,5.9053],[-60.739854,5.202138],[-60.456357,5.174698],[-60.213426,5.267225],[-60.088704,5.155394],[-59.918223,5.37422],[-59.573206,5.405174],[-59.58814,5.536303],[-59.492435,5.611157],[-59.380944,5.585396],[-59.206794,5.70482],[-59.101581,5.570591],[-58.844749,5.415019],[-58.675612,5.45543],[-58.61714,5.62343],[-58.611223,5.841892],[-58.573241,5.913696],[-58.573603,6.293725],[-58.602011,6.416592],[-58.617014,6.488145],[-58.827127,6.556008],[-58.833561,6.713957],[-58.964948,6.853846],[-59.173256,6.871777],[-59.154394,6.984277],[-59.268599,7.018409],[-59.33074,6.950997],[-59.486648,6.995284],[-59.582507,7.088792],[-59.831665,7.192378],[-59.957704,7.101815],[-60.08767,7.06807],[-60.348273,7.152684]]]},"properties":{"LOCATION_TYPE":"level1","ADM0_A3":"GUY","LOCATION_ID":"GUY-PM","NAME":"Pomeroon-Supenaam","TYPE_EN":"Region"}},
{"type":"Feature","geometry":{"type":"Polygon","coordinates":[[[-60.088704,5.155394],[-59.983104,5.085944],[-60.087697,4.607523],[-60.055606,4.491587],[-59.943313,4.503912],[-59.687115,4.371466],[-59.618268,4.372188],[-59.524707,4.495307],[-59.435333,4.405235],[-59.473031,4.218968],[-59.384716,4.154553],[-59.148038,4.155793],[-59.068534,4.18636],[-58.954846,4.016603],[-58.880587,4.000635],[-58.548514,4.288472],[-58.439942,4.25124],[-58.378369,4.447455],[-58.282173,4.634265],[-58.567763,4.621243],[-58.794261,4.765859],[-58.845937,5.012821],[-58.820564,5.229138],[-58.884927,5.326729],[-58.844749,5.415019],[-59.101581,5.570591],[-59.206794,5.70482],[-59.380944,5.585396],[-59.492435,5.611157],[-59.58814,5.536303],[-59.573206,5.405174],[-59.918223,5.37422],[-60.088704,5.155394]]]},"properties":{"LOCATION_TYPE":"level1","ADM0_A3":"GUY","LOCATION_ID":"GUY-PT","NAME":"Potaro-Siparuni","TYPE_EN":"Region"}},
{"type":"Feature","geometry":{"type":"Polygon","coordinates":[[[-59.687115,4.371466],[-59.738468,4.202768],[-59.52923,3.931906],[-59.680125,3.701687],[-59.837661,3.60929],[-59.828488,3.383412],[-59.959385,3.066481],[-60.00008,2.694049],[-59.906778,2.458766],[-59.903135,2.359599],[-59.741698,2.263791],[-59.764539,1.92053],[-59.682476,1.765604],[-59.572716,1.727157],[-59.242141,1.377798],[-59.011096,1.327569],[-58.897873,1.217808],[-58.771938,1.201271],[-58.682589,1.282455],[-58.51893,1.267262],[-58.501754,1.453781],[-58.26711,1.89712],[-58.107998,2.341614],[-58.03932,2.4745],[-58.030871,2.706553],[-57.932401,2.878274],[-57.995059,3.05369],[-58.100453,3.20443],[-58.151587,3.53441],[-58.282173,3.752588],[-58.364416,4.138817],[-58.439942,4.25124],[-58.548514,4.288472],[-58.880587,4.000635],[-58.954846,4.016603],[-59.068534,4.18636],[-59.148038,4.155793],[-59.384716,4.154553],[-59.473031,4.218968],[-59.435333,4.405235],[-59.524707,4.495307],[-59.618268,4.372188],[-59.687115,4.371466]]]},"properties":{"LOCATION_TYPE":"level1","ADM0_A3":"GUY","LOCATION_ID":"GUY-UD","NAME":"Upper Demerara-Berbice","TYPE_EN":"Region"}},
{"type":"Feature","geometry":{"type":"Polygon","coordinates":[[[-58.780666,7.665077],[-59.021433,7.931002],[-59.165151,8.058743],[-59.755849,8.410875],[-59.848461,8.227742],[-59.99331,8.168521],[-60.019458,8.06031],[-60.231125,7.964114],[-60.37476,7.823606],[-60.503279,7.820867],[-60.601257,7.63385],[-60.730578,7.525433],[-60.601774,7.330148],[-60.643064,7.220904],[-60.548005,7.125509],[-60.475322,7.188503],[-60.348273,7.152684],[-60.08767,7.06807],[-59.957704,7.101815],[-59.831665,7.192378],[-59.582507,7.088792],[-59.486648,6.995284],[-59.33074,6.950997],[-59.268599,7.018409],[-59.154394,6.984277],[-59.174548,7.11091],[-59.100392,7.394329],[-59.025436,7.498121],[-58.888726,7.555767],[-58.780666,7.665077]]]},"properties":{"LOCATION_TYPE":"level1","ADM0_A3":"GUY","LOCATION_ID":"GUY-BA","NAME":"Barima-Waini","TYPE_EN":"Region"}},
{"type":"Feature","geometry":{"type":"MultiPolygon","coordinates":[[[[-58.519602,6.977647],[-58.655717,6.837257],[-58.833561,6.713957],[-58.827127,6.556008],[-58.617014,6.488145],[-58.597727,6.808295],[-58.519602,6.977647]]],[[[-58.581166,6.463446],[-58.401313,6.271891],[-58.355089,6.126551],[-58.274655,6.105855],[-58.269668,6.301295],[-58.303387,6.461725],[-58.177658,6.672384],[-58.173695,6.815375],[-58.273834,6.88052],[-58.398427,6.883368],[-58.567006,6.636705],[-58.581166,6.463446]]]]},"properties":{"LOCATION_TYPE":"level1","ADM0_A3":"GUY","LOCATION_ID":"GUY-DE","NAME":"Demerara-Mahaica","TYPE_EN":"Region"}},
{"type":"Feature","geometry":{"type":"Polygon","coordinates":[[[-58.780666,7.665077],[-58.888726,7.555767],[-59.025436,7.498121],[-59.100392,7.394329],[-59.174548,7.11091],[-59.154394,6.984277],[-59.173256,6.871777],[-58.964948,6.853846],[-58.833561,6.713957],[-58.655717,6.837257],[-58.519602,6.977647],[-58.467356,7.116116],[-58.464223,7.312201],[-58.663163,7.585201],[-58.780666,7.665077]]]},"properties":{"LOCATION_TYPE":"level1","ADM0_A3":"GUY","LOCATION_ID":"GUY-CU","NAME":"Cuyuni-Mazaruni","TYPE_EN":"Region"}},
{"type":"Feature","geometry":{"type":"Polygon","coordinates":[[[-58.602011,6.416592],[-58.573603,6.293725],[-58.573241,5.913696],[-58.611223,5.841892],[-58.61714,5.62343],[-58.675612,5.45543],[-58.844749,5.415019],[-58.884927,5.326729],[-58.820564,5.229138],[-58.845937,5.012821],[-58.794261,4.765859],[-58.567763,4.621243],[-58.282173,4.634265],[-58.066037,4.65398],[-57.995498,4.870685],[-57.872431,5.014759],[-57.698411,5.347297],[-57.607589,5.773782],[-57.682959,5.875042],[-57.843725,5.841039],[-57.950876,5.929509],[-58.114974,5.971548],[-58.125206,6.079862],[-58.274655,6.105855],[-58.355089,6.126551],[-58.401313,6.271891],[-58.581166,6.463446],[-58.602011,6.416592]]]},"properties":{"LOCATION_TYPE":"level1","ADM0_A3":"GUY","LOCATION_ID":"GUY-UT","NAME":"Upper Takutu-Upper Essequibo","TYPE_EN":"Region"}},
{"type":"Feature","geometry":{"type":"Polygon","coordinates":[[[-58.173695,6.815375],[-58.177658,6.672384],[-58.303387,6.461725],[-58.269668,6.301295],[-58.274655,6.105855],[-58.125206,6.079862],[-58.131717,6.207322],[-58.079111,6.344419],[-57.936587,6.45157],[-57.882379,6.543115],[-57.913924,6.712827],[-58.067863,6.821703],[-58.173695,6.815375]]]},"properties":{"LOCATION_TYPE":"level1","ADM0_A3":"GUY","LOCATION_ID":"GUY-EB","NAME":"East Berbice-Corentyne","TYPE_EN":"Region"}},
{"type":"Feature","geometry":{"type":"Polygon","coordinates":[[[-57.913924,6.712827],[-57.882379,6.543115],[-57.936587,6.45157],[-58.079111,6.344419],[-58.131717,6.207322],[-58.125206,6.079862],[-58.114974,5.971548],[-57.950876,5.929509],[-57.843725,5.841039],[-57.682959,5.875042],[-57.689419,5.980462],[-57.597383,6.080094],[-57.625366,6.165903],[-57.520427,6.277993],[-57.598578,6.427246],[-57.913924,6.712827]]]},"properties":{"LOCATION_TYPE":"level1","ADM0_A3":"GUY","LOCATION_ID":"GUY-ES","NAME":"Essequibo Islands-West Demerara","TYPE_EN":"Region"}}
]}