{"type":"FeatureCollection", "features": [
{"type":"Feature","geometry":{"type":"Polygon","coordinates":[[[114.332774,22.511949],[114.298513,22.501003],[114.254568,22.550971],[114.161951,22.560536],[114.148722,22.538109],[114.085297,22.522935],[114.102144,22.47041],[114.1396,22.468069],[114.21451,22.500063],[114.297224,22.490699],[114.332774,22.511949]]]},"properties":{"LOCATION_TYPE":"level1","ADM0_A3":"HKG","LOCATION_ID":"HKG-X16~","NAME":"North","TYPE_EN":null}},
{"type":"Feature","geometry":{"type":"Polygon","coordinates":[[[113.995632,22.315835],[113.928396,22.284857],[113.892507,22.292711],[113.850597,22.256741],[113.837332,22.228624],[113.928396,22.210761],[113.945649,22.23725],[113.992442,22.241197],[114.018891,22.264594],[114.030458,22.316164],[113.995632,22.315835]]]},"properties":{"LOCATION_TYPE":"level1","ADM0_A3":"HKG","LOCATION_ID":"HKG-X18~","NAME":"Islands","TYPE_EN":null}},
{"type":"Feature","geometry":{"type":"Polygon","coordinates":[[[114.251475,22.248887],[114.188791,22.259378],[114.162485,22.258232],[114.112559,22.271511],[114.12908,22.248887],[114.182709,22.23253],[114.206554,22.212388],[114.256114,22.203599],[114.251475,22.248887]]]},"properties":{"LOCATION_TYPE":"level1","ADM0_A3":"HKG","LOCATION_ID":"HKG-X04~","NAME":"Southern","TYPE_EN":null}},
{"type":"Feature","geometry":{"type":"Polygon","coordinates":[[[114.112559,22.271511],[114.162485,22.258232],[114.165701,22.279364],[114.112559,22.271511]]]},"properties":{"LOCATION_TYPE":"level1","ADM0_A3":"HKG","LOCATION_ID":"HKG-X01~","NAME":"Central and Western","TYPE_EN":null}},
{"type":"Feature","geometry":{"type":"Polygon","coordinates":[[[114.165701,22.279364],[114.162485,22.258232],[114.188791,22.259378],[114.178884,22.279364],[114.165701,22.279364]]]},"properties":{"LOCATION_TYPE":"level1","ADM0_A3":"HKG","LOCATION_ID":"HKG-X02~","NAME":"Wan Chai","TYPE_EN":null}},
{"type":"Feature","geometry":{"type":"Polygon","coordinates":[[[114.178884,22.279364],[114.188791,22.259378],[114.251475,22.248887],[114.23585,22.277818],[114.178884,22.279364]]]},"properties":{"LOCATION_TYPE":"level1","ADM0_A3":"HKG","LOCATION_ID":"HKG-X03~","NAME":"Eastern","TYPE_EN":null}},
{"type":"Feature","geometry":{"type":"Polygon","coordinates":[[[114.112488,22.357663],[114.150524,22.366628],[114.170778,22.417825],[114.137259,22.411886],[114.035817,22.382234],[114.020518,22.350369],[114.079112,22.365953],[114.112488,22.357663]]]},"properties":{"LOCATION_TYPE":"level1","ADM0_A3":"HKG","LOCATION_ID":"HKG-X13~","NAME":"Tsuen Wan","TYPE_EN":null}},
{"type":"Feature","geometry":{"type":"MultiPolygon","coordinates":[[[[114.332774,22.511949],[114.297224,22.490699],[114.21451,22.500063],[114.1396,22.468069],[114.137259,22.411886],[114.170778,22.417825],[114.205254,22.424862],[114.167491,22.448065],[114.231212,22.469794],[114.253754,22.451768],[114.305431,22.483018],[114.332774,22.511949]]],[[[114.251475,22.430732],[114.251186,22.3955],[114.318293,22.418909],[114.350286,22.403303],[114.367361,22.446275],[114.338064,22.446357],[114.323741,22.480048],[114.251475,22.430732]]]]},"properties":{"LOCATION_TYPE":"level1","ADM0_A3":"HKG","LOCATION_ID":"HKG-X17~","NAME":"Tai Po","TYPE_EN":null}},
{"type":"Feature","geometry":{"type":"Polygon","coordinates":[[[114.205254,22.424862],[114.170778,22.417825],[114.150524,22.366628],[114.159479,22.341871],[114.170032,22.344779],[114.18562,22.347988],[114.223094,22.355703],[114.251186,22.3955],[114.251475,22.430732],[114.205254,22.424862]]]},"properties":{"LOCATION_TYPE":"level1","ADM0_A3":"HKG","LOCATION_ID":"HKG-X11~","NAME":"Sha Tin","TYPE_EN":null}},
{"type":"Feature","geometry":{"type":"Polygon","coordinates":[[[114.367361,22.446275],[114.350286,22.403303],[114.318293,22.418909],[114.251186,22.3955],[114.223094,22.355703],[114.234018,22.333074],[114.243448,22.286189],[114.278331,22.270453],[114.311615,22.297309],[114.272553,22.320705],[114.278005,22.390977],[114.334321,22.375312],[114.352306,22.339464],[114.385753,22.370185],[114.375011,22.400539],[114.39975,22.436143],[114.367361,22.446275]]]},"properties":{"LOCATION_TYPE":"level1","ADM0_A3":"HKG","LOCATION_ID":"HKG-X10~","NAME":"Sai Kung","TYPE_EN":null}},
{"type":"Feature","geometry":{"type":"Polygon","coordinates":[[[114.243448,22.286189],[114.234018,22.333074],[114.205159,22.334539],[114.211762,22.310574],[114.243448,22.286189]]]},"properties":{"LOCATION_TYPE":"level1","ADM0_A3":"HKG","LOCATION_ID":"HKG-X09~","NAME":"Kwun Tong","TYPE_EN":null}},
{"type":"Feature","geometry":{"type":"Polygon","coordinates":[[[114.211762,22.310574],[114.205159,22.334539],[114.18562,22.347988],[114.170032,22.344779],[114.175336,22.323053],[114.176524,22.291083],[114.211762,22.310574]]]},"properties":{"LOCATION_TYPE":"level1","ADM0_A3":"HKG","LOCATION_ID":"HKG-X06~","NAME":"Kowloon City","TYPE_EN":null}},
{"type":"Feature","geometry":{"type":"Polygon","coordinates":[[[114.176524,22.291083],[114.175336,22.323053],[114.159516,22.322252],[114.176524,22.291083]]]},"properties":{"LOCATION_TYPE":"level1","ADM0_A3":"HKG","LOCATION_ID":"HKG-X05~","NAME":"Yau Tsim Mong","TYPE_EN":null}},
{"type":"Feature","geometry":{"type":"Polygon","coordinates":[[[114.159516,22.322252],[114.175336,22.323053],[114.170032,22.344779],[114.159479,22.341871],[114.145684,22.331999],[114.159516,22.322252]]]},"properties":{"LOCATION_TYPE":"level1","ADM0_A3":"HKG","LOCATION_ID":"HKG-X07~","NAME":"Sham Shui Po","TYPE_EN":null}},
{"type":"Feature","geometry":{"type":"Polygon","coordinates":[[[114.145684,22.331999],[114.159479,22.341871],[114.150524,22.366628],[114.112488,22.357663],[114.145684,22.331999]]]},"properties":{"LOCATION_TYPE":"level1","ADM0_A3":"HKG","LOCATION_ID":"HKG-X12~","NAME":"Kwai Tsing","TYPE_EN":null}},
{"type":"Feature","geometry":{"type":"Polygon","coordinates":[[[114.020518,22.350369],[114.035817,22.382234],[113.94101,22.426785],[113.896983,22.408759],[113.914399,22.376125],[113.944835,22.362087],[113.982677,22.366767],[114.020518,22.350369]]]},"properties":{"LOCATION_TYPE":"level1","ADM0_A3":"HKG","LOCATION_ID":"HKG-X14~","NAME":"Tuen Mun","TYPE_EN":null}},
{"type":"Feature","geometry":{"type":"Polygon","coordinates":[[[113.94101,22.426785],[114.035817,22.382234],[114.137259,22.411886],[114.1396,22.468069],[114.102144,22.47041],[114.085297,22.522935],[113.998627,22.488552],[113.94101,22.426785]]]},"properties":{"LOCATION_TYPE":"level1","ADM0_A3":"HKG","LOCATION_ID":"HKG-X15~","NAME":"Yuen Long","TYPE_EN":null}},
{"type":"Feature","geometry":{"type":"Polygon","coordinates":[[[114.18562,22.347988],[114.205159,22.334539],[114.234018,22.333074],[114.223094,22.355703],[114.18562,22.347988]]]},"properties":{"LOCATION_TYPE":"level1","ADM0_A3":"HKG","LOCATION_ID":"HKG-X08~","NAME":"Wong Tai Sin","TYPE_EN":null}}
]}