{"type":"FeatureCollection", "features": [
{"type":"Feature","geometry":{"type":"Polygon","coordinates":[[[-89.146213,14.710858],[-89.160393,14.581282],[-89.245685,14.572988],[-89.361621,14.415478],[-89.026603,14.311298],[-88.970228,14.210176],[-88.977871,14.301401],[-88.939398,14.344241],[-88.743751,14.442168],[-88.730522,14.548776],[-88.82434,14.535185],[-88.923223,14.561282],[-89.025646,14.720807],[-89.146213,14.710858]]]},"properties":{"LOCATION_TYPE":"level1","ADM0_A3":"HND","LOCATION_ID":"HND-OC","NAME":"Ocotepeque","TYPE_EN":"Department"}},
{"type":"Feature","geometry":{"type":"Polygon","coordinates":[[[-88.970228,14.210176],[-88.881263,14.1842],[-88.838759,14.100407],[-88.746645,14.052477],[-88.497085,13.969068],[-88.336205,14.076815],[-88.328169,14.215618],[-88.421497,14.247916],[-88.422375,14.348995],[-88.494619,14.40708],[-88.45705,14.474052],[-88.360493,14.491002],[-88.32251,14.573168],[-88.343775,14.6543],[-88.323363,14.731194],[-88.360518,14.819199],[-88.442348,14.853874],[-88.487306,14.811913],[-88.555106,14.934799],[-88.64461,14.927358],[-88.676313,14.815013],[-88.655901,14.723856],[-88.77809,14.718223],[-88.730522,14.548776],[-88.743751,14.442168],[-88.939398,14.344241],[-88.977871,14.301401],[-88.970228,14.210176]]]},"properties":{"LOCATION_TYPE":"level1","ADM0_A3":"HND","LOCATION_ID":"HND-LE","NAME":"Lempira","TYPE_EN":"Department"}},
{"type":"Feature","geometry":{"type":"Polygon","coordinates":[[[-88.497085,13.969068],[-88.488005,13.865331],[-88.285433,13.905974],[-88.217659,13.990797],[-88.232206,14.078728],[-87.921992,14.385375],[-87.853107,14.429094],[-87.969147,14.613062],[-88.074954,14.664842],[-88.343775,14.6543],[-88.32251,14.573168],[-88.360493,14.491002],[-88.45705,14.474052],[-88.494619,14.40708],[-88.422375,14.348995],[-88.421497,14.247916],[-88.328169,14.215618],[-88.336205,14.076815],[-88.497085,13.969068]]]},"properties":{"LOCATION_TYPE":"level1","ADM0_A3":"HND","LOCATION_ID":"HND-IN","NAME":"Intibucá","TYPE_EN":"Department"}},
{"type":"Feature","geometry":{"type":"Polygon","coordinates":[[[-88.217659,13.990797],[-88.087538,13.980543],[-88.023641,13.891169],[-87.925326,13.879619],[-87.832903,13.91525],[-87.749529,13.845627],[-87.647048,13.834195],[-87.596586,13.957288],[-87.615241,14.088494],[-87.780967,14.143116],[-87.828716,14.225282],[-87.639477,14.273703],[-87.696114,14.355455],[-87.853107,14.429094],[-87.921992,14.385375],[-88.232206,14.078728],[-88.217659,13.990797]]]},"properties":{"LOCATION_TYPE":"level1","ADM0_A3":"HND","LOCATION_ID":"HND-LP","NAME":"La Paz","TYPE_EN":"Department"}},
{"type":"Feature","geometry":{"type":"Polygon","coordinates":[[[-87.749529,13.845627],[-87.712626,13.800451],[-87.789934,13.532819],[-87.725726,13.49897],[-87.720977,13.359036],[-87.622426,13.423],[-87.547597,13.355007],[-87.482045,13.359036],[-87.447296,13.420478],[-87.379018,13.393134],[-87.349546,13.453339],[-87.421816,13.637824],[-87.461142,13.670174],[-87.649399,13.761228],[-87.647048,13.834195],[-87.749529,13.845627]]]},"properties":{"LOCATION_TYPE":"level1","ADM0_A3":"HND","LOCATION_ID":"HND-VA","NAME":"Valle","TYPE_EN":"Department"}},
{"type":"Feature","geometry":{"type":"Polygon","coordinates":[[[-84.999948,14.742016],[-84.999948,15.068745],[-85.092682,15.166775],[-85.249313,15.236641],[-85.360417,15.381077],[-85.50524,15.449497],[-85.607715,15.534866],[-85.764139,15.584992],[-85.873125,15.531352],[-85.969941,15.426656],[-86.14856,15.373015],[-86.232896,15.409757],[-86.371958,15.329401],[-86.526548,15.386245],[-86.632949,15.340873],[-86.666358,15.282323],[-86.768729,15.295294],[-86.858879,15.253591],[-86.886164,15.08156],[-86.987476,15.01588],[-86.906137,14.940174],[-86.933293,14.897334],[-86.848337,14.665927],[-86.743718,14.575338],[-86.714211,14.423823],[-86.522904,14.36486],[-86.428156,14.290756],[-86.354465,14.286363],[-86.232483,14.341399],[-86.142178,14.268948],[-86.019318,14.254634],[-85.913071,14.132781],[-85.757473,14.19872],[-85.615492,14.147354],[-85.563146,14.042012],[-85.431732,14.132834],[-85.321351,14.281326],[-85.190196,14.309644],[-85.205828,14.407158],[-85.151826,14.485964],[-85.029637,14.588956],[-84.999948,14.742016]]]},"properties":{"LOCATION_TYPE":"level1","ADM0_A3":"HND","LOCATION_ID":"HND-OL","NAME":"Olancho","TYPE_EN":"Department"}},
{"type":"Feature","geometry":{"type":"Polygon","coordinates":[[[-84.999948,14.742016],[-84.904219,14.816978],[-84.77017,14.805144],[-84.699321,14.674687],[-84.52742,14.660398],[-84.482694,14.619471],[-84.338387,14.674687],[-84.287796,14.66722],[-84.235396,14.754734],[-84.182893,14.713858],[-84.023575,14.758325],[-83.869475,14.777109],[-83.45919,14.982497],[-83.390306,15.03097],[-83.262019,14.983195],[-83.356313,15.229722],[-83.40803,15.266425],[-83.623362,15.296088],[-83.633778,15.256415],[-83.769439,15.219224],[-83.774526,15.285712],[-83.905141,15.383531],[-83.988149,15.352362],[-83.821889,15.270697],[-83.921986,15.24787],[-83.958974,15.298041],[-84.082509,15.360093],[-84.124176,15.430243],[-84.024526,15.535102],[-83.945953,15.517768],[-84.294638,15.81101],[-84.464168,15.829792],[-84.477437,15.778756],[-84.660054,15.774494],[-84.676552,15.876203],[-84.999949,15.987942],[-84.999948,15.068745],[-84.999948,14.742016]]]},"properties":{"LOCATION_TYPE":"level1","ADM0_A3":"HND","LOCATION_ID":"HND-GD","NAME":"Gracias a Dios","TYPE_EN":"Department"}},
{"type":"Feature","geometry":{"type":"Polygon","coordinates":[[[-85.563146,14.042012],[-85.615492,14.147354],[-85.757473,14.19872],[-85.913071,14.132781],[-86.019318,14.254634],[-86.142178,14.268948],[-86.232483,14.341399],[-86.354465,14.286363],[-86.428156,14.290756],[-86.522904,14.36486],[-86.714211,14.423823],[-86.821698,14.337781],[-86.896861,14.229933],[-86.915955,13.999301],[-86.989258,13.964523],[-86.995072,13.845925],[-87.0838,13.783707],[-87.130206,13.660045],[-87.214232,13.671104],[-87.184285,13.566304],[-87.106616,13.52088],[-87.039204,13.52548],[-86.932854,13.660562],[-86.771168,13.70789],[-86.727234,13.768256],[-86.541664,13.782131],[-86.410096,13.749033],[-86.313564,13.776602],[-86.284108,13.845719],[-86.09673,14.044079],[-85.824162,13.847683],[-85.747449,13.888275],[-85.699235,13.9615],[-85.563146,14.042012]]]},"properties":{"LOCATION_TYPE":"level1","ADM0_A3":"HND","LOCATION_ID":"HND-EP","NAME":"El Paraíso","TYPE_EN":"Department"}},
{"type":"Feature","geometry":{"type":"Polygon","coordinates":[[[-87.379018,13.393134],[-87.512237,13.286689],[-87.43578,13.189399],[-87.419342,13.111355],[-87.293568,13.011054],[-87.046853,12.980552],[-86.948409,13.069694],[-86.910789,13.239581],[-86.816221,13.291929],[-86.758653,13.264179],[-86.701861,13.314201],[-86.756586,13.55938],[-86.771168,13.70789],[-86.932854,13.660562],[-87.039204,13.52548],[-87.106616,13.52088],[-87.184285,13.566304],[-87.214232,13.671104],[-87.360088,13.690121],[-87.454372,13.756887],[-87.461142,13.670174],[-87.421816,13.637824],[-87.349546,13.453339],[-87.379018,13.393134]]]},"properties":{"LOCATION_TYPE":"level1","ADM0_A3":"HND","LOCATION_ID":"HND-CH","NAME":"Choluteca","TYPE_EN":"Department"}},
{"type":"Feature","geometry":{"type":"Polygon","coordinates":[[[-87.728358,15.921022],[-87.908762,15.868069],[-87.933909,15.818793],[-88.031606,15.789862],[-88.145253,15.684516],[-88.215077,15.723212],[-88.316672,15.6746],[-88.352561,15.616903],[-88.467434,15.52074],[-88.409921,15.540447],[-88.240939,15.490734],[-88.227116,15.420558],[-88.130946,15.367951],[-88.123814,15.270748],[-88.061519,15.207754],[-88.108053,15.149825],[-88.030745,15.042545],[-88.053586,14.93082],[-87.985813,14.836407],[-87.962972,14.803541],[-87.740685,14.962498],[-87.735879,15.016551],[-87.767686,15.139696],[-87.923103,15.190804],[-87.925765,15.296431],[-87.869954,15.347952],[-87.813549,15.469134],[-87.830938,15.508511],[-87.762209,15.610159],[-87.81975,15.671602],[-87.787582,15.721005],[-87.794661,15.793352],[-87.728358,15.921022]]]},"properties":{"LOCATION_TYPE":"level1","ADM0_A3":"HND","LOCATION_ID":"HND-CR","NAME":"Cortés","TYPE_EN":"Department"}},
{"type":"Feature","geometry":{"type":"Polygon","coordinates":[[[-88.760899,15.299962],[-88.679104,15.175663],[-88.644584,15.077013],[-88.702255,14.952369],[-88.64461,14.927358],[-88.555106,14.934799],[-88.487306,14.811913],[-88.442348,14.853874],[-88.360518,14.819199],[-88.323363,14.731194],[-88.343775,14.6543],[-88.074954,14.664842],[-88.069813,14.747214],[-87.985813,14.836407],[-88.053586,14.93082],[-88.030745,15.042545],[-88.108053,15.149825],[-88.061519,15.207754],[-88.123814,15.270748],[-88.130946,15.367951],[-88.227116,15.420558],[-88.240939,15.490734],[-88.409921,15.540447],[-88.467434,15.52074],[-88.760899,15.299962]]]},"properties":{"LOCATION_TYPE":"level1","ADM0_A3":"HND","LOCATION_ID":"HND-SB","NAME":"Santa Bárbara","TYPE_EN":"Department"}},
{"type":"Feature","geometry":{"type":"Polygon","coordinates":[[[-88.760899,15.299962],[-88.973427,15.140395],[-89.109827,15.091457],[-89.172769,15.04221],[-89.169152,14.95206],[-89.231448,14.867311],[-89.146213,14.710858],[-89.025646,14.720807],[-88.923223,14.561282],[-88.82434,14.535185],[-88.730522,14.548776],[-88.77809,14.718223],[-88.655901,14.723856],[-88.676313,14.815013],[-88.64461,14.927358],[-88.702255,14.952369],[-88.644584,15.077013],[-88.679104,15.175663],[-88.760899,15.299962]]]},"properties":{"LOCATION_TYPE":"level1","ADM0_A3":"HND","LOCATION_ID":"HND-CP","NAME":"Copán","TYPE_EN":"Department"}},
{"type":"Feature","geometry":{"type":"Polygon","coordinates":[[[-86.437868,15.790847],[-86.363457,15.67217],[-86.420947,15.582822],[-86.377384,15.542411],[-86.235583,15.499313],[-86.232896,15.409757],[-86.14856,15.373015],[-85.969941,15.426656],[-85.873125,15.531352],[-85.764139,15.584992],[-85.607715,15.534866],[-85.50524,15.449497],[-85.360417,15.381077],[-85.249313,15.236641],[-85.092682,15.166775],[-84.999948,15.068745],[-84.999949,15.987942],[-85.07578,15.986247],[-85.25425,15.884085],[-85.488578,15.869567],[-85.608464,15.907072],[-85.703196,15.976467],[-85.813466,16.004543],[-85.903188,15.983466],[-85.994862,15.900702],[-86.137807,15.895657],[-86.374745,15.770941],[-86.437868,15.790847]]]},"properties":{"LOCATION_TYPE":"level1","ADM0_A3":"HND","LOCATION_ID":"HND-CL","NAME":"Colón","TYPE_EN":"Department"}},
{"type":"Feature","geometry":{"type":"Polygon","coordinates":[[[-87.728358,15.921022],[-87.794661,15.793352],[-87.787582,15.721005],[-87.697897,15.663695],[-87.671516,15.564683],[-87.609996,15.504429],[-87.438404,15.528975],[-87.4167,15.460762],[-87.182451,15.426552],[-86.990628,15.548819],[-86.855804,15.569283],[-86.778935,15.550679],[-86.636257,15.604629],[-86.420947,15.582822],[-86.363457,15.67217],[-86.437868,15.790847],[-86.503814,15.80508],[-86.699086,15.788642],[-86.77066,15.806545],[-86.878733,15.764146],[-87.151723,15.796861],[-87.345082,15.850328],[-87.447336,15.792141],[-87.509633,15.798651],[-87.617299,15.894599],[-87.728358,15.921022]]]},"properties":{"LOCATION_TYPE":"level1","ADM0_A3":"HND","LOCATION_ID":"HND-AT","NAME":"Atlántida","TYPE_EN":"Department"}},
{"type":"Feature","geometry":{"type":"Polygon","coordinates":[[[-86.606542,16.285029],[-86.491022,16.325488],[-86.312123,16.412502],[-86.332125,16.429448],[-86.530682,16.356181],[-86.606542,16.285029]]]},"properties":{"LOCATION_TYPE":"level1","ADM0_A3":"HND","LOCATION_ID":"HND-IB","NAME":"Islas de la Bahía","TYPE_EN":"Department"}},
{"type":"Feature","geometry":{"type":"Polygon","coordinates":[[[-88.074954,14.664842],[-87.969147,14.613062],[-87.853107,14.429094],[-87.696114,14.355455],[-87.639477,14.273703],[-87.828716,14.225282],[-87.780967,14.143116],[-87.615241,14.088494],[-87.579532,14.14353],[-87.437086,14.218874],[-87.463855,14.321607],[-87.382749,14.395297],[-87.465922,14.522215],[-87.398691,14.626756],[-87.266089,14.703134],[-87.245806,14.897747],[-87.374687,14.93883],[-87.444269,14.910873],[-87.473182,14.980223],[-87.554728,15.055619],[-87.631183,15.016603],[-87.735879,15.016551],[-87.740685,14.962498],[-87.962972,14.803541],[-87.985813,14.836407],[-88.069813,14.747214],[-88.074954,14.664842]]]},"properties":{"LOCATION_TYPE":"level1","ADM0_A3":"HND","LOCATION_ID":"HND-CM","NAME":"Comayagua","TYPE_EN":"Department"}},
{"type":"Feature","geometry":{"type":"Polygon","coordinates":[[[-87.787582,15.721005],[-87.81975,15.671602],[-87.762209,15.610159],[-87.830938,15.508511],[-87.813549,15.469134],[-87.869954,15.347952],[-87.925765,15.296431],[-87.923103,15.190804],[-87.767686,15.139696],[-87.735879,15.016551],[-87.631183,15.016603],[-87.554728,15.055619],[-87.473182,14.980223],[-87.444269,14.910873],[-87.374687,14.93883],[-87.245806,14.897747],[-87.184828,15.011384],[-87.11938,15.031899],[-86.987476,15.01588],[-86.886164,15.08156],[-86.858879,15.253591],[-86.768729,15.295294],[-86.666358,15.282323],[-86.632949,15.340873],[-86.526548,15.386245],[-86.371958,15.329401],[-86.232896,15.409757],[-86.235583,15.499313],[-86.377384,15.542411],[-86.420947,15.582822],[-86.636257,15.604629],[-86.778935,15.550679],[-86.855804,15.569283],[-86.990628,15.548819],[-87.182451,15.426552],[-87.4167,15.460762],[-87.438404,15.528975],[-87.609996,15.504429],[-87.671516,15.564683],[-87.697897,15.663695],[-87.787582,15.721005]]]},"properties":{"LOCATION_TYPE":"level1","ADM0_A3":"HND","LOCATION_ID":"HND-YO","NAME":"Yoro","TYPE_EN":"Department"}},
{"type":"Feature","geometry":{"type":"Polygon","coordinates":[[[-87.245806,14.897747],[-87.266089,14.703134],[-87.398691,14.626756],[-87.465922,14.522215],[-87.382749,14.395297],[-87.463855,14.321607],[-87.437086,14.218874],[-87.579532,14.14353],[-87.615241,14.088494],[-87.596586,13.957288],[-87.647048,13.834195],[-87.649399,13.761228],[-87.461142,13.670174],[-87.454372,13.756887],[-87.360088,13.690121],[-87.214232,13.671104],[-87.130206,13.660045],[-87.0838,13.783707],[-86.995072,13.845925],[-86.989258,13.964523],[-86.915955,13.999301],[-86.896861,14.229933],[-86.821698,14.337781],[-86.714211,14.423823],[-86.743718,14.575338],[-86.848337,14.665927],[-86.933293,14.897334],[-86.906137,14.940174],[-86.987476,15.01588],[-87.11938,15.031899],[-87.184828,15.011384],[-87.245806,14.897747]]]},"properties":{"LOCATION_TYPE":"level1","ADM0_A3":"HND","LOCATION_ID":"HND-FM","NAME":"Francisco Morazán","TYPE_EN":"Department"}}
]}