{"type":"FeatureCollection", "features": [
{"type":"Feature","geometry":{"type":"Polygon","coordinates":[[[16.859411,46.364758],[16.712395,46.412672],[16.659272,46.464193],[16.583721,46.470653],[16.491117,46.515146],[16.344149,46.546979],[16.234905,46.493339],[16.279936,46.378661],[16.361255,46.319964],[16.483831,46.301774],[16.585634,46.31676],[16.745159,46.305701],[16.814974,46.28441],[16.859411,46.364758]]]},"properties":{"LOCATION_TYPE":"level1","ADM0_A3":"HRV","LOCATION_ID":"HRV-20","NAME":"Medimurska","TYPE_EN":"County"}},
{"type":"Feature","geometry":{"type":"Polygon","coordinates":[[[17.306613,45.979914],[17.216862,45.980966],[17.135109,45.915854],[17.14038,45.870275],[17.27722,45.803303],[17.385223,45.702534],[17.491987,45.675145],[17.430544,45.574686],[17.517102,45.57634],[17.650427,45.515465],[17.879147,45.470713],[18.083217,45.63029],[17.948031,45.724186],[17.906234,45.792141],[17.656524,45.84542],[17.591102,45.936215],[17.306613,45.979914]]]},"properties":{"LOCATION_TYPE":"level1","ADM0_A3":"HRV","LOCATION_ID":"HRV-10","NAME":"Viroviticko-Podravska","TYPE_EN":"County"}},
{"type":"Feature","geometry":{"type":"Polygon","coordinates":[[[17.306613,45.979914],[17.24859,46.080238],[17.197327,46.121165],[17.116195,46.123129],[16.974808,46.210565],[16.889232,46.292163],[16.859411,46.364758],[16.814974,46.28441],[16.745159,46.305701],[16.757872,46.247048],[16.663975,46.20085],[16.596021,46.203123],[16.446573,46.135375],[16.349628,46.122508],[16.35924,46.024633],[16.51985,45.975489],[16.601137,45.926964],[16.692553,45.924226],[16.741128,46.045717],[16.865875,46.077446],[16.904633,46.008768],[17.050515,45.934768],[17.14038,45.870275],[17.135109,45.915854],[17.216862,45.980966],[17.306613,45.979914]]]},"properties":{"LOCATION_TYPE":"level1","ADM0_A3":"HRV","LOCATION_ID":"HRV-06","NAME":"Koprivničko-Križevačka","TYPE_EN":"County"}},
{"type":"Feature","geometry":{"type":"Polygon","coordinates":[[[19.002282,45.443686],[19.00962,45.498671],[19.106255,45.511642],[19.018095,45.567401],[18.941717,45.538927],[18.912365,45.619232],[18.968485,45.668738],[18.917325,45.706565],[18.900169,45.764908],[18.844978,45.815706],[18.872884,45.895236],[18.76333,45.88397],[18.674343,45.910377],[18.57347,45.816688],[18.465467,45.783718],[18.411723,45.743204],[18.317672,45.747286],[18.211219,45.785372],[18.080477,45.771729],[17.906234,45.792141],[17.948031,45.724186],[18.083217,45.63029],[18.207654,45.597734],[18.19427,45.535102],[18.304651,45.492779],[18.427847,45.50451],[18.44118,45.473659],[18.293747,45.457949],[18.185898,45.421362],[18.086628,45.358007],[18.081615,45.271501],[18.200988,45.225405],[18.326665,45.246386],[18.536936,45.193521],[18.553214,45.24127],[18.511925,45.292585],[18.632331,45.32142],[18.655017,45.391648],[18.786895,45.413559],[18.796352,45.463685],[18.882186,45.478103],[18.938514,45.432473],[19.002282,45.443686]]]},"properties":{"LOCATION_TYPE":"level1","ADM0_A3":"HRV","LOCATION_ID":"HRV-14","NAME":"Osjecko-Baranjska","TYPE_EN":"County"}},
{"type":"Feature","geometry":{"type":"Polygon","coordinates":[[[14.117321,45.472976],[13.971891,45.514226],[13.969824,45.462963],[13.889002,45.423637],[13.759294,45.463169],[13.64292,45.45943],[13.507091,45.511908],[13.513357,45.436225],[13.595714,45.240546],[13.595958,45.145413],[13.643809,45.070502],[13.774099,44.963813],[13.804861,44.885403],[13.860037,44.82567],[13.972667,44.826646],[14.038748,44.949408],[14.075694,44.98371],[14.163748,44.995754],[14.154063,45.071967],[14.234682,45.154574],[14.202627,45.171558],[14.203557,45.403947],[14.117321,45.472976]]]},"properties":{"LOCATION_TYPE":"level1","ADM0_A3":"HRV","LOCATION_ID":"HRV-18","NAME":"Istarska","TYPE_EN":"County"}},
{"type":"Feature","geometry":{"type":"MultiPolygon","coordinates":[[[[18.437355,42.559212],[18.338653,42.602517],[18.224138,42.628071],[17.995315,42.740441],[17.858475,42.816974],[17.826229,42.888649],[17.701586,42.9195],[17.641612,42.884467],[17.518891,42.908149],[17.390473,42.977729],[17.240245,43.022773],[17.073253,43.024156],[17.095388,42.984442],[17.201915,42.98432],[17.44044,42.873358],[17.72877,42.800767],[17.806651,42.811916],[17.901622,42.751899],[18.047862,42.690619],[18.07602,42.651313],[18.21754,42.620103],[18.238943,42.559068],[18.411876,42.47602],[18.437355,42.559212]]],[[[17.450913,43.148152],[17.365369,43.079247],[17.515636,42.958889],[17.580658,42.942084],[17.662725,42.965699],[17.587381,43.082126],[17.450913,43.148152]]],[[[17.658946,42.742987],[17.590668,42.742987],[17.486013,42.782172],[17.385916,42.770941],[17.748871,42.694566],[17.658946,42.742987]]],[[[17.131847,42.96955],[17.032074,42.982611],[16.824067,42.962104],[16.72047,42.990058],[16.638438,42.93476],[16.85141,42.900702],[16.972911,42.926703],[17.107432,42.914293],[17.131847,42.96955]]]]},"properties":{"LOCATION_TYPE":"level1","ADM0_A3":"HRV","LOCATION_ID":"HRV-19","NAME":"Dubrovacko-Neretvanska","TYPE_EN":"County"}},
{"type":"Feature","geometry":{"type":"Polygon","coordinates":[[[15.802569,45.196473],[15.878855,45.217241],[15.997504,45.218533],[16.104061,45.112545],[16.212994,45.031464],[16.340635,45.005936],[16.38177,45.107584],[16.435513,45.132853],[16.481919,45.199516],[16.587028,45.220858],[16.786293,45.178846],[16.93264,45.278788],[17.014393,45.219773],[17.124628,45.169058],[17.081573,45.216103],[17.150767,45.281112],[17.181205,45.34793],[17.061987,45.378161],[16.998684,45.44348],[16.929179,45.475881],[16.790738,45.609051],[16.616795,45.662846],[16.50073,45.721964],[16.496699,45.765062],[16.381564,45.812036],[16.373192,45.749042],[16.293921,45.727855],[16.297331,45.642279],[16.237903,45.596752],[16.147883,45.634114],[16.049491,45.581042],[16.110779,45.50637],[16.046545,45.475881],[15.935906,45.474796],[15.902265,45.527712],[15.812865,45.523423],[15.842527,45.465907],[15.814105,45.398676],[15.676491,45.425186],[15.661556,45.26809],[15.639387,45.210677],[15.802569,45.196473]]]},"properties":{"LOCATION_TYPE":"level1","ADM0_A3":"HRV","LOCATION_ID":"HRV-03","NAME":"Sisacko-Moslavacka","TYPE_EN":"County"}},
{"type":"Feature","geometry":{"type":"Polygon","coordinates":[[[17.124628,45.169058],[17.24549,45.155384],[17.268951,45.189543],[17.382432,45.139623],[17.489299,45.116265],[17.572395,45.120399],[17.684739,45.163963],[17.835738,45.064434],[17.902607,45.077766],[17.988493,45.143809],[18.090296,45.107997],[18.192512,45.108514],[18.237884,45.157451],[18.392913,45.118642],[18.466087,45.074046],[18.534803,45.088412],[18.503398,45.155487],[18.536936,45.193521],[18.326665,45.246386],[18.200988,45.225405],[18.081615,45.271501],[17.918576,45.288605],[17.844524,45.224217],[17.745408,45.185563],[17.701638,45.258736],[17.57715,45.276823],[17.39158,45.387256],[17.25071,45.38059],[17.181205,45.34793],[17.150767,45.281112],[17.081573,45.216103],[17.124628,45.169058]]]},"properties":{"LOCATION_TYPE":"level1","ADM0_A3":"HRV","LOCATION_ID":"HRV-12","NAME":"Brodsko-Posavska","TYPE_EN":"County"}},
{"type":"Feature","geometry":{"type":"Polygon","coordinates":[[[15.802569,45.196473],[15.639387,45.210677],[15.661556,45.26809],[15.676491,45.425186],[15.814105,45.398676],[15.842527,45.465907],[15.812865,45.523423],[15.731578,45.588587],[15.626364,45.621402],[15.557428,45.605434],[15.420899,45.695299],[15.350034,45.669619],[15.268556,45.601662],[15.296668,45.522959],[15.361367,45.482031],[15.225849,45.43645],[15.221014,45.374802],[15.122364,45.293308],[15.029243,45.328551],[14.970901,45.268297],[14.970901,45.149803],[15.008004,45.124068],[15.125465,45.105257],[15.194194,45.125773],[15.24246,45.084742],[15.376509,45.026296],[15.464204,44.924183],[15.566781,44.878553],[15.537739,44.918551],[15.65613,44.947644],[15.734108,44.93444],[15.76744,44.993224],[15.755968,45.042213],[15.802569,45.196473]]]},"properties":{"LOCATION_TYPE":"level1","ADM0_A3":"HRV","LOCATION_ID":"HRV-04","NAME":"Karlovacka","TYPE_EN":"County"}},
{"type":"Feature","geometry":{"type":"Polygon","coordinates":[[[15.734108,44.93444],[15.65613,44.947644],[15.537739,44.918551],[15.566781,44.878553],[15.527197,44.83902],[15.601973,44.796697],[15.476296,44.729621],[15.516655,44.704662],[15.562751,44.581672],[15.653494,44.494959],[15.591121,44.457235],[15.615977,44.379307],[15.545956,44.330473],[15.494124,44.368765],[15.417798,44.374191],[15.328088,44.411708],[15.293789,44.364806],[15.281749,44.285386],[15.157563,44.280341],[15.144542,44.195461],[15.212901,44.131049],[15.358084,44.025702],[15.466075,43.921698],[15.54688,43.876564],[15.739949,43.869209],[15.838651,43.939127],[15.90366,43.909103],[15.996884,43.94693],[16.032748,44.012714],[16.148658,44.026409],[16.154084,43.944501],[16.231185,43.918353],[16.350868,43.926208],[16.527446,43.967859],[16.439647,44.014007],[16.403991,44.058759],[16.326889,44.082375],[16.215785,44.208155],[16.18757,44.282414],[16.202866,44.359774],[16.171343,44.377086],[16.116463,44.52147],[16.006082,44.541003],[16.044736,44.589372],[15.968978,44.63924],[15.895598,44.718564],[15.805681,44.696653],[15.717314,44.786466],[15.773435,44.845016],[15.734108,44.93444]]]},"properties":{"LOCATION_TYPE":"level1","ADM0_A3":"HRV","LOCATION_ID":"HRV-13","NAME":"Zadarska","TYPE_EN":"County"}},
{"type":"Feature","geometry":{"type":"Polygon","coordinates":[[[18.534803,45.088412],[18.689019,45.080247],[18.726329,45.026142],[18.788961,45.005729],[18.772631,44.942478],[18.817797,44.887545],[18.889627,44.86119],[19.004969,44.863309],[18.991429,44.914934],[19.078659,44.910852],[19.131679,44.953175],[19.085171,44.987281],[19.082277,45.084949],[19.046207,45.128358],[19.141705,45.162154],[19.390682,45.169337],[19.378073,45.229592],[19.28975,45.23631],[19.104147,45.298726],[18.975527,45.39113],[19.002282,45.443686],[18.938514,45.432473],[18.882186,45.478103],[18.796352,45.463685],[18.786895,45.413559],[18.655017,45.391648],[18.632331,45.32142],[18.511925,45.292585],[18.553214,45.24127],[18.536936,45.193521],[18.503398,45.155487],[18.534803,45.088412]]]},"properties":{"LOCATION_TYPE":"level1","ADM0_A3":"HRV","LOCATION_ID":"HRV-16","NAME":"Vukovarsko-Srijemska","TYPE_EN":"County"}},
{"type":"Feature","geometry":{"type":"MultiPolygon","coordinates":[[[[16.527446,43.967859],[16.350868,43.926208],[16.34291,43.884815],[16.426729,43.831537],[16.356914,43.778258],[16.34167,43.709994],[16.228705,43.67072],[16.160595,43.682915],[16.045305,43.596926],[16.077913,43.543131],[16.012796,43.503974],[16.098481,43.480048],[16.150727,43.511379],[16.336762,43.551174],[16.433849,43.54975],[16.625824,43.449042],[16.880626,43.405951],[16.93393,43.373603],[17.073497,43.238959],[17.172374,43.18183],[17.316254,43.127265],[17.365369,43.079247],[17.450913,43.148152],[17.400209,43.216045],[17.328689,43.260358],[17.267607,43.353324],[17.286417,43.437376],[17.239495,43.478407],[17.084569,43.513237],[16.82381,43.707307],[16.712602,43.771515],[16.678599,43.840684],[16.527446,43.967859]]],[[[16.241222,43.071967],[16.09254,43.08275],[16.087169,43.011461],[16.210297,43.033271],[16.241222,43.071967]]],[[[16.693126,43.127265],[16.751231,43.161933],[16.659516,43.215969],[16.535004,43.227729],[16.44516,43.170803],[16.693126,43.127265]]],[[[16.500743,43.284247],[16.628266,43.263739],[16.846202,43.273383],[16.892345,43.312201],[16.809825,43.353176],[16.687673,43.377021],[16.493907,43.38231],[16.421886,43.317572],[16.500743,43.284247]]]]},"properties":{"LOCATION_TYPE":"level1","ADM0_A3":"HRV","LOCATION_ID":"HRV-17","NAME":"Splitsko-Dalmatinska","TYPE_EN":"County"}},
{"type":"Feature","geometry":{"type":"Polygon","coordinates":[[[16.279936,46.378661],[16.191807,46.369781],[16.131552,46.393061],[16.057965,46.377532],[16.038948,46.308441],[15.879323,46.259308],[15.959987,46.193666],[16.24736,46.18762],[16.255887,46.061065],[16.293765,46.012799],[16.35924,46.024633],[16.349628,46.122508],[16.446573,46.135375],[16.596021,46.203123],[16.663975,46.20085],[16.757872,46.247048],[16.745159,46.305701],[16.585634,46.31676],[16.483831,46.301774],[16.361255,46.319964],[16.279936,46.378661]]]},"properties":{"LOCATION_TYPE":"level1","ADM0_A3":"HRV","LOCATION_ID":"HRV-05","NAME":"Varaždinska","TYPE_EN":"County"}},
{"type":"Feature","geometry":{"type":"Polygon","coordinates":[[[15.879323,46.259308],[15.749767,46.210772],[15.661297,46.21532],[15.604349,46.167002],[15.58988,46.113517],[15.697987,46.036209],[15.675381,45.972486],[15.822476,45.982052],[15.939472,45.933837],[15.965568,45.911048],[16.136256,45.970373],[16.255887,46.061065],[16.24736,46.18762],[15.959987,46.193666],[15.879323,46.259308]]]},"properties":{"LOCATION_TYPE":"level1","ADM0_A3":"HRV","LOCATION_ID":"HRV-02","NAME":"Krapinsko-Zagorska","TYPE_EN":"County"}},
{"type":"Feature","geometry":{"type":"Polygon","coordinates":[[[15.675381,45.972486],[15.666051,45.831674],[15.451284,45.815137],[15.429063,45.775295],[15.303799,45.746149],[15.248919,45.711836],[15.350034,45.669619],[15.420899,45.695299],[15.557428,45.605434],[15.626364,45.621402],[15.731578,45.588587],[15.812865,45.523423],[15.902265,45.527712],[15.935906,45.474796],[16.046545,45.475881],[16.110779,45.50637],[16.049491,45.581042],[16.147883,45.634114],[16.237903,45.596752],[16.297331,45.642279],[16.293921,45.727855],[16.373192,45.749042],[16.381564,45.812036],[16.496699,45.765062],[16.600517,45.817307],[16.688367,45.839166],[16.692553,45.924226],[16.601137,45.926964],[16.51985,45.975489],[16.35924,46.024633],[16.293765,46.012799],[16.255887,46.061065],[16.136256,45.970373],[16.226845,45.849605],[15.966617,45.716923],[15.921488,45.622384],[15.773125,45.700363],[15.833691,45.755267],[15.846919,45.809401],[15.77142,45.867537],[15.81674,45.91017],[15.939472,45.933837],[15.822476,45.982052],[15.675381,45.972486]]]},"properties":{"LOCATION_TYPE":"level1","ADM0_A3":"HRV","LOCATION_ID":"HRV-01","NAME":"Zagrebacka","TYPE_EN":"County"}},
{"type":"Feature","geometry":{"type":"MultiPolygon","coordinates":[[[[15.225849,45.43645],[15.139262,45.430045],[15.056166,45.479912],[14.922634,45.514949],[14.881603,45.469784],[14.668489,45.533966],[14.664045,45.570036],[14.556145,45.656697],[14.468915,45.525594],[14.372797,45.477845],[14.218698,45.497172],[14.117321,45.472976],[14.203557,45.403947],[14.202627,45.171558],[14.234682,45.154574],[14.271983,45.290107],[14.329763,45.35399],[14.510509,45.29975],[14.657888,45.196601],[14.852794,45.093655],[14.881343,45.0356],[14.92651,45.077559],[15.012655,45.07234],[15.008004,45.124068],[14.970901,45.149803],[14.970901,45.268297],[15.029243,45.328551],[15.122364,45.293308],[15.221014,45.374802],[15.225849,45.43645]]],[[[14.513927,44.662177],[14.472179,44.707953],[14.451915,44.850898],[14.466075,44.98371],[14.430837,44.990302],[14.363048,45.093573],[14.364106,45.15762],[14.27768,45.127997],[14.411388,44.956366],[14.38738,44.909003],[14.301524,44.943427],[14.329845,44.83393],[14.427908,44.656562],[14.513927,44.662177]]],[[[14.723399,44.943345],[14.814952,44.977484],[14.665294,45.087348],[14.665294,45.161811],[14.563324,45.249742],[14.514008,45.129055],[14.425059,45.087348],[14.510509,45.032172],[14.590668,45.023261],[14.628917,44.978176],[14.723399,44.943345]]]]},"properties":{"LOCATION_TYPE":"level1","ADM0_A3":"HRV","LOCATION_ID":"HRV-08","NAME":"Primorsko-Goranska","TYPE_EN":"County"}},
{"type":"Feature","geometry":{"type":"Polygon","coordinates":[[[16.012796,43.503974],[16.077913,43.543131],[16.045305,43.596926],[16.160595,43.682915],[16.228705,43.67072],[16.34167,43.709994],[16.356914,43.778258],[16.426729,43.831537],[16.34291,43.884815],[16.350868,43.926208],[16.231185,43.918353],[16.154084,43.944501],[16.148658,44.026409],[16.032748,44.012714],[15.996884,43.94693],[15.90366,43.909103],[15.838651,43.939127],[15.739949,43.869209],[15.54688,43.876564],[15.678884,43.811835],[15.706309,43.763414],[15.771007,43.759955],[15.931163,43.6765],[15.917979,43.593329],[16.012796,43.503974]]]},"properties":{"LOCATION_TYPE":"level1","ADM0_A3":"HRV","LOCATION_ID":"HRV-15","NAME":"Šibensko-Kninska","TYPE_EN":"County"}},
{"type":"Feature","geometry":{"type":"MultiPolygon","coordinates":[[[[15.293789,44.364806],[15.328088,44.411708],[15.417798,44.374191],[15.494124,44.368765],[15.545956,44.330473],[15.615977,44.379307],[15.591121,44.457235],[15.653494,44.494959],[15.562751,44.581672],[15.516655,44.704662],[15.476296,44.729621],[15.601973,44.796697],[15.527197,44.83902],[15.566781,44.878553],[15.464204,44.924183],[15.376509,45.026296],[15.24246,45.084742],[15.194194,45.125773],[15.125465,45.105257],[15.008004,45.124068],[15.012655,45.07234],[14.92651,45.077559],[14.881343,45.0356],[14.921641,44.958808],[14.8838,44.861477],[14.901378,44.690172],[15.001313,44.578518],[15.080089,44.536078],[15.293789,44.364806]]],[[[14.876964,44.55976],[14.958832,44.466702],[15.09669,44.340033],[15.198904,44.317043],[15.254405,44.340033],[15.083263,44.461859],[15.048025,44.439439],[14.965994,44.523871],[14.966319,44.573432],[14.876964,44.55976]]]]},"properties":{"LOCATION_TYPE":"level1","ADM0_A3":"HRV","LOCATION_ID":"HRV-09","NAME":"Licko-Senjska","TYPE_EN":"County"}},
{"type":"Feature","geometry":{"type":"Polygon","coordinates":[[[17.14038,45.870275],[17.050515,45.934768],[16.904633,46.008768],[16.865875,46.077446],[16.741128,46.045717],[16.692553,45.924226],[16.688367,45.839166],[16.600517,45.817307],[16.496699,45.765062],[16.50073,45.721964],[16.616795,45.662846],[16.790738,45.609051],[16.929179,45.475881],[17.016357,45.50451],[17.418451,45.513346],[17.430544,45.574686],[17.491987,45.675145],[17.385223,45.702534],[17.27722,45.803303],[17.14038,45.870275]]]},"properties":{"LOCATION_TYPE":"level1","ADM0_A3":"HRV","LOCATION_ID":"HRV-07","NAME":"Bjelovarsko-bilogorska","TYPE_EN":"County"}},
{"type":"Feature","geometry":{"type":"Polygon","coordinates":[[[16.136256,45.970373],[15.965568,45.911048],[15.939472,45.933837],[15.81674,45.91017],[15.77142,45.867537],[15.846919,45.809401],[15.833691,45.755267],[15.773125,45.700363],[15.921488,45.622384],[15.966617,45.716923],[16.226845,45.849605],[16.136256,45.970373]]]},"properties":{"LOCATION_TYPE":"level1","ADM0_A3":"HRV","LOCATION_ID":"HRV-21","NAME":"Grad Zagreb","TYPE_EN":"City"}},
{"type":"Feature","geometry":{"type":"Polygon","coordinates":[[[18.083217,45.63029],[17.879147,45.470713],[17.650427,45.515465],[17.517102,45.57634],[17.430544,45.574686],[17.418451,45.513346],[17.016357,45.50451],[16.929179,45.475881],[16.998684,45.44348],[17.061987,45.378161],[17.181205,45.34793],[17.25071,45.38059],[17.39158,45.387256],[17.57715,45.276823],[17.701638,45.258736],[17.745408,45.185563],[17.844524,45.224217],[17.918576,45.288605],[18.081615,45.271501],[18.086628,45.358007],[18.185898,45.421362],[18.293747,45.457949],[18.44118,45.473659],[18.427847,45.50451],[18.304651,45.492779],[18.19427,45.535102],[18.207654,45.597734],[18.083217,45.63029]]]},"properties":{"LOCATION_TYPE":"level1","ADM0_A3":"HRV","LOCATION_ID":"HRV-12","NAME":"Brodsko-Posavska","TYPE_EN":"County"}}
]}