{"type":"FeatureCollection", "features": [
{"type":"Feature","geometry":{"type":"Polygon","coordinates":[[[-71.749517,19.279708],[-71.703861,19.41463],[-71.757436,19.71011],[-71.968861,19.732327],[-72.047915,19.712043],[-72.110735,19.566145],[-71.978883,19.335771],[-71.887622,19.28487],[-71.749517,19.279708]]]},"properties":{"LOCATION_TYPE":"level1","ADM0_A3":"HTI","LOCATION_ID":"HTI-NE","NAME":"Nord-Est","TYPE_EN":"Department"}},
{"type":"Feature","geometry":{"type":"Polygon","coordinates":[[[-71.749517,19.279708],[-71.887622,19.28487],[-71.978883,19.335771],[-72.120063,19.260065],[-72.200058,19.301923],[-72.245869,19.240893],[-72.229927,18.94055],[-72.270958,18.86443],[-72.36519,18.867014],[-72.182126,18.73002],[-72.105877,18.70506],[-71.946223,18.743507],[-71.791779,18.680682],[-71.718848,18.784229],[-71.783702,18.996309],[-71.661383,19.117594],[-71.639111,19.21211],[-71.749517,19.279708]]]},"properties":{"LOCATION_TYPE":"level1","ADM0_A3":"HTI","LOCATION_ID":"HTI-CE","NAME":"Centre","TYPE_EN":"Department"}},
{"type":"Feature","geometry":{"type":"MultiPolygon","coordinates":[[[[-71.791779,18.680682],[-71.946223,18.743507],[-72.105877,18.70506],[-72.182126,18.73002],[-72.36519,18.867014],[-72.48774,18.958895],[-72.675274,18.972847],[-72.706045,18.944241],[-72.617787,18.88935],[-72.54955,18.785631],[-72.325063,18.671373],[-72.353831,18.530097],[-72.628285,18.554145],[-72.754994,18.429389],[-72.985585,18.470404],[-73.055945,18.458453],[-73.063028,18.383374],[-72.997735,18.322758],[-72.971303,18.282605],[-72.765036,18.265294],[-72.490273,18.401513],[-72.354054,18.34932],[-72.186079,18.34963],[-72.012731,18.313973],[-71.721112,18.293974],[-71.734971,18.332939],[-71.912169,18.430737],[-71.910516,18.494273],[-72.000949,18.582459],[-71.841579,18.617986],[-71.791779,18.680682]]],[[[-73.258656,18.878485],[-73.037424,18.759589],[-72.808746,18.720404],[-72.846099,18.827094],[-73.200795,18.968695],[-73.258656,18.878485]]]]},"properties":{"LOCATION_TYPE":"level1","ADM0_A3":"HTI","LOCATION_ID":"HTI-OU","NAME":"Ouest","TYPE_EN":"Department"}},
{"type":"Feature","geometry":{"type":"Polygon","coordinates":[[[-71.721112,18.293974],[-72.012731,18.313973],[-72.186079,18.34963],[-72.354054,18.34932],[-72.490273,18.401513],[-72.765036,18.265294],[-72.971303,18.282605],[-72.997735,18.322758],[-73.012463,18.220904],[-73.008044,18.181065],[-72.885894,18.141425],[-72.440297,18.223944],[-72.071767,18.237535],[-71.92809,18.183783],[-71.792592,18.049872],[-71.721112,18.293974]]]},"properties":{"LOCATION_TYPE":"level1","ADM0_A3":"HTI","LOCATION_ID":"HTI-SE","NAME":"Sud-Est","TYPE_EN":"Department"}},
{"type":"Feature","geometry":{"type":"Polygon","coordinates":[[[-73.008044,18.181065],[-73.012463,18.220904],[-73.115867,18.355107],[-73.319343,18.366631],[-73.513363,18.334023],[-73.599404,18.427041],[-73.784044,18.424715],[-73.90631,18.363841],[-74.085317,18.403631],[-74.452648,18.360981],[-74.330922,18.286038],[-74.18342,18.29328],[-73.967763,18.141425],[-73.87328,18.02619],[-73.809316,18.159166],[-73.654164,18.252672],[-73.578114,18.216864],[-73.377268,18.258124],[-73.125559,18.189846],[-73.008044,18.181065]]]},"properties":{"LOCATION_TYPE":"level1","ADM0_A3":"HTI","LOCATION_ID":"HTI-SD","NAME":"Sud","TYPE_EN":"Department"}},
{"type":"Feature","geometry":{"type":"Polygon","coordinates":[[[-74.452648,18.360981],[-74.085317,18.403631],[-73.90631,18.363841],[-73.784044,18.424715],[-73.739353,18.543811],[-73.809682,18.542792],[-74.159983,18.659166],[-74.25593,18.670315],[-74.426259,18.608222],[-74.489166,18.429389],[-74.452648,18.360981]]]},"properties":{"LOCATION_TYPE":"level1","ADM0_A3":"HTI","LOCATION_ID":"HTI-GA","NAME":"Grand'Anse","TYPE_EN":"Department"}},
{"type":"Feature","geometry":{"type":"Polygon","coordinates":[[[-73.1208,19.629096],[-73.066775,19.733266],[-72.905777,19.71704],[-72.675584,19.80675],[-72.565177,19.875721],[-72.776031,19.943915],[-72.977895,19.912299],[-73.143707,19.920315],[-73.344594,19.834052],[-73.468129,19.724799],[-73.409495,19.635972],[-73.1208,19.629096]]]},"properties":{"LOCATION_TYPE":"level1","ADM0_A3":"HTI","LOCATION_ID":"HTI-NO","NAME":"Nord-Ouest","TYPE_EN":"Department"}},
{"type":"Feature","geometry":{"type":"Polygon","coordinates":[[[-72.565177,19.875721],[-72.675584,19.80675],[-72.597863,19.733214],[-72.540347,19.591931],[-72.243621,19.449149],[-72.200058,19.301923],[-72.120063,19.260065],[-71.978883,19.335771],[-72.110735,19.566145],[-72.047915,19.712043],[-72.140859,19.747463],[-72.330434,19.752102],[-72.565177,19.875721]]]},"properties":{"LOCATION_TYPE":"level1","ADM0_A3":"HTI","LOCATION_ID":"HTI-ND","NAME":"Nord","TYPE_EN":"Department"}},
{"type":"Feature","geometry":{"type":"Polygon","coordinates":[[[-72.706045,18.944241],[-72.675274,18.972847],[-72.48774,18.958895],[-72.36519,18.867014],[-72.270958,18.86443],[-72.229927,18.94055],[-72.245869,19.240893],[-72.200058,19.301923],[-72.243621,19.449149],[-72.540347,19.591931],[-72.597863,19.733214],[-72.675584,19.80675],[-72.905777,19.71704],[-73.066775,19.733266],[-73.1208,19.629096],[-72.814768,19.504828],[-72.728342,19.425605],[-72.803375,19.23192],[-72.716461,19.103949],[-72.813547,19.052924],[-72.706045,18.944241]]]},"properties":{"LOCATION_TYPE":"level1","ADM0_A3":"HTI","LOCATION_ID":"HTI-AR","NAME":"L'Artibonite","TYPE_EN":"Department"}},
{"type":"Feature","geometry":{"type":"Polygon","coordinates":[[[-73.739353,18.543811],[-73.784044,18.424715],[-73.599404,18.427041],[-73.513363,18.334023],[-73.319343,18.366631],[-73.115867,18.355107],[-73.012463,18.220904],[-72.997735,18.322758],[-73.063028,18.383374],[-73.055945,18.458453],[-73.526682,18.523505],[-73.604726,18.498277],[-73.739353,18.543811]]]},"properties":{"LOCATION_TYPE":"level1","ADM0_A3":"HTI","LOCATION_ID":"HTI-NI","NAME":"Nippes","TYPE_EN":"Department"}}
]}