{"type":"FeatureCollection", "features": [
{"type":"Feature","geometry":{"type":"MultiPolygon","coordinates":[[[[117.703608,4.163415],[117.838552,4.040188],[117.934825,4.059882],[117.907039,4.156683],[117.703608,4.163415]]],[[[116.57289,-2.362976],[116.603282,-2.224216],[116.530935,-2.169366],[116.392833,-2.191095],[116.358897,-2.093683],[116.463145,-2.019952],[116.466563,-1.907485],[116.32488,-1.703871],[116.557465,-1.606215],[116.539236,-1.481215],[116.76238,-1.36533],[116.819835,-1.261407],[117.023692,-1.202895],[117.16391,-0.981703],[117.301117,-0.816013],[117.451915,-0.866469],[117.575938,-0.629978],[117.595958,-0.422621],[117.489106,-0.387384],[117.43393,-0.263849],[117.530284,-0.032322],[117.475597,0.057603],[117.517263,0.290961],[117.619314,0.423896],[117.620372,0.502021],[117.81129,0.811754],[118.030447,0.858954],[117.975271,0.9831],[118.187836,0.87523],[118.565278,0.804023],[118.686046,0.846137],[118.798188,0.804918],[119.00294,0.96247],[119.005544,1.037584],[118.856944,1.058173],[118.776378,1.201972],[118.613292,1.351223],[118.523936,1.374172],[118.425059,1.485745],[118.12672,1.65469],[118.01059,1.784369],[117.924083,1.819159],[117.859874,2.038275],[117.975597,2.192084],[118.091482,2.26203],[118.063487,2.366929],[117.826182,2.607408],[117.784028,2.758246],[117.633311,2.812242],[117.65561,2.997382],[117.617198,3.085883],[117.4817,3.101264],[117.352712,3.182807],[117.36964,3.305243],[117.446544,3.43476],[117.32545,3.436021],[117.199962,3.554999],[117.219493,3.647366],[117.430919,3.63467],[117.546641,3.664008],[117.748546,3.636949],[117.826182,3.703599],[117.777192,3.79914],[117.520274,4.049302],[117.507823,4.123481],[117.217165,4.35343],[117.164662,4.333147],[116.494109,4.324853],[116.391066,4.294674],[116.310657,4.383377],[116.125759,4.378907],[116.020649,4.270852],[115.878849,4.352139],[115.646925,4.169101],[115.62212,4.04022],[115.538301,3.897825],[115.588634,3.857595],[115.548533,3.605285],[115.600623,3.441212],[115.517631,3.357161],[115.482801,3.206472],[115.517011,3.157276],[115.464094,3.030824],[115.341517,2.991136],[115.242092,3.041624],[115.066909,2.828201],[115.05647,2.608627],[115.16189,2.590386],[115.126543,2.47923],[114.919631,2.295675],[114.778761,2.247202],[114.753026,2.134806],[114.84532,2.024968],[114.831988,1.902521],[114.671377,1.820975],[114.669,1.694006],[114.500638,1.436037],[114.398216,1.503553],[114.207406,1.439443],[114.192079,1.214448],[113.864451,0.976427],[113.948115,0.862222],[113.917677,0.736441],[113.776394,0.558571],[114.036327,0.647041],[114.183914,0.650452],[114.377546,0.588647],[114.663058,0.621306],[114.735405,0.672569],[114.976476,0.735201],[115.057246,0.636861],[115.075953,0.533043],[114.967949,0.364216],[114.953066,0.284169],[115.017662,0.057671],[114.967329,-0.097513],[115.002572,-0.177663],[115.187367,0.00522],[115.347358,0.002274],[115.277233,-0.220141],[115.274184,-0.31104],[115.329891,-0.511028],[115.381257,-0.582031],[115.460012,-0.885992],[115.628684,-0.978028],[115.739685,-1.103808],[115.805107,-1.085256],[115.802007,-1.294443],[115.677518,-1.425907],[115.606877,-1.46668],[115.741235,-1.784232],[115.748935,-2.000704],[115.828775,-2.047162],[115.814099,-2.183639],[115.874044,-2.350657],[115.99445,-2.271024],[116.390498,-2.314432],[116.57289,-2.362976]]],[[[117.625255,3.43769],[117.571788,3.313137],[117.667328,3.271552],[117.681651,3.415513],[117.625255,3.43769]]],[[[117.517263,3.477037],[117.393728,3.566392],[117.268403,3.592922],[117.254893,3.507066],[117.517263,3.477037]]]]},"properties":{"LOCATION_TYPE":"level1","ADM0_A3":"IDN","LOCATION_ID":"IDN-KI","NAME":"Kalimantan Timur","TYPE_EN":"Province"}},
{"type":"Feature","geometry":{"type":"MultiPolygon","coordinates":[[[[124.257511,-9.501228],[124.197463,-9.373174],[124.121085,-9.426917],[123.991466,-9.348077],[123.863048,-9.48797],[123.688813,-9.611423],[123.650157,-9.889418],[123.576182,-10.01393],[123.745779,-10.050388],[123.748546,-10.097752],[123.54713,-10.186782],[123.515391,-10.335545],[123.617442,-10.366306],[123.826345,-10.363946],[124.033865,-10.276137],[124.122406,-10.17254],[124.418468,-10.163832],[124.540782,-10.036554],[124.734548,-9.899509],[124.846934,-9.748224],[124.970714,-9.662367],[125.061615,-9.485772],[124.974469,-9.191893],[125.142521,-9.189102],[125.162365,-9.060634],[125.051829,-9.035003],[124.947856,-9.078515],[124.869884,-8.994399],[124.69158,-9.067804],[124.563243,-9.170831],[124.450531,-9.18019],[124.431815,-9.290801],[124.257511,-9.501228]]],[[[120.792491,-9.96087],[120.669688,-9.885186],[120.580333,-9.734959],[120.43629,-9.63128],[120.330333,-9.669366],[120.253429,-9.613865],[120.243907,-9.509047],[120.070974,-9.441013],[119.945974,-9.288263],[119.8213,-9.378595],[119.629242,-9.341892],[119.168712,-9.385512],[119.024669,-9.437677],[118.94158,-9.570489],[119.037364,-9.675877],[119.177094,-9.741388],[119.406098,-9.790134],[119.477306,-9.74863],[119.674083,-9.800226],[119.697113,-9.852634],[119.976329,-9.992446],[120.15561,-10.220961],[120.391612,-10.263116],[120.449962,-10.310317],[120.566091,-10.227797],[120.711192,-10.20672],[120.826671,-10.091241],[120.792491,-9.96087]]],[[[119.559255,-8.518162],[119.427013,-8.488051],[119.378184,-8.573989],[119.442556,-8.679132],[119.559255,-8.518162]]],[[[123.348643,-8.268813],[123.237315,-8.234063],[123.125824,-8.258722],[123.036469,-8.332289],[123.041026,-8.410821],[123.321137,-8.384942],[123.348643,-8.268813]]],[[[123.026378,-8.288751],[122.979666,-8.146905],[122.862559,-8.069757],[122.795665,-8.11004],[122.758149,-8.361017],[122.598155,-8.395196],[122.494151,-8.47503],[122.500743,-8.576267],[122.288422,-8.633884],[122.025645,-8.49977],[121.834727,-8.473728],[121.680431,-8.511326],[121.509532,-8.602146],[121.380544,-8.572198],[121.290538,-8.477472],[121.030935,-8.392673],[120.976085,-8.337498],[120.74464,-8.329767],[120.654552,-8.261651],[120.277029,-8.26922],[120.108897,-8.39186],[119.919444,-8.461196],[119.803722,-8.596775],[119.823985,-8.780369],[119.975759,-8.813897],[120.131033,-8.770766],[120.243907,-8.823175],[120.381602,-8.795831],[120.593923,-8.795831],[120.764171,-8.865492],[120.833181,-8.81699],[120.922862,-8.926202],[121.066905,-8.940525],[121.165294,-8.895115],[121.340587,-8.918064],[121.396007,-8.794122],[121.793712,-8.883966],[122.005382,-8.802016],[122.114513,-8.732354],[122.407888,-8.741469],[122.56544,-8.669122],[122.807384,-8.610935],[122.807384,-8.486749],[122.904552,-8.447035],[122.904145,-8.363377],[123.026378,-8.288751]]],[[[123.390147,-10.591485],[123.33546,-10.49033],[123.225108,-10.543634],[123.049164,-10.711358],[122.812511,-10.778416],[122.841807,-10.921075],[123.209158,-10.813084],[123.348643,-10.674086],[123.390147,-10.591485]]],[[[121.940196,-10.430108],[121.861339,-10.440606],[121.732107,-10.597345],[121.859711,-10.604099],[121.990896,-10.52158],[121.940196,-10.430108]]],[[[123.465831,-10.149835],[123.319998,-10.267755],[123.390147,-10.330824],[123.494965,-10.198175],[123.465831,-10.149835]]],[[[123.927989,-8.227309],[123.798188,-8.179946],[123.643321,-8.275079],[123.604666,-8.36419],[123.5171,-8.337498],[123.357595,-8.41131],[123.324392,-8.534601],[123.399425,-8.586033],[123.728852,-8.393324],[123.775401,-8.305841],[123.927989,-8.227309]]],[[[124.308116,-8.220473],[124.258149,-8.182061],[124.097179,-8.377211],[123.985118,-8.338311],[124.084972,-8.556329],[124.164806,-8.528253],[124.299978,-8.319268],[124.308116,-8.220473]]],[[[125.134044,-8.217055],[125.09254,-8.161554],[124.66505,-8.169692],[124.568696,-8.131036],[124.450694,-8.149021],[124.410492,-8.306085],[124.333507,-8.413018],[124.418224,-8.464614],[124.650157,-8.40545],[124.766124,-8.408461],[125.123302,-8.352309],[125.134044,-8.217055]]]]},"properties":{"LOCATION_TYPE":"level1","ADM0_A3":"IDN","LOCATION_ID":"IDN-NT","NAME":"Nusa Tenggara Timur","TYPE_EN":"Province"}},
{"type":"Feature","geometry":{"type":"MultiPolygon","coordinates":[[[[114.207406,1.439443],[114.053947,1.465054],[113.909667,1.442471],[113.808174,1.339713],[113.649528,1.233259],[113.503387,1.314495],[113.397553,1.293927],[113.323656,1.351392],[113.089045,1.431335],[113.023416,1.537013],[112.854951,1.582721],[112.768858,1.552232],[112.470478,1.567657],[112.180057,1.449034],[112.183984,1.369039],[112.100061,1.154918],[111.910099,1.114042],[111.823076,1.008467],[111.655231,1.030791],[111.538855,0.997718],[111.351787,1.013893],[111.197584,1.075233],[110.852696,0.997201],[110.783966,0.908163],[110.613434,0.893952],[110.553903,0.85137],[110.422644,0.909455],[110.256556,1.039059],[110.17036,1.174451],[109.976263,1.287726],[109.932545,1.378522],[109.842835,1.403275],[109.677264,1.572851],[109.647188,1.761883],[109.546626,1.814335],[109.561209,1.990465],[109.340994,1.935533],[109.34783,1.809556],[109.252696,1.668362],[109.095958,1.560614],[109.060802,1.383857],[108.927013,1.140448],[108.980317,0.995551],[108.941417,0.884019],[108.855479,0.832221],[108.927257,0.640774],[108.944835,0.445299],[108.920909,0.340277],[109.102306,0.243109],[109.166759,0.112291],[109.176036,-0.212009],[109.090831,-0.287205],[109.123302,-0.499688],[109.362559,-0.651951],[109.245291,-0.695896],[109.273204,-0.853611],[109.406505,-0.911391],[109.438243,-0.845636],[109.581716,-0.894464],[109.598643,-0.947849],[109.677257,-0.983819],[109.734141,-0.954034],[109.83546,-1.086196],[109.922699,-1.103611],[109.929861,-1.22324],[110.029552,-1.285903],[110.068533,-1.43255],[110.033946,-1.646173],[109.921641,-1.769627],[109.953624,-1.874282],[110.075043,-1.922459],[110.129161,-2.069513],[110.095551,-2.197361],[110.159923,-2.436456],[110.221039,-2.53281],[110.203787,-2.640069],[110.24586,-2.78631],[110.204845,-2.896173],[110.263194,-3.002862],[110.508067,-2.874607],[110.616954,-2.909845],[110.662446,-3.080743],[110.793956,-2.943536],[110.959229,-2.885671],[111.137589,-2.733011],[111.137692,-2.404814],[111.012325,-2.127363],[110.994755,-1.985253],[111.025244,-1.867018],[111.017441,-1.660312],[110.920341,-1.613235],[111.011602,-1.526108],[111.133971,-1.530449],[111.327138,-1.373301],[111.416073,-1.268759],[111.577355,-1.186749],[111.651408,-1.015493],[112.118511,-0.735355],[112.379994,-0.754579],[112.578018,-0.704453],[113.004245,-0.518728],[113.161134,-0.469893],[113.256426,-0.551387],[113.300816,-0.422765],[113.249191,-0.361063],[113.326241,-0.251664],[113.429335,-0.190427],[113.478531,-0.047542],[113.45321,0.065888],[113.324535,0.245205],[113.531551,0.261431],[113.622915,0.310937],[113.646686,0.410053],[113.776394,0.558571],[113.917677,0.736441],[113.948115,0.862222],[113.864451,0.976427],[114.192079,1.214448],[114.207406,1.439443]]],[[[108.964203,-1.573419],[108.80714,-1.565037],[108.831228,-1.662286],[108.964203,-1.573419]]],[[[109.759776,-1.103936],[109.7046,-0.983819],[109.656749,-1.003676],[109.587901,-0.97031],[109.452322,-1.004002],[109.417247,-1.25449],[109.478689,-1.298517],[109.698253,-1.190525],[109.759776,-1.103936]]]]},"properties":{"LOCATION_TYPE":"level1","ADM0_A3":"IDN","LOCATION_ID":"IDN-KB","NAME":"Kalimantan Barat","TYPE_EN":"Province"}},
{"type":"Feature","geometry":{"type":"MultiPolygon","coordinates":[[[[134.873493,-4.254611],[135.185557,-4.448907],[135.429535,-4.430434],[135.72462,-4.495294],[135.97047,-4.519627],[136.035818,-4.586033],[136.267345,-4.676202],[136.355479,-4.677423],[136.822113,-4.928318],[136.953868,-4.922784],[137.2671,-4.999444],[137.579845,-5.181899],[137.706309,-5.221938],[137.821788,-5.362888],[137.914561,-5.386895],[138.059825,-5.575291],[138.071056,-5.728611],[138.270844,-5.886977],[138.365489,-6.091729],[138.390391,-6.233657],[138.466075,-6.402114],[138.677582,-6.60296],[138.672862,-6.69492],[138.822439,-6.806085],[138.739757,-6.897149],[138.572032,-6.942478],[138.761974,-7.113865],[138.688243,-7.192641],[138.886078,-7.360935],[138.958018,-7.507257],[139.093028,-7.559991],[139.007172,-7.754327],[138.993988,-7.865492],[138.910981,-7.92254],[138.905772,-8.043634],[138.921235,-8.079522],[138.858653,-8.101332],[138.838552,-8.13836],[138.914399,-8.292087],[139.089529,-8.133559],[139.201182,-8.095636],[139.3567,-8.199395],[139.514985,-8.178888],[139.630544,-8.124933],[139.932384,-8.108575],[140.031912,-8.246352],[140.251638,-8.408949],[140.507498,-8.638116],[140.621593,-8.806736],[140.856944,-9.049086],[140.97698,-9.106134],[140.976904,-7.962097],[140.977162,-6.896632],[140.916029,-6.862732],[140.849211,-6.702846],[140.859288,-6.608381],[140.943469,-6.507509],[140.976904,-6.335116],[140.976904,-5.621154],[140.975767,-4.595946],[140.973545,-3.800025],[140.974457,-2.600518],[140.73463,-2.634942],[140.730805,-2.491469],[140.607595,-2.439386],[140.38852,-2.397068],[140.332286,-2.455743],[140.104747,-2.320082],[140.059337,-2.354262],[139.864757,-2.372003],[139.283214,-2.12184],[139.1067,-2.012791],[138.803233,-1.920831],[138.665212,-1.789158],[138.3567,-1.710138],[138.07488,-1.610284],[137.924815,-1.484145],[137.794444,-1.484145],[137.532481,-1.597752],[137.348806,-1.710138],[137.142833,-1.787042],[137.101736,-1.888279],[137.204845,-1.94964],[137.226329,-2.074395],[136.951508,-2.142185],[136.758637,-2.248712],[136.68393,-2.258722],[136.403819,-2.219659],[136.288748,-2.450128],[136.266368,-2.560317],[136.023204,-2.707696],[135.96461,-2.775811],[135.909923,-2.985772],[135.84311,-3.011977],[135.719005,-3.148614],[135.638927,-3.178155],[135.47047,-3.363051],[135.322032,-3.386489],[134.984711,-3.329685],[134.880626,-3.242934],[134.824229,-3.050388],[134.701345,-2.958673],[134.670014,-2.83766],[134.445365,-3.023898],[134.450688,-3.0779],[134.254627,-3.307705],[134.258348,-3.399482],[135.265108,-3.759977],[134.873493,-4.254611]]],[[[138.897309,-8.337172],[138.831391,-8.185642],[138.688813,-8.181329],[138.56422,-8.307306],[138.55836,-8.366632],[138.894054,-8.40545],[138.897309,-8.337172]]],[[[138.938975,-7.542087],[138.804535,-7.3742],[138.62086,-7.364679],[138.39503,-7.40488],[138.244151,-7.456476],[138.028087,-7.61004],[137.894867,-7.816176],[137.800548,-8.041681],[137.759044,-8.073419],[137.636974,-8.389418],[137.677094,-8.425958],[137.849132,-8.377537],[138.177989,-8.384942],[138.293468,-8.418715],[138.444184,-8.379083],[138.60255,-8.254653],[138.660899,-8.169041],[138.818207,-8.093194],[138.904145,-8.07586],[138.8838,-7.93255],[138.982677,-7.829848],[139.046397,-7.561944],[138.938975,-7.542087]]],[[[136.848481,-1.765313],[136.7046,-1.730564],[136.39031,-1.725763],[136.191254,-1.653904],[135.896739,-1.648045],[135.463552,-1.589532],[135.483897,-1.674981],[135.718028,-1.703302],[136.273204,-1.909356],[136.337657,-1.860935],[136.453949,-1.895115],[136.644867,-1.876397],[136.848481,-1.765313]]],[[[134.99822,-1.01865],[134.937511,-0.957615],[134.833751,-0.956638],[134.851573,-1.108657],[134.956716,-1.128513],[134.99822,-1.01865]]],[[[136.375662,-1.093683],[136.1963,-1.066583],[136.065766,-0.871677],[135.847423,-0.695896],[135.777517,-0.748712],[135.677257,-0.685642],[135.369884,-0.653497],[135.640636,-0.881606],[135.781016,-0.872654],[135.828298,-1.107843],[135.906016,-1.189386],[135.991384,-1.168878],[136.142833,-1.223403],[136.29363,-1.183201],[136.375662,-1.093683]]]]},"properties":{"LOCATION_TYPE":"level1","ADM0_A3":"IDN","LOCATION_ID":"IDN-PA","NAME":"Papua","TYPE_EN":"Province"}},
{"type":"Feature","geometry":{"type":"MultiPolygon","coordinates":[[[[111.672699,-6.733657],[111.598491,-6.960763],[111.608309,-7.153982],[111.444288,-7.311233],[111.220271,-7.251392],[111.184976,-7.529101],[111.307914,-7.837816],[111.228022,-7.93812],[110.965196,-8.116869],[110.94435,-8.226372],[111.442068,-8.276056],[111.67335,-8.367852],[111.792003,-8.256524],[111.927257,-8.302504],[112.366222,-8.341974],[112.672699,-8.447035],[112.833832,-8.375746],[112.90268,-8.403985],[112.987315,-8.3235],[113.197927,-8.277276],[113.345958,-8.324151],[113.413585,-8.390232],[113.640473,-8.458591],[113.723888,-8.528253],[114.197032,-8.645603],[114.302582,-8.611912],[114.385265,-8.664727],[114.388927,-8.748142],[114.597179,-8.775567],[114.589122,-8.664239],[114.461192,-8.618341],[114.358653,-8.409112],[114.446788,-8.014255],[114.467296,-7.830987],[114.258556,-7.700372],[114.140391,-7.70086],[114.016124,-7.618097],[113.803884,-7.721775],[113.528575,-7.700372],[113.299327,-7.788507],[113.13266,-7.727797],[113.03712,-7.655043],[112.8449,-7.592869],[112.761485,-7.531183],[112.823253,-7.262628],[112.700694,-7.254653],[112.582774,-6.989923],[112.500743,-6.910821],[112.363536,-6.870538],[112.192882,-6.904555],[112.067882,-6.89365],[111.976248,-6.784845],[111.882335,-6.808689],[111.672699,-6.733657]]],[[[115.570649,-6.904555],[115.460785,-6.842543],[115.275727,-6.835382],[115.218516,-6.904392],[115.265636,-6.983494],[115.382335,-6.910821],[115.570649,-6.904555]]],[[[114.045665,-6.914646],[113.923676,-6.864841],[113.526228,-6.896293],[113.445582,-6.882378],[112.915294,-6.891697],[112.692638,-7.058526],[112.742524,-7.161391],[113.12794,-7.231052],[113.269054,-7.217462],[113.548984,-7.233778],[113.665212,-7.11004],[113.832533,-7.13202],[113.909979,-7.048063],[114.096686,-6.982879],[114.045665,-6.914646]]]]},"properties":{"LOCATION_TYPE":"level1","ADM0_A3":"IDN","LOCATION_ID":"IDN-JI","NAME":"Jawa Timur","TYPE_EN":"Province"}},
{"type":"Feature","geometry":{"type":"MultiPolygon","coordinates":[[[[134.607758,-6.421482],[134.437755,-6.285089],[134.358409,-6.37949],[134.463878,-6.4249],[134.511567,-6.513604],[134.607758,-6.421482]]],[[[134.37794,-6.254083],[134.333263,-6.234552],[134.234141,-6.13006],[134.225841,-6.028741],[134.125987,-6.034275],[134.120372,-6.122166],[134.326671,-6.308201],[134.37794,-6.254083]]],[[[128.090587,-8.131036],[127.83253,-8.098565],[127.802094,-8.176202],[127.994151,-8.251886],[128.090587,-8.131036]]],[[[131.109386,-8.131036],[131.037608,-8.083266],[130.922211,-8.198419],[130.991059,-8.234796],[131.109386,-8.131036]]],[[[129.841156,-7.877862],[129.724864,-7.795994],[129.587576,-7.835626],[129.594249,-7.924005],[129.693858,-8.038263],[129.776378,-8.055352],[129.85906,-7.93255],[129.841156,-7.877862]]],[[[126.836762,-7.726332],[126.72169,-7.668064],[126.631358,-7.565362],[126.503754,-7.590427],[126.32838,-7.695733],[126.203136,-7.713474],[125.947927,-7.678318],[125.80836,-7.86419],[125.925059,-7.911879],[126.074962,-7.883884],[126.189789,-7.923517],[126.421886,-7.93255],[126.559337,-7.81992],[126.71339,-7.747491],[126.836762,-7.726332]]],[[[131.698578,-7.226739],[131.637543,-7.109063],[131.528819,-7.170099],[131.347016,-7.438246],[131.254731,-7.472263],[131.11964,-7.733819],[131.161143,-7.809666],[131.085704,-7.871759],[131.116222,-8.000746],[131.229666,-8.003513],[131.36085,-7.947361],[131.389903,-7.847101],[131.55836,-7.706638],[131.643321,-7.599054],[131.699229,-7.413995],[131.642751,-7.254815],[131.698578,-7.226739]]],[[[134.484386,-6.575616],[134.449962,-6.441339],[134.349376,-6.399835],[134.294607,-6.297784],[134.12379,-6.171563],[134.127452,-6.325291],[134.073416,-6.826755],[134.185069,-6.918634],[134.31072,-6.85947],[134.398285,-6.719659],[134.499278,-6.637791],[134.484386,-6.575616]]],[[[132.802013,-5.787367],[132.68336,-5.749119],[132.667817,-5.888116],[132.741547,-5.950372],[132.802013,-5.787367]]],[[[134.758067,-6.157892],[134.723888,-5.917739],[134.764903,-5.890395],[134.696544,-5.534112],[134.581228,-5.424249],[134.491222,-5.448175],[134.351817,-5.714451],[134.360362,-5.849542],[134.27589,-6.083591],[134.333507,-6.221449],[134.501964,-6.299249],[134.607758,-6.369561],[134.701834,-6.321873],[134.758067,-6.157892]]],[[[133.184337,-5.310317],[133.110118,-5.310968],[133.02296,-5.548517],[133.113292,-5.595636],[133.184337,-5.310317]]],[[[128.330821,-3.511895],[128.158702,-3.584649],[128.034516,-3.589044],[127.916352,-3.693943],[128.127126,-3.749444],[128.236501,-3.722263],[128.337169,-3.611586],[128.330821,-3.511895]]],[[[127.240896,-3.470961],[127.259776,-3.371189],[127.046153,-3.305352],[127.093516,-3.200779],[126.720225,-3.060154],[126.421397,-3.070489],[126.185085,-3.180894],[126.090921,-3.112098],[125.991742,-3.248191],[126.052628,-3.44632],[126.173561,-3.602527],[126.589325,-3.816639],[126.742185,-3.859378],[127.243419,-3.606052],[127.240896,-3.470961]]],[[[130.87322,-3.573989],[130.761485,-3.405857],[130.666677,-3.403578],[130.578461,-3.122817],[130.344981,-2.977634],[130.046641,-2.99212],[129.611827,-2.806817],[129.443533,-2.784926],[129.358409,-2.856215],[129.121837,-2.957696],[129.052908,-2.804457],[128.865245,-2.862074],[128.51588,-2.834161],[128.381033,-2.859959],[128.175466,-2.857029],[128.106293,-2.975518],[128.103689,-3.06699],[128.008067,-3.073663],[127.875255,-3.208754],[127.930186,-3.323337],[128.022227,-3.368585],[128.06658,-3.196954],[128.282074,-3.22088],[128.399181,-3.410089],[128.484141,-3.462498],[128.677582,-3.432306],[128.692556,-3.348728],[128.877452,-3.202569],[128.952891,-3.220392],[128.960785,-3.355564],[129.113536,-3.34881],[129.485606,-3.463474],[129.563243,-3.43963],[129.544932,-3.297784],[129.890473,-3.333103],[129.983165,-3.459731],[130.126475,-3.532973],[130.418793,-3.636895],[130.606944,-3.778497],[130.817882,-3.868829],[130.831554,-3.694106],[130.87322,-3.573989]]]]},"properties":{"LOCATION_TYPE":"level1","ADM0_A3":"IDN","LOCATION_ID":"IDN-MA","NAME":"Maluku","TYPE_EN":"Province"}},
{"type":"Feature","geometry":{"type":"MultiPolygon","coordinates":[[[[117.664317,-8.148126],[117.493907,-8.176202],[117.485606,-8.343032],[117.56658,-8.363946],[117.664317,-8.148126]]],[[[116.633311,-8.275079],[116.376231,-8.201837],[116.269705,-8.247735],[116.027937,-8.445008],[116.072645,-8.577784],[116.060271,-8.713907],[115.828638,-8.791786],[116.002126,-8.898858],[116.068614,-8.855727],[116.204763,-8.920017],[116.565369,-8.895583],[116.500438,-8.802688],[116.681,-8.556329],[116.743175,-8.391778],[116.633311,-8.275079]]],[[[119.203624,-8.610935],[119.075694,-8.651951],[119.051117,-8.470473],[118.988292,-8.309015],[118.812673,-8.295587],[118.695811,-8.37127],[118.647472,-8.288751],[118.443614,-8.257908],[118.365245,-8.344659],[118.243907,-8.328709],[118.115245,-8.113865],[117.895274,-8.09002],[117.729503,-8.158949],[117.706309,-8.229669],[117.82252,-8.354181],[118.003184,-8.473728],[118.057465,-8.450616],[118.290863,-8.60589],[118.191905,-8.658787],[118.068126,-8.655938],[117.969005,-8.748142],[117.805186,-8.719985],[117.771658,-8.604099],[117.649099,-8.551853],[117.558116,-8.40545],[117.353201,-8.44671],[117.195079,-8.357599],[116.984548,-8.495782],[116.790091,-8.583704],[116.748517,-8.666544],[116.8213,-8.787286],[116.73518,-8.873397],[116.763031,-9.015558],[117.009736,-9.107293],[117.126801,-9.091241],[117.226145,-9.023781],[117.334132,-9.059354],[117.558116,-9.001886],[117.737804,-8.909763],[117.890473,-8.936782],[118.078868,-8.844334],[118.157725,-8.867852],[118.299327,-8.757908],[118.465017,-8.865004],[118.746593,-8.7763],[118.765147,-8.71087],[118.898448,-8.688409],[118.991547,-8.75506],[119.151622,-8.742364],[119.203624,-8.610935]]]]},"properties":{"LOCATION_TYPE":"level1","ADM0_A3":"IDN","LOCATION_ID":"IDN-NB","NAME":"Nusa Tenggara Barat","TYPE_EN":"Province"}},
{"type":"Feature","geometry":{"type":"MultiPolygon","coordinates":[[[[121.086369,-2.910178],[121.277642,-2.878945],[121.475252,-3.019764],[121.598036,-2.972841],[121.772495,-2.800914],[121.787378,-2.670121],[121.448897,-2.388484],[121.349782,-2.348487],[120.804182,-2.238571],[120.624968,-2.104212],[120.447615,-1.866242],[120.292379,-1.900194],[120.048053,-1.861488],[119.87349,-1.955384],[119.825017,-2.046231],[119.646268,-2.176404],[119.623582,-2.293555],[119.707092,-2.353913],[119.738976,-2.565269],[119.78564,-2.695029],[119.661255,-2.758229],[119.560434,-2.746499],[119.543226,-2.906902],[119.639189,-3.120946],[119.411916,-3.214687],[119.452947,-3.280936],[119.490927,-3.48654],[119.511974,-3.547621],[119.456716,-3.714532],[119.585216,-3.97031],[119.630626,-3.971856],[119.600108,-4.242446],[119.626801,-4.314548],[119.591075,-4.564142],[119.491222,-4.754083],[119.525157,-4.883071],[119.459972,-5.0735],[119.379893,-5.191664],[119.352794,-5.355645],[119.437511,-5.521742],[119.54713,-5.631768],[119.64796,-5.678806],[119.805675,-5.692478],[119.914887,-5.568943],[120.100434,-5.595636],[120.323253,-5.509535],[120.459321,-5.601983],[120.381114,-5.337335],[120.264334,-5.149998],[120.309418,-4.87127],[120.386567,-4.829278],[120.444102,-4.626642],[120.40211,-4.574477],[120.381358,-4.16725],[120.353526,-3.930841],[120.446544,-3.728692],[120.395274,-3.382257],[120.42156,-3.267511],[120.28533,-3.16253],[120.231619,-2.950372],[120.542979,-2.747247],[120.584483,-2.682061],[120.776052,-2.614923],[121.00587,-2.660821],[121.066905,-2.752211],[121.024425,-2.822686],[121.086369,-2.910178]]],[[[120.546153,-5.938165],[120.448253,-5.843927],[120.449962,-6.140802],[120.552989,-6.110121],[120.546153,-5.938165]]]]},"properties":{"LOCATION_TYPE":"level1","ADM0_A3":"IDN","LOCATION_ID":"IDN-SN","NAME":"Sulawesi Selatan","TYPE_EN":"Province"}},
{"type":"Feature","geometry":{"type":"Polygon","coordinates":[[[108.89512,-6.814155],[108.800677,-6.93477],[108.788998,-7.061326],[108.695464,-7.139822],[108.595418,-7.142096],[108.546894,-7.27878],[108.704662,-7.39097],[108.733601,-7.6046],[108.799001,-7.664727],[109.014415,-7.732599],[109.098146,-7.686861],[109.368826,-7.713474],[109.42628,-7.774184],[109.656749,-7.781671],[110.04274,-7.889101],[110.136513,-7.676792],[110.301309,-7.669144],[110.4413,-7.568943],[110.50662,-7.783091],[110.578656,-7.820969],[110.753323,-7.832597],[110.786602,-7.873628],[110.798746,-8.121674],[110.84356,-8.200843],[110.94435,-8.226372],[110.965196,-8.116869],[111.228022,-7.93812],[111.307914,-7.837816],[111.184976,-7.529101],[111.220271,-7.251392],[111.444288,-7.311233],[111.608309,-7.153982],[111.598491,-6.960763],[111.672699,-6.733657],[111.493419,-6.623468],[111.428722,-6.699151],[111.156912,-6.692071],[111.051768,-6.45672],[110.924815,-6.403741],[110.730479,-6.456964],[110.664806,-6.565362],[110.644705,-6.688165],[110.571544,-6.836196],[110.472423,-6.946384],[110.355724,-6.972914],[110.198009,-6.890883],[109.896332,-6.918227],[109.725597,-6.863051],[109.531993,-6.835138],[109.351899,-6.875665],[109.142833,-6.856215],[109.001313,-6.789158],[108.89512,-6.814155]]]},"properties":{"LOCATION_TYPE":"level1","ADM0_A3":"IDN","LOCATION_ID":"IDN-JT","NAME":"Jawa Tengah","TYPE_EN":"Province"}},
{"type":"Feature","geometry":{"type":"Polygon","coordinates":[[[106.988292,-6.07936],[106.984974,-6.235433],[106.923892,-6.381522],[106.76292,-6.301424],[106.739149,-6.386483],[106.560297,-6.355219],[106.420771,-6.370412],[106.405268,-6.524098],[106.450795,-6.836223],[106.404633,-6.991306],[106.537149,-6.982962],[106.540504,-7.054612],[106.398448,-7.207778],[106.375365,-7.310194],[106.522662,-7.410957],[107.107049,-7.456406],[107.411388,-7.495864],[107.59096,-7.570434],[107.686549,-7.662075],[107.953531,-7.739873],[108.326829,-7.817471],[108.453711,-7.818501],[108.539561,-7.692315],[108.799001,-7.664727],[108.733601,-7.6046],[108.704662,-7.39097],[108.546894,-7.27878],[108.595418,-7.142096],[108.695464,-7.139822],[108.788998,-7.061326],[108.800677,-6.93477],[108.89512,-6.814155],[108.74879,-6.812188],[108.605479,-6.761651],[108.539561,-6.486912],[108.372227,-6.340353],[108.360269,-6.246401],[108.216364,-6.237965],[108.093683,-6.326847],[107.810836,-6.189347],[107.678224,-6.238023],[107.470268,-6.145432],[107.354136,-5.975995],[107.150076,-5.973077],[107.044444,-5.914321],[106.988292,-6.07936]]]},"properties":{"LOCATION_TYPE":"level1","ADM0_A3":"IDN","LOCATION_ID":"IDN-JB","NAME":"Jawa Barat","TYPE_EN":"Province"}},
{"type":"Feature","geometry":{"type":"Polygon","coordinates":[[[106.731049,-6.058852],[106.701994,-6.210112],[106.76292,-6.301424],[106.923892,-6.381522],[106.984974,-6.235433],[106.988292,-6.07936],[106.837738,-6.102716],[106.731049,-6.058852]]]},"properties":{"LOCATION_TYPE":"level1","ADM0_A3":"IDN","LOCATION_ID":"IDN-JK","NAME":"Jakarta Raya","TYPE_EN":"Special district"}},
{"type":"Feature","geometry":{"type":"Polygon","coordinates":[[[106.404633,-6.991306],[106.450795,-6.836223],[106.405268,-6.524098],[106.420771,-6.370412],[106.560297,-6.355219],[106.739149,-6.386483],[106.76292,-6.301424],[106.701994,-6.210112],[106.731049,-6.058852],[106.662934,-6.007989],[106.495372,-6.034845],[106.256521,-5.941583],[106.176036,-6.01393],[106.052745,-5.881036],[105.887869,-6.070571],[105.832367,-6.228692],[105.824091,-6.434646],[105.453624,-6.80877],[105.36378,-6.664972],[105.310784,-6.810354],[105.555188,-6.85568],[105.774744,-6.850227],[105.959573,-6.817628],[106.052985,-6.836806],[106.283376,-6.983331],[106.404633,-6.991306]]]},"properties":{"LOCATION_TYPE":"level1","ADM0_A3":"IDN","LOCATION_ID":"IDN-BT","NAME":"Banten","TYPE_EN":"Province"}},
{"type":"Feature","geometry":{"type":"Polygon","coordinates":[[[110.84356,-8.200843],[110.798746,-8.121674],[110.786602,-7.873628],[110.753323,-7.832597],[110.578656,-7.820969],[110.50662,-7.783091],[110.4413,-7.568943],[110.301309,-7.669144],[110.136513,-7.676792],[110.04274,-7.889101],[110.476736,-8.111912],[110.84356,-8.200843]]]},"properties":{"LOCATION_TYPE":"level1","ADM0_A3":"IDN","LOCATION_ID":"IDN-YO","NAME":"Yogyakarta","TYPE_EN":"Special region"}},
{"type":"Feature","geometry":{"type":"MultiPolygon","coordinates":[[[[122.339366,-3.237563],[122.207197,-3.111489],[122.057956,-3.092627],[121.781435,-2.985502],[121.598036,-2.972841],[121.475252,-3.019764],[121.277642,-2.878945],[121.086369,-2.910178],[121.048106,-3.066176],[121.066742,-3.19378],[120.979015,-3.267022],[120.870291,-3.445733],[120.893809,-3.539158],[121.16033,-3.796157],[121.240245,-3.807875],[121.354259,-3.968438],[121.555186,-4.021417],[121.627696,-4.087091],[121.536306,-4.230564],[121.48463,-4.656427],[121.55421,-4.743748],[121.704356,-4.835219],[121.823253,-4.813084],[121.99171,-4.855727],[122.107758,-4.793634],[122.042979,-4.707778],[122.107758,-4.519952],[122.430431,-4.416925],[122.599132,-4.396742],[122.682302,-4.480401],[122.768809,-4.478448],[122.900157,-4.388767],[122.907074,-4.195977],[122.816417,-4.137302],[122.675059,-4.122735],[122.62436,-3.952407],[122.441417,-3.731052],[122.355235,-3.727797],[122.250499,-3.656183],[122.200531,-3.556573],[122.292166,-3.45086],[122.25172,-3.376072],[122.339366,-3.237563]]],[[[122.067393,-5.21502],[121.982677,-5.079034],[121.853852,-5.102146],[121.806814,-5.259861],[121.968272,-5.46795],[122.052989,-5.432306],[122.067393,-5.21502]]],[[[122.78004,-4.916599],[122.735525,-4.643731],[122.656993,-4.624282],[122.49879,-4.725356],[122.404959,-4.737888],[122.327485,-4.835219],[122.402599,-5.061782],[122.341807,-5.108982],[122.275157,-5.327569],[122.407237,-5.353204],[122.543468,-5.428806],[122.655447,-5.322524],[122.606456,-5.235772],[122.643403,-5.07879],[122.78004,-4.916599]]],[[[123.149913,-5.22503],[122.983572,-5.087823],[123.046397,-4.752862],[123.149913,-4.71795],[123.204438,-4.611749],[123.147797,-4.508477],[123.019542,-4.390232],[122.908946,-4.474542],[122.847992,-4.648858],[122.854991,-4.817804],[122.763438,-5.20794],[122.567149,-5.506931],[122.638357,-5.662205],[122.722341,-5.627699],[122.827647,-5.676202],[122.918224,-5.527439],[122.876231,-5.458429],[122.97755,-5.39422],[123.065603,-5.41839],[123.213145,-5.30169],[123.149913,-5.22503]]],[[[123.204438,-3.992934],[123.015636,-3.981134],[122.950694,-4.047052],[122.977875,-4.128839],[123.086599,-4.23447],[123.169281,-4.221124],[123.253429,-4.089776],[123.204438,-3.992934]]]]},"properties":{"LOCATION_TYPE":"level1","ADM0_A3":"IDN","LOCATION_ID":"IDN-SG","NAME":"Sulawesi Tenggara","TYPE_EN":"Province"}},
{"type":"Feature","geometry":{"type":"MultiPolygon","coordinates":[[[[134.873493,-4.254611],[135.265108,-3.759977],[134.258348,-3.399482],[134.254627,-3.307705],[134.450688,-3.0779],[134.445365,-3.023898],[134.670014,-2.83766],[134.658051,-2.562758],[134.556326,-2.464776],[134.474376,-2.580743],[134.532725,-2.834161],[134.463878,-2.854669],[134.401703,-2.744806],[134.330251,-2.522231],[134.19337,-2.379083],[134.15211,-2.17547],[134.155528,-2.039483],[134.087087,-1.682794],[134.207205,-1.5735],[134.281993,-1.350193],[134.127452,-1.14837],[134.036143,-0.957778],[134.100759,-0.812595],[133.977224,-0.72324],[133.745372,-0.750746],[133.391612,-0.72324],[133.154796,-0.531996],[132.905284,-0.45322],[132.709158,-0.36004],[132.437185,-0.347101],[132.27003,-0.384535],[132.09962,-0.469903],[131.884288,-0.681899],[131.59018,-0.756524],[131.488292,-0.74684],[131.243012,-0.819431],[131.291515,-0.914972],[131.254161,-1.080255],[131.181651,-1.217218],[131.03004,-1.275567],[131.003591,-1.456231],[131.126313,-1.453302],[131.20574,-1.523614],[131.323741,-1.469171],[131.427501,-1.497735],[131.57309,-1.480157],[131.821462,-1.59824],[131.927257,-1.706231],[131.972911,-1.964614],[132.073416,-2.105157],[132.214529,-2.165785],[132.347911,-2.270115],[132.560395,-2.185642],[132.698741,-2.305352],[132.815929,-2.24505],[132.943614,-2.28338],[133.169444,-2.216892],[133.296153,-2.204197],[133.548595,-2.24505],[133.94044,-2.107599],[133.863048,-2.21795],[133.949962,-2.292901],[133.920909,-2.387628],[133.735037,-2.516778],[133.6067,-2.532485],[133.320567,-2.491876],[133.258474,-2.416436],[133.033539,-2.479425],[132.835297,-2.736017],[132.736583,-2.809991],[132.585704,-2.717462],[132.201915,-2.676446],[132.121349,-2.697931],[132.035004,-2.793552],[131.996918,-2.914809],[132.07545,-2.957696],[132.188324,-2.916681],[132.325694,-2.946547],[132.553071,-3.107029],[132.603038,-3.241876],[132.692149,-3.338149],[132.811697,-3.281671],[132.831879,-3.461033],[132.931814,-3.554132],[132.881114,-3.642836],[132.756114,-3.627537],[132.791759,-3.927179],[132.907725,-4.088149],[133.269379,-4.052016],[133.455577,-3.846938],[133.408865,-3.722426],[133.586192,-3.566583],[133.843598,-3.63836],[133.958995,-3.837579],[134.173106,-3.787856],[134.191173,-3.943536],[134.315278,-4.020278],[134.430431,-3.90781],[134.532563,-4.022068],[134.692231,-3.914809],[134.658051,-4.133396],[134.873493,-4.254611]]],[[[130.386485,-1.888279],[130.351817,-1.741388],[130.011974,-1.750177],[129.745291,-1.863458],[129.743826,-1.912205],[129.925548,-2.003839],[130.126475,-2.06699],[130.373546,-2.012791],[130.386485,-1.888279]]],[[[131.057384,-1.000665],[131.034841,-0.914809],[130.912934,-0.89422],[130.680675,-0.956638],[130.749685,-1.223403],[130.853282,-1.330662],[130.982595,-1.348565],[131.07252,-1.077569],[131.057384,-1.000665]]],[[[130.917247,-0.778416],[130.732758,-0.826267],[130.631196,-0.806248],[130.543468,-0.913832],[130.819347,-0.870294],[130.917247,-0.778416]]],[[[131.297618,-0.237237],[131.297374,-0.159275],[131.153656,-0.085707],[130.824718,-0.003839],[130.498546,-0.062677],[130.368663,-0.12184],[130.28061,-0.104994],[130.316254,-0.259942],[130.454845,-0.271254],[130.579112,-0.333917],[130.680675,-0.339614],[130.733084,-0.441502],[130.865489,-0.429295],[130.811046,-0.318536],[130.626231,-0.125746],[130.695567,-0.079522],[130.951671,-0.346449],[131.157725,-0.33294],[131.237966,-0.389255],[131.297618,-0.237237]]]]},"properties":{"LOCATION_TYPE":"level1","ADM0_A3":"IDN","LOCATION_ID":"IDN-PB","NAME":"Papua Barat","TYPE_EN":"Province"}},
{"type":"Feature","geometry":{"type":"MultiPolygon","coordinates":[[[[121.33332,0.462277],[121.333762,0.575624],[121.256713,0.586683],[121.160439,0.686057],[121.30317,0.8261],[121.507963,0.846925],[121.840398,0.970432],[122.045657,0.943767],[122.197342,1.027665],[122.087738,1.061591],[121.970225,1.029486],[121.926117,1.0987],[121.63087,1.061957],[121.480724,1.120917],[121.430024,1.232978],[121.264903,1.22956],[121.158702,1.302802],[120.967296,1.346177],[120.820811,1.310004],[120.803233,1.068427],[120.68336,0.991929],[120.568126,0.782131],[120.340343,0.872382],[120.062836,0.742865],[120.02475,0.667182],[120.032237,0.516303],[119.911794,0.4737],[119.793956,0.196601],[119.888194,0.071275],[119.825938,-0.089939],[119.675304,0.030341],[119.638682,-0.050877],[119.792003,-0.106785],[119.757823,-0.469903],[119.867198,-0.788344],[119.809825,-0.833917],[119.735199,-0.641046],[119.68214,-0.736912],[119.56622,-0.833692],[119.572113,-1.052028],[119.601775,-1.15073],[119.494495,-1.329324],[119.641669,-1.393713],[119.724661,-1.612511],[119.822433,-1.729041],[119.822743,-1.871823],[119.87349,-1.955384],[120.048053,-1.861488],[120.292379,-1.900194],[120.447615,-1.866242],[120.624968,-2.104212],[120.804182,-2.238571],[121.349782,-2.348487],[121.448897,-2.388484],[121.787378,-2.670121],[121.772495,-2.800914],[121.598036,-2.972841],[121.781435,-2.985502],[122.057956,-3.092627],[122.207197,-3.111489],[122.339366,-3.237563],[122.385916,-3.132013],[122.279633,-3.039646],[122.312511,-2.926853],[122.015636,-2.693536],[122.019054,-2.615004],[121.822927,-2.287286],[121.700857,-2.180352],[121.555024,-2.133966],[121.53533,-2.05877],[121.326996,-1.919041],[121.31186,-1.782892],[121.440929,-1.813572],[121.54005,-1.923435],[121.692149,-1.908136],[121.798595,-1.71795],[122.036469,-1.613946],[122.18393,-1.61419],[122.368826,-1.492771],[122.648285,-1.159438],[122.720958,-1.109063],[122.811697,-0.924086],[123.060802,-0.880548],[123.23878,-1.024835],[123.383311,-1.003676],[123.454356,-0.758233],[123.403494,-0.642673],[123.239513,-0.570489],[123.075857,-0.55641],[123.026378,-0.599705],[122.823009,-0.612237],[122.912446,-0.762872],[122.716482,-0.792413],[122.612478,-0.752211],[122.207693,-0.764744],[122.105317,-0.926202],[121.926036,-0.955336],[121.714203,-0.935479],[121.659679,-0.812595],[121.500662,-0.859308],[121.266775,-1.148614],[121.197113,-1.202895],[121.167003,-1.322931],[121.073253,-1.421319],[120.889903,-1.395278],[120.803884,-1.342869],[120.675955,-1.394708],[120.56544,-1.215509],[120.582367,-1.105239],[120.500336,-0.975274],[120.412446,-0.904962],[120.325531,-0.938653],[120.243907,-0.887628],[120.089203,-0.657322],[119.995616,-0.209242],[120.02296,-0.070977],[120.084239,0.006252],[120.128429,0.181098],[120.27296,0.378119],[120.375255,0.477688],[120.502696,0.528876],[120.679535,0.530585],[120.892426,0.423326],[120.98699,0.447008],[121.119151,0.411444],[121.163829,0.457465],[121.33332,0.462277]]],[[[123.503103,-1.264418],[123.352224,-1.229181],[123.255382,-1.37713],[123.201671,-1.307306],[123.20102,-1.155206],[122.898692,-1.18434],[122.836111,-1.274021],[122.812022,-1.443617],[122.874034,-1.584568],[122.993175,-1.50921],[123.094574,-1.346368],[123.163585,-1.312188],[123.184825,-1.48561],[123.326834,-1.421157],[123.408376,-1.516534],[123.528575,-1.433038],[123.503103,-1.264418]]],[[[122.029552,-0.332127],[121.872325,-0.332615],[121.875011,-0.394789],[122.026622,-0.406915],[122.029552,-0.332127]]],[[[123.600597,-1.603285],[123.476736,-1.562758],[123.487315,-1.699965],[123.57488,-1.719985],[123.600597,-1.603285]]]]},"properties":{"LOCATION_TYPE":"level1","ADM0_A3":"IDN","LOCATION_ID":"IDN-ST","NAME":"Sulawesi Tengah","TYPE_EN":"Province"}},
{"type":"Feature","geometry":{"type":"MultiPolygon","coordinates":[[[[126.069102,-2.384454],[125.977224,-2.180352],[125.99879,-2.015232],[125.879405,-2.018487],[125.862559,-2.086602],[125.946137,-2.271742],[125.965994,-2.402114],[126.069102,-2.384454]]],[[[126.329112,-1.819268],[125.993419,-1.785821],[125.702891,-1.819268],[125.40211,-1.774672],[125.437999,-1.93255],[125.980235,-1.901788],[126.272146,-1.867283],[126.329112,-1.819268]]],[[[125.314789,-1.778985],[125.185232,-1.703871],[125.02296,-1.723077],[124.632823,-1.631117],[124.384939,-1.667901],[124.331391,-1.826918],[124.406016,-2.004083],[124.543224,-2.006524],[124.853282,-1.896905],[125.01352,-1.944268],[125.110037,-1.895115],[125.321625,-1.864353],[125.314789,-1.778985]]],[[[128.145193,-1.594008],[127.898936,-1.42669],[127.624522,-1.329522],[127.403575,-1.491632],[127.378673,-1.632257],[127.532725,-1.731378],[127.703298,-1.690199],[127.933442,-1.682794],[128.051524,-1.714532],[128.151134,-1.669692],[128.145193,-1.594008]]],[[[127.296153,-0.743748],[127.214041,-0.615411],[127.155528,-0.772393],[127.296153,-0.743748]]],[[[127.888927,-0.764744],[127.789561,-0.68963],[127.65268,-0.707208],[127.606456,-0.629083],[127.683116,-0.460056],[127.532237,-0.304946],[127.460948,-0.406834],[127.316661,-0.339614],[127.302989,-0.510919],[127.398611,-0.620212],[127.4699,-0.818455],[127.625743,-0.752374],[127.74879,-0.885349],[127.888927,-0.764744]]],[[[127.23463,-0.490411],[127.277029,-0.373468],[127.234874,-0.251723],[127.110362,-0.287693],[127.102306,-0.437758],[127.23463,-0.490411]]],[[[127.666026,-0.209242],[127.708344,-0.287042],[127.851329,-0.365492],[128.048839,-0.712823],[128.249522,-0.796482],[128.250987,-0.866795],[128.406016,-0.892267],[128.227794,-0.709568],[128.042735,-0.415297],[127.892426,-0.017185],[127.921235,0.145575],[127.88087,0.301744],[127.960216,0.482815],[128.152029,0.455512],[128.262218,0.391343],[128.474783,0.387193],[128.537608,0.32685],[128.861176,0.243557],[128.824229,0.310858],[128.703868,0.332017],[128.684337,0.541693],[128.313487,0.668158],[128.213552,0.773912],[128.31544,0.901557],[128.439789,0.931789],[128.701182,1.070868],[128.740977,1.404853],[128.686371,1.445217],[128.719493,1.570624],[128.459727,1.544989],[128.186778,1.374172],[128.1421,1.301459],[128.196056,1.196438],[128.054942,1.120429],[127.936371,1.00731],[127.923025,0.869818],[127.795665,0.799058],[127.655121,0.890041],[127.637543,1.000718],[127.833995,1.143866],[127.894298,1.156643],[127.973888,1.297756],[128.03533,1.537991],[128.014903,1.719224],[127.851736,1.825385],[127.864757,1.929023],[127.94337,1.98078],[128.050141,2.147528],[127.917247,2.172105],[127.689952,1.925279],[127.580903,1.751776],[127.519379,1.531928],[127.540782,1.475653],[127.405935,1.229885],[127.491954,1.054918],[127.507823,0.886217],[127.624522,0.832221],[127.555431,0.739895],[127.526866,0.560614],[127.572276,0.422349],[127.713715,0.27733],[127.680675,0.162258],[127.700206,0.047675],[127.666026,-0.209242]]],[[[128.686371,2.483954],[128.596039,2.608588],[128.466563,2.594306],[128.321137,2.458645],[128.197113,2.266181],[128.246104,2.106147],[128.344981,2.039944],[128.490245,2.054267],[128.566661,2.109931],[128.6421,2.261176],[128.686371,2.483954]]]]},"properties":{"LOCATION_TYPE":"level1","ADM0_A3":"IDN","LOCATION_ID":"IDN-MU","NAME":"Maluku Utara","TYPE_EN":"Province"}},
{"type":"Feature","geometry":{"type":"MultiPolygon","coordinates":[[[[103.489024,0.777045],[103.40089,0.880072],[103.345551,0.763373],[103.415701,0.657375],[103.489024,0.777045]]],[[[104.146332,1.160468],[104.041352,1.181383],[103.902599,1.090522],[103.950531,1.014106],[104.049164,0.984198],[104.131114,1.048774],[104.146332,1.160468]]],[[[104.654552,1.096381],[104.399669,1.202623],[104.231944,1.093329],[104.31544,1.003607],[104.452485,1.058173],[104.483409,0.858954],[104.599864,0.835028],[104.661632,0.937242],[104.654552,1.096381]]],[[[108.396169,3.874823],[108.391368,3.997016],[108.170258,4.179429],[107.98463,4.01203],[108.062348,3.855943],[108.180349,3.81684],[108.094493,3.696194],[108.17449,3.651923],[108.317638,3.683783],[108.396169,3.874823]]],[[[104.548513,-0.398045],[104.469574,-0.332127],[104.324718,-0.364841],[104.25587,-0.475518],[104.335785,-0.542657],[104.521983,-0.596612],[104.591645,-0.483575],[104.548513,-0.398045]]],[[[104.928966,-0.237237],[104.848888,-0.139581],[104.766287,-0.188246],[104.620372,-0.004246],[104.525076,-0.007745],[104.494477,-0.135675],[104.541352,-0.271254],[104.735525,-0.214451],[104.851329,-0.301202],[104.928966,-0.237237]]]]},"properties":{"LOCATION_TYPE":"level1","ADM0_A3":"IDN","LOCATION_ID":"IDN-KR","NAME":"Kepulauan Riau","TYPE_EN":"Province"}},
{"type":"Feature","geometry":{"type":"MultiPolygon","coordinates":[[[[100.31365,2.554551],[100.278717,2.354534],[100.312616,2.177283],[100.303573,1.881177],[100.375558,1.814463],[100.440877,1.598714],[100.35034,1.524817],[100.104774,1.415211],[100.070977,1.358729],[100.225387,1.146029],[100.209884,0.866356],[100.1734,0.757577],[100.162961,0.648385],[100.265384,0.450464],[100.368685,0.411293],[100.509814,0.443901],[100.847157,0.185984],[100.845607,-0.030334],[100.749024,-0.063975],[100.855839,-0.322254],[101.00012,-0.401319],[101.235971,-0.702592],[101.525256,-0.931932],[101.673774,-0.967486],[101.769788,-1.038231],[101.881823,-0.99999],[102.012616,-0.880411],[102.188884,-0.855658],[102.26056,-0.880359],[102.356213,-1.010016],[102.541214,-1.084946],[102.682188,-0.904492],[102.804351,-0.792975],[102.917315,-0.763416],[103.100147,-0.772201],[103.438703,-0.74618],[103.372895,-0.648126],[103.417979,-0.517755],[103.573253,-0.475356],[103.482188,-0.373712],[103.400564,-0.384535],[103.49464,-0.253595],[103.466807,-0.183038],[103.494395,-0.118422],[103.671153,-0.017429],[103.791515,-0.012546],[103.76002,0.239488],[103.711192,0.311469],[103.362153,0.536282],[103.223643,0.48843],[102.90268,0.267768],[102.715668,0.257636],[103.074718,0.442328],[103.056326,0.558295],[102.877126,0.726386],[102.551931,0.738105],[102.425059,0.804267],[102.240082,0.982082],[102.194184,1.065904],[102.20102,1.181708],[102.118175,1.386542],[102.021495,1.437893],[101.778575,1.644273],[101.591563,1.65469],[101.427013,1.709296],[101.377615,1.773261],[101.299978,2.046617],[101.067393,2.219794],[101.050304,2.29149],[100.907888,2.299506],[100.812755,2.249823],[100.803233,2.161811],[100.855724,1.999213],[100.666189,2.134467],[100.561046,2.156806],[100.381684,2.355048],[100.31365,2.554551]]],[[[103.29363,0.625434],[103.211762,0.708157],[103.136729,0.573879],[103.280772,0.538031],[103.29363,0.625434]]],[[[103.048676,0.797024],[103.021739,0.845282],[102.763845,1.011176],[102.663748,0.99608],[102.556407,1.125678],[102.4699,1.067369],[102.50172,0.972886],[102.406505,0.873236],[102.557872,0.78026],[102.852224,0.798163],[103.007335,0.693834],[103.048676,0.797024]]],[[[103.126475,0.927883],[103.03712,1.044582],[102.801768,1.163275],[102.715587,1.154446],[102.637218,1.041002],[102.790701,1.03148],[103.086274,0.84101],[103.126475,0.927883]]],[[[102.473399,1.242011],[102.290863,1.404527],[102.20102,1.297756],[102.232921,1.099514],[102.333751,0.96369],[102.464854,0.963446],[102.447439,1.100491],[102.473399,1.242011]]],[[[102.49586,1.363593],[102.490489,1.489691],[102.348969,1.554633],[102.004405,1.585679],[102.134532,1.455715],[102.330251,1.413275],[102.434744,1.29914],[102.49586,1.363593]]],[[[101.721202,2.058092],[101.649262,2.128485],[101.531016,2.056464],[101.440929,2.064927],[101.393809,1.930609],[101.460134,1.76553],[101.577322,1.709296],[101.715099,1.778225],[101.775564,1.947984],[101.721202,2.058092]]],[[[103.712738,-0.269708],[103.557872,-0.223403],[103.460623,-0.333917],[103.612559,-0.387384],[103.712413,-0.346449],[103.712738,-0.269708]]]]},"properties":{"LOCATION_TYPE":"level1","ADM0_A3":"IDN","LOCATION_ID":"IDN-RI","NAME":"Riau","TYPE_EN":"Province"}},
{"type":"Feature","geometry":{"type":"Polygon","coordinates":[[[122.197342,1.027665],[122.045657,0.943767],[121.840398,0.970432],[121.507963,0.846925],[121.30317,0.8261],[121.160439,0.686057],[121.256713,0.586683],[121.333762,0.575624],[121.33332,0.462277],[121.507823,0.486802],[121.528331,0.537421],[121.690115,0.52383],[121.800466,0.426459],[122.324392,0.497056],[122.608084,0.480862],[122.977875,0.482815],[123.074229,0.516303],[123.23878,0.32453],[123.457516,0.311728],[123.499832,0.429793],[123.439422,0.611022],[123.24703,0.732927],[123.205173,0.836797],[123.097191,0.929134],[122.968028,0.962592],[122.848888,0.81802],[122.62379,0.966376],[122.454112,1.020657],[122.197342,1.027665]]]},"properties":{"LOCATION_TYPE":"level1","ADM0_A3":"IDN","LOCATION_ID":"IDN-GO","NAME":"Gorontalo","TYPE_EN":"Province"}},
{"type":"Feature","geometry":{"type":"MultiPolygon","coordinates":[[[[123.097191,0.929134],[123.205173,0.836797],[123.24703,0.732927],[123.439422,0.611022],[123.499832,0.429793],[123.457516,0.311728],[123.632498,0.266506],[123.745779,0.310858],[124.321788,0.398871],[124.503429,0.534003],[124.663829,0.805609],[124.898692,0.973049],[125.033702,1.175442],[125.144298,1.421332],[125.249197,1.484687],[125.167817,1.584784],[125.179942,1.667426],[124.972911,1.722968],[124.836925,1.588853],[124.850434,1.489691],[124.691742,1.401435],[124.54835,1.359849],[124.593761,1.195868],[124.389415,1.186103],[124.314952,1.037746],[124.153005,0.94595],[124.008067,0.898179],[123.947927,0.838935],[123.831798,0.832221],[123.562999,0.866929],[123.368663,0.927436],[123.097191,0.929134]]],[[[125.652517,3.469631],[125.51295,3.707913],[125.505056,3.48078],[125.652517,3.469631]]],[[[126.870709,4.331393],[126.884776,4.456855],[126.816254,4.546454],[126.733735,4.535875],[126.7107,4.264137],[126.791632,4.241056],[126.664762,4.034055],[126.809979,4.037349],[126.809875,4.157244],[126.92213,4.28205],[126.870709,4.331393]]]]},"properties":{"LOCATION_TYPE":"level1","ADM0_A3":"IDN","LOCATION_ID":"IDN-SA","NAME":"Sulawesi Utara","TYPE_EN":"Province"}},
{"type":"Feature","geometry":{"type":"Polygon","coordinates":[[[119.490927,-3.48654],[119.452947,-3.280936],[119.411916,-3.214687],[119.639189,-3.120946],[119.543226,-2.906902],[119.560434,-2.746499],[119.661255,-2.758229],[119.78564,-2.695029],[119.738976,-2.565269],[119.707092,-2.353913],[119.623582,-2.293555],[119.646268,-2.176404],[119.825017,-2.046231],[119.87349,-1.955384],[119.822743,-1.871823],[119.822433,-1.729041],[119.724661,-1.612511],[119.641669,-1.393713],[119.494495,-1.329324],[119.601775,-1.15073],[119.572113,-1.052028],[119.56622,-0.833692],[119.525157,-0.860447],[119.453136,-1.096449],[119.32838,-1.214451],[119.298595,-1.387872],[119.333263,-1.5735],[119.308442,-1.69492],[119.365245,-1.827732],[119.354015,-1.934747],[119.216075,-2.009942],[119.134044,-2.203546],[119.141449,-2.44199],[118.914399,-2.64837],[118.822765,-2.62127],[118.757335,-2.775811],[118.771658,-2.862074],[118.880626,-2.861017],[118.853282,-3.053399],[118.764171,-3.090916],[118.85255,-3.295587],[118.839854,-3.348077],[118.926768,-3.566095],[119.027029,-3.509698],[119.208995,-3.489841],[119.297618,-3.427911],[119.490927,-3.48654]]]},"properties":{"LOCATION_TYPE":"level1","ADM0_A3":"IDN","LOCATION_ID":"IDN-SR","NAME":"Sulawesi Barat","TYPE_EN":"Province"}},
{"type":"Feature","geometry":{"type":"Polygon","coordinates":[[[103.438703,-0.74618],[103.100147,-0.772201],[102.917315,-0.763416],[102.804351,-0.792975],[102.682188,-0.904492],[102.541214,-1.084946],[102.356213,-1.010016],[102.26056,-0.880359],[102.188884,-0.855658],[102.012616,-0.880411],[101.881823,-0.99999],[101.769788,-1.038231],[101.79449,-1.23889],[101.678114,-1.288965],[101.675324,-1.499856],[101.475698,-1.702118],[101.226049,-1.728421],[101.113911,-1.704909],[101.142282,-1.919986],[101.259742,-2.081475],[101.335603,-2.296965],[101.435752,-2.236246],[101.517142,-2.305234],[101.56422,-2.450238],[101.736716,-2.636273],[101.900426,-2.740143],[102.066825,-2.782362],[102.260198,-2.639528],[102.486851,-2.729911],[102.791742,-2.567853],[102.863572,-2.461762],[102.862022,-2.353913],[103.122884,-2.397993],[103.215592,-2.185964],[103.41899,-2.393807],[103.459866,-2.238261],[103.523687,-2.224515],[103.535004,-1.967942],[103.886352,-1.794774],[104.125614,-1.830637],[104.321519,-1.804334],[104.428283,-1.69385],[104.531586,-1.734063],[104.454356,-1.53102],[104.444998,-1.30462],[104.377208,-1.031671],[104.212413,-1.073337],[103.955821,-0.976983],[103.839122,-1.03281],[103.650401,-0.942966],[103.438703,-0.74618]]]},"properties":{"LOCATION_TYPE":"level1","ADM0_A3":"IDN","LOCATION_ID":"IDN-JA","NAME":"Jambi","TYPE_EN":"Province"}},
{"type":"Feature","geometry":{"type":"Polygon","coordinates":[[[104.531586,-1.734063],[104.428283,-1.69385],[104.321519,-1.804334],[104.125614,-1.830637],[103.886352,-1.794774],[103.535004,-1.967942],[103.523687,-2.224515],[103.459866,-2.238261],[103.41899,-2.393807],[103.215592,-2.185964],[103.122884,-2.397993],[102.862022,-2.353913],[102.863572,-2.461762],[102.791742,-2.567853],[102.486851,-2.729911],[102.260198,-2.639528],[102.066825,-2.782362],[102.223818,-2.95429],[102.241129,-3.058831],[102.430782,-3.087925],[102.489331,-3.151229],[102.461684,-3.250447],[102.631338,-3.373024],[102.765955,-3.278973],[102.870186,-3.375918],[102.974883,-3.395606],[103.017309,-3.485368],[102.993073,-3.58407],[102.897213,-3.630837],[102.701825,-3.791086],[102.629891,-3.813669],[102.768487,-3.96136],[102.981032,-4.035361],[103.141643,-4.046781],[103.185929,-4.242531],[103.615774,-4.418025],[103.621768,-4.505254],[103.765274,-4.804668],[103.889452,-4.9336],[104.081069,-4.946726],[104.297851,-4.892466],[104.336505,-4.814279],[104.264933,-4.707826],[104.308755,-4.627831],[104.309065,-4.440245],[104.527243,-4.320046],[104.674314,-4.296843],[105.008867,-4.169203],[105.111497,-4.059959],[105.128963,-3.956347],[105.266061,-3.886119],[105.309934,-3.755584],[105.513229,-3.868446],[105.709186,-4.149979],[105.827973,-4.157973],[105.952485,-3.833754],[105.819591,-3.67254],[105.929047,-3.365411],[106.063162,-3.266697],[106.054047,-3.04697],[106.015636,-2.969496],[105.879242,-2.951104],[105.791759,-2.862074],[105.778087,-2.690118],[105.673106,-2.663018],[105.608409,-2.552341],[105.62379,-2.401788],[105.202159,-2.347426],[105.11671,-2.380466],[104.883311,-2.284926],[104.874278,-2.080011],[104.772634,-1.997735],[104.663829,-2.031345],[104.636974,-1.921563],[104.564464,-1.85768],[104.531586,-1.734063]]]},"properties":{"LOCATION_TYPE":"level1","ADM0_A3":"IDN","LOCATION_ID":"IDN-SS","NAME":"Sumatera Selatan","TYPE_EN":"Province"}},
{"type":"Feature","geometry":{"type":"Polygon","coordinates":[[[105.827973,-4.157973],[105.709186,-4.149979],[105.513229,-3.868446],[105.309934,-3.755584],[105.266061,-3.886119],[105.128963,-3.956347],[105.111497,-4.059959],[105.008867,-4.169203],[104.674314,-4.296843],[104.527243,-4.320046],[104.309065,-4.440245],[104.308755,-4.627831],[104.264933,-4.707826],[104.336505,-4.814279],[104.297851,-4.892466],[104.081069,-4.946726],[103.889452,-4.9336],[103.765274,-4.804668],[103.608153,-4.916489],[103.654063,-4.979181],[103.792166,-5.030938],[103.913422,-5.139255],[103.901378,-5.21852],[104.11085,-5.446222],[104.257986,-5.539809],[104.297699,-5.643324],[104.541759,-5.841892],[104.56129,-5.928318],[104.699067,-5.930434],[104.688731,-5.807875],[104.533214,-5.559828],[104.622813,-5.490655],[104.790782,-5.60947],[105.118419,-5.782159],[105.199229,-5.678888],[105.250499,-5.45908],[105.31072,-5.465997],[105.483572,-5.658949],[105.545258,-5.657647],[105.602061,-5.809828],[105.782563,-5.828546],[105.8296,-5.654718],[105.833344,-5.383233],[105.864513,-5.255548],[105.867442,-5.041274],[105.909679,-4.943129],[105.872406,-4.848565],[105.906261,-4.469334],[105.819021,-4.300226],[105.827973,-4.157973]]]},"properties":{"LOCATION_TYPE":"level1","ADM0_A3":"IDN","LOCATION_ID":"IDN-LA","NAME":"Lampung","TYPE_EN":"Province"}},
{"type":"Feature","geometry":{"type":"MultiPolygon","coordinates":[[[[103.608153,-4.916489],[103.765274,-4.804668],[103.621768,-4.505254],[103.615774,-4.418025],[103.185929,-4.242531],[103.141643,-4.046781],[102.981032,-4.035361],[102.768487,-3.96136],[102.629891,-3.813669],[102.701825,-3.791086],[102.897213,-3.630837],[102.993073,-3.58407],[103.017309,-3.485368],[102.974883,-3.395606],[102.870186,-3.375918],[102.765955,-3.278973],[102.631338,-3.373024],[102.461684,-3.250447],[102.489331,-3.151229],[102.430782,-3.087925],[102.241129,-3.058831],[102.223818,-2.95429],[102.066825,-2.782362],[101.900426,-2.740143],[101.736716,-2.636273],[101.56422,-2.450238],[101.517142,-2.305234],[101.435752,-2.236246],[101.335603,-2.296965],[101.170962,-2.367142],[101.026596,-2.479951],[101.104828,-2.587091],[101.326996,-2.73919],[101.418956,-2.927341],[101.637462,-3.250665],[102.065684,-3.55047],[102.222179,-3.642836],[102.304535,-3.845147],[102.312511,-3.991469],[102.701182,-4.27044],[102.876313,-4.420587],[102.920421,-4.492608],[103.172862,-4.617934],[103.393403,-4.814142],[103.608153,-4.916489]]],[[[102.406505,-5.403741],[102.172048,-5.280369],[102.098643,-5.334893],[102.297862,-5.472752],[102.406505,-5.403741]]]]},"properties":{"LOCATION_TYPE":"level1","ADM0_A3":"IDN","LOCATION_ID":"IDN-BE","NAME":"Bengkulu","TYPE_EN":"Province"}},
{"type":"Feature","geometry":{"type":"MultiPolygon","coordinates":[[[[101.026596,-2.479951],[101.170962,-2.367142],[101.335603,-2.296965],[101.259742,-2.081475],[101.142282,-1.919986],[101.113911,-1.704909],[101.226049,-1.728421],[101.475698,-1.702118],[101.675324,-1.499856],[101.678114,-1.288965],[101.79449,-1.23889],[101.769788,-1.038231],[101.673774,-0.967486],[101.525256,-0.931932],[101.235971,-0.702592],[101.00012,-0.401319],[100.855839,-0.322254],[100.749024,-0.063975],[100.845607,-0.030334],[100.847157,0.185984],[100.509814,0.443901],[100.368685,0.411293],[100.265384,0.450464],[100.162961,0.648385],[100.1734,0.757577],[99.826393,0.868216],[99.794198,0.780056],[99.914656,0.568596],[99.814094,0.468189],[99.584495,0.562757],[99.34234,0.473615],[99.151165,0.252457],[99.316173,0.242621],[99.408214,0.163886],[99.61085,0.098578],[99.747244,-0.02984],[99.759451,-0.16839],[99.813813,-0.29461],[100.001313,-0.456313],[100.159679,-0.667901],[100.301443,-0.816339],[100.353038,-0.977146],[100.412852,-1.039158],[100.366059,-1.150486],[100.406016,-1.264418],[100.569184,-1.330824],[100.570567,-1.44256],[100.783946,-1.815525],[100.857595,-1.89186],[100.887218,-2.037205],[100.831554,-2.14129],[100.923106,-2.333429],[101.026596,-2.479951]]],[[[100.398611,-3.183526],[100.472911,-3.113946],[100.46754,-3.015313],[100.255382,-2.791436],[100.189138,-2.791192],[100.189464,-2.966567],[100.398611,-3.183526]]],[[[100.206798,-2.693536],[99.984141,-2.484633],[100.007823,-2.819513],[100.13852,-2.820489],[100.206798,-2.693536]]],[[[99.823253,-2.292901],[99.721365,-2.159112],[99.694347,-2.067804],[99.594005,-2.014825],[99.531261,-2.155938],[99.71339,-2.313409],[99.823253,-2.292901]]],[[[99.274425,-1.634942],[99.209727,-1.572931],[99.11671,-1.366632],[98.882823,-0.913181],[98.658214,-0.963474],[98.593761,-1.198419],[98.811697,-1.528985],[98.884776,-1.679376],[99.100597,-1.799412],[99.244151,-1.778985],[99.274425,-1.634942]]]]},"properties":{"LOCATION_TYPE":"level1","ADM0_A3":"IDN","LOCATION_ID":"IDN-SB","NAME":"Sumatera Barat","TYPE_EN":"Province"}},
{"type":"Feature","geometry":{"type":"MultiPolygon","coordinates":[[[[99.151165,0.252457],[99.34234,0.473615],[99.584495,0.562757],[99.814094,0.468189],[99.914656,0.568596],[99.794198,0.780056],[99.826393,0.868216],[100.1734,0.757577],[100.209884,0.866356],[100.225387,1.146029],[100.070977,1.358729],[100.104774,1.415211],[100.35034,1.524817],[100.440877,1.598714],[100.375558,1.814463],[100.303573,1.881177],[100.312616,2.177283],[100.278717,2.354534],[100.31365,2.554551],[100.20338,2.709866],[100.131114,2.681871],[100.018565,2.731676],[99.979503,2.948472],[99.781586,3.120754],[99.750743,3.180487],[99.589366,3.227973],[99.489757,3.336249],[99.179761,3.546338],[98.95753,3.671332],[98.796582,3.725443],[98.710623,3.803778],[98.67662,3.914547],[98.477224,4.04621],[98.305675,4.080308],[98.267589,4.287909],[98.062728,4.24031],[98.001026,3.980067],[97.890232,3.915162],[97.893333,3.848189],[97.783882,3.744785],[97.906768,3.433021],[97.989554,3.330391],[97.86398,3.257424],[97.936379,3.140635],[97.895606,3.082603],[97.922788,2.90928],[98.057043,2.812128],[98.069394,2.676995],[98.025314,2.576122],[98.127633,2.32699],[98.101334,2.188621],[98.354503,2.003811],[98.535167,1.936469],[98.658214,1.763902],[98.760102,1.764146],[98.818858,1.619696],[98.730235,1.51439],[98.917328,1.117174],[98.981212,0.831732],[99.041759,0.777045],[99.04005,0.650458],[99.122569,0.509019],[99.151165,0.252457]]],[[[98.501964,-0.460545],[98.507335,-0.364923],[98.451182,-0.258396],[98.368907,-0.349216],[98.316742,-0.535089],[98.39031,-0.577081],[98.501964,-0.460545]]],[[[98.479991,-0.15838],[98.44337,-0.052016],[98.343516,-0.044732],[98.512462,-0.319024],[98.559825,-0.278253],[98.479991,-0.15838]]],[[[97.928477,0.99608],[97.792247,1.143988],[97.693614,1.186021],[97.486339,1.476549],[97.349783,1.545396],[97.23585,1.416693],[97.080414,1.429145],[97.233084,1.277289],[97.387706,1.018785],[97.388845,0.952094],[97.61378,0.823554],[97.704112,0.57274],[97.827159,0.56269],[97.882986,0.642971],[97.928477,0.99608]]],[[[98.547597,0.159327],[98.53874,0.090335],[98.689004,0.070775],[98.717352,0.17512],[98.547597,0.159327]]]]},"properties":{"LOCATION_TYPE":"level1","ADM0_A3":"IDN","LOCATION_ID":"IDN-SU","NAME":"Sumatera Utara","TYPE_EN":"Province"}},
{"type":"Feature","geometry":{"type":"MultiPolygon","coordinates":[[[[98.101334,2.188621],[98.127633,2.32699],[98.025314,2.576122],[98.069394,2.676995],[98.057043,2.812128],[97.922788,2.90928],[97.895606,3.082603],[97.936379,3.140635],[97.86398,3.257424],[97.989554,3.330391],[97.906768,3.433021],[97.783882,3.744785],[97.893333,3.848189],[97.890232,3.915162],[98.001026,3.980067],[98.062728,4.24031],[98.267589,4.287909],[98.275564,4.42536],[98.20574,4.498033],[98.053966,4.553168],[97.90919,4.889594],[97.664399,5.073432],[97.496837,5.251899],[97.268368,5.155068],[96.973399,5.273424],[96.82838,5.280178],[96.650564,5.216254],[96.362153,5.225491],[96.126231,5.281806],[95.930431,5.414496],[95.887543,5.512152],[95.611583,5.626654],[95.511241,5.603013],[95.412852,5.649563],[95.197276,5.546373],[95.25172,5.395575],[95.198985,5.292873],[95.29127,5.191636],[95.42628,4.827338],[95.560883,4.645738],[95.616547,4.628404],[96.01002,4.225653],[96.190929,4.125963],[96.430349,3.825263],[96.559825,3.746568],[96.760509,3.748684],[96.883556,3.68244],[97.018565,3.522691],[97.182628,3.245998],[97.270763,3.214423],[97.332042,3.031399],[97.42213,2.928371],[97.602712,2.866197],[97.644054,2.668891],[97.658214,2.411566],[97.744395,2.281073],[97.955903,2.271715],[98.101334,2.188621]]],[[[96.479503,2.414984],[96.444102,2.490383],[96.246104,2.600002],[96.090505,2.757799],[95.9817,2.790351],[95.884044,2.919013],[95.773204,2.905015],[95.698009,2.778754],[95.931407,2.595608],[96.065684,2.579413],[96.307628,2.374091],[96.411388,2.343817],[96.479503,2.414984]]]]},"properties":{"LOCATION_TYPE":"level1","ADM0_A3":"IDN","LOCATION_ID":"IDN-AC","NAME":"Aceh","TYPE_EN":"Autonomous Province"}},
{"type":"Feature","geometry":{"type":"Polygon","coordinates":[[[114.310683,-3.433914],[114.504463,-2.880961],[114.631226,-2.822256],[114.785428,-2.688776],[114.82217,-2.561962],[114.908108,-2.418663],[114.904801,-2.262549],[115.130937,-2.207617],[115.330149,-2.037085],[115.358365,-1.903863],[115.338263,-1.76537],[115.426629,-1.434486],[115.68005,-1.360899],[115.677518,-1.425907],[115.802007,-1.294443],[115.805107,-1.085256],[115.739685,-1.103808],[115.628684,-0.978028],[115.460012,-0.885992],[115.381257,-0.582031],[115.329891,-0.511028],[115.274184,-0.31104],[115.277233,-0.220141],[115.347358,0.002274],[115.187367,0.00522],[115.002572,-0.177663],[114.967329,-0.097513],[115.017662,0.057671],[114.953066,0.284169],[114.967949,0.364216],[115.075953,0.533043],[115.057246,0.636861],[114.976476,0.735201],[114.735405,0.672569],[114.663058,0.621306],[114.377546,0.588647],[114.183914,0.650452],[114.036327,0.647041],[113.776394,0.558571],[113.646686,0.410053],[113.622915,0.310937],[113.531551,0.261431],[113.324535,0.245205],[113.45321,0.065888],[113.478531,-0.047542],[113.429335,-0.190427],[113.326241,-0.251664],[113.249191,-0.361063],[113.300816,-0.422765],[113.256426,-0.551387],[113.161134,-0.469893],[113.004245,-0.518728],[112.578018,-0.704453],[112.379994,-0.754579],[112.118511,-0.735355],[111.651408,-1.015493],[111.577355,-1.186749],[111.416073,-1.268759],[111.327138,-1.373301],[111.133971,-1.530449],[111.011602,-1.526108],[110.920341,-1.613235],[111.017441,-1.660312],[111.025244,-1.867018],[110.994755,-1.985253],[111.012325,-2.127363],[111.137692,-2.404814],[111.137589,-2.733011],[110.959229,-2.885671],[110.755544,-3.011814],[110.906505,-3.083266],[111.060802,-3.06113],[111.296153,-2.936456],[111.44752,-2.929783],[111.584321,-3.008884],[111.760265,-2.907647],[111.83253,-3.061619],[111.814952,-3.190362],[111.842784,-3.361749],[111.822032,-3.545099],[111.905284,-3.572035],[112.116873,-3.382257],[112.302745,-3.313897],[112.524669,-3.437758],[112.618012,-3.423761],[113.021495,-3.16253],[112.949067,-3.086033],[113.03712,-2.993097],[113.182628,-3.077081],[113.241222,-3.176853],[113.345225,-3.246515],[113.466319,-3.184259],[113.620372,-3.185317],[113.632498,-3.456801],[113.713145,-3.472589],[114.108246,-3.347345],[114.310683,-3.433914]]]},"properties":{"LOCATION_TYPE":"level1","ADM0_A3":"IDN","LOCATION_ID":"IDN-KT","NAME":"Kalimantan Tengah","TYPE_EN":"Province"}},
{"type":"Feature","geometry":{"type":"MultiPolygon","coordinates":[[[[116.57289,-2.362976],[116.390498,-2.314432],[115.99445,-2.271024],[115.874044,-2.350657],[115.814099,-2.183639],[115.828775,-2.047162],[115.748935,-2.000704],[115.741235,-1.784232],[115.606877,-1.46668],[115.677518,-1.425907],[115.68005,-1.360899],[115.426629,-1.434486],[115.338263,-1.76537],[115.358365,-1.903863],[115.330149,-2.037085],[115.130937,-2.207617],[114.904801,-2.262549],[114.908108,-2.418663],[114.82217,-2.561962],[114.785428,-2.688776],[114.631226,-2.822256],[114.504463,-2.880961],[114.310683,-3.433914],[114.412446,-3.485284],[114.523936,-3.475844],[114.611095,-3.683852],[114.604259,-3.855157],[114.631602,-4.012872],[114.606619,-4.132257],[114.712901,-4.170831],[115.060313,-3.985772],[115.583344,-3.780532],[115.836192,-3.633233],[115.967947,-3.608819],[116.009532,-3.451104],[116.085216,-3.307061],[116.168468,-3.265802],[116.163341,-3.172947],[116.264903,-3.136895],[116.111339,-2.930271],[116.334239,-2.925551],[116.369965,-2.823907],[116.390391,-2.589044],[116.54005,-2.512872],[116.57289,-2.362976]]],[[[116.399262,-3.392755],[116.324718,-3.532973],[116.393077,-3.63242],[116.434418,-3.409763],[116.399262,-3.392755]]],[[[116.303722,-3.718032],[116.263031,-3.405532],[116.267833,-3.218845],[116.126231,-3.318617],[116.052501,-3.478692],[116.013031,-3.650486],[116.074474,-3.800877],[116.057384,-4.040704],[116.115571,-4.036716],[116.307953,-3.878595],[116.303722,-3.718032]]]]},"properties":{"LOCATION_TYPE":"level1","ADM0_A3":"IDN","LOCATION_ID":"IDN-KS","NAME":"Kalimantan Selatan","TYPE_EN":"Province"}},
{"type":"Feature","geometry":{"type":"Polygon","coordinates":[[[115.619151,-8.288751],[115.502452,-8.172621],[115.215505,-8.059503],[115.135916,-8.072849],[115.022634,-8.172621],[114.857595,-8.193129],[114.691417,-8.135024],[114.447927,-8.12184],[114.468435,-8.21852],[114.639008,-8.398614],[114.796641,-8.40545],[114.927013,-8.467462],[115.156098,-8.662042],[115.253917,-8.714614],[115.322602,-8.623793],[115.604828,-8.501072],[115.714203,-8.375177],[115.619151,-8.288751]]]},"properties":{"LOCATION_TYPE":"level1","ADM0_A3":"IDN","LOCATION_ID":"IDN-BA","NAME":"Bali","TYPE_EN":"Province"}},
{"type":"Feature","geometry":{"type":"MultiPolygon","coordinates":[[[[106.908946,-2.929783],[106.812511,-2.892185],[106.722667,-2.966078],[106.861176,-3.028985],[106.908946,-2.929783]]],[[[108.293712,-2.848403],[108.197765,-2.678155],[108.06658,-2.594496],[107.789073,-2.553806],[107.670258,-2.561456],[107.642589,-2.748468],[107.594249,-2.78631],[107.581065,-3.010675],[107.640391,-3.121677],[107.602794,-3.228858],[107.75315,-3.198455],[107.888438,-3.087498],[107.966075,-3.150974],[108.187673,-3.136895],[108.204356,-3.005466],[108.293712,-2.848403]]],[[[106.769054,-2.560317],[106.354015,-2.462986],[106.264171,-2.351332],[106.162608,-2.007013],[106.174571,-1.879083],[106.035492,-1.678318],[106.033946,-1.57586],[105.875743,-1.48919],[105.719981,-1.524184],[105.757579,-1.645196],[105.651703,-1.706964],[105.611013,-1.540216],[105.459646,-1.562921],[105.349864,-1.648696],[105.375662,-1.821873],[105.154307,-1.935968],[105.147472,-2.080011],[105.306407,-2.135024],[105.450369,-2.122654],[105.565766,-2.06699],[105.607432,-2.114841],[105.795746,-2.171808],[105.828787,-2.395115],[105.944347,-2.498793],[105.901622,-2.628676],[105.986501,-2.821222],[106.094005,-2.84059],[106.447032,-2.981134],[106.532237,-3.105645],[106.707286,-3.094171],[106.745779,-3.020115],[106.613048,-2.94256],[106.674815,-2.699802],[106.769054,-2.560317]]]]},"properties":{"LOCATION_TYPE":"level1","ADM0_A3":"IDN","LOCATION_ID":"IDN-BB","NAME":"Bangka-Belitung","TYPE_EN":"Province"}}
]}