{"type":"FeatureCollection", "features": [
{"type":"Feature","geometry":{"type":"Polygon","coordinates":[[[78.380983,32.528041],[78.447542,32.566256],[78.630166,32.578013],[78.713262,32.637518],[78.77145,32.461663],[78.943429,32.346373],[79.09174,32.390556],[79.112928,32.472386],[79.287412,32.532579],[79.320466,32.592267],[79.443497,32.534773],[79.620673,32.728725],[79.414089,32.972053],[79.37317,33.11214],[79.456096,33.250399],[79.260061,33.291776],[79.098028,33.287655],[78.964986,33.344254],[78.824263,33.461059],[78.781372,33.552785],[78.794084,33.74391],[78.721117,33.994386],[78.730109,34.079265],[78.903225,34.158123],[78.98539,34.286358],[78.922138,34.372296],[78.801732,34.415006],[78.607325,34.546471],[78.379432,34.578666],[78.273186,34.658867],[78.211381,34.848262],[78.148129,34.94314],[78.130042,35.055432],[78.001161,35.268908],[78.055628,35.452876],[77.985865,35.494165],[77.883132,35.431068],[77.800346,35.495406],[77.042426,35.107014],[77.013108,34.986393],[76.921123,34.920712],[76.782011,34.930892],[76.743873,34.819271],[76.553187,34.72584],[76.399915,34.750748],[76.262042,34.684654],[76.023401,34.677161],[75.777111,34.503812],[75.611643,34.49836],[75.348093,34.55722],[75.374549,34.370981],[75.584564,34.210116],[75.6634,34.19923],[75.741656,34.066434],[75.879592,33.963696],[76.024367,33.982089],[76.166381,33.873232],[76.235838,33.728794],[76.246099,33.574094],[76.488031,33.502231],[76.646566,33.352107],[76.739843,33.197406],[76.956058,33.02509],[77.135788,32.92675],[77.348695,32.867245],[77.538968,32.918353],[77.721075,33.012636],[77.857915,32.873007],[77.93853,32.695343],[78.008913,32.61031],[78.253859,32.697901],[78.380983,32.528041]]]},"properties":{"LOCATION_TYPE":"level1","ADM0_A3":"IND","LOCATION_ID":"IND-LA","NAME":"Ladakh","TYPE_EN":"Union Territory"}},
{"type":"Feature","geometry":{"type":"Polygon","coordinates":[[[95.246933,26.648904],[95.392658,26.691757],[95.489809,26.810716],[95.591302,26.823739],[95.777957,26.995149],[95.888855,27.027034],[96.013188,27.190796],[96.142586,27.25751],[96.407789,27.29818],[96.510936,27.292495],[96.5869,27.353577],[96.758879,27.341743],[96.859648,27.240716],[96.865332,27.171624],[97.02677,27.091474],[97.134773,27.127338],[96.905123,27.408406],[96.87019,27.61909],[97.060359,27.750452],[97.222933,27.899719],[97.333521,27.894164],[97.355122,28.023045],[97.306546,28.069657],[97.323496,28.217478],[97.11555,28.366564],[96.933959,28.336618],[96.716924,28.436539],[96.561518,28.447293],[96.369644,28.378116],[96.336459,28.479667],[96.59801,28.70991],[96.576668,28.808527],[96.457605,28.994588],[96.366568,29.036537],[96.195323,28.941106],[96.174625,29.108845],[96.316425,29.171864],[96.366862,29.244211],[96.205424,29.256949],[96.141966,29.368467],[95.953735,29.359219],[95.863134,29.323985],[95.744781,29.340432],[95.717165,29.218284],[95.592335,29.249689],[95.515337,29.209433],[95.487577,29.068994],[95.367406,29.036496],[95.224916,29.059364],[95.047666,29.140806],[94.776571,29.166696],[94.704224,29.284699],[94.63043,29.319452],[94.528628,29.23124],[94.396439,29.207081],[94.270786,29.09793],[94.347311,29.024349],[94.250183,28.933107],[93.992019,28.844649],[93.927786,28.682752],[93.86308,28.704871],[93.62553,28.67236],[93.446213,28.671894],[93.31717,28.603463],[93.286972,28.520517],[93.186286,28.431995],[93.207825,28.340539],[92.974924,28.282306],[92.85028,28.19195],[92.779174,28.195903],[92.65484,28.105831],[92.736392,27.985909],[92.574977,27.847806],[92.404416,27.853831],[92.303854,27.78616],[92.239568,27.865277],[92.064878,27.761721],[91.864914,27.729988],[91.826589,27.807627],[91.680131,27.849823],[91.579867,27.657977],[91.59506,27.546382],[91.657382,27.479151],[91.779555,27.456475],[91.975088,27.472433],[92.023598,27.44678],[92.084849,27.304226],[91.995862,27.158033],[91.999893,27.071527],[92.080371,26.921571],[92.21032,26.912337],[92.626212,27.018067],[92.698766,27.065919],[92.814831,27.050804],[93.020297,26.953006],[93.375004,26.988792],[93.460683,26.947244],[93.694674,27.005949],[93.826552,27.095995],[93.84659,27.198892],[93.982512,27.327712],[94.243064,27.525969],[94.243064,27.647977],[94.352929,27.593122],[94.474575,27.593872],[94.798483,27.701229],[94.948138,27.76952],[95.31318,27.895791],[95.408368,27.870831],[95.543554,27.90207],[95.716773,27.990204],[95.964096,27.993305],[95.900741,27.86538],[95.775891,27.717327],[95.804313,27.619374],[95.886788,27.557],[95.879554,27.462613],[95.978256,27.449694],[96.007194,27.365126],[95.903738,27.276087],[95.799559,27.28588],[95.643806,27.230328],[95.545931,27.273943],[95.423768,27.141289],[95.261193,27.048866],[95.176444,27.033182],[95.225433,26.974219],[95.202179,26.866732],[95.246933,26.648904]]]},"properties":{"LOCATION_TYPE":"level1","ADM0_A3":"IND","LOCATION_ID":"IND-AR","NAME":"Arunachal Pradesh","TYPE_EN":"State"}},
{"type":"Feature","geometry":{"type":"Polygon","coordinates":[[[88.733082,27.148972],[88.775852,27.240871],[88.892331,27.315543],[88.773578,27.408509],[88.741022,27.54571],[88.805669,27.655109],[88.853884,27.843676],[88.81771,27.994726],[88.610488,28.105831],[88.37877,27.982634],[88.126693,27.95044],[88.159662,27.77412],[88.02334,27.494912],[88.035122,27.322571],[88.004663,27.249163],[88.118167,27.138499],[88.233095,27.137104],[88.357429,27.085117],[88.518039,27.176223],[88.733082,27.148972]]]},"properties":{"LOCATION_TYPE":"level1","ADM0_A3":"IND","LOCATION_ID":"IND-SK","NAME":"Sikkim","TYPE_EN":"State"}},
{"type":"Feature","geometry":{"type":"Polygon","coordinates":[[[88.733082,27.148972],[88.518039,27.176223],[88.357429,27.085117],[88.233095,27.137104],[88.118167,27.138499],[88.004663,27.249163],[87.970733,27.10274],[88.076877,26.99179],[88.155321,26.845598],[88.169067,26.744002],[88.087136,26.5391],[88.282291,26.428439],[88.297174,26.336222],[88.180489,26.285528],[87.979364,26.145795],[87.831363,26.010557],[87.805421,25.873666],[88.04644,25.668873],[88.043133,25.547097],[87.9558,25.534075],[87.768007,25.436277],[87.838081,25.27776],[87.783717,25.214094],[87.78103,25.08989],[87.877458,24.938866],[87.853274,24.758437],[87.895442,24.670303],[87.720568,24.317792],[87.631478,24.269372],[87.661554,24.186198],[87.488748,24.046853],[87.33806,24.001843],[87.241218,23.850844],[87.079677,23.815213],[86.877209,23.913063],[86.80972,23.818081],[86.799798,23.725529],[86.458527,23.638609],[86.348352,23.567942],[86.336467,23.508436],[86.214304,23.449163],[86.121493,23.500891],[86.056381,23.602513],[85.996436,23.511511],[85.828901,23.483063],[85.89484,23.416478],[85.829831,23.260803],[85.888432,23.163083],[86.020207,23.152592],[86.142474,23.028259],[86.450465,23.004203],[86.399099,22.784966],[86.586891,22.680683],[86.611386,22.604254],[86.749362,22.5448],[86.718149,22.469404],[86.789876,22.415635],[86.780264,22.286702],[86.686523,22.218024],[86.833904,22.121751],[86.987383,22.066586],[86.993688,21.972483],[87.190678,21.956205],[87.275014,21.813966],[87.408546,21.786138],[87.477387,21.613593],[87.703787,21.655504],[87.97047,21.836493],[88.050792,21.985012],[88.140636,22.060126],[88.154063,21.888088],[88.203787,21.805406],[88.180919,21.684963],[88.249278,21.558295],[88.393077,21.600246],[88.578136,21.571682],[88.623383,21.710273],[88.567068,21.850816],[88.625987,21.955512],[88.689952,21.94599],[88.684906,21.697211],[88.762462,21.555854],[88.881602,21.672024],[89.000255,21.60342],[89.082693,21.617336],[88.993012,21.912665],[89.060883,21.938463],[89.036876,22.085598],[89.078159,22.150845],[88.989586,22.386903],[88.908144,22.740784],[88.944524,22.848012],[88.842773,22.964568],[88.8513,23.07513],[88.954704,23.183806],[88.839621,23.23481],[88.710016,23.241218],[88.685935,23.293308],[88.719421,23.468104],[88.540104,23.649953],[88.593589,23.866916],[88.71415,23.925156],[88.725468,24.028896],[88.674101,24.08264],[88.731617,24.189842],[88.737508,24.287097],[88.475405,24.315468],[88.401301,24.369418],[88.138785,24.49525],[88.02179,24.645603],[88.20245,24.9453],[88.322753,24.874684],[88.425796,25.051056],[88.43148,25.173038],[88.599119,25.19314],[88.784224,25.160946],[88.898635,25.169318],[88.975323,25.302643],[88.841998,25.332822],[88.772338,25.501959],[88.645421,25.467336],[88.530286,25.500202],[88.423781,25.592237],[88.41944,25.653784],[88.227462,25.804266],[88.127726,25.774914],[88.074396,25.908135],[88.163796,26.140473],[88.308697,26.206102],[88.366781,26.313434],[88.495456,26.378081],[88.461143,26.45389],[88.353552,26.484586],[88.352829,26.578689],[88.656273,26.415133],[88.807995,26.233439],[88.902718,26.272919],[88.891866,26.368779],[88.950157,26.43694],[89.043743,26.381078],[89.131593,26.133755],[89.351476,25.996864],[89.480615,25.999241],[89.602882,26.055258],[89.562781,26.142591],[89.657829,26.187174],[89.727268,26.206204],[89.828864,26.327851],[89.888498,26.532903],[89.858701,26.722057],[89.685151,26.724571],[89.341657,26.854331],[89.184613,26.810561],[88.954549,26.912622],[88.827632,27.097882],[88.733082,27.148972]]]},"properties":{"LOCATION_TYPE":"level1","ADM0_A3":"IND","LOCATION_ID":"IND-WB","NAME":"West Bengal","TYPE_EN":"State"}},
{"type":"Feature","geometry":{"type":"Polygon","coordinates":[[[89.858701,26.722057],[89.888498,26.532903],[89.828864,26.327851],[89.727268,26.206204],[89.657829,26.187174],[89.706545,26.154167],[89.830051,25.90798],[89.783129,25.814446],[89.834392,25.634767],[89.808568,25.439507],[89.897283,25.541361],[90.002083,25.586811],[89.942345,25.691481],[89.974178,25.801578],[90.135615,25.959785],[90.484534,26.011927],[90.617653,25.969785],[90.97453,25.943636],[91.096797,25.839922],[91.178859,25.869636],[91.250999,25.737602],[91.360553,25.843255],[91.474655,25.896249],[91.582348,26.026887],[91.718154,25.967692],[91.825331,26.089261],[91.922483,26.03823],[92.164122,26.088382],[92.214661,25.919478],[92.165465,25.809174],[92.167325,25.689543],[92.382403,25.764345],[92.593449,25.586656],[92.588282,25.498831],[92.789613,25.348892],[92.805529,25.227711],[92.564924,25.152419],[92.384937,25.004773],[92.483791,24.928221],[92.380748,24.836702],[92.252177,24.902977],[92.233781,24.777533],[92.14998,24.542183],[92.221689,24.500417],[92.257759,24.396005],[92.220242,24.264333],[92.29848,24.23772],[92.416199,24.239451],[92.489476,24.132507],[92.624455,24.238521],[92.746308,24.471091],[92.82868,24.377324],[93.018436,24.399131],[93.045721,24.444529],[93.087063,24.706994],[93.12396,24.809804],[93.189175,24.810811],[93.394331,25.235049],[93.449211,25.302125],[93.458513,25.380725],[93.335936,25.538028],[93.524349,25.689285],[93.708937,25.870101],[93.752138,25.959088],[93.90417,25.85682],[93.98923,25.94622],[93.973417,26.040375],[94.00773,26.184397],[94.177435,26.372447],[94.207201,26.483707],[94.358199,26.498383],[94.486564,26.676667],[94.690479,26.741004],[94.798896,26.814384],[94.917132,26.951172],[95.031233,26.933498],[95.176444,27.033182],[95.261193,27.048866],[95.423768,27.141289],[95.545931,27.273943],[95.643806,27.230328],[95.799559,27.28588],[95.903738,27.276087],[96.007194,27.365126],[95.978256,27.449694],[95.879554,27.462613],[95.886788,27.557],[95.804313,27.619374],[95.775891,27.717327],[95.900741,27.86538],[95.964096,27.993305],[95.716773,27.990204],[95.543554,27.90207],[95.408368,27.870831],[95.31318,27.895791],[94.948138,27.76952],[94.798483,27.701229],[94.474575,27.593872],[94.352929,27.593122],[94.243064,27.647977],[94.243064,27.525969],[93.982512,27.327712],[93.84659,27.198892],[93.826552,27.095995],[93.694674,27.005949],[93.460683,26.947244],[93.375004,26.988792],[93.020297,26.953006],[92.814831,27.050804],[92.698766,27.065919],[92.626212,27.018067],[92.21032,26.912337],[92.080371,26.921571],[92.03586,26.854848],[91.795254,26.853504],[91.702133,26.803481],[91.520646,26.79759],[91.406338,26.869524],[91.27601,26.774077],[91.198185,26.802344],[90.717077,26.767049],[90.587783,26.780072],[90.382627,26.891796],[90.17742,26.832058],[90.089157,26.741728],[89.858701,26.722057]]]},"properties":{"LOCATION_TYPE":"level1","ADM0_A3":"IND","LOCATION_ID":"IND-AS","NAME":"Assam","TYPE_EN":"State"}},
{"type":"Feature","geometry":{"type":"Polygon","coordinates":[[[80.073054,28.820925],[80.033905,28.915936],[80.099431,28.977276],[80.132607,29.110214],[80.233066,29.139308],[80.278748,29.268085],[80.213739,29.416888],[80.385201,29.604835],[80.368975,29.757926],[80.476152,29.80614],[80.57134,29.946855],[80.654126,29.970575],[80.829825,30.117129],[80.83644,30.170046],[80.976018,30.255209],[80.781663,30.320993],[80.723062,30.392048],[80.252806,30.565009],[80.16692,30.661902],[80.231412,30.724947],[80.169297,30.785254],[80.062534,30.784789],[79.833504,30.961522],[79.739039,30.979247],[79.529646,30.953564],[79.394978,31.036711],[79.302162,31.16345],[79.238319,31.329656],[79.07021,31.461381],[78.988801,31.343256],[78.89261,31.281772],[78.993349,31.163395],[78.869533,31.121977],[78.792741,31.20701],[78.500976,31.219568],[78.368685,31.290028],[78.284245,31.290338],[78.039712,31.17218],[77.941114,31.172904],[77.806032,31.050508],[77.789082,30.930645],[77.705779,30.791454],[77.812956,30.521057],[77.585063,30.382926],[77.661544,30.394915],[77.750634,30.325617],[77.928918,30.24433],[77.746397,29.977344],[77.747017,29.877996],[77.831456,29.659895],[77.982765,29.718755],[78.107202,29.654521],[78.189057,29.706688],[78.154951,29.925435],[78.228331,29.947423],[78.38057,29.761569],[78.478652,29.721959],[78.643086,29.537577],[78.906946,29.388362],[78.721531,29.284027],[78.867672,29.215168],[78.950354,29.127008],[79.055878,29.151761],[79.29638,28.971565],[79.371207,28.969886],[79.443658,28.849583],[79.526237,28.878418],[79.699353,28.850436],[80.000626,28.737316],[80.073054,28.820925]]]},"properties":{"LOCATION_TYPE":"level1","ADM0_A3":"IND","LOCATION_ID":"IND-UT","NAME":"Uttarakhand","TYPE_EN":"State"}},
{"type":"Feature","geometry":{"type":"Polygon","coordinates":[[[95.246933,26.648904],[95.202179,26.866732],[95.225433,26.974219],[95.176444,27.033182],[95.031233,26.933498],[94.917132,26.951172],[94.798896,26.814384],[94.690479,26.741004],[94.486564,26.676667],[94.358199,26.498383],[94.207201,26.483707],[94.177435,26.372447],[94.00773,26.184397],[93.973417,26.040375],[93.98923,25.94622],[93.90417,25.85682],[93.752138,25.959088],[93.708937,25.870101],[93.524349,25.689285],[93.335936,25.538028],[93.458513,25.380725],[93.449211,25.302125],[93.605481,25.2058],[93.679068,25.328273],[93.808569,25.446096],[93.803195,25.543557],[94.026747,25.553841],[94.209371,25.495498],[94.325333,25.512035],[94.564699,25.684221],[94.552813,25.490331],[94.65036,25.44665],[94.850778,25.562782],[94.961469,25.717966],[95.008805,25.737138],[95.00064,25.922036],[95.139546,26.029937],[95.046322,26.24796],[95.064202,26.392602],[95.040638,26.475594],[95.119082,26.604217],[95.246933,26.648904]]]},"properties":{"LOCATION_TYPE":"level1","ADM0_A3":"IND","LOCATION_ID":"IND-NL","NAME":"Nagaland","TYPE_EN":"State"}},
{"type":"Feature","geometry":{"type":"Polygon","coordinates":[[[94.65036,25.44665],[94.552813,25.490331],[94.564699,25.684221],[94.325333,25.512035],[94.209371,25.495498],[94.026747,25.553841],[93.803195,25.543557],[93.808569,25.446096],[93.679068,25.328273],[93.605481,25.2058],[93.449211,25.302125],[93.394331,25.235049],[93.189175,24.810811],[93.12396,24.809804],[93.087063,24.706994],[93.045721,24.444529],[93.018436,24.399131],[92.995492,24.095274],[93.105666,24.044941],[93.302559,24.035775],[93.368285,24.07848],[93.456652,23.95996],[93.612404,24.009052],[93.743042,23.995281],[93.803711,23.936059],[93.997911,23.916965],[94.099713,23.842628],[94.19025,23.995281],[94.289986,24.31676],[94.410805,24.545945],[94.516329,24.704953],[94.589502,24.74725],[94.708565,25.02589],[94.689135,25.138518],[94.576893,25.173607],[94.550125,25.245282],[94.65036,25.44665]]]},"properties":{"LOCATION_TYPE":"level1","ADM0_A3":"IND","LOCATION_ID":"IND-MN","NAME":"Manipur","TYPE_EN":"State"}},
{"type":"Feature","geometry":{"type":"Polygon","coordinates":[[[93.302559,24.035775],[93.105666,24.044941],[92.995492,24.095274],[93.018436,24.399131],[92.82868,24.377324],[92.746308,24.471091],[92.624455,24.238521],[92.489476,24.132507],[92.416199,24.239451],[92.29848,24.23772],[92.325352,24.188343],[92.318634,23.850534],[92.259737,23.702641],[92.252797,23.609309],[92.356874,23.289122],[92.327625,23.171429],[92.378681,22.900438],[92.495883,22.695618],[92.577015,22.168674],[92.537328,22.128625],[92.575879,21.977574],[92.650913,22.019174],[92.708067,22.147952],[92.853898,22.024135],[92.967172,22.062685],[93.169021,22.246912],[93.16592,22.386593],[93.099154,22.51196],[93.079517,22.77272],[93.175532,22.881705],[93.138221,23.005264],[93.196512,23.053839],[93.298832,23.01795],[93.3749,23.129726],[93.384201,23.313126],[93.432364,23.647317],[93.374796,23.739017],[93.355986,23.906991],[93.302559,24.035775]]]},"properties":{"LOCATION_TYPE":"level1","ADM0_A3":"IND","LOCATION_ID":"IND-MZ","NAME":"Mizoram","TYPE_EN":"State"}},
{"type":"Feature","geometry":{"type":"Polygon","coordinates":[[[92.259737,23.702641],[92.318634,23.850534],[92.325352,24.188343],[92.29848,24.23772],[92.220242,24.264333],[92.257759,24.396005],[92.221689,24.500417],[92.14998,24.542183],[92.107587,24.405979],[91.949974,24.375387],[91.905945,24.260639],[91.666167,24.155917],[91.596507,24.10499],[91.363033,24.099848],[91.216272,23.908387],[91.194981,23.755166],[91.141754,23.739896],[91.140824,23.6121],[91.22733,23.468775],[91.300504,23.142309],[91.463595,23.184116],[91.536562,22.981854],[91.694692,22.988133],[91.795564,23.089496],[91.743681,23.272327],[91.791637,23.368342],[91.940775,23.495182],[91.91442,23.688323],[92.00351,23.647421],[92.150788,23.731653],[92.259737,23.702641]]]},"properties":{"LOCATION_TYPE":"level1","ADM0_A3":"IND","LOCATION_ID":"IND-TR","NAME":"Tripura","TYPE_EN":"State"}},
{"type":"Feature","geometry":{"type":"Polygon","coordinates":[[[92.384937,25.004773],[92.564924,25.152419],[92.805529,25.227711],[92.789613,25.348892],[92.588282,25.498831],[92.593449,25.586656],[92.382403,25.764345],[92.167325,25.689543],[92.165465,25.809174],[92.214661,25.919478],[92.164122,26.088382],[91.922483,26.03823],[91.825331,26.089261],[91.718154,25.967692],[91.582348,26.026887],[91.474655,25.896249],[91.360553,25.843255],[91.250999,25.737602],[91.178859,25.869636],[91.096797,25.839922],[90.97453,25.943636],[90.617653,25.969785],[90.484534,26.011927],[90.135615,25.959785],[89.974178,25.801578],[89.942345,25.691481],[90.002083,25.586811],[89.897283,25.541361],[89.808568,25.439507],[89.834599,25.282437],[89.908134,25.296907],[90.130085,25.211589],[90.364644,25.149991],[90.737955,25.169421],[90.82198,25.142291],[91.235702,25.201925],[91.471036,25.133919],[91.566121,25.159964],[91.662033,25.127201],[91.730142,25.167457],[92.001753,25.18296],[92.303544,25.074285],[92.384937,25.004773]]]},"properties":{"LOCATION_TYPE":"level1","ADM0_A3":"IND","LOCATION_ID":"IND-ML","NAME":"Meghalaya","TYPE_EN":"State"}},
{"type":"Feature","geometry":{"type":"Polygon","coordinates":[[[75.298403,32.332427],[75.359048,32.261675],[75.294659,32.148892],[74.955662,32.032206],[74.828641,32.025437],[74.783683,31.942858],[74.698417,31.950247],[74.565608,31.840538],[74.489437,31.711192],[74.555583,31.612232],[74.61191,31.440201],[74.532225,31.303207],[74.506387,31.175411],[74.600955,31.056607],[74.519306,30.962452],[74.401277,30.893103],[74.329757,30.899614],[74.163669,30.664899],[74.057112,30.591571],[73.939083,30.426051],[73.85175,30.372669],[73.946831,30.204077],[73.969677,30.137437],[73.898466,30.034911],[73.915933,29.979902],[74.516517,29.94719],[74.650669,29.914066],[74.823371,29.984992],[75.105214,29.821384],[75.187897,29.834743],[75.23823,29.748779],[75.172084,29.688214],[75.234612,29.561788],[75.445762,29.806191],[75.604409,29.764669],[75.786,29.83097],[75.956945,29.738624],[76.22556,29.869082],[76.178121,29.954684],[76.266694,30.113692],[76.429578,30.140357],[76.531381,30.083978],[76.624812,30.142837],[76.605588,30.274431],[76.714315,30.337115],[76.752866,30.43052],[76.904898,30.384089],[76.886604,30.633789],[76.82728,30.680712],[76.775603,30.677404],[76.703773,30.781403],[76.814567,30.789129],[76.768162,30.907597],[76.645172,30.999271],[76.561146,31.276722],[76.433505,31.317804],[76.373561,31.419245],[76.275376,31.310441],[76.158484,31.338553],[76.07053,31.564172],[75.923252,31.806276],[75.964283,31.848754],[75.879741,31.97239],[75.706521,32.049827],[75.639445,32.146849],[75.622909,32.258522],[75.692672,32.272268],[75.911677,32.431354],[75.847391,32.516749],[75.682647,32.399806],[75.611954,32.395465],[75.5024,32.300587],[75.298403,32.332427]]]},"properties":{"LOCATION_TYPE":"level1","ADM0_A3":"IND","LOCATION_ID":"IND-PB","NAME":"Punjab","TYPE_EN":"State"}},
{"type":"Feature","geometry":{"type":"Polygon","coordinates":[[[73.946831,30.204077],[73.739716,30.048451],[73.557815,30.012536],[73.370332,29.927322],[73.232873,29.536596],[73.050869,29.228217],[72.901524,29.022622],[72.382176,28.784006],[72.256499,28.645591],[72.149942,28.353774],[71.988195,28.228097],[71.89156,28.097097],[71.860864,27.950207],[71.560727,27.868533],[71.31144,27.861711],[71.150675,27.822411],[70.831573,27.701463],[70.710391,27.74115],[70.633187,27.93163],[70.456247,28.039788],[70.341939,28.01147],[70.090688,27.79355],[70.016894,27.60059],[69.848015,27.410369],[69.575577,27.188419],[69.507571,27.050081],[69.465093,26.80777],[69.50416,26.735165],[69.659396,26.677701],[69.815562,26.580291],[70.056064,26.589076],[70.158074,26.530113],[70.160503,26.371311],[70.132029,26.18047],[70.078285,26.099648],[70.064643,25.980327],[70.114976,25.881729],[70.264579,25.697296],[70.477227,25.676315],[70.592259,25.708819],[70.657475,25.63363],[70.646623,25.431369],[70.723104,25.287295],[70.859891,25.139449],[70.893326,25.001886],[71.056632,24.69282],[71.251496,24.636817],[71.545845,24.688054],[71.651885,24.658004],[71.750897,24.678132],[71.947888,24.662629],[72.050931,24.708363],[72.099403,24.656557],[72.261667,24.60824],[72.275206,24.568397],[72.667637,24.460936],[72.747012,24.380657],[72.897391,24.360581],[72.99971,24.493286],[73.095001,24.503647],[73.137169,24.335931],[73.079292,24.204311],[73.245586,24.015537],[73.354107,24.104731],[73.42387,23.940942],[73.364029,23.889085],[73.361652,23.784233],[73.620551,23.582592],[73.618794,23.451876],[73.710674,23.415031],[73.811857,23.434616],[73.904461,23.333382],[73.959548,23.358833],[74.105792,23.247677],[74.108996,23.191117],[74.23333,23.1559],[74.323453,23.036062],[74.476106,23.062365],[74.715884,23.179206],[74.53636,23.250907],[74.569537,23.36785],[74.648188,23.43056],[74.822958,23.500116],[74.939023,23.687366],[74.908327,23.896733],[74.968169,24.032771],[74.893134,24.134496],[74.869983,24.236118],[74.759292,24.256685],[74.766424,24.35872],[74.846832,24.435511],[74.711853,24.523852],[74.806525,24.735777],[74.869673,24.665575],[74.965378,24.694049],[74.974266,24.785748],[74.837841,24.797143],[74.81531,24.916516],[74.981398,24.863031],[75.084441,24.888895],[75.133326,25.040022],[75.235129,25.040229],[75.317915,24.955247],[75.17198,24.762546],[75.20371,24.724951],[75.448036,24.703144],[75.758818,24.777377],[75.869406,24.599377],[75.874883,24.514266],[75.734427,24.423962],[75.794785,24.251647],[75.747759,24.190048],[75.805017,24.119122],[75.729983,24.00068],[75.621772,23.995228],[75.538883,24.041375],[75.490307,23.939934],[75.597071,23.8179],[75.699804,23.793199],[75.776491,23.883142],[75.997873,23.983937],[75.99901,24.051116],[76.116626,24.134031],[76.132749,24.329394],[76.230314,24.277872],[76.572515,24.273247],[76.766612,24.160334],[76.891565,24.240924],[76.814567,24.360115],[76.806196,24.555788],[76.942932,24.500236],[77.035226,24.538399],[77.037396,24.670303],[76.966806,24.737483],[76.848054,24.759703],[76.780564,24.837141],[76.883194,24.896956],[76.860973,25.033795],[77.187361,25.12751],[77.341254,25.113997],[77.398925,25.212234],[77.358617,25.407106],[77.255471,25.433512],[77.201624,25.35561],[77.080598,25.353181],[76.913476,25.309308],[76.652304,25.379175],[76.551431,25.460126],[76.478361,25.7198],[76.545953,25.848293],[76.651787,25.922656],[76.727028,25.9163],[76.907998,26.098588],[77.209686,26.241964],[77.323374,26.351984],[77.431274,26.373662],[77.616792,26.482983],[77.831456,26.575768],[77.90277,26.664032],[78.0794,26.682919],[78.101207,26.795109],[78.200116,26.823583],[78.22306,26.937064],[78.106892,26.947296],[77.976564,26.904379],[77.704642,26.929752],[77.510546,26.833324],[77.460833,26.904224],[77.628471,26.97316],[77.51344,27.109224],[77.657307,27.202707],[77.606147,27.32363],[77.459799,27.385073],[77.345595,27.541885],[77.280689,27.80944],[77.040807,27.807295],[76.973007,27.679293],[76.900867,27.73438],[76.940555,27.852099],[76.920918,28.033535],[76.940555,28.122987],[76.856632,28.228975],[76.646826,28.085521],[76.657988,28.016972],[76.553085,27.971239],[76.453453,28.162829],[76.36798,28.15637],[76.266694,28.077485],[76.163341,28.0579],[76.215018,27.841505],[75.99994,27.842745],[75.931521,27.91809],[75.992809,28.050691],[75.961906,28.139497],[76.026192,28.262229],[75.887079,28.403848],[75.698563,28.520559],[75.593557,28.642671],[75.452067,29.023862],[75.392949,29.105976],[75.391502,29.252685],[75.328353,29.296222],[75.106558,29.238216],[74.969616,29.284337],[74.90719,29.378465],[74.821408,29.402934],[74.612841,29.332809],[74.537084,29.441382],[74.602093,29.470424],[74.574808,29.589693],[74.602713,29.726351],[74.466494,29.798931],[74.547006,29.860813],[74.516517,29.94719],[73.915933,29.979902],[73.898466,30.034911],[73.969677,30.137437],[73.946831,30.204077]]]},"properties":{"LOCATION_TYPE":"level1","ADM0_A3":"IND","LOCATION_ID":"IND-RJ","NAME":"Rajasthan","TYPE_EN":"State"}},
{"type":"Feature","geometry":{"type":"Polygon","coordinates":[[[71.056632,24.69282],[70.954821,24.584521],[70.996679,24.356602],[70.917717,24.361718],[70.755453,24.231442],[70.621508,24.241157],[70.56022,24.287253],[70.562907,24.424092],[70.416353,24.401948],[70.242565,24.330609],[70.109705,24.3049],[70.052137,24.202064],[69.972039,24.165219],[69.769054,24.162557],[69.670558,24.188706],[69.563071,24.276762],[69.280815,24.283739],[68.980781,24.255394],[68.890296,24.319473],[68.725913,24.289216],[68.724466,23.965179],[68.431564,23.967143],[68.251937,23.904821],[68.163748,23.757717],[68.327322,23.5869],[68.410818,23.700507],[68.423676,23.445787],[68.561046,23.363918],[68.552257,23.259711],[68.691254,23.13052],[68.866222,23.019965],[69.039887,22.950507],[69.23878,22.841946],[69.338145,22.833075],[69.585704,22.761176],[69.715831,22.746894],[69.833181,22.858466],[70.269298,22.958564],[70.398774,22.945502],[70.398774,23.069037],[70.467133,23.129706],[70.527192,23.023586],[70.375255,22.902655],[70.319102,22.778266],[70.178477,22.561957],[69.962087,22.535346],[69.788748,22.423163],[69.742198,22.472968],[69.616059,22.355902],[69.359874,22.329169],[69.212087,22.273912],[69.20574,22.398668],[68.974376,22.404731],[68.944591,22.295071],[68.994151,22.203925],[69.198416,21.979722],[69.478526,21.752631],[69.814708,21.433661],[70.054445,21.153155],[70.336681,20.927069],[70.541515,20.807847],[70.84018,20.70189],[70.972992,20.709621],[71.005951,20.736558],[71.140636,20.765692],[71.318614,20.849311],[71.46225,20.885321],[71.717621,21.03205],[72.104747,21.205064],[72.104503,21.315009],[72.242198,21.48078],[72.295665,21.653876],[72.166026,21.793931],[72.128103,21.983547],[72.25766,22.012152],[72.317231,22.184882],[72.206309,22.273912],[72.479015,22.233385],[72.553071,22.282457],[72.659434,22.273912],[72.790212,22.217231],[72.74822,22.164049],[72.634451,22.210395],[72.542166,22.156724],[72.507091,21.962307],[72.562755,21.839423],[72.532074,21.713853],[72.798106,21.673529],[72.75115,21.565131],[72.61964,21.487372],[72.573741,21.390082],[72.60613,21.266588],[72.799571,21.128811],[72.783946,21.040432],[72.944998,20.770006],[72.847004,20.468313],[72.818112,20.37877],[72.74822,20.280341],[72.708102,20.072644],[72.947207,20.127402],[72.896667,20.221505],[73.049939,20.330258],[73.112158,20.254914],[73.041775,20.157736],[73.166315,20.114871],[73.271838,20.193419],[73.363822,20.178304],[73.394104,20.270391],[73.360721,20.369377],[73.4587,20.538023],[73.404233,20.66985],[73.475753,20.678712],[73.699822,20.562414],[73.792323,20.606184],[73.81103,20.676904],[73.909008,20.775709],[73.868287,20.974767],[73.695171,21.122639],[73.800074,21.280949],[73.91862,21.291569],[73.960168,21.394379],[74.108686,21.451559],[74.191575,21.545507],[73.995928,21.555325],[73.820848,21.508326],[73.751602,21.611033],[73.8286,21.650927],[73.809376,21.836471],[74.12884,21.951761],[74.141862,22.062814],[74.071479,22.197793],[74.05639,22.294169],[74.224338,22.349205],[74.025694,22.47961],[74.161189,22.516662],[74.272707,22.609654],[74.37637,22.651047],[74.458122,22.804112],[74.365001,22.874961],[74.323453,23.036062],[74.23333,23.1559],[74.108996,23.191117],[74.105792,23.247677],[73.959548,23.358833],[73.904461,23.333382],[73.811857,23.434616],[73.710674,23.415031],[73.618794,23.451876],[73.620551,23.582592],[73.361652,23.784233],[73.364029,23.889085],[73.42387,23.940942],[73.354107,24.104731],[73.245586,24.015537],[73.079292,24.204311],[73.137169,24.335931],[73.095001,24.503647],[72.99971,24.493286],[72.897391,24.360581],[72.747012,24.380657],[72.667637,24.460936],[72.275206,24.568397],[72.261667,24.60824],[72.099403,24.656557],[72.050931,24.708363],[71.947888,24.662629],[71.750897,24.678132],[71.651885,24.658004],[71.545845,24.688054],[71.251496,24.636817],[71.056632,24.69282]]]},"properties":{"LOCATION_TYPE":"level1","ADM0_A3":"IND","LOCATION_ID":"IND-GJ","NAME":"Gujarat","TYPE_EN":null}},
{"type":"Feature","geometry":{"type":"Polygon","coordinates":[[[78.380983,32.528041],[78.253859,32.697901],[78.008913,32.61031],[77.93853,32.695343],[77.857915,32.873007],[77.721075,33.012636],[77.538968,32.918353],[77.348695,32.867245],[77.135788,32.92675],[76.956058,33.02509],[76.739843,33.197406],[76.558562,33.23146],[76.294289,33.147899],[76.215948,33.051084],[76.100813,33.01305],[75.972448,32.911041],[75.804913,32.898612],[75.9093,32.772703],[75.922632,32.617338],[75.847391,32.516749],[75.911677,32.431354],[75.692672,32.272268],[75.622909,32.258522],[75.639445,32.146849],[75.706521,32.049827],[75.879741,31.97239],[75.964283,31.848754],[75.923252,31.806276],[76.07053,31.564172],[76.158484,31.338553],[76.275376,31.310441],[76.373561,31.419245],[76.433505,31.317804],[76.561146,31.276722],[76.645172,30.999271],[76.768162,30.907597],[76.905725,30.899303],[77.001533,30.777347],[77.115118,30.722104],[77.147777,30.538679],[77.303427,30.460312],[77.585063,30.382926],[77.812956,30.521057],[77.705779,30.791454],[77.789082,30.930645],[77.806032,31.050508],[77.941114,31.172904],[78.039712,31.17218],[78.284245,31.290338],[78.368685,31.290028],[78.500976,31.219568],[78.792741,31.20701],[78.869533,31.121977],[78.993349,31.163395],[78.89261,31.281772],[78.73848,31.334988],[78.762561,31.44511],[78.699516,31.510016],[78.818889,31.607374],[78.731349,31.668042],[78.670887,31.770517],[78.744578,31.9642],[78.649287,32.036444],[78.513068,32.20757],[78.457981,32.229662],[78.448782,32.426782],[78.380983,32.528041]]]},"properties":{"LOCATION_TYPE":"level1","ADM0_A3":"IND","LOCATION_ID":"IND-HP","NAME":"Himachal Pradesh","TYPE_EN":"Union Territory"}},
{"type":"Feature","geometry":{"type":"Polygon","coordinates":[[[75.348093,34.55722],[75.212907,34.644967],[75.017777,34.629722],[74.66493,34.688323],[74.412129,34.764494],[74.285832,34.768887],[74.120881,34.690855],[73.962234,34.668169],[73.774856,34.370952],[73.93774,34.304212],[73.998304,34.196803],[73.88441,34.0842],[73.945801,34.009786],[74.228368,34.012886],[74.23953,33.901007],[74.034581,33.828608],[73.976704,33.758922],[73.976704,33.648387],[74.141552,33.549374],[74.105481,33.345201],[74.001715,33.270167],[74.002335,33.177692],[74.153851,33.040181],[74.322006,32.972045],[74.333788,32.849262],[74.418951,32.784615],[74.649738,32.723146],[74.629584,32.588089],[74.724978,32.46081],[74.906983,32.445178],[75.023668,32.466262],[75.298403,32.332427],[75.5024,32.300587],[75.611954,32.395465],[75.682647,32.399806],[75.847391,32.516749],[75.922632,32.617338],[75.9093,32.772703],[75.804913,32.898612],[75.972448,32.911041],[76.100813,33.01305],[76.215948,33.051084],[76.294289,33.147899],[76.558562,33.23146],[76.739843,33.197406],[76.646566,33.352107],[76.488031,33.502231],[76.246099,33.574094],[76.235838,33.728794],[76.166381,33.873232],[76.024367,33.982089],[75.879592,33.963696],[75.741656,34.066434],[75.6634,34.19923],[75.584564,34.210116],[75.374549,34.370981],[75.348093,34.55722]]]},"properties":{"LOCATION_TYPE":"level1","ADM0_A3":"IND","LOCATION_ID":"IND-JK","NAME":"Jammu and Kashmir","TYPE_EN":"Union Territory"}},
{"type":"Feature","geometry":{"type":"Polygon","coordinates":[[[88.087136,26.5391],[88.006648,26.369864],[87.870688,26.460712],[87.768988,26.451461],[87.586984,26.378029],[87.384206,26.418647],[87.326225,26.353328],[87.083294,26.432083],[87.041333,26.580187],[86.796438,26.431514],[86.713601,26.414565],[86.510616,26.520139],[86.284428,26.61202],[86.202883,26.58458],[86.01137,26.654447],[85.821614,26.571713],[85.712887,26.653206],[85.687772,26.811853],[85.598578,26.854383],[85.28728,26.736974],[85.194934,26.758885],[85.162016,26.851024],[85.043987,26.843737],[84.924046,26.955668],[84.801934,27.013753],[84.640239,27.028377],[84.657654,27.203405],[84.577039,27.329031],[84.289408,27.376108],[84.225536,27.440393],[84.079601,27.509536],[84.028907,27.453726],[83.834087,27.434037],[83.85334,27.346194],[83.942401,27.222499],[83.938267,27.164389],[84.02343,27.059951],[84.070559,26.923602],[84.240781,26.8742],[84.246362,26.757049],[84.382994,26.641656],[84.099187,26.649588],[84.054022,26.564761],[83.920077,26.53267],[84.177632,26.40428],[84.187244,26.292788],[83.992734,26.241138],[84.064874,26.103549],[84.150347,26.066006],[84.261451,25.931312],[84.374313,25.940303],[84.531616,25.862091],[84.600656,25.747008],[84.486657,25.700731],[84.372762,25.765068],[84.324187,25.658899],[84.238921,25.64797],[84.143422,25.736207],[83.904264,25.529476],[83.774866,25.444959],[83.384089,25.235928],[83.334273,25.172624],[83.360214,24.863263],[83.508836,24.762081],[83.523099,24.529666],[83.695905,24.506282],[83.918423,24.543799],[84.043894,24.623898],[84.09557,24.504138],[84.305376,24.530803],[84.311888,24.451144],[84.471981,24.307354],[84.588253,24.394429],[84.798473,24.496593],[84.88901,24.372828],[84.96146,24.348385],[85.280614,24.487265],[85.526387,24.501554],[85.6624,24.568888],[85.64731,24.648573],[85.746012,24.770039],[85.830865,24.770917],[85.911583,24.698467],[86.097722,24.690483],[86.154876,24.556098],[86.290475,24.551551],[86.276419,24.434814],[86.438683,24.340375],[86.49439,24.479798],[86.585651,24.561447],[86.702336,24.547778],[86.755356,24.588138],[86.889922,24.531604],[86.925475,24.613588],[87.050015,24.597026],[87.119158,24.851145],[87.117298,24.970879],[87.185511,25.061985],[87.265919,25.072165],[87.291861,25.174252],[87.406686,25.181047],[87.523475,25.323778],[87.598715,25.266701],[87.783717,25.214094],[87.838081,25.27776],[87.768007,25.436277],[87.9558,25.534075],[88.043133,25.547097],[88.04644,25.668873],[87.805421,25.873666],[87.831363,26.010557],[87.979364,26.145795],[88.180489,26.285528],[88.297174,26.336222],[88.282291,26.428439],[88.087136,26.5391]]]},"properties":{"LOCATION_TYPE":"level1","ADM0_A3":"IND","LOCATION_ID":"IND-BR","NAME":"Bihar","TYPE_EN":"State"}},
{"type":"Feature","geometry":{"type":"Polygon","coordinates":[[[83.85334,27.346194],[83.590432,27.45662],[83.360989,27.462201],[83.304868,27.331925],[83.132786,27.444217],[83.010468,27.443391],[82.752137,27.494964],[82.652143,27.70415],[82.401926,27.677175],[82.051611,27.905171],[81.975905,27.916953],[81.855654,27.850937],[81.688946,27.963204],[81.458211,28.07728],[81.396044,28.160634],[81.307057,28.123814],[81.146344,28.372249],[81.000409,28.397002],[80.781663,28.514746],[80.648338,28.619753],[80.497546,28.670137],[80.349751,28.620218],[80.233273,28.732718],[80.073054,28.820925],[80.000626,28.737316],[79.699353,28.850436],[79.526237,28.878418],[79.443658,28.849583],[79.371207,28.969886],[79.29638,28.971565],[79.055878,29.151761],[78.950354,29.127008],[78.867672,29.215168],[78.721531,29.284027],[78.906946,29.388362],[78.643086,29.537577],[78.478652,29.721959],[78.38057,29.761569],[78.228331,29.947423],[78.154951,29.925435],[78.189057,29.706688],[78.107202,29.654521],[77.982765,29.718755],[77.831456,29.659895],[77.747017,29.877996],[77.746397,29.977344],[77.928918,30.24433],[77.750634,30.325617],[77.661544,30.394915],[77.585063,30.382926],[77.570077,30.27823],[77.229943,29.976646],[77.180437,29.804253],[77.064681,29.569513],[77.149844,29.403374],[77.141369,29.130341],[77.195733,28.997584],[77.200797,28.876791],[77.227152,28.783592],[77.306941,28.720599],[77.327404,28.519707],[77.497006,28.393254],[77.466517,28.315223],[77.528942,28.25347],[77.468068,28.046815],[77.526462,27.974468],[77.280689,27.80944],[77.345595,27.541885],[77.459799,27.385073],[77.606147,27.32363],[77.657307,27.202707],[77.51344,27.109224],[77.628471,26.97316],[77.460833,26.904224],[77.510546,26.833324],[77.704642,26.929752],[77.976564,26.904379],[78.106892,26.947296],[78.22306,26.937064],[78.200116,26.823583],[78.371475,26.851049],[78.563505,26.758496],[78.693213,26.797874],[78.842351,26.711936],[78.935782,26.694443],[79.028076,26.497556],[79.060839,26.355084],[78.963274,26.278086],[78.954075,26.109983],[78.808348,25.84155],[78.739825,25.789796],[78.714503,25.62593],[78.55844,25.575545],[78.370545,25.552678],[78.261921,25.411705],[78.366307,25.186008],[78.336542,25.022995],[78.16911,24.865459],[78.261301,24.692653],[78.228848,24.532741],[78.350494,24.407968],[78.385531,24.30123],[78.489401,24.410784],[78.655902,24.29459],[78.825814,24.230149],[78.955005,24.392542],[78.878731,24.613201],[78.750367,24.629841],[78.715433,24.685109],[78.732073,24.81492],[78.640192,24.96411],[78.609807,25.136321],[78.515859,25.26621],[78.597094,25.414005],[78.727526,25.346386],[78.748816,25.426149],[78.853099,25.434029],[78.954902,25.385712],[78.885035,25.265538],[79.268991,25.164123],[79.294519,25.259415],[79.424744,25.257192],[79.339065,25.147406],[79.468152,25.103843],[79.541636,25.176551],[79.661112,25.148078],[79.86327,25.153245],[79.852108,25.247839],[80.015302,25.330909],[80.124546,25.350959],[80.191106,25.413333],[80.283606,25.41447],[80.326498,25.282256],[80.421996,25.180737],[80.265313,25.063819],[80.288257,25.016225],[80.458376,25.01514],[80.579506,25.147923],[80.647202,25.070098],[80.717895,25.081984],[80.806055,25.212156],[80.858868,25.187558],[80.778667,24.971499],[80.998808,24.96566],[81.09813,24.908609],[81.184843,24.97292],[81.243238,25.169523],[81.360543,25.156966],[81.536967,25.199754],[81.585232,25.079632],[81.817156,25.035759],[81.881132,24.921528],[82.033164,24.859491],[82.423631,24.647514],[82.427145,24.718569],[82.772137,24.668314],[82.734413,24.551628],[82.766969,24.386031],[82.732863,24.21413],[82.679429,24.166768],[82.800869,23.998716],[82.964373,23.913915],[83.206322,23.944017],[83.337063,24.140232],[83.453956,24.361588],[83.401659,24.498298],[83.523099,24.529666],[83.508836,24.762081],[83.360214,24.863263],[83.334273,25.172624],[83.384089,25.235928],[83.774866,25.444959],[83.904264,25.529476],[84.143422,25.736207],[84.238921,25.64797],[84.324187,25.658899],[84.372762,25.765068],[84.486657,25.700731],[84.600656,25.747008],[84.531616,25.862091],[84.374313,25.940303],[84.261451,25.931312],[84.150347,26.066006],[84.064874,26.103549],[83.992734,26.241138],[84.187244,26.292788],[84.177632,26.40428],[83.920077,26.53267],[84.054022,26.564761],[84.099187,26.649588],[84.382994,26.641656],[84.246362,26.757049],[84.240781,26.8742],[84.070559,26.923602],[84.02343,27.059951],[83.938267,27.164389],[83.942401,27.222499],[83.85334,27.346194]]]},"properties":{"LOCATION_TYPE":"level1","ADM0_A3":"IND","LOCATION_ID":"IND-UP","NAME":"Uttar Pradesh","TYPE_EN":"State"}},
{"type":"Feature","geometry":{"type":"Polygon","coordinates":[[[80.277749,13.512516],[80.288097,13.527086],[80.220958,13.696967],[80.237153,13.839667],[80.16391,13.987982],[80.121104,14.242011],[80.174978,14.34455],[80.196951,14.565009],[80.110688,14.704779],[80.054535,15.014146],[80.090587,15.304877],[80.172862,15.4383],[80.263194,15.674547],[80.35963,15.775824],[80.469086,15.834662],[80.69044,15.900702],[80.776134,15.884263],[80.830251,15.747626],[80.910004,15.852688],[80.998871,15.846747],[81.155447,15.9855],[81.156016,16.03852],[81.248546,16.320136],[81.317393,16.367499],[81.49586,16.360663],[81.76295,16.322577],[81.992686,16.408433],[82.307384,16.579779],[82.365571,16.811591],[82.267914,16.867499],[82.299327,17.030341],[82.474864,17.205959],[82.718516,17.348619],[82.896821,17.409329],[83.088227,17.530707],[83.238943,17.592963],[83.417735,17.80622],[83.431163,17.854234],[83.613943,18.045152],[83.775157,18.139594],[84.077403,18.271552],[84.281749,18.52558],[84.423676,18.636461],[84.63087,18.915717],[84.741059,19.028144],[84.777761,19.116197],[84.6945,19.160588],[84.525208,19.032973],[84.317779,18.80924],[84.153138,18.787717],[84.071386,18.81787],[83.902404,18.805648],[83.801841,18.999952],[83.706447,19.001424],[83.612809,19.129789],[83.490129,19.051551],[83.394218,18.869417],[83.201671,18.741621],[83.126534,18.758158],[83.028142,18.640852],[83.083539,18.525329],[83.0392,18.390351],[82.904118,18.35534],[82.878383,18.409083],[82.586722,18.244391],[82.597367,18.325213],[82.449056,18.5221],[82.368234,18.413993],[82.32989,18.044041],[82.240076,17.992933],[82.042362,18.043266],[81.758969,17.908933],[81.775781,17.833207],[81.628586,17.763421],[81.535249,17.637689],[81.469526,17.420487],[81.408339,17.370643],[81.214333,17.323635],[81.144193,17.249538],[80.99048,17.21818],[80.893078,17.155634],[80.829519,17.046021],[80.669698,17.079924],[80.590939,17.139791],[80.501756,17.10797],[80.38431,16.975982],[80.586234,16.933936],[80.506146,16.792487],[80.350986,16.862136],[80.280555,16.997387],[80.220451,17.033251],[80.077643,16.972555],[80.002428,16.871004],[80.073334,16.822862],[79.9581,16.630439],[79.882335,16.703233],[79.720876,16.689032],[79.504324,16.641872],[79.406261,16.587226],[79.265636,16.569607],[79.213471,16.493232],[79.233409,16.330512],[79.160574,16.219346],[79.021658,16.247138],[78.839122,16.124823],[78.839447,16.066718],[78.73406,16.0303],[78.499766,16.093777],[78.399994,16.083441],[78.255951,16.005683],[78.235281,15.950466],[78.087494,15.832953],[77.88795,15.919135],[77.849864,15.893866],[77.641205,15.900662],[77.446467,15.95298],[77.226429,15.976389],[77.143746,15.960706],[77.034089,15.873734],[77.025304,15.781285],[77.084939,15.667287],[76.999672,15.613776],[77.025924,15.351492],[77.104886,15.308213],[77.12814,15.132255],[77.080391,15.036654],[76.947996,15.021642],[76.764338,15.094118],[76.719483,14.989731],[76.822216,14.920976],[76.761858,14.763673],[76.752866,14.565597],[76.829967,14.478651],[76.931563,14.457567],[76.86242,14.347238],[76.908205,14.257864],[77.045458,14.231664],[77.111294,14.329617],[77.256814,14.333957],[77.467758,14.192442],[77.368539,14.163425],[77.289267,14.010747],[77.112327,14.005063],[76.995332,14.066377],[76.935904,14.010902],[77.010421,13.904991],[76.958538,13.781614],[77.032332,13.746241],[77.133204,13.784818],[77.152221,13.903596],[77.292058,13.848432],[77.384042,13.846726],[77.44254,13.701955],[77.734925,13.824221],[77.878792,13.916619],[77.92065,13.830474],[78.032684,13.884734],[78.096763,13.809002],[78.068238,13.698725],[78.184096,13.601547],[78.374679,13.579637],[78.350184,13.376109],[78.38088,13.322753],[78.568362,13.274823],[78.516479,13.089098],[78.415813,12.948202],[78.285899,12.843377],[78.229572,12.759893],[78.352768,12.641503],[78.419121,12.63264],[78.582625,12.778213],[78.64474,12.991998],[78.736207,13.06096],[78.944153,13.093387],[79.077582,13.035587],[79.161608,13.044915],[79.250801,13.147751],[79.31488,13.131989],[79.420197,13.219994],[79.449549,13.33115],[79.571712,13.284073],[79.667933,13.291282],[79.784929,13.224025],[79.816348,13.294925],[79.956701,13.365774],[79.961972,13.416546],[80.097571,13.463752],[80.260173,13.468452],[80.119395,13.500678],[80.056488,13.59516],[80.091319,13.659125],[80.197276,13.643622],[80.277749,13.512516]]]},"properties":{"LOCATION_TYPE":"level1","ADM0_A3":"IND","LOCATION_ID":"IND-AP","NAME":"Andhra Pradesh","TYPE_EN":"State"}},
{"type":"Feature","geometry":{"type":"Polygon","coordinates":[[[87.477387,21.613593],[87.408546,21.786138],[87.275014,21.813966],[87.190678,21.956205],[86.993688,21.972483],[86.987383,22.066586],[86.833904,22.121751],[86.686523,22.218024],[86.486639,22.336854],[86.366026,22.330058],[86.268047,22.422404],[86.039844,22.556737],[85.938765,22.500513],[85.986514,22.393621],[85.974112,22.104594],[85.916234,22.022119],[85.784666,22.011887],[85.792211,22.129089],[85.679143,22.075862],[85.425205,22.164487],[85.324126,22.126686],[85.232038,22.035322],[85.109152,22.108496],[84.985232,22.112785],[85.087758,22.280165],[85.100367,22.393956],[85.065537,22.5032],[84.908337,22.421965],[84.530066,22.423024],[84.420822,22.330989],[84.310957,22.324012],[84.147763,22.386773],[84.067045,22.499583],[83.970203,22.539348],[83.996455,22.440543],[83.945812,22.371193],[83.841425,22.348584],[83.605367,22.195984],[83.54625,22.101623],[83.515347,21.963853],[83.557102,21.834921],[83.473179,21.807171],[83.327658,21.499153],[83.381195,21.399547],[83.279393,21.3588],[83.198261,21.172558],[83.078165,21.114551],[82.96458,21.178527],[82.668164,21.155479],[82.562124,20.954458],[82.4535,20.846867],[82.341982,20.86082],[82.366683,20.657086],[82.340225,20.556342],[82.421874,20.42803],[82.433656,20.159002],[82.415569,20.066967],[82.611216,19.988134],[82.695035,20.000537],[82.682323,19.822666],[82.381359,19.885944],[82.290306,19.836051],[82.228397,19.95873],[82.096209,20.050637],[82.046083,20.017874],[81.939629,20.104665],[81.867799,20.046658],[81.824184,19.913255],[82.029133,19.776468],[82.02903,19.517853],[82.168659,19.386595],[82.145405,19.244226],[82.224987,19.015196],[82.138894,18.747254],[81.968982,18.685733],[81.903663,18.621913],[81.913274,18.544915],[81.740572,18.357898],[81.542548,18.262451],[81.444156,17.879736],[81.39403,17.806691],[81.578411,17.79695],[81.758969,17.908933],[82.042362,18.043266],[82.240076,17.992933],[82.32989,18.044041],[82.368234,18.413993],[82.449056,18.5221],[82.597367,18.325213],[82.586722,18.244391],[82.878383,18.409083],[82.904118,18.35534],[83.0392,18.390351],[83.083539,18.525329],[83.028142,18.640852],[83.126534,18.758158],[83.201671,18.741621],[83.394218,18.869417],[83.490129,19.051551],[83.612809,19.129789],[83.706447,19.001424],[83.801841,18.999952],[83.902404,18.805648],[84.071386,18.81787],[84.153138,18.787717],[84.317779,18.80924],[84.525208,19.032973],[84.6945,19.160588],[84.777761,19.116197],[84.872081,19.219875],[85.180431,19.475002],[85.104503,19.514879],[85.220958,19.736029],[85.463552,19.902899],[85.570323,19.875637],[85.549164,19.690619],[85.744395,19.765692],[86.268565,19.910346],[86.372406,19.964993],[86.467133,20.094672],[86.495128,20.184068],[86.701671,20.284654],[86.733897,20.462226],[86.923188,20.621731],[87.003591,20.65705],[86.952159,20.849107],[86.844005,21.082221],[86.83725,21.174709],[86.917654,21.327379],[87.063731,21.475002],[87.200938,21.551988],[87.341807,21.562405],[87.477387,21.613593]]]},"properties":{"LOCATION_TYPE":"level1","ADM0_A3":"IND","LOCATION_ID":"IND-OR","NAME":"Odisha","TYPE_EN":"State"}},
{"type":"Feature","geometry":{"type":"Polygon","coordinates":[[[73.166315,20.114871],[73.041775,20.157736],[73.112158,20.254914],[73.049939,20.330258],[72.896667,20.221505],[72.947207,20.127402],[72.997229,20.039811],[73.16094,20.047485],[73.166315,20.114871]]]},"properties":{"LOCATION_TYPE":"level1","ADM0_A3":"IND","LOCATION_ID":"IND-DH","NAME":"Dadra and Nagar Haveli and Daman and Diu","TYPE_EN":"Union Territory"}},
{"type":"Feature","geometry":{"type":"Polygon","coordinates":[[[73.700857,15.723212],[73.813097,15.77188],[73.908388,15.721237],[73.942805,15.632457],[74.100625,15.640286],[74.223511,15.726095],[74.331102,15.761932],[74.354459,15.872572],[74.469594,16.109792],[74.451921,16.253944],[74.366241,16.292882],[74.292448,16.528371],[74.353219,16.543512],[74.43001,16.644333],[74.524578,16.623843],[74.557444,16.551652],[74.665758,16.606222],[74.684878,16.708438],[74.866676,16.776211],[74.844559,16.852021],[74.960004,16.951136],[75.043409,16.952816],[75.166503,16.867937],[75.256006,16.959172],[75.45341,16.964055],[75.646783,17.091412],[75.622082,17.220939],[75.552836,17.365917],[75.61309,17.471595],[75.783933,17.374805],[75.870026,17.416147],[75.936482,17.325868],[76.210367,17.388913],[76.343795,17.351861],[76.322194,17.61771],[76.390614,17.636779],[76.512984,17.772817],[76.592669,17.770595],[76.675971,17.706852],[76.755656,17.825837],[76.839062,17.884232],[76.885054,17.974459],[76.892909,18.144293],[77.087729,18.197055],[77.23108,18.333791],[77.346628,18.351516],[77.461453,18.281933],[77.551163,18.307875],[77.502588,18.381591],[77.592298,18.548145],[77.679941,18.569978],[77.703402,18.669119],[77.781123,18.703768],[77.839311,18.80955],[77.912072,18.835362],[77.751978,19.045892],[77.833627,19.121443],[77.855021,19.228362],[77.92003,19.331663],[78.063897,19.264096],[78.16787,19.264096],[78.174381,19.374657],[78.302642,19.482765],[78.333441,19.643272],[78.383567,19.684535],[78.321762,19.863258],[78.477722,19.799128],[78.533739,19.824656],[78.847518,19.724533],[78.87253,19.650119],[79.024346,19.541525],[79.197731,19.461883],[79.266002,19.589555],[79.420403,19.536379],[79.538949,19.533821],[79.735423,19.603352],[79.795781,19.594101],[79.93107,19.482532],[79.965486,19.401917],[79.930553,19.211928],[79.861823,19.081084],[79.93355,19.053127],[79.960319,18.867117],[80.090543,18.69749],[80.270377,18.71369],[80.344171,18.85071],[80.271824,18.979436],[80.366599,19.117386],[80.397088,19.234175],[80.575992,19.391969],[80.617436,19.318563],[80.716655,19.262701],[80.832203,19.345409],[80.893905,19.484444],[80.712934,19.592603],[80.675727,19.676551],[80.565553,19.739777],[80.531137,19.920697],[80.557181,20.048337],[80.53062,20.134869],[80.426337,20.146238],[80.424373,20.234088],[80.622397,20.325891],[80.622397,20.600913],[80.572994,20.697574],[80.552117,20.919318],[80.435328,20.999235],[80.484524,21.167701],[80.625601,21.242657],[80.679034,21.351152],[80.625601,21.326476],[80.417552,21.446831],[80.310168,21.580233],[80.186661,21.63948],[80.005277,21.548323],[79.840326,21.534345],[79.798365,21.587804],[79.551558,21.550029],[79.533058,21.619275],[79.413065,21.689813],[79.240053,21.712758],[79.215765,21.65457],[78.921932,21.572275],[78.904156,21.509282],[78.696003,21.474762],[78.513689,21.526593],[78.427906,21.508481],[78.413333,21.606304],[78.192675,21.551114],[78.02917,21.437684],[77.871454,21.3981],[77.787531,21.423008],[77.712601,21.380272],[77.578035,21.384457],[77.481814,21.423886],[77.456802,21.548504],[77.555194,21.542484],[77.551783,21.696764],[77.46073,21.770041],[77.332985,21.774459],[77.218987,21.700846],[77.115531,21.724049],[76.917404,21.618086],[76.79369,21.577004],[76.729508,21.413009],[76.63339,21.341049],[76.614063,21.202479],[76.498308,21.180361],[76.436606,21.107808],[76.286641,21.074812],[76.186802,21.085819],[76.082933,21.368076],[75.877777,21.399779],[75.534749,21.371797],[75.31192,21.38146],[75.129916,21.437684],[75.047957,21.554059],[74.894065,21.61204],[74.708133,21.611162],[74.512486,21.726917],[74.485614,21.945973],[74.407686,22.023049],[74.284386,21.94494],[74.12884,21.951761],[73.809376,21.836471],[73.8286,21.650927],[73.751602,21.611033],[73.820848,21.508326],[73.995928,21.555325],[74.191575,21.545507],[74.108686,21.451559],[73.960168,21.394379],[73.91862,21.291569],[73.800074,21.280949],[73.695171,21.122639],[73.868287,20.974767],[73.909008,20.775709],[73.81103,20.676904],[73.792323,20.606184],[73.699822,20.562414],[73.475753,20.678712],[73.404233,20.66985],[73.4587,20.538023],[73.360721,20.369377],[73.394104,20.270391],[73.363822,20.178304],[73.271838,20.193419],[73.166315,20.114871],[73.16094,20.047485],[72.997229,20.039811],[72.947207,20.127402],[72.708102,20.072644],[72.650076,19.841986],[72.714041,19.745836],[72.718028,19.606676],[72.795909,19.526801],[72.746837,19.467963],[72.787608,19.345201],[72.772227,19.265123],[72.824229,19.053534],[72.891449,18.991767],[72.926931,18.826646],[72.852387,18.769924],[72.855317,18.681138],[72.921153,18.554877],[72.889659,18.441311],[72.977387,18.295071],[72.980968,18.080552],[73.018565,17.951728],[73.12322,17.723334],[73.131684,17.539374],[73.165294,17.413031],[73.234711,17.302314],[73.289399,16.983832],[73.274669,16.848822],[73.321625,16.69245],[73.319184,16.509752],[73.384939,16.401597],[73.378673,16.332709],[73.440196,16.162014],[73.447032,16.068915],[73.587576,15.902899],[73.643565,15.749091],[73.700857,15.723212]]]},"properties":{"LOCATION_TYPE":"level1","ADM0_A3":"IND","LOCATION_ID":"IND-MH","NAME":"Maharashtra","TYPE_EN":"State"}},
{"type":"Feature","geometry":{"type":"Polygon","coordinates":[[[74.091156,14.8876],[74.241185,14.956038],[74.30423,15.28917],[74.236534,15.472467],[74.226818,15.629847],[74.100625,15.640286],[73.942805,15.632457],[73.908388,15.721237],[73.813097,15.77188],[73.700857,15.723212],[73.697927,15.662828],[73.795177,15.460761],[73.885916,15.435207],[73.947276,15.160834],[73.913097,15.078925],[74.031261,14.995307],[74.091156,14.8876]]]},"properties":{"LOCATION_TYPE":"level1","ADM0_A3":"IND","LOCATION_ID":"IND-GA","NAME":"Goa","TYPE_EN":"State"}},
{"type":"Feature","geometry":{"type":"Polygon","coordinates":[[[74.854259,12.765286],[75.102114,12.678865],[75.312024,12.469498],[75.389331,12.294728],[75.629213,12.102052],[75.761092,12.068747],[75.846048,11.951105],[75.960563,11.928626],[76.055751,11.96374],[76.115489,11.857494],[76.17657,11.857029],[76.415936,11.666833],[76.532207,11.709079],[76.605381,11.631177],[76.820769,11.625596],[76.907688,11.800184],[76.997399,11.825919],[77.082561,11.756776],[77.259192,11.816902],[77.353863,11.7837],[77.433858,11.811527],[77.489772,11.92612],[77.670846,11.971311],[77.768721,12.120036],[77.667849,12.203881],[77.492149,12.205457],[77.471892,12.274238],[77.560775,12.339661],[77.618859,12.46663],[77.568733,12.55957],[77.609351,12.672793],[77.765311,12.718733],[77.801277,12.856554],[77.895018,12.87278],[78.002092,12.807151],[78.056249,12.845935],[78.229572,12.759893],[78.285899,12.843377],[78.415813,12.948202],[78.516479,13.089098],[78.568362,13.274823],[78.38088,13.322753],[78.350184,13.376109],[78.374679,13.579637],[78.184096,13.601547],[78.068238,13.698725],[78.096763,13.809002],[78.032684,13.884734],[77.92065,13.830474],[77.878792,13.916619],[77.734925,13.824221],[77.44254,13.701955],[77.384042,13.846726],[77.292058,13.848432],[77.152221,13.903596],[77.133204,13.784818],[77.032332,13.746241],[76.958538,13.781614],[77.010421,13.904991],[76.935904,14.010902],[76.995332,14.066377],[77.112327,14.005063],[77.289267,14.010747],[77.368539,14.163425],[77.467758,14.192442],[77.256814,14.333957],[77.111294,14.329617],[77.045458,14.231664],[76.908205,14.257864],[76.86242,14.347238],[76.931563,14.457567],[76.829967,14.478651],[76.752866,14.565597],[76.761858,14.763673],[76.822216,14.920976],[76.719483,14.989731],[76.764338,15.094118],[76.947996,15.021642],[77.080391,15.036654],[77.12814,15.132255],[77.104886,15.308213],[77.025924,15.351492],[76.999672,15.613776],[77.084939,15.667287],[77.025304,15.781285],[77.034089,15.873734],[77.143746,15.960706],[77.226429,15.976389],[77.446467,15.95298],[77.483674,16.002073],[77.490805,16.261592],[77.53318,16.361043],[77.293711,16.406518],[77.257435,16.449358],[77.431998,16.593613],[77.410914,16.720582],[77.465174,17.042578],[77.37443,17.222567],[77.599326,17.486917],[77.582583,17.578772],[77.492872,17.57761],[77.411534,17.630785],[77.525429,17.746281],[77.500314,17.812298],[77.61979,17.92565],[77.562946,18.070784],[77.599946,18.114838],[77.551163,18.307875],[77.461453,18.281933],[77.346628,18.351516],[77.23108,18.333791],[77.087729,18.197055],[76.892909,18.144293],[76.885054,17.974459],[76.839062,17.884232],[76.755656,17.825837],[76.675971,17.706852],[76.592669,17.770595],[76.512984,17.772817],[76.390614,17.636779],[76.322194,17.61771],[76.343795,17.351861],[76.210367,17.388913],[75.936482,17.325868],[75.870026,17.416147],[75.783933,17.374805],[75.61309,17.471595],[75.552836,17.365917],[75.622082,17.220939],[75.646783,17.091412],[75.45341,16.964055],[75.256006,16.959172],[75.166503,16.867937],[75.043409,16.952816],[74.960004,16.951136],[74.844559,16.852021],[74.866676,16.776211],[74.684878,16.708438],[74.665758,16.606222],[74.557444,16.551652],[74.524578,16.623843],[74.43001,16.644333],[74.353219,16.543512],[74.292448,16.528371],[74.366241,16.292882],[74.451921,16.253944],[74.469594,16.109792],[74.354459,15.872572],[74.331102,15.761932],[74.223511,15.726095],[74.100625,15.640286],[74.226818,15.629847],[74.236534,15.472467],[74.30423,15.28917],[74.241185,14.956038],[74.091156,14.8876],[74.111339,14.780341],[74.263194,14.701606],[74.309825,14.519436],[74.394216,14.410793],[74.429047,14.240424],[74.504731,14.01024],[74.614594,13.835517],[74.715099,13.331041],[74.817556,12.861762],[74.854259,12.765286]]]},"properties":{"LOCATION_TYPE":"level1","ADM0_A3":"IND","LOCATION_ID":"IND-KA","NAME":"Karnataka","TYPE_EN":"State"}},
{"type":"Feature","geometry":{"type":"Polygon","coordinates":[[[75.222179,12.02204],[75.222933,12.100166],[75.27616,12.100967],[75.30421,12.043158],[75.324555,11.899115],[75.530772,11.693671],[75.616547,11.473619],[75.69516,11.419989],[75.832774,11.097846],[75.922048,10.76557],[76.052419,10.513983],[76.177501,10.17064],[76.245128,10.1022],[76.278168,9.977932],[76.359223,9.915432],[76.394054,9.678941],[76.338878,9.699408],[76.311778,9.492987],[76.362966,9.325181],[76.543956,8.912502],[76.695649,8.739814],[76.99586,8.368109],[77.110331,8.285174],[77.166071,8.336933],[77.278829,8.526405],[77.178886,8.695232],[77.24927,8.859098],[77.164934,9.001001],[77.254541,9.122105],[77.398615,9.499963],[77.340634,9.579958],[77.263222,9.557376],[77.187671,9.612773],[77.23542,9.764676],[77.260225,9.962209],[77.224258,10.05781],[77.276968,10.210101],[77.191495,10.351306],[76.928049,10.235551],[76.841543,10.310663],[76.808573,10.437115],[76.821079,10.633176],[76.875546,10.678496],[76.889705,10.78004],[76.819838,10.875951],[76.690441,10.933364],[76.719173,11.138726],[76.641245,11.208644],[76.466268,11.205234],[76.533758,11.313134],[76.409114,11.436822],[76.256255,11.478447],[76.240752,11.603969],[76.339248,11.591489],[76.415936,11.666833],[76.17657,11.857029],[76.115489,11.857494],[76.055751,11.96374],[75.960563,11.928626],[75.846048,11.951105],[75.761092,12.068747],[75.629213,12.102052],[75.389331,12.294728],[75.312024,12.469498],[75.102114,12.678865],[74.854259,12.765286],[74.955251,12.537258],[75.222179,12.02204]]]},"properties":{"LOCATION_TYPE":"level1","ADM0_A3":"IND","LOCATION_ID":"IND-KL","NAME":"Kerala","TYPE_EN":"State"}},
{"type":"Feature","geometry":{"type":"MultiPolygon","coordinates":[[[[75.30421,12.043158],[75.27616,12.100967],[75.222933,12.100166],[75.222179,12.02204],[75.30421,12.043158]]],[[[79.846688,10.979834],[79.73749,10.986229],[79.70545,10.910445],[79.847341,10.809638],[79.846688,10.979834]]]]},"properties":{"LOCATION_TYPE":"level1","ADM0_A3":"IND","LOCATION_ID":"IND-PY","NAME":"Puducherry","TYPE_EN":"Union Territory"}},
{"type":"Feature","geometry":{"type":"Polygon","coordinates":[[[79.847341,10.809638],[79.70545,10.910445],[79.73749,10.986229],[79.846688,10.979834],[79.855317,11.159857],[79.821951,11.391059],[79.751964,11.576972],[79.810869,11.832977],[79.849561,11.955176],[79.861827,12.02204],[80.156016,12.474514],[80.228689,12.674994],[80.263194,12.835354],[80.285818,13.067572],[80.332774,13.198147],[80.34783,13.349066],[80.260173,13.468452],[80.097571,13.463752],[79.961972,13.416546],[79.956701,13.365774],[79.816348,13.294925],[79.784929,13.224025],[79.667933,13.291282],[79.571712,13.284073],[79.449549,13.33115],[79.420197,13.219994],[79.31488,13.131989],[79.250801,13.147751],[79.161608,13.044915],[79.077582,13.035587],[78.944153,13.093387],[78.736207,13.06096],[78.64474,12.991998],[78.582625,12.778213],[78.419121,12.63264],[78.352768,12.641503],[78.229572,12.759893],[78.056249,12.845935],[78.002092,12.807151],[77.895018,12.87278],[77.801277,12.856554],[77.765311,12.718733],[77.609351,12.672793],[77.568733,12.55957],[77.618859,12.46663],[77.560775,12.339661],[77.471892,12.274238],[77.492149,12.205457],[77.667849,12.203881],[77.768721,12.120036],[77.670846,11.971311],[77.489772,11.92612],[77.433858,11.811527],[77.353863,11.7837],[77.259192,11.816902],[77.082561,11.756776],[76.997399,11.825919],[76.907688,11.800184],[76.820769,11.625596],[76.605381,11.631177],[76.532207,11.709079],[76.415936,11.666833],[76.339248,11.591489],[76.240752,11.603969],[76.256255,11.478447],[76.409114,11.436822],[76.533758,11.313134],[76.466268,11.205234],[76.641245,11.208644],[76.719173,11.138726],[76.690441,10.933364],[76.819838,10.875951],[76.889705,10.78004],[76.875546,10.678496],[76.821079,10.633176],[76.808573,10.437115],[76.841543,10.310663],[76.928049,10.235551],[77.191495,10.351306],[77.276968,10.210101],[77.224258,10.05781],[77.260225,9.962209],[77.23542,9.764676],[77.187671,9.612773],[77.263222,9.557376],[77.340634,9.579958],[77.398615,9.499963],[77.254541,9.122105],[77.164934,9.001001],[77.24927,8.859098],[77.178886,8.695232],[77.278829,8.526405],[77.166071,8.336933],[77.110331,8.285174],[77.315603,8.127753],[77.510916,8.075995],[77.643809,8.155707],[77.752452,8.173814],[77.806163,8.228664],[78.062755,8.373196],[78.128266,8.488023],[78.136729,8.669867],[78.177908,8.86107],[78.239757,8.965562],[78.44988,9.116604],[78.618826,9.14053],[78.843761,9.243964],[78.956798,9.274848],[79.087169,9.253811],[78.933442,9.416449],[78.913259,9.47427],[78.980805,9.667182],[79.094086,9.802314],[79.200369,9.970282],[79.279063,10.035834],[79.236339,10.166571],[79.304942,10.268134],[79.398123,10.324652],[79.532237,10.323188],[79.759776,10.258246],[79.851329,10.282213],[79.86378,10.37873],[79.847341,10.809638]]]},"properties":{"LOCATION_TYPE":"level1","ADM0_A3":"IND","LOCATION_ID":"IND-TN","NAME":"Tamil Nadu","TYPE_EN":"State"}},
{"type":"Feature","geometry":{"type":"Polygon","coordinates":[[[73.077159,8.315253],[73.073009,8.295396],[73.063162,8.279486],[73.04835,8.267564],[73.029307,8.259996],[73.032725,8.249498],[73.044688,8.252427],[73.066091,8.270453],[73.083995,8.308498],[73.077159,8.315253]]]},"properties":{"LOCATION_TYPE":"level1","ADM0_A3":"IND","LOCATION_ID":"IND-LD","NAME":"Lakshadweep","TYPE_EN":"Union Territory"}},
{"type":"Feature","geometry":{"type":"MultiPolygon","coordinates":[[[[93.920258,7.024319],[93.865001,7.20067],[93.813975,7.241848],[93.676443,7.181871],[93.649181,7.013088],[93.71754,6.992621],[93.813731,6.808295],[93.889903,6.800971],[93.920258,7.024319]]],[[[92.811373,9.23117],[92.708507,9.201606],[92.731212,9.130845],[92.831981,9.145025],[92.811373,9.23117]]],[[[92.585092,10.771269],[92.527592,10.895466],[92.428966,10.850816],[92.37568,10.775031],[92.402557,10.575206],[92.513027,10.507969],[92.574213,10.580624],[92.585092,10.771269]]],[[[93.052745,13.283881],[93.042491,13.571234],[92.958507,13.550238],[92.847423,13.344916],[92.854177,13.146064],[92.807953,13.020087],[92.800304,12.857815],[92.737478,12.807196],[92.76002,12.651109],[92.72169,12.599433],[92.717784,12.362494],[92.778494,12.310126],[92.792654,12.207668],[92.640147,12.136135],[92.641856,12.036322],[92.539724,11.894436],[92.560313,11.74136],[92.60377,11.718899],[92.633556,11.582587],[92.726736,11.506171],[92.796886,11.865139],[92.737478,11.961168],[92.768809,12.084703],[92.892589,12.214545],[92.93865,12.438137],[92.990571,12.519232],[92.990571,12.701117],[92.964041,12.864936],[92.905284,12.982245],[93.019542,13.033637],[93.052745,13.133043],[93.052745,13.283881]]]]},"properties":{"LOCATION_TYPE":"level1","ADM0_A3":"IND","LOCATION_ID":"IND-AN","NAME":"Andaman and Nicobar","TYPE_EN":"Union Territory"}},
{"type":"Feature","geometry":{"type":"Polygon","coordinates":[[[83.337063,24.140232],[83.521755,24.065896],[83.556792,23.9358],[83.696628,23.818701],[83.720813,23.676152],[83.780861,23.586493],[84.014541,23.553989],[83.95222,23.474924],[83.946949,23.370021],[84.038623,23.309404],[84.028908,23.146107],[84.115,22.998855],[84.291734,22.997227],[84.352195,22.88558],[84.228275,22.78308],[84.190965,22.70094],[83.996248,22.592704],[83.970203,22.539348],[84.067045,22.499583],[84.147763,22.386773],[84.310957,22.324012],[84.420822,22.330989],[84.530066,22.423024],[84.908337,22.421965],[85.065537,22.5032],[85.100367,22.393956],[85.087758,22.280165],[84.985232,22.112785],[85.109152,22.108496],[85.232038,22.035322],[85.324126,22.126686],[85.425205,22.164487],[85.679143,22.075862],[85.792211,22.129089],[85.784666,22.011887],[85.916234,22.022119],[85.974112,22.104594],[85.986514,22.393621],[85.938765,22.500513],[86.039844,22.556737],[86.268047,22.422404],[86.366026,22.330058],[86.486639,22.336854],[86.686523,22.218024],[86.780264,22.286702],[86.789876,22.415635],[86.718149,22.469404],[86.749362,22.5448],[86.611386,22.604254],[86.586891,22.680683],[86.399099,22.784966],[86.450465,23.004203],[86.142474,23.028259],[86.020207,23.152592],[85.888432,23.163083],[85.829831,23.260803],[85.89484,23.416478],[85.828901,23.483063],[85.996436,23.511511],[86.056381,23.602513],[86.121493,23.500891],[86.214304,23.449163],[86.336467,23.508436],[86.348352,23.567942],[86.458527,23.638609],[86.799798,23.725529],[86.80972,23.818081],[86.877209,23.913063],[87.079677,23.815213],[87.241218,23.850844],[87.33806,24.001843],[87.488748,24.046853],[87.661554,24.186198],[87.631478,24.269372],[87.720568,24.317792],[87.895442,24.670303],[87.853274,24.758437],[87.877458,24.938866],[87.78103,25.08989],[87.783717,25.214094],[87.598715,25.266701],[87.523475,25.323778],[87.406686,25.181047],[87.291861,25.174252],[87.265919,25.072165],[87.185511,25.061985],[87.117298,24.970879],[87.119158,24.851145],[87.050015,24.597026],[86.925475,24.613588],[86.889922,24.531604],[86.755356,24.588138],[86.702336,24.547778],[86.585651,24.561447],[86.49439,24.479798],[86.438683,24.340375],[86.276419,24.434814],[86.290475,24.551551],[86.154876,24.556098],[86.097722,24.690483],[85.911583,24.698467],[85.830865,24.770917],[85.746012,24.770039],[85.64731,24.648573],[85.6624,24.568888],[85.526387,24.501554],[85.280614,24.487265],[84.96146,24.348385],[84.88901,24.372828],[84.798473,24.496593],[84.588253,24.394429],[84.471981,24.307354],[84.311888,24.451144],[84.305376,24.530803],[84.09557,24.504138],[84.043894,24.623898],[83.918423,24.543799],[83.695905,24.506282],[83.523099,24.529666],[83.401659,24.498298],[83.453956,24.361588],[83.337063,24.140232]]]},"properties":{"LOCATION_TYPE":"level1","ADM0_A3":"IND","LOCATION_ID":"IND-JH","NAME":"Jharkhand","TYPE_EN":"State"}},
{"type":"Feature","geometry":{"type":"Polygon","coordinates":[[[77.200797,28.876791],[77.067989,28.882088],[76.936524,28.81465],[76.947273,28.696156],[76.836892,28.587222],[76.872652,28.519422],[77.070883,28.528569],[77.193562,28.432606],[77.327404,28.519707],[77.306941,28.720599],[77.227152,28.783592],[77.200797,28.876791]]]},"properties":{"LOCATION_TYPE":"level1","ADM0_A3":"IND","LOCATION_ID":"IND-DL","NAME":"Delhi","TYPE_EN":"Union Territory"}},
{"type":"Feature","geometry":{"type":"Polygon","coordinates":[[[76.814567,30.789129],[76.703773,30.781403],[76.775603,30.677404],[76.82728,30.680712],[76.814567,30.789129]]]},"properties":{"LOCATION_TYPE":"level1","ADM0_A3":"IND","LOCATION_ID":"IND-CH","NAME":"Chandigarh","TYPE_EN":"Union Territory"}},
{"type":"Feature","geometry":{"type":"Polygon","coordinates":[[[82.800869,23.998716],[82.679429,24.166768],[82.732863,24.21413],[82.766969,24.386031],[82.734413,24.551628],[82.772137,24.668314],[82.427145,24.718569],[82.423631,24.647514],[82.033164,24.859491],[81.881132,24.921528],[81.817156,25.035759],[81.585232,25.079632],[81.536967,25.199754],[81.360543,25.156966],[81.243238,25.169523],[81.184843,24.97292],[81.09813,24.908609],[80.998808,24.96566],[80.778667,24.971499],[80.858868,25.187558],[80.806055,25.212156],[80.717895,25.081984],[80.647202,25.070098],[80.579506,25.147923],[80.458376,25.01514],[80.288257,25.016225],[80.265313,25.063819],[80.421996,25.180737],[80.326498,25.282256],[80.283606,25.41447],[80.191106,25.413333],[80.124546,25.350959],[80.015302,25.330909],[79.852108,25.247839],[79.86327,25.153245],[79.661112,25.148078],[79.541636,25.176551],[79.468152,25.103843],[79.339065,25.147406],[79.424744,25.257192],[79.294519,25.259415],[79.268991,25.164123],[78.885035,25.265538],[78.954902,25.385712],[78.853099,25.434029],[78.748816,25.426149],[78.727526,25.346386],[78.597094,25.414005],[78.515859,25.26621],[78.609807,25.136321],[78.640192,24.96411],[78.732073,24.81492],[78.715433,24.685109],[78.750367,24.629841],[78.878731,24.613201],[78.955005,24.392542],[78.825814,24.230149],[78.655902,24.29459],[78.489401,24.410784],[78.385531,24.30123],[78.350494,24.407968],[78.228848,24.532741],[78.261301,24.692653],[78.16911,24.865459],[78.336542,25.022995],[78.366307,25.186008],[78.261921,25.411705],[78.370545,25.552678],[78.55844,25.575545],[78.714503,25.62593],[78.739825,25.789796],[78.808348,25.84155],[78.954075,26.109983],[78.963274,26.278086],[79.060839,26.355084],[79.028076,26.497556],[78.935782,26.694443],[78.842351,26.711936],[78.693213,26.797874],[78.563505,26.758496],[78.371475,26.851049],[78.200116,26.823583],[78.101207,26.795109],[78.0794,26.682919],[77.90277,26.664032],[77.831456,26.575768],[77.616792,26.482983],[77.431274,26.373662],[77.323374,26.351984],[77.209686,26.241964],[76.907998,26.098588],[76.727028,25.9163],[76.651787,25.922656],[76.545953,25.848293],[76.478361,25.7198],[76.551431,25.460126],[76.652304,25.379175],[76.913476,25.309308],[77.080598,25.353181],[77.201624,25.35561],[77.255471,25.433512],[77.358617,25.407106],[77.398925,25.212234],[77.341254,25.113997],[77.187361,25.12751],[76.860973,25.033795],[76.883194,24.896956],[76.780564,24.837141],[76.848054,24.759703],[76.966806,24.737483],[77.037396,24.670303],[77.035226,24.538399],[76.942932,24.500236],[76.806196,24.555788],[76.814567,24.360115],[76.891565,24.240924],[76.766612,24.160334],[76.572515,24.273247],[76.230314,24.277872],[76.132749,24.329394],[76.116626,24.134031],[75.99901,24.051116],[75.997873,23.983937],[75.776491,23.883142],[75.699804,23.793199],[75.597071,23.8179],[75.490307,23.939934],[75.538883,24.041375],[75.621772,23.995228],[75.729983,24.00068],[75.805017,24.119122],[75.747759,24.190048],[75.794785,24.251647],[75.734427,24.423962],[75.874883,24.514266],[75.869406,24.599377],[75.758818,24.777377],[75.448036,24.703144],[75.20371,24.724951],[75.17198,24.762546],[75.317915,24.955247],[75.235129,25.040229],[75.133326,25.040022],[75.084441,24.888895],[74.981398,24.863031],[74.81531,24.916516],[74.837841,24.797143],[74.974266,24.785748],[74.965378,24.694049],[74.869673,24.665575],[74.806525,24.735777],[74.711853,24.523852],[74.846832,24.435511],[74.766424,24.35872],[74.759292,24.256685],[74.869983,24.236118],[74.893134,24.134496],[74.968169,24.032771],[74.908327,23.896733],[74.939023,23.687366],[74.822958,23.500116],[74.648188,23.43056],[74.569537,23.36785],[74.53636,23.250907],[74.715884,23.179206],[74.476106,23.062365],[74.323453,23.036062],[74.365001,22.874961],[74.458122,22.804112],[74.37637,22.651047],[74.272707,22.609654],[74.161189,22.516662],[74.025694,22.47961],[74.224338,22.349205],[74.05639,22.294169],[74.071479,22.197793],[74.141862,22.062814],[74.12884,21.951761],[74.284386,21.94494],[74.407686,22.023049],[74.485614,21.945973],[74.512486,21.726917],[74.708133,21.611162],[74.894065,21.61204],[75.047957,21.554059],[75.129916,21.437684],[75.31192,21.38146],[75.534749,21.371797],[75.877777,21.399779],[76.082933,21.368076],[76.186802,21.085819],[76.286641,21.074812],[76.436606,21.107808],[76.498308,21.180361],[76.614063,21.202479],[76.63339,21.341049],[76.729508,21.413009],[76.79369,21.577004],[76.917404,21.618086],[77.115531,21.724049],[77.218987,21.700846],[77.332985,21.774459],[77.46073,21.770041],[77.551783,21.696764],[77.555194,21.542484],[77.456802,21.548504],[77.481814,21.423886],[77.578035,21.384457],[77.712601,21.380272],[77.787531,21.423008],[77.871454,21.3981],[78.02917,21.437684],[78.192675,21.551114],[78.413333,21.606304],[78.427906,21.508481],[78.513689,21.526593],[78.696003,21.474762],[78.904156,21.509282],[78.921932,21.572275],[79.215765,21.65457],[79.240053,21.712758],[79.413065,21.689813],[79.533058,21.619275],[79.551558,21.550029],[79.798365,21.587804],[79.840326,21.534345],[80.005277,21.548323],[80.186661,21.63948],[80.310168,21.580233],[80.417552,21.446831],[80.625601,21.326476],[80.679034,21.351152],[80.721409,21.473212],[80.730504,21.714308],[80.837888,21.846135],[80.835097,21.950986],[80.91902,22.097463],[81.118904,22.294608],[81.122522,22.400519],[81.372636,22.492684],[81.417801,22.437494],[81.642283,22.550846],[81.76641,22.663992],[81.788527,22.852946],[81.940249,22.945835],[81.946141,23.042961],[82.129385,23.096498],[82.189743,23.288734],[82.098173,23.371726],[81.991409,23.400536],[81.907177,23.505181],[81.744602,23.542594],[81.644144,23.482055],[81.591434,23.561172],[81.686208,23.690311],[81.622026,23.833791],[81.681867,23.885132],[81.778192,23.801881],[81.936942,23.840664],[82.077399,23.801364],[82.531738,23.775371],[82.768106,23.928953],[82.800869,23.998716]]]},"properties":{"LOCATION_TYPE":"level1","ADM0_A3":"IND","LOCATION_ID":"IND-MP","NAME":"Madhya Pradesh","TYPE_EN":"State"}},
{"type":"Feature","geometry":{"type":"Polygon","coordinates":[[[83.337063,24.140232],[83.206322,23.944017],[82.964373,23.913915],[82.800869,23.998716],[82.768106,23.928953],[82.531738,23.775371],[82.077399,23.801364],[81.936942,23.840664],[81.778192,23.801881],[81.681867,23.885132],[81.622026,23.833791],[81.686208,23.690311],[81.591434,23.561172],[81.644144,23.482055],[81.744602,23.542594],[81.907177,23.505181],[81.991409,23.400536],[82.098173,23.371726],[82.189743,23.288734],[82.129385,23.096498],[81.946141,23.042961],[81.940249,22.945835],[81.788527,22.852946],[81.76641,22.663992],[81.642283,22.550846],[81.417801,22.437494],[81.372636,22.492684],[81.122522,22.400519],[81.118904,22.294608],[80.91902,22.097463],[80.835097,21.950986],[80.837888,21.846135],[80.730504,21.714308],[80.721409,21.473212],[80.679034,21.351152],[80.625601,21.242657],[80.484524,21.167701],[80.435328,20.999235],[80.552117,20.919318],[80.572994,20.697574],[80.622397,20.600913],[80.622397,20.325891],[80.424373,20.234088],[80.426337,20.146238],[80.53062,20.134869],[80.557181,20.048337],[80.531137,19.920697],[80.565553,19.739777],[80.675727,19.676551],[80.712934,19.592603],[80.893905,19.484444],[80.832203,19.345409],[80.716655,19.262701],[80.617436,19.318563],[80.575992,19.391969],[80.397088,19.234175],[80.366599,19.117386],[80.271824,18.979436],[80.344171,18.85071],[80.270377,18.71369],[80.409077,18.588866],[80.502611,18.59995],[80.696191,18.412287],[80.772259,18.232712],[80.852357,18.196357],[80.93752,18.086312],[80.985579,17.840462],[81.044904,17.776073],[81.14774,17.83656],[81.245201,17.803694],[81.39403,17.806691],[81.444156,17.879736],[81.542548,18.262451],[81.740572,18.357898],[81.913274,18.544915],[81.903663,18.621913],[81.968982,18.685733],[82.138894,18.747254],[82.224987,19.015196],[82.145405,19.244226],[82.168659,19.386595],[82.02903,19.517853],[82.029133,19.776468],[81.824184,19.913255],[81.867799,20.046658],[81.939629,20.104665],[82.046083,20.017874],[82.096209,20.050637],[82.228397,19.95873],[82.290306,19.836051],[82.381359,19.885944],[82.682323,19.822666],[82.695035,20.000537],[82.611216,19.988134],[82.415569,20.066967],[82.433656,20.159002],[82.421874,20.42803],[82.340225,20.556342],[82.366683,20.657086],[82.341982,20.86082],[82.4535,20.846867],[82.562124,20.954458],[82.668164,21.155479],[82.96458,21.178527],[83.078165,21.114551],[83.198261,21.172558],[83.279393,21.3588],[83.381195,21.399547],[83.327658,21.499153],[83.473179,21.807171],[83.557102,21.834921],[83.515347,21.963853],[83.54625,22.101623],[83.605367,22.195984],[83.841425,22.348584],[83.945812,22.371193],[83.996455,22.440543],[83.970203,22.539348],[83.996248,22.592704],[84.190965,22.70094],[84.228275,22.78308],[84.352195,22.88558],[84.291734,22.997227],[84.115,22.998855],[84.028908,23.146107],[84.038623,23.309404],[83.946949,23.370021],[83.95222,23.474924],[84.014541,23.553989],[83.780861,23.586493],[83.720813,23.676152],[83.696628,23.818701],[83.556792,23.9358],[83.521755,24.065896],[83.337063,24.140232]]]},"properties":{"LOCATION_TYPE":"level1","ADM0_A3":"IND","LOCATION_ID":"IND-CT","NAME":"Chhattisgarh","TYPE_EN":"State"}},
{"type":"Feature","geometry":{"type":"Polygon","coordinates":[[[77.585063,30.382926],[77.303427,30.460312],[77.147777,30.538679],[77.115118,30.722104],[77.001533,30.777347],[76.905725,30.899303],[76.768162,30.907597],[76.814567,30.789129],[76.82728,30.680712],[76.886604,30.633789],[76.904898,30.384089],[76.752866,30.43052],[76.714315,30.337115],[76.605588,30.274431],[76.624812,30.142837],[76.531381,30.083978],[76.429578,30.140357],[76.266694,30.113692],[76.178121,29.954684],[76.22556,29.869082],[75.956945,29.738624],[75.786,29.83097],[75.604409,29.764669],[75.445762,29.806191],[75.234612,29.561788],[75.172084,29.688214],[75.23823,29.748779],[75.187897,29.834743],[75.105214,29.821384],[74.823371,29.984992],[74.650669,29.914066],[74.516517,29.94719],[74.547006,29.860813],[74.466494,29.798931],[74.602713,29.726351],[74.574808,29.589693],[74.602093,29.470424],[74.537084,29.441382],[74.612841,29.332809],[74.821408,29.402934],[74.90719,29.378465],[74.969616,29.284337],[75.106558,29.238216],[75.328353,29.296222],[75.391502,29.252685],[75.392949,29.105976],[75.452067,29.023862],[75.593557,28.642671],[75.698563,28.520559],[75.887079,28.403848],[76.026192,28.262229],[75.961906,28.139497],[75.992809,28.050691],[75.931521,27.91809],[75.99994,27.842745],[76.215018,27.841505],[76.163341,28.0579],[76.266694,28.077485],[76.36798,28.15637],[76.453453,28.162829],[76.553085,27.971239],[76.657988,28.016972],[76.646826,28.085521],[76.856632,28.228975],[76.940555,28.122987],[76.920918,28.033535],[76.940555,27.852099],[76.900867,27.73438],[76.973007,27.679293],[77.040807,27.807295],[77.280689,27.80944],[77.526462,27.974468],[77.468068,28.046815],[77.528942,28.25347],[77.466517,28.315223],[77.497006,28.393254],[77.327404,28.519707],[77.193562,28.432606],[77.070883,28.528569],[76.872652,28.519422],[76.836892,28.587222],[76.947273,28.696156],[76.936524,28.81465],[77.067989,28.882088],[77.200797,28.876791],[77.195733,28.997584],[77.141369,29.130341],[77.149844,29.403374],[77.064681,29.569513],[77.180437,29.804253],[77.229943,29.976646],[77.570077,30.27823],[77.585063,30.382926]]]},"properties":{"LOCATION_TYPE":"level1","ADM0_A3":"IND","LOCATION_ID":"IND-HR","NAME":"Haryana","TYPE_EN":"State"}},
{"type":"Feature","geometry":{"type":"Polygon","coordinates":[[[77.551163,18.307875],[77.599946,18.114838],[77.562946,18.070784],[77.61979,17.92565],[77.500314,17.812298],[77.525429,17.746281],[77.411534,17.630785],[77.492872,17.57761],[77.582583,17.578772],[77.599326,17.486917],[77.37443,17.222567],[77.465174,17.042578],[77.410914,16.720582],[77.431998,16.593613],[77.257435,16.449358],[77.293711,16.406518],[77.53318,16.361043],[77.490805,16.261592],[77.483674,16.002073],[77.446467,15.95298],[77.641205,15.900662],[77.849864,15.893866],[77.88795,15.919135],[78.087494,15.832953],[78.235281,15.950466],[78.255951,16.005683],[78.399994,16.083441],[78.499766,16.093777],[78.73406,16.0303],[78.839447,16.066718],[78.839122,16.124823],[79.021658,16.247138],[79.160574,16.219346],[79.233409,16.330512],[79.213471,16.493232],[79.265636,16.569607],[79.406261,16.587226],[79.504324,16.641872],[79.720876,16.689032],[79.882335,16.703233],[79.9581,16.630439],[80.073334,16.822862],[80.002428,16.871004],[80.077643,16.972555],[80.220451,17.033251],[80.280555,16.997387],[80.350986,16.862136],[80.506146,16.792487],[80.586234,16.933936],[80.38431,16.975982],[80.501756,17.10797],[80.590939,17.139791],[80.669698,17.079924],[80.829519,17.046021],[80.893078,17.155634],[80.99048,17.21818],[81.144193,17.249538],[81.214333,17.323635],[81.408339,17.370643],[81.469526,17.420487],[81.535249,17.637689],[81.628586,17.763421],[81.775781,17.833207],[81.758969,17.908933],[81.578411,17.79695],[81.39403,17.806691],[81.245201,17.803694],[81.14774,17.83656],[81.044904,17.776073],[80.985579,17.840462],[80.93752,18.086312],[80.852357,18.196357],[80.772259,18.232712],[80.696191,18.412287],[80.502611,18.59995],[80.409077,18.588866],[80.270377,18.71369],[80.090543,18.69749],[79.960319,18.867117],[79.93355,19.053127],[79.861823,19.081084],[79.930553,19.211928],[79.965486,19.401917],[79.93107,19.482532],[79.795781,19.594101],[79.735423,19.603352],[79.538949,19.533821],[79.420403,19.536379],[79.266002,19.589555],[79.197731,19.461883],[79.024346,19.541525],[78.87253,19.650119],[78.847518,19.724533],[78.533739,19.824656],[78.477722,19.799128],[78.321762,19.863258],[78.383567,19.684535],[78.333441,19.643272],[78.302642,19.482765],[78.174381,19.374657],[78.16787,19.264096],[78.063897,19.264096],[77.92003,19.331663],[77.855021,19.228362],[77.833627,19.121443],[77.751978,19.045892],[77.912072,18.835362],[77.839311,18.80955],[77.781123,18.703768],[77.703402,18.669119],[77.679941,18.569978],[77.592298,18.548145],[77.502588,18.381591],[77.551163,18.307875]]]},"properties":{"LOCATION_TYPE":"level1","ADM0_A3":"IND","LOCATION_ID":"IND-TG","NAME":"Telangana","TYPE_EN":"State"}}
]}