{"type":"FeatureCollection", "features": [
{"type":"Feature","geometry":{"type":"Polygon","coordinates":[[[96.863129,-12.181736],[96.847667,-12.187188],[96.836192,-12.182061],[96.835216,-12.160577],[96.82838,-12.12656],[96.821544,-12.12656],[96.823416,-12.150974],[96.830577,-12.179946],[96.845225,-12.197686],[96.863129,-12.181736]]]},"properties":{"LOCATION_TYPE":"level1","ADM0_A3":"IOA","LOCATION_ID":"IOA-99","NAME":"Cocos (Keeling) Islands","TYPE_EN":"Province"}},
{"type":"Feature","geometry":{"type":"Polygon","coordinates":[[[105.704112,-10.430841],[105.654552,-10.469903],[105.628184,-10.508966],[105.697927,-10.528985],[105.714692,-10.437188],[105.704112,-10.430841]]]},"properties":{"LOCATION_TYPE":"level1","ADM0_A3":"IOA","LOCATION_ID":"IOA-99","NAME":"Christmas Island","TYPE_EN":null}}
]}