{"type":"FeatureCollection", "features": [
{"type":"Feature","geometry":{"type":"Polygon","coordinates":[[[-8.168467,54.463477],[-8.05586,54.497553],[-8.002194,54.543442],[-7.887137,54.532125],[-7.749264,54.596152],[-7.814996,54.639457],[-7.906619,54.661316],[-7.845899,54.731027],[-7.736603,54.707463],[-7.649683,54.744877],[-7.551705,54.754695],[-7.543385,54.793091],[-7.470831,54.845284],[-7.405254,55.003569],[-7.355024,55.040931],[-7.2471,55.069322],[-7.159495,55.150784],[-6.939565,55.239081],[-7.144154,55.293647],[-7.195424,55.338609],[-7.332509,55.372789],[-7.367787,55.310614],[-7.51358,55.274359],[-7.541412,55.198065],[-7.470041,55.145168],[-7.469106,55.04385],[-7.561838,55.044501],[-7.527821,55.132554],[-7.619944,55.204901],[-7.643951,55.272773],[-7.760854,55.250434],[-7.703603,55.218451],[-7.668202,55.147203],[-7.814198,55.20185],[-8.020985,55.188788],[-8.159576,55.138739],[-8.26301,55.161078],[-8.354482,55.060533],[-8.456614,54.995429],[-8.396148,54.955268],[-8.432607,54.901557],[-8.401967,54.84455],[-8.490712,54.851996],[-8.554351,54.827541],[-8.536204,54.766913],[-8.636586,54.768459],[-8.795522,54.698432],[-8.774159,54.659857],[-8.596913,54.619289],[-8.43163,54.641303],[-8.384755,54.605658],[-8.287262,54.636786],[-8.120839,54.646552],[-8.137563,54.605618],[-8.218861,54.56977],[-8.30012,54.477973],[-8.168467,54.463477]]]},"properties":{"LOCATION_TYPE":"level1","ADM0_A3":"IRL","LOCATION_ID":"IRL-DL","NAME":"Donegal","TYPE_EN":"County"}},
{"type":"Feature","geometry":{"type":"Polygon","coordinates":[[[-8.168467,54.463477],[-8.30012,54.477973],[-8.381663,54.468573],[-8.349226,54.414715],[-8.38757,54.341386],[-8.344576,54.287953],[-8.338168,54.201136],[-8.27812,54.151372],[-8.21063,54.1476],[-8.157249,54.108067],[-8.049865,54.090652],[-8.090431,54.039027],[-8.074825,53.981925],[-8.092705,53.920482],[-7.985476,53.900276],[-7.979016,53.859917],[-7.922017,53.811599],[-7.772311,53.85661],[-7.678931,53.917433],[-7.598781,53.933142],[-7.589273,54.019804],[-7.73991,54.101608],[-7.821403,54.103778],[-7.936332,54.170751],[-8.007025,54.190078],[-8.047023,54.235915],[-7.942075,54.298873],[-8.002194,54.357923],[-8.079941,54.380196],[-8.168467,54.463477]]]},"properties":{"LOCATION_TYPE":"level1","ADM0_A3":"IRL","LOCATION_ID":"IRL-LM","NAME":"Leitrim","TYPE_EN":"County"}},
{"type":"Feature","geometry":{"type":"Polygon","coordinates":[[[-7.942075,54.298873],[-8.047023,54.235915],[-8.007025,54.190078],[-7.936332,54.170751],[-7.821403,54.103778],[-7.73991,54.101608],[-7.589273,54.019804],[-7.598781,53.933142],[-7.388768,53.778992],[-7.338539,53.795373],[-7.297766,53.807517],[-7.205317,53.778888],[-7.144649,53.799766],[-6.997888,53.773359],[-6.908281,53.808602],[-6.946315,53.843742],[-6.888799,53.879451],[-6.748291,53.91397],[-6.810199,53.935675],[-6.874691,54.003526],[-7.006466,54.077836],[-7.142788,54.085071],[-7.316489,54.11428],[-7.439619,54.146929],[-7.502302,54.125121],[-7.609014,54.139901],[-7.70477,54.200362],[-7.836959,54.204341],[-7.873649,54.271055],[-7.942075,54.298873]]]},"properties":{"LOCATION_TYPE":"level1","ADM0_A3":"IRL","LOCATION_ID":"IRL-CN","NAME":"Cavan","TYPE_EN":"County"}},
{"type":"Feature","geometry":{"type":"Polygon","coordinates":[[[-6.605217,54.044475],[-6.672534,54.068432],[-6.640339,54.168013],[-6.744777,54.184187],[-6.823946,54.23235],[-6.879705,54.341594],[-6.984091,54.403089],[-7.049255,54.411512],[-7.209038,54.293431],[-7.14589,54.25209],[-7.229502,54.207545],[-7.263505,54.140986],[-7.316489,54.11428],[-7.142788,54.085071],[-7.006466,54.077836],[-6.874691,54.003526],[-6.810199,53.935675],[-6.748291,53.91397],[-6.684367,53.905134],[-6.637083,53.959032],[-6.550525,53.988074],[-6.605217,54.044475]]]},"properties":{"LOCATION_TYPE":"level1","ADM0_A3":"IRL","LOCATION_ID":"IRL-MN","NAME":"Monaghan","TYPE_EN":"Administrative County"}},
{"type":"Feature","geometry":{"type":"Polygon","coordinates":[[[-6.245798,53.729641],[-6.243235,53.865139],[-6.350819,53.881415],[-6.378977,53.916897],[-6.347808,54.003607],[-6.307037,54.011868],[-6.185536,53.979722],[-6.110992,54.001288],[-6.28465,54.105226],[-6.368108,54.097319],[-6.377513,54.063264],[-6.47854,54.067709],[-6.605217,54.044475],[-6.550525,53.988074],[-6.637083,53.959032],[-6.684367,53.905134],[-6.587215,53.864413],[-6.558741,53.804985],[-6.454252,53.720391],[-6.309144,53.715791],[-6.245798,53.729641]]]},"properties":{"LOCATION_TYPE":"level1","ADM0_A3":"IRL","LOCATION_ID":"IRL-LH","NAME":"Louth","TYPE_EN":"County"}},
{"type":"Feature","geometry":{"type":"Polygon","coordinates":[[[-6.14977,53.386542],[-6.156864,53.419265],[-6.282691,53.414281],[-6.347474,53.359465],[-6.272725,53.309633],[-6.180536,53.31725],[-6.215321,53.358059],[-6.14977,53.386542]]]},"properties":{"LOCATION_TYPE":"level1","ADM0_A3":"IRL","LOCATION_ID":"IRL-D","NAME":"Dublin","TYPE_EN":"County"}},
{"type":"Feature","geometry":{"type":"Polygon","coordinates":[[[-6.180536,53.31725],[-6.272725,53.309633],[-6.28558,53.217114],[-6.226875,53.200629],[-6.088938,53.204088],[-6.096995,53.285549],[-6.180536,53.31725]]]},"properties":{"LOCATION_TYPE":"level1","ADM0_A3":"IRL","LOCATION_ID":"IRL-D","NAME":"Dún Laoghaire–Rathdown","TYPE_EN":"County"}},
{"type":"Feature","geometry":{"type":"Polygon","coordinates":[[[-6.088938,53.204088],[-6.226875,53.200629],[-6.28558,53.217114],[-6.341184,53.178925],[-6.383558,53.209776],[-6.467998,53.223987],[-6.570007,53.123993],[-6.712634,53.063841],[-6.779865,52.992115],[-6.731031,52.915892],[-6.515953,52.882457],[-6.511302,52.82613],[-6.572694,52.805046],[-6.658374,52.831866],[-6.686279,52.792747],[-6.609074,52.711718],[-6.524997,52.682934],[-6.43756,52.725981],[-6.366712,52.787631],[-6.239123,52.788096],[-6.151031,52.741563],[-6.130116,52.815985],[-5.996571,52.964911],[-6.051625,53.009263],[-6.030385,53.111029],[-6.088938,53.204088]]]},"properties":{"LOCATION_TYPE":"level1","ADM0_A3":"IRL","LOCATION_ID":"IRL-WW","NAME":"Wicklow","TYPE_EN":"County"}},
{"type":"Feature","geometry":{"type":"Polygon","coordinates":[[[-6.151031,52.741563],[-6.239123,52.788096],[-6.366712,52.787631],[-6.43756,52.725981],[-6.524997,52.682934],[-6.609074,52.711718],[-6.647005,52.655856],[-6.774129,52.612293],[-6.783741,52.568368],[-6.861152,52.478399],[-6.923267,52.465945],[-6.933034,52.4214],[-6.993444,52.354479],[-6.994496,52.277533],[-6.92101,52.212836],[-6.897084,52.152045],[-6.786285,52.210028],[-6.715566,52.21662],[-6.597157,52.179592],[-6.489654,52.199774],[-6.369862,52.179999],[-6.318349,52.24079],[-6.38976,52.2956],[-6.454986,52.312242],[-6.448069,52.355902],[-6.364369,52.357815],[-6.365549,52.3935],[-6.209096,52.545844],[-6.215321,52.665961],[-6.151031,52.741563]]]},"properties":{"LOCATION_TYPE":"level1","ADM0_A3":"IRL","LOCATION_ID":"IRL-WX","NAME":"Wexford","TYPE_EN":"County"}},
{"type":"Feature","geometry":{"type":"Polygon","coordinates":[[[-6.994496,52.277533],[-6.993444,52.354479],[-6.933034,52.4214],[-6.923267,52.465945],[-6.926368,52.578548],[-6.973393,52.610277],[-6.977941,52.672651],[-7.022382,52.709961],[-7.092611,52.725051],[-7.047394,52.79316],[-7.138034,52.869176],[-7.192605,52.886695],[-7.289446,52.857756],[-7.453364,52.785616],[-7.580436,52.815019],[-7.668234,52.779828],[-7.629632,52.731459],[-7.564365,52.71022],[-7.448196,52.575706],[-7.45848,52.474833],[-7.391559,52.431322],[-7.364635,52.335617],[-7.206712,52.247354],[-7.15302,52.271487],[-7.034061,52.257121],[-6.991851,52.266791],[-6.994496,52.277533]]]},"properties":{"LOCATION_TYPE":"level1","ADM0_A3":"IRL","LOCATION_ID":"IRL-KK","NAME":"Kilkenny","TYPE_EN":"County"}},
{"type":"Feature","geometry":{"type":"Polygon","coordinates":[[[-6.991851,52.266791],[-7.034061,52.257121],[-7.002774,52.222907],[-7.100446,52.20696],[-7.15302,52.271487],[-7.206712,52.247354],[-7.364635,52.335617],[-7.590978,52.359853],[-7.780424,52.339131],[-7.770037,52.222859],[-7.986148,52.239189],[-8.010229,52.20715],[-8.099113,52.209217],[-8.14774,52.146791],[-8.063301,52.134803],[-8.001444,52.04871],[-7.912147,51.979722],[-7.851804,51.977105],[-7.829335,51.953437],[-7.723297,51.944566],[-7.709299,51.973863],[-7.589915,51.991156],[-7.554107,52.060248],[-7.504303,52.102688],[-7.435455,52.125678],[-7.16747,52.138373],[-7.017201,52.138373],[-6.955149,52.186184],[-6.991851,52.266791]]]},"properties":{"LOCATION_TYPE":"level1","ADM0_A3":"IRL","LOCATION_ID":"IRL-WD","NAME":"Waterford","TYPE_EN":"County"}},
{"type":"Feature","geometry":{"type":"Polygon","coordinates":[[[-7.851804,51.977105],[-7.912147,51.979722],[-8.001444,52.04871],[-8.063301,52.134803],[-8.14774,52.146791],[-8.099113,52.209217],[-8.184637,52.281202],[-8.257449,52.281512],[-8.304888,52.313241],[-8.48033,52.276809],[-8.592726,52.314585],[-8.667863,52.373341],[-8.803307,52.378509],[-8.89586,52.321665],[-8.991151,52.298203],[-9.121117,52.331586],[-9.216615,52.293966],[-9.264571,52.222911],[-9.178943,52.0777],[-9.205815,52.021166],[-9.130574,51.979618],[-9.234134,51.965252],[-9.302037,51.923911],[-9.276353,51.879934],[-9.321674,51.842521],[-9.412779,51.819576],[-9.446731,51.789914],[-9.604189,51.77746],[-9.813943,51.686561],[-9.860911,51.754751],[-9.980702,51.731879],[-10.003774,51.678046],[-10.088124,51.671617],[-10.028798,51.596503],[-9.874135,51.656195],[-9.648061,51.680813],[-9.56607,51.716702],[-9.458608,51.683987],[-9.770334,51.592231],[-9.80663,51.445705],[-9.556304,51.508124],[-9.425038,51.557563],[-9.413889,51.511135],[-9.349233,51.474026],[-9.272125,51.508368],[-9.107737,51.549384],[-8.88801,51.555569],[-8.853871,51.595933],[-8.696156,51.576646],[-8.702952,51.617011],[-8.539174,51.648383],[-8.497548,51.692694],[-8.372548,51.715522],[-8.301747,51.758205],[-8.329254,51.861314],[-8.396067,51.876776],[-8.414035,51.852151],[-8.5436,51.868098],[-8.493767,51.92391],[-8.388499,51.893459],[-8.293202,51.903306],[-8.210194,51.884508],[-8.20165,51.841986],[-8.134185,51.804755],[-8.020579,51.82392],[-8.008168,51.85578],[-7.891469,51.881903],[-7.922231,51.911811],[-7.856679,51.942857],[-7.851804,51.977105]]]},"properties":{"LOCATION_TYPE":"level1","ADM0_A3":"IRL","LOCATION_ID":"IRL-CO","NAME":"Cork","TYPE_EN":"County"}},
{"type":"Feature","geometry":{"type":"Polygon","coordinates":[[[-8.388499,51.893459],[-8.493767,51.92391],[-8.5436,51.868098],[-8.414035,51.852151],[-8.396067,51.876776],[-8.388499,51.893459]]]},"properties":{"LOCATION_TYPE":"level1","ADM0_A3":"IRL","LOCATION_ID":"IRL-CO","NAME":"Cork","TYPE_EN":"City"}},
{"type":"Feature","geometry":{"type":"Polygon","coordinates":[[[-9.860911,51.754751],[-9.813943,51.686561],[-9.604189,51.77746],[-9.446731,51.789914],[-9.412779,51.819576],[-9.321674,51.842521],[-9.276353,51.879934],[-9.302037,51.923911],[-9.234134,51.965252],[-9.130574,51.979618],[-9.205815,52.021166],[-9.178943,52.0777],[-9.264571,52.222911],[-9.216615,52.293966],[-9.328805,52.349001],[-9.30493,52.377113],[-9.32865,52.457522],[-9.299453,52.499431],[-9.362542,52.575426],[-9.576975,52.57038],[-9.671946,52.552924],[-9.683095,52.494615],[-9.748931,52.456732],[-9.848378,52.428412],[-9.834462,52.37523],[-9.837229,52.254299],[-9.947499,52.237616],[-10.044911,52.269273],[-10.166249,52.234565],[-10.171864,52.286811],[-10.275787,52.268134],[-10.366567,52.228217],[-10.369252,52.183661],[-10.449696,52.18891],[-10.478179,52.152045],[-10.415273,52.099677],[-10.26773,52.13581],[-10.162424,52.11872],[-10.028066,52.139635],[-9.758168,52.152045],[-9.77184,52.124701],[-9.877512,52.119534],[-9.929596,52.071926],[-10.128163,52.02851],[-10.266225,51.988471],[-10.295318,51.96426],[-10.250885,51.915513],[-10.36266,51.887193],[-10.341054,51.788275],[-10.234609,51.85102],[-10.186147,51.789618],[-10.111195,51.746039],[-10.039377,51.782131],[-9.874867,51.802558],[-9.860911,51.754751]]]},"properties":{"LOCATION_TYPE":"level1","ADM0_A3":"IRL","LOCATION_ID":"IRL-KY","NAME":"Kerry","TYPE_EN":"County"}},
{"type":"Feature","geometry":{"type":"Polygon","coordinates":[[[-9.362542,52.575426],[-9.299453,52.499431],[-9.32865,52.457522],[-9.30493,52.377113],[-9.328805,52.349001],[-9.216615,52.293966],[-9.121117,52.331586],[-8.991151,52.298203],[-8.89586,52.321665],[-8.803307,52.378509],[-8.667863,52.373341],[-8.592726,52.314585],[-8.48033,52.276809],[-8.304888,52.313241],[-8.257449,52.281512],[-8.184637,52.281202],[-8.167635,52.354737],[-8.243341,52.407344],[-8.392738,52.455455],[-8.378579,52.487701],[-8.225461,52.525735],[-8.228614,52.572967],[-8.187428,52.665364],[-8.301632,52.690789],[-8.449685,52.687895],[-8.476971,52.755075],[-8.568024,52.676475],[-8.587453,52.623561],[-8.665796,52.652859],[-8.751169,52.67296],[-8.95995,52.652289],[-8.991119,52.624986],[-9.070627,52.624172],[-9.272125,52.577216],[-9.362542,52.575426]]]},"properties":{"LOCATION_TYPE":"level1","ADM0_A3":"IRL","LOCATION_ID":"IRL-LK","NAME":"Limerick","TYPE_EN":"County"}},
{"type":"Feature","geometry":{"type":"Polygon","coordinates":[[[-8.751169,52.67296],[-8.665796,52.652859],[-8.568024,52.676475],[-8.476971,52.755075],[-8.396975,52.903851],[-8.331811,52.910879],[-8.283649,52.951187],[-8.309436,52.980126],[-8.442347,52.971547],[-8.574226,53.030355],[-8.718661,53.017539],[-8.778244,52.97656],[-8.877101,52.973924],[-8.894309,53.058157],[-9.00252,53.095674],[-9.004058,53.146923],[-9.158599,53.111029],[-9.272206,53.146674],[-9.437571,52.966742],[-9.365305,52.91413],[-9.42748,52.877753],[-9.498647,52.752509],[-9.580719,52.743354],[-9.824086,52.59516],[-9.706858,52.580227],[-9.694407,52.605618],[-9.552805,52.639309],[-9.285797,52.590806],[-9.146799,52.623765],[-9.058217,52.696763],[-9.02359,52.747138],[-8.968902,52.770819],[-8.932688,52.687079],[-8.867502,52.693305],[-8.751169,52.67296]]]},"properties":{"LOCATION_TYPE":"level1","ADM0_A3":"IRL","LOCATION_ID":"IRL-CE","NAME":"Clare","TYPE_EN":"County"}},
{"type":"Feature","geometry":{"type":"Polygon","coordinates":[[[-9.004058,53.146923],[-9.00252,53.095674],[-8.894309,53.058157],[-8.877101,52.973924],[-8.778244,52.97656],[-8.718661,53.017539],[-8.574226,53.030355],[-8.442347,52.971547],[-8.309436,52.980126],[-8.206444,53.070508],[-8.137508,53.152828],[-8.07653,53.170398],[-7.976588,53.207502],[-8.045679,53.276232],[-8.138645,53.279849],[-8.235228,53.362635],[-8.241533,53.442785],[-8.277293,53.476684],[-8.287938,53.570167],[-8.372377,53.607478],[-8.369174,53.657087],[-8.474904,53.713931],[-8.571487,53.715998],[-8.657425,53.675845],[-8.817105,53.668146],[-8.956218,53.649904],[-9.041587,53.547068],[-9.129799,53.484281],[-9.187367,53.475238],[-9.357124,53.56531],[-9.452415,53.561537],[-9.586774,53.60324],[-9.696767,53.602619],[-9.775054,53.601304],[-9.8544,53.618109],[-10.008656,53.604438],[-10.025746,53.562893],[-10.115102,53.570299],[-10.152659,53.543606],[-10.087148,53.481513],[-10.025746,53.385403],[-9.860178,53.394232],[-9.897857,53.327867],[-9.806711,53.301581],[-9.743072,53.314399],[-9.684722,53.37523],[-9.617299,53.321479],[-9.60912,53.276313],[-9.511708,53.228339],[-9.401438,53.247992],[-9.119875,53.261873],[-9.040252,53.331943],[-8.921859,53.298936],[-8.942616,53.261786],[-8.932688,53.214667],[-8.96349,53.151801],[-9.004058,53.146923]]]},"properties":{"LOCATION_TYPE":"level1","ADM0_A3":"IRL","LOCATION_ID":"IRL-G","NAME":"Galway","TYPE_EN":"County"}},
{"type":"Feature","geometry":{"type":"Polygon","coordinates":[[[-8.942616,53.261786],[-8.921859,53.298936],[-9.040252,53.331943],[-9.119875,53.261873],[-9.022084,53.275458],[-8.942616,53.261786]]]},"properties":{"LOCATION_TYPE":"level1","ADM0_A3":"IRL","LOCATION_ID":"IRL-G","NAME":"Galway","TYPE_EN":"City"}},
{"type":"Feature","geometry":{"type":"MultiPolygon","coordinates":[[[[-9.696767,53.602619],[-9.586774,53.60324],[-9.452415,53.561537],[-9.357124,53.56531],[-9.187367,53.475238],[-9.129799,53.484281],[-9.041587,53.547068],[-8.956218,53.649904],[-8.817105,53.668146],[-8.705174,53.721837],[-8.685123,53.788397],[-8.726309,53.809842],[-8.689671,53.872784],[-8.679646,53.965699],[-8.583217,53.958154],[-8.589987,54.014378],[-8.645126,54.032206],[-8.774523,53.972933],[-8.84594,53.972468],[-8.885163,54.019287],[-8.935237,54.013293],[-9.00314,54.051378],[-8.923713,54.116645],[-8.962212,54.148065],[-9.094194,54.142019],[-9.133863,54.165057],[-9.210357,54.217841],[-9.209462,54.267564],[-9.334218,54.318305],[-9.384511,54.297187],[-9.706939,54.317613],[-9.785512,54.33808],[-9.881093,54.263007],[-9.991933,54.300686],[-10.073476,54.269192],[-10.103831,54.226223],[-10.069163,54.144273],[-9.988189,54.213121],[-9.938873,54.131659],[-9.970693,54.078559],[-9.897694,54.055121],[-9.838531,53.963568],[-9.908437,53.947089],[-9.910756,53.85871],[-9.758168,53.899319],[-9.615468,53.89883],[-9.560211,53.865139],[-9.621653,53.817328],[-9.566396,53.796291],[-9.908437,53.762112],[-9.908437,53.646064],[-9.783762,53.606269],[-9.696767,53.602619]]],[[[-9.963612,53.953843],[-9.93635,53.989244],[-9.975901,54.021145],[-10.063222,54.022773],[-10.134429,54.000312],[-10.055816,53.958808],[-10.055531,53.913723],[-9.93635,53.892483],[-9.963612,53.953843]]]]},"properties":{"LOCATION_TYPE":"level1","ADM0_A3":"IRL","LOCATION_ID":"IRL-MO","NAME":"Mayo","TYPE_EN":"County"}},
{"type":"Feature","geometry":{"type":"Polygon","coordinates":[[[-9.133863,54.165057],[-9.094194,54.142019],[-8.962212,54.148065],[-8.923713,54.116645],[-9.00314,54.051378],[-8.935237,54.013293],[-8.885163,54.019287],[-8.84594,53.972468],[-8.774523,53.972933],[-8.645126,54.032206],[-8.589987,54.014378],[-8.583217,53.958154],[-8.451339,53.911697],[-8.388501,53.995619],[-8.330933,53.999753],[-8.157249,54.108067],[-8.21063,54.1476],[-8.27812,54.151372],[-8.338168,54.201136],[-8.344576,54.287953],[-8.38757,54.341386],[-8.349226,54.414715],[-8.381663,54.468573],[-8.612864,54.375474],[-8.485951,54.288642],[-8.676422,54.271308],[-8.871816,54.265123],[-8.939036,54.289984],[-9.051259,54.289496],[-9.133863,54.165057]]]},"properties":{"LOCATION_TYPE":"level1","ADM0_A3":"IRL","LOCATION_ID":"IRL-SO","NAME":"Sligo","TYPE_EN":"County"}},
{"type":"Feature","geometry":{"type":"Polygon","coordinates":[[[-6.245798,53.729641],[-6.309144,53.715791],[-6.454252,53.720391],[-6.558741,53.804985],[-6.587215,53.864413],[-6.684367,53.905134],[-6.748291,53.91397],[-6.888799,53.879451],[-6.946315,53.843742],[-6.908281,53.808602],[-6.997888,53.773359],[-7.144649,53.799766],[-7.205317,53.778888],[-7.297766,53.807517],[-7.338539,53.795373],[-7.287172,53.776821],[-7.21374,53.70649],[-7.053595,53.648509],[-6.947607,53.649025],[-7.023002,53.506398],[-7.072043,53.460613],[-7.181597,53.427592],[-7.0738,53.375657],[-6.967192,53.447074],[-6.902906,53.447074],[-6.865493,53.40997],[-6.765706,53.424595],[-6.678631,53.418962],[-6.57073,53.391418],[-6.456319,53.388421],[-6.35462,53.446557],[-6.326818,53.492342],[-6.416063,53.553217],[-6.384075,53.585205],[-6.311108,53.574095],[-6.243102,53.629285],[-6.197994,53.634469],[-6.245798,53.729641]]]},"properties":{"LOCATION_TYPE":"level1","ADM0_A3":"IRL","LOCATION_ID":"IRL-MH","NAME":"Meath","TYPE_EN":"County"}},
{"type":"Feature","geometry":{"type":"Polygon","coordinates":[[[-6.197994,53.634469],[-6.243102,53.629285],[-6.311108,53.574095],[-6.384075,53.585205],[-6.416063,53.553217],[-6.326818,53.492342],[-6.35462,53.446557],[-6.456319,53.388421],[-6.471459,53.36972],[-6.347474,53.359465],[-6.282691,53.414281],[-6.156864,53.419265],[-6.14977,53.386542],[-6.11026,53.394029],[-6.12442,53.468573],[-6.074941,53.53974],[-6.092397,53.577135],[-6.197994,53.634469]]]},"properties":{"LOCATION_TYPE":"level1","ADM0_A3":"IRL","LOCATION_ID":"IRL-D","NAME":"Fingal","TYPE_EN":"County"}},
{"type":"Feature","geometry":{"type":"Polygon","coordinates":[[[-6.731031,52.915892],[-6.779865,52.992115],[-6.712634,53.063841],[-6.570007,53.123993],[-6.467998,53.223987],[-6.529183,53.283363],[-6.471459,53.36972],[-6.456319,53.388421],[-6.57073,53.391418],[-6.678631,53.418962],[-6.765706,53.424595],[-6.865493,53.40997],[-6.902906,53.447074],[-6.967192,53.447074],[-7.0738,53.375657],[-6.987759,53.307186],[-7.033751,53.186056],[-7.092146,53.167039],[-7.047084,53.043171],[-7.055249,52.977128],[-6.970654,52.958008],[-6.931018,52.884524],[-6.879652,52.862665],[-6.76338,52.875636],[-6.731031,52.915892]]]},"properties":{"LOCATION_TYPE":"level1","ADM0_A3":"IRL","LOCATION_ID":"IRL-KE","NAME":"Kildare","TYPE_EN":"County"}},
{"type":"Feature","geometry":{"type":"Polygon","coordinates":[[[-6.731031,52.915892],[-6.76338,52.875636],[-6.879652,52.862665],[-6.931018,52.884524],[-6.937685,52.825096],[-7.047394,52.79316],[-7.092611,52.725051],[-7.022382,52.709961],[-6.977941,52.672651],[-6.973393,52.610277],[-6.926368,52.578548],[-6.923267,52.465945],[-6.861152,52.478399],[-6.783741,52.568368],[-6.774129,52.612293],[-6.647005,52.655856],[-6.609074,52.711718],[-6.686279,52.792747],[-6.658374,52.831866],[-6.572694,52.805046],[-6.511302,52.82613],[-6.515953,52.882457],[-6.731031,52.915892]]]},"properties":{"LOCATION_TYPE":"level1","ADM0_A3":"IRL","LOCATION_ID":"IRL-CW","NAME":"Carlow","TYPE_EN":"County"}},
{"type":"Feature","geometry":{"type":"Polygon","coordinates":[[[-6.931018,52.884524],[-6.970654,52.958008],[-7.055249,52.977128],[-7.047084,53.043171],[-7.092146,53.167039],[-7.241594,53.136654],[-7.302055,53.139082],[-7.362,53.206313],[-7.430213,53.182129],[-7.492224,53.188433],[-7.625136,53.16337],[-7.592063,53.095829],[-7.689835,53.01294],[-7.728489,52.955941],[-7.663584,52.91491],[-7.709679,52.843183],[-7.668234,52.779828],[-7.580436,52.815019],[-7.453364,52.785616],[-7.289446,52.857756],[-7.192605,52.886695],[-7.138034,52.869176],[-7.047394,52.79316],[-6.937685,52.825096],[-6.931018,52.884524]]]},"properties":{"LOCATION_TYPE":"level1","ADM0_A3":"IRL","LOCATION_ID":"IRL-LS","NAME":"Laoighis","TYPE_EN":"County"}},
{"type":"Feature","geometry":{"type":"Polygon","coordinates":[[[-6.467998,53.223987],[-6.383558,53.209776],[-6.341184,53.178925],[-6.28558,53.217114],[-6.272725,53.309633],[-6.347474,53.359465],[-6.471459,53.36972],[-6.529183,53.283363],[-6.467998,53.223987]]]},"properties":{"LOCATION_TYPE":"level1","ADM0_A3":"IRL","LOCATION_ID":"IRL-D","NAME":"South Dublin","TYPE_EN":"County"}},
{"type":"Feature","geometry":{"type":"Polygon","coordinates":[[[-7.0738,53.375657],[-7.181597,53.427592],[-7.369235,53.340775],[-7.525711,53.327185],[-7.571858,53.393744],[-7.619452,53.409298],[-7.705338,53.365942],[-7.853236,53.345323],[-7.944135,53.366717],[-8.045679,53.276232],[-7.976588,53.207502],[-8.07653,53.170398],[-7.941189,53.117688],[-7.931371,53.039864],[-7.990695,52.972736],[-7.968888,52.954184],[-8.029969,52.896617],[-7.9785,52.854759],[-7.856957,52.921731],[-7.813135,52.96917],[-7.728489,52.955941],[-7.689835,53.01294],[-7.592063,53.095829],[-7.625136,53.16337],[-7.492224,53.188433],[-7.430213,53.182129],[-7.362,53.206313],[-7.302055,53.139082],[-7.241594,53.136654],[-7.092146,53.167039],[-7.033751,53.186056],[-6.987759,53.307186],[-7.0738,53.375657]]]},"properties":{"LOCATION_TYPE":"level1","ADM0_A3":"IRL","LOCATION_ID":"IRL-OY","NAME":"Offaly","TYPE_EN":"County"}},
{"type":"Feature","geometry":{"type":"Polygon","coordinates":[[[-7.338539,53.795373],[-7.388768,53.778992],[-7.374816,53.741733],[-7.510156,53.698635],[-7.570308,53.652746],[-7.559817,53.621327],[-7.652111,53.544587],[-7.716759,53.53265],[-7.829465,53.5496],[-7.962997,53.524278],[-7.944135,53.366717],[-7.853236,53.345323],[-7.705338,53.365942],[-7.619452,53.409298],[-7.571858,53.393744],[-7.525711,53.327185],[-7.369235,53.340775],[-7.181597,53.427592],[-7.072043,53.460613],[-7.023002,53.506398],[-6.947607,53.649025],[-7.053595,53.648509],[-7.21374,53.70649],[-7.287172,53.776821],[-7.338539,53.795373]]]},"properties":{"LOCATION_TYPE":"level1","ADM0_A3":"IRL","LOCATION_ID":"IRL-WH","NAME":"Westmeath","TYPE_EN":"County"}},
{"type":"Feature","geometry":{"type":"Polygon","coordinates":[[[-7.388768,53.778992],[-7.598781,53.933142],[-7.678931,53.917433],[-7.772311,53.85661],[-7.922017,53.811599],[-7.928839,53.755375],[-7.987698,53.695121],[-8.032347,53.619156],[-7.962997,53.524278],[-7.829465,53.5496],[-7.716759,53.53265],[-7.652111,53.544587],[-7.559817,53.621327],[-7.570308,53.652746],[-7.510156,53.698635],[-7.374816,53.741733],[-7.388768,53.778992]]]},"properties":{"LOCATION_TYPE":"level1","ADM0_A3":"IRL","LOCATION_ID":"IRL-LD","NAME":"Longford","TYPE_EN":"County"}},
{"type":"Feature","geometry":{"type":"Polygon","coordinates":[[[-7.944135,53.366717],[-7.962997,53.524278],[-8.032347,53.619156],[-7.987698,53.695121],[-7.928839,53.755375],[-7.922017,53.811599],[-7.979016,53.859917],[-7.985476,53.900276],[-8.092705,53.920482],[-8.074825,53.981925],[-8.090431,54.039027],[-8.049865,54.090652],[-8.157249,54.108067],[-8.330933,53.999753],[-8.388501,53.995619],[-8.451339,53.911697],[-8.583217,53.958154],[-8.679646,53.965699],[-8.689671,53.872784],[-8.726309,53.809842],[-8.685123,53.788397],[-8.705174,53.721837],[-8.817105,53.668146],[-8.657425,53.675845],[-8.571487,53.715998],[-8.474904,53.713931],[-8.369174,53.657087],[-8.372377,53.607478],[-8.287938,53.570167],[-8.277293,53.476684],[-8.241533,53.442785],[-8.235228,53.362635],[-8.138645,53.279849],[-8.045679,53.276232],[-7.944135,53.366717]]]},"properties":{"LOCATION_TYPE":"level1","ADM0_A3":"IRL","LOCATION_ID":"IRL-RN","NAME":"Roscommon","TYPE_EN":"County"}},
{"type":"Feature","geometry":{"type":"Polygon","coordinates":[[[-7.728489,52.955941],[-7.813135,52.96917],[-7.856957,52.921731],[-7.9785,52.854759],[-8.029969,52.896617],[-7.968888,52.954184],[-7.990695,52.972736],[-7.931371,53.039864],[-7.941189,53.117688],[-8.07653,53.170398],[-8.137508,53.152828],[-8.206444,53.070508],[-8.309436,52.980126],[-8.283649,52.951187],[-8.331811,52.910879],[-8.396975,52.903851],[-8.476971,52.755075],[-8.449685,52.687895],[-8.301632,52.690789],[-8.187428,52.665364],[-8.099571,52.676224],[-7.956457,52.574659],[-7.841043,52.556193],[-7.698172,52.599574],[-7.64221,52.65353],[-7.629632,52.731459],[-7.668234,52.779828],[-7.709679,52.843183],[-7.663584,52.91491],[-7.728489,52.955941]]]},"properties":{"LOCATION_TYPE":"level1","ADM0_A3":"IRL","LOCATION_ID":"IRL-TA","NAME":"North Tipperary","TYPE_EN":"County"}},
{"type":"Feature","geometry":{"type":"Polygon","coordinates":[[[-7.364635,52.335617],[-7.391559,52.431322],[-7.45848,52.474833],[-7.448196,52.575706],[-7.564365,52.71022],[-7.629632,52.731459],[-7.64221,52.65353],[-7.698172,52.599574],[-7.841043,52.556193],[-7.956457,52.574659],[-8.099571,52.676224],[-8.187428,52.665364],[-8.228614,52.572967],[-8.225461,52.525735],[-8.378579,52.487701],[-8.392738,52.455455],[-8.243341,52.407344],[-8.167635,52.354737],[-8.184637,52.281202],[-8.099113,52.209217],[-8.010229,52.20715],[-7.986148,52.239189],[-7.770037,52.222859],[-7.780424,52.339131],[-7.590978,52.359853],[-7.364635,52.335617]]]},"properties":{"LOCATION_TYPE":"level1","ADM0_A3":"IRL","LOCATION_ID":"IRL-TA","NAME":"South Tipperary","TYPE_EN":"County"}},
{"type":"Feature","geometry":{"type":"Polygon","coordinates":[[[-7.15302,52.271487],[-7.100446,52.20696],[-7.002774,52.222907],[-7.034061,52.257121],[-7.15302,52.271487]]]},"properties":{"LOCATION_TYPE":"level1","ADM0_A3":"IRL","LOCATION_ID":"IRL-WD","NAME":"Waterford","TYPE_EN":"City"}},
{"type":"Feature","geometry":{"type":"Polygon","coordinates":[[[-8.568024,52.676475],[-8.665796,52.652859],[-8.587453,52.623561],[-8.568024,52.676475]]]},"properties":{"LOCATION_TYPE":"level1","ADM0_A3":"IRL","LOCATION_ID":"IRL-LK","NAME":"Limerick","TYPE_EN":"City"}}
]}