{"type":"FeatureCollection", "features": [
{"type":"Feature","geometry":{"type":"Polygon","coordinates":[[[45.494529,38.981917],[44.957028,39.434493],[44.886438,39.605956],[44.565734,39.765894],[44.404814,39.43439],[44.061372,39.400284],[44.139197,38.993952],[44.275002,38.843573],[44.289524,38.382258],[44.424657,38.377038],[44.219605,37.875312],[44.59612,37.716381],[44.565941,37.447173],[44.801585,37.292686],[44.880754,37.024925],[44.831248,36.791916],[44.996199,36.741686],[44.991393,36.53374],[45.238871,36.402999],[45.348322,36.087514],[45.501424,36.005435],[45.724476,36.247607],[46.04642,36.448111],[46.815158,36.457775],[47.14103,36.341245],[47.332336,36.507694],[47.193843,36.756826],[46.82291,36.787471],[46.638838,37.058927],[46.292916,36.877749],[45.923533,37.109208],[45.686545,37.129155],[45.394677,37.281859],[45.262695,37.614965],[45.156552,38.385358],[45.328221,38.524755],[45.37783,38.885172],[45.494529,38.981917]]]},"properties":{"LOCATION_TYPE":"level1","ADM0_A3":"IRN","LOCATION_ID":"IRN-02","NAME":"West Azarbaijan","TYPE_EN":"Province"}},
{"type":"Feature","geometry":{"type":"Polygon","coordinates":[[[47.013628,39.186956],[46.866162,39.165362],[46.585352,38.907704],[46.126052,38.862668],[45.494529,38.981917],[45.37783,38.885172],[45.328221,38.524755],[45.156552,38.385358],[45.262695,37.614965],[45.394677,37.281859],[45.686545,37.129155],[45.923533,37.109208],[46.292916,36.877749],[46.638838,37.058927],[46.82291,36.787471],[47.193843,36.756826],[47.206762,36.869068],[47.620691,37.166569],[48.334135,37.172873],[48.455265,37.223878],[47.943668,37.566002],[47.95545,37.832161],[47.712778,38.235651],[47.418119,38.237046],[47.224436,38.33487],[47.587618,38.763887],[47.486022,39.094668],[47.238182,38.981394],[46.997473,38.688802],[46.645246,38.659139],[46.658889,38.866026],[46.986104,38.94336],[47.013628,39.186956]]]},"properties":{"LOCATION_TYPE":"level1","ADM0_A3":"IRN","LOCATION_ID":"IRN-01","NAME":"East Azarbaijan","TYPE_EN":"Province"}},
{"type":"Feature","geometry":{"type":"Polygon","coordinates":[[[48.612962,38.395646],[48.21037,38.729756],[48.058544,38.948373],[48.306798,39.045396],[48.124587,39.297602],[48.33894,39.378941],[48.052033,39.650087],[47.846877,39.685279],[47.013628,39.186956],[46.986104,38.94336],[46.658889,38.866026],[46.645246,38.659139],[46.997473,38.688802],[47.238182,38.981394],[47.486022,39.094668],[47.587618,38.763887],[47.224436,38.33487],[47.418119,38.237046],[47.712778,38.235651],[47.95545,37.832161],[47.943668,37.566002],[48.455265,37.223878],[48.882526,37.202794],[48.866609,37.352061],[48.548076,37.678837],[48.456092,37.880324],[48.519654,38.065816],[48.745583,38.277406],[48.612962,38.395646]]]},"properties":{"LOCATION_TYPE":"level1","ADM0_A3":"IRN","LOCATION_ID":"IRN-03","NAME":"Ardebil","TYPE_EN":"Province"}},
{"type":"Feature","geometry":{"type":"Polygon","coordinates":[[[48.612962,38.395646],[48.745583,38.277406],[48.519654,38.065816],[48.456092,37.880324],[48.548076,37.678837],[48.866609,37.352061],[48.882526,37.202794],[49.186693,36.977433],[49.245811,36.813076],[49.472257,36.624328],[49.80526,36.561955],[50.304558,36.670268],[50.576303,36.989169],[50.322276,37.153266],[50.148774,37.403876],[49.441742,37.494859],[49.014496,37.739163],[48.907725,38.083482],[48.874278,38.434068],[48.612962,38.395646]]]},"properties":{"LOCATION_TYPE":"level1","ADM0_A3":"IRN","LOCATION_ID":"IRN-19","NAME":"Gilan","TYPE_EN":"Province"}},
{"type":"Feature","geometry":{"type":"Polygon","coordinates":[[[45.501424,36.005435],[45.814185,35.80934],[46.060423,35.857244],[45.963995,35.494165],[46.125285,35.284989],[46.342939,35.154805],[46.679559,34.742479],[46.935874,34.763925],[47.026928,34.893736],[47.623688,35.097755],[47.851477,34.951226],[48.096424,34.976806],[48.124019,35.19023],[47.976948,35.306372],[47.96868,35.575297],[48.225718,35.690225],[47.903567,35.888972],[47.967646,36.058316],[47.86512,36.403411],[47.332336,36.507694],[47.14103,36.341245],[46.815158,36.457775],[46.04642,36.448111],[45.724476,36.247607],[45.501424,36.005435]]]},"properties":{"LOCATION_TYPE":"level1","ADM0_A3":"IRN","LOCATION_ID":"IRN-16","NAME":"Kordestan","TYPE_EN":"Province"}},
{"type":"Feature","geometry":{"type":"Polygon","coordinates":[[[46.125285,35.284989],[46.165481,35.189946],[45.857025,35.021274],[45.835011,34.890171],[45.500664,34.591688],[45.447954,34.36209],[45.534357,34.128202],[45.419946,33.99436],[45.72463,33.633036],[45.822041,34.013841],[46.347073,33.957385],[46.738781,33.80264],[47.182474,33.824912],[47.175136,34.013635],[47.386183,34.037819],[47.693968,34.349712],[47.998549,34.543525],[47.641154,34.637524],[47.851477,34.951226],[47.623688,35.097755],[47.026928,34.893736],[46.935874,34.763925],[46.679559,34.742479],[46.342939,35.154805],[46.125285,35.284989]]]},"properties":{"LOCATION_TYPE":"level1","ADM0_A3":"IRN","LOCATION_ID":"IRN-17","NAME":"Kermanshah","TYPE_EN":"Province"}},
{"type":"Feature","geometry":{"type":"Polygon","coordinates":[[[45.72463,33.633036],[45.885964,33.63092],[46.155301,33.260219],[46.09701,32.95432],[46.273433,32.959488],[46.715887,32.756012],[47.12103,32.461043],[47.343342,32.458692],[47.580232,32.103495],[47.898813,32.601473],[47.705853,32.920833],[47.465351,33.159527],[47.2449,33.251252],[46.82663,33.561414],[46.963573,33.717451],[47.313733,33.799565],[47.386183,34.037819],[47.175136,34.013635],[47.182474,33.824912],[46.738781,33.80264],[46.347073,33.957385],[45.822041,34.013841],[45.72463,33.633036]]]},"properties":{"LOCATION_TYPE":"level1","ADM0_A3":"IRN","LOCATION_ID":"IRN-05","NAME":"Ilam","TYPE_EN":"Province"}},
{"type":"Feature","geometry":{"type":"Polygon","coordinates":[[[47.580232,32.103495],[47.831323,31.761835],[47.678929,31.407851],[47.672935,30.994698],[48.015446,30.97625],[48.013586,30.463878],[48.397025,30.220999],[48.453145,30.001426],[48.87672,30.024482],[48.862315,30.345608],[49.245128,30.15648],[49.479828,30.156073],[49.600759,30.030097],[50.050584,30.207358],[50.429821,30.218802],[50.354994,30.525527],[50.395612,30.695543],[50.125344,30.885789],[49.954812,30.866411],[49.959979,31.270004],[50.257532,31.487897],[50.321198,31.706825],[49.938379,32.147185],[49.736117,32.506337],[49.742835,32.656198],[49.45324,32.808799],[49.2393,32.807042],[49.006342,32.942046],[48.567403,33.044702],[48.090119,32.971347],[47.898813,32.601473],[47.580232,32.103495]]]},"properties":{"LOCATION_TYPE":"level1","ADM0_A3":"IRN","LOCATION_ID":"IRN-10","NAME":"Khuzestan","TYPE_EN":"Province"}},
{"type":"Feature","geometry":{"type":"Polygon","coordinates":[[[57.734827,37.898272],[57.352395,37.967529],[57.218347,38.265081],[57.038409,38.187283],[56.738996,38.269603],[56.436482,38.255082],[56.166741,38.080792],[56.162495,37.770408],[56.247968,37.573469],[55.867422,37.354361],[56.108958,37.106107],[56.067307,36.882142],[56.317937,36.665411],[56.671611,36.642596],[56.732692,36.812508],[57.133185,36.962912],[57.795263,36.668072],[58.185524,36.677348],[58.227588,36.898627],[58.013441,37.026397],[58.180046,37.492854],[58.034939,37.65473],[57.586387,37.67168],[57.734827,37.898272]]]},"properties":{"LOCATION_TYPE":"level1","ADM0_A3":"IRN","LOCATION_ID":"IRN-31","NAME":"North Khorasan","TYPE_EN":"Province"}},
{"type":"Feature","geometry":{"type":"Polygon","coordinates":[[[56.166741,38.080792],[55.708672,38.118656],[55.423108,38.075894],[54.85663,37.761133],[54.783663,37.517453],[54.186594,37.323744],[53.913748,37.34276],[54.014334,36.821112],[53.705381,36.816284],[54.120139,36.484776],[54.463787,36.490124],[55.096203,36.793129],[55.453597,36.753881],[55.640046,37.098537],[55.867422,37.354361],[56.247968,37.573469],[56.162495,37.770408],[56.166741,38.080792]]]},"properties":{"LOCATION_TYPE":"level1","ADM0_A3":"IRN","LOCATION_ID":"IRN-27","NAME":"Golestan","TYPE_EN":"Province"}},
{"type":"Feature","geometry":{"type":"Polygon","coordinates":[[[57.734827,37.898272],[57.586387,37.67168],[58.034939,37.65473],[58.180046,37.492854],[58.013441,37.026397],[58.227588,36.898627],[58.185524,36.677348],[57.795263,36.668072],[57.133185,36.962912],[56.732692,36.812508],[56.671611,36.642596],[56.784576,35.918971],[57.087193,35.700354],[56.82509,35.286322],[56.613837,35.221261],[56.21045,34.906061],[56.619211,34.993678],[57.016603,35.148294],[57.379578,35.177336],[57.67124,34.993937],[57.692014,34.866864],[57.198917,34.557736],[57.004821,34.142567],[57.105796,33.623581],[57.559929,33.653243],[57.642301,33.544051],[57.782241,32.996798],[58.147697,32.748596],[58.387579,33.130846],[58.701771,33.305513],[58.831996,33.485062],[58.605446,33.709286],[58.6934,34.16515],[58.955192,34.122414],[59.504926,34.27796],[59.787907,34.068515],[60.488461,34.080927],[60.714361,34.537428],[60.947525,34.63799],[61.06545,34.814724],[61.108342,35.277951],[61.290036,35.548064],[61.222754,36.117538],[61.075476,36.64779],[60.34229,36.637145],[60.019209,37.025803],[59.509473,37.189824],[59.351653,37.493837],[58.861037,37.668089],[58.371765,37.630366],[58.181182,37.774853],[57.734827,37.898272]]]},"properties":{"LOCATION_TYPE":"level1","ADM0_A3":"IRN","LOCATION_ID":"IRN-30","NAME":"Razavi Khorasan","TYPE_EN":"Province"}},
{"type":"Feature","geometry":{"type":"Polygon","coordinates":[[[60.488461,34.080927],[59.787907,34.068515],[59.504926,34.27796],[58.955192,34.122414],[58.6934,34.16515],[58.605446,33.709286],[58.831996,33.485062],[58.701771,33.305513],[58.387579,33.130846],[58.147697,32.748596],[58.100361,32.568142],[58.224384,32.352548],[58.173948,32.146048],[57.834744,31.637268],[58.972866,31.197889],[59.11632,31.106164],[59.515365,30.606608],[60.297126,30.802823],[60.625478,30.646553],[60.864843,30.392357],[61.052119,30.460002],[61.018012,30.991675],[61.125149,31.448887],[60.821744,31.494668],[60.774926,32.027194],[60.830323,32.248885],[60.577522,32.994344],[60.5676,33.151285],[60.879622,33.548703],[60.511789,33.638387],[60.488461,34.080927]]]},"properties":{"LOCATION_TYPE":"level1","ADM0_A3":"IRN","LOCATION_ID":"IRN-29","NAME":"South Khorasan","TYPE_EN":"Province"}},
{"type":"Feature","geometry":{"type":"Polygon","coordinates":[[[59.251069,25.430732],[59.903806,25.329863],[60.362559,25.330552],[61.03061,25.209784],[61.411717,25.059408],[61.620042,25.285486],[61.66035,25.769178],[61.760085,25.837597],[61.857133,26.242379],[62.243415,26.350641],[62.291991,26.501226],[62.753564,26.644163],[63.141344,26.625404],[63.264851,26.890039],[63.251519,27.21896],[62.800642,27.225161],[62.814698,27.494964],[62.735684,27.994985],[62.76638,28.211483],[62.575643,28.229027],[62.362787,28.418887],[61.89279,28.5426],[61.653012,28.756334],[61.279184,29.40663],[60.844379,29.858179],[61.7852,30.831401],[61.826334,31.034593],[61.661176,31.38191],[61.125149,31.448887],[61.018012,30.991675],[61.052119,30.460002],[60.864843,30.392357],[60.625478,30.646553],[60.297126,30.802823],[59.515365,30.606608],[59.310313,29.781542],[59.444568,29.351749],[59.327263,29.053576],[59.366744,28.710858],[58.888013,28.471441],[59.042939,28.315171],[58.896591,28.091722],[58.89008,27.630794],[58.774945,27.229449],[58.820627,26.876603],[58.949405,26.702582],[58.885223,26.41999],[58.947028,26.286639],[58.863105,26.010247],[59.251069,25.430732]]]},"properties":{"LOCATION_TYPE":"level1","ADM0_A3":"IRN","LOCATION_ID":"IRN-13","NAME":"Sistan and Baluchestan","TYPE_EN":"Province"}},
{"type":"Feature","geometry":{"type":"Polygon","coordinates":[[[52.678803,27.322374],[52.970855,27.382024],[52.510935,27.761381],[52.375336,28.030124],[52.197362,28.177298],[52.027657,28.632413],[51.578795,29.372781],[51.410537,29.469519],[51.154842,29.798026],[50.73957,29.869908],[50.601491,30.144827],[50.429821,30.218802],[50.050584,30.207358],[50.144867,29.938056],[50.655284,29.449123],[50.643809,29.143459],[50.920177,29.069037],[50.812999,28.9147],[51.058849,28.735907],[51.141856,28.400784],[51.380271,27.991418],[51.585134,27.849311],[52.011241,27.832709],[52.567638,27.540717],[52.678803,27.322374]]]},"properties":{"LOCATION_TYPE":"level1","ADM0_A3":"IRN","LOCATION_ID":"IRN-06","NAME":"Bushehr","TYPE_EN":"Province"}},
{"type":"Feature","geometry":{"type":"Polygon","coordinates":[[[59.251069,25.430732],[58.863105,26.010247],[58.590564,26.052209],[58.509225,26.200262],[58.069872,26.217521],[58.130023,26.726302],[57.992874,26.939545],[57.815004,26.846889],[57.408,27.046127],[57.287904,27.748617],[57.01681,28.003769],[56.981359,28.277551],[56.822713,28.324395],[56.637918,28.168669],[56.337264,28.123374],[56.059245,28.349536],[56.044156,28.902164],[55.668261,28.754007],[55.395306,28.900303],[55.12969,28.95074],[55.160075,28.702098],[55.460832,28.445835],[55.424969,28.033483],[55.534109,27.822101],[55.195215,27.712779],[54.940761,27.486436],[54.67411,27.519871],[54.158379,27.482199],[54.010688,27.40223],[53.854832,27.139377],[53.450309,27.171107],[53.071521,27.273064],[52.970855,27.382024],[52.678803,27.322374],[53.072032,27.096869],[53.41212,26.993557],[53.716075,26.708564],[54.308116,26.714993],[54.389415,26.605129],[54.801524,26.498236],[55.270844,26.792548],[55.554454,26.810533],[55.684825,27.002997],[55.939301,27.026679],[56.353038,27.201606],[56.808849,27.139553],[56.973318,26.968817],[57.090017,26.618801],[57.164561,26.094916],[57.326182,25.777004],[57.963227,25.693183],[58.07309,25.563625],[58.813731,25.563625],[58.994314,25.419623],[59.251069,25.430732]]]},"properties":{"LOCATION_TYPE":"level1","ADM0_A3":"IRN","LOCATION_ID":"IRN-23","NAME":"Hormozgan","TYPE_EN":"Province"}},
{"type":"Feature","geometry":{"type":"Polygon","coordinates":[[[50.576303,36.989169],[50.304558,36.670268],[50.800962,36.318662],[51.356897,36.116271],[51.754392,36.010981],[51.950245,35.799805],[52.177002,35.78996],[52.398487,35.976202],[53.034727,35.831095],[53.472426,35.911323],[53.787653,36.163762],[53.936171,36.421033],[54.120139,36.484776],[53.705381,36.816284],[53.492361,36.887885],[51.909028,36.582709],[51.088634,36.737006],[50.576303,36.989169]]]},"properties":{"LOCATION_TYPE":"level1","ADM0_A3":"IRN","LOCATION_ID":"IRN-21","NAME":"Mazandaran","TYPE_EN":"Province"}},
{"type":"Feature","geometry":{"type":"Polygon","coordinates":[[[54.120139,36.484776],[53.936171,36.421033],[53.787653,36.163762],[53.472426,35.911323],[53.034727,35.831095],[53.079375,35.618136],[52.888276,35.41019],[52.674956,35.33619],[52.219686,35.414221],[51.853404,35.555453],[51.822501,35.315261],[51.980631,35.125246],[51.882343,34.875494],[51.788912,34.541975],[51.982285,34.455417],[52.422258,34.447691],[52.900058,34.324959],[55.286683,34.384103],[55.375153,34.341909],[55.850886,34.407254],[56.21045,34.906061],[56.613837,35.221261],[56.82509,35.286322],[57.087193,35.700354],[56.784576,35.918971],[56.671611,36.642596],[56.317937,36.665411],[56.067307,36.882142],[56.108958,37.106107],[55.867422,37.354361],[55.640046,37.098537],[55.453597,36.753881],[55.096203,36.793129],[54.463787,36.490124],[54.120139,36.484776]]]},"properties":{"LOCATION_TYPE":"level1","ADM0_A3":"IRN","LOCATION_ID":"IRN-12","NAME":"Semnan","TYPE_EN":"Province"}},
{"type":"Feature","geometry":{"type":"Polygon","coordinates":[[[48.882526,37.202794],[48.455265,37.223878],[48.334135,37.172873],[47.620691,37.166569],[47.206762,36.869068],[47.193843,36.756826],[47.332336,36.507694],[47.86512,36.403411],[47.967646,36.058316],[47.903567,35.888972],[48.225718,35.690225],[48.690909,35.555815],[48.802531,35.635784],[48.601199,35.817607],[49.381203,36.081984],[49.299038,36.375454],[49.035695,36.593426],[49.245811,36.813076],[49.186693,36.977433],[48.882526,37.202794]]]},"properties":{"LOCATION_TYPE":"level1","ADM0_A3":"IRN","LOCATION_ID":"IRN-11","NAME":"Zanjan","TYPE_EN":"Province"}},
{"type":"Feature","geometry":{"type":"Polygon","coordinates":[[[49.245811,36.813076],[49.035695,36.593426],[49.299038,36.375454],[49.381203,36.081984],[48.601199,35.817607],[48.802531,35.635784],[49.117757,35.492718],[49.440528,35.437631],[50.285541,35.666015],[50.297736,35.853962],[50.534518,35.960803],[50.800962,36.318662],[50.304558,36.670268],[49.80526,36.561955],[49.472257,36.624328],[49.245811,36.813076]]]},"properties":{"LOCATION_TYPE":"level1","ADM0_A3":"IRN","LOCATION_ID":"IRN-28","NAME":"Qazvin","TYPE_EN":"Province"}},
{"type":"Feature","geometry":{"type":"Polygon","coordinates":[[[51.032989,34.1058],[50.44119,34.224785],[50.293396,34.43795],[50.060025,34.577063],[50.153973,34.781495],[50.693681,34.915957],[50.784735,35.218419],[50.871241,35.447191],[50.798688,35.604778],[50.285541,35.666015],[49.440528,35.437631],[49.39712,35.147881],[49.140391,34.909368],[49.101634,34.601454],[48.959937,34.568226],[49.095846,34.110528],[48.970996,33.989088],[48.923453,33.74161],[49.180905,33.67996],[49.463679,33.886666],[49.564034,33.704248],[50.001527,33.498653],[50.243166,33.634872],[50.89894,33.814887],[51.032989,34.1058]]]},"properties":{"LOCATION_TYPE":"level1","ADM0_A3":"IRN","LOCATION_ID":"IRN-22","NAME":"Markazi","TYPE_EN":"Province"}},
{"type":"Feature","geometry":{"type":"Polygon","coordinates":[[[50.001527,33.498653],[49.844637,33.136944],[49.45324,32.808799],[49.742835,32.656198],[49.736117,32.506337],[50.113045,32.61509],[50.235208,32.543931],[50.814294,32.655113],[50.949273,32.327433],[51.245276,32.124319],[51.232253,31.534716],[51.310801,31.164015],[51.373226,30.974492],[51.641117,30.772205],[51.871594,31.320052],[51.701682,31.444903],[52.142172,31.712535],[52.230642,31.555025],[52.527678,31.513167],[52.870706,31.597451],[52.827091,31.744419],[52.904916,32.1646],[52.876184,32.472023],[53.334037,32.67413],[53.65071,32.612868],[54.709043,32.920084],[54.86986,33.027261],[54.986339,33.329956],[55.27459,33.470645],[55.386418,33.665465],[55.375153,34.341909],[55.286683,34.384103],[52.900058,34.324959],[52.422258,34.447691],[51.982285,34.455417],[51.788912,34.541975],[51.158356,34.452523],[51.013765,34.357903],[51.032989,34.1058],[50.89894,33.814887],[50.243166,33.634872],[50.001527,33.498653]]]},"properties":{"LOCATION_TYPE":"level1","ADM0_A3":"IRN","LOCATION_ID":"IRN-04","NAME":"Esfahan","TYPE_EN":"Province"}},
{"type":"Feature","geometry":{"type":"Polygon","coordinates":[[[51.310801,31.164015],[51.232253,31.534716],[51.245276,32.124319],[50.949273,32.327433],[50.814294,32.655113],[50.235208,32.543931],[50.113045,32.61509],[49.736117,32.506337],[49.938379,32.147185],[50.321198,31.706825],[50.257532,31.487897],[50.587124,31.389661],[50.959091,31.106396],[51.310801,31.164015]]]},"properties":{"LOCATION_TYPE":"level1","ADM0_A3":"IRN","LOCATION_ID":"IRN-08","NAME":"Chahar Mahall and Bakhtiari","TYPE_EN":"Province"}},
{"type":"Feature","geometry":{"type":"Polygon","coordinates":[[[51.310801,31.164015],[50.959091,31.106396],[50.587124,31.389661],[50.257532,31.487897],[49.959979,31.270004],[49.954812,30.866411],[50.125344,30.885789],[50.395612,30.695543],[50.354994,30.525527],[50.429821,30.218802],[50.601491,30.144827],[50.912169,30.16573],[51.17913,30.300657],[51.133448,30.652677],[51.535594,30.529506],[51.641117,30.772205],[51.373226,30.974492],[51.310801,31.164015]]]},"properties":{"LOCATION_TYPE":"level1","ADM0_A3":"IRN","LOCATION_ID":"IRN-18","NAME":"Kohgiluyeh and Buyer Ahmad","TYPE_EN":"Province"}},
{"type":"Feature","geometry":{"type":"Polygon","coordinates":[[[52.870706,31.597451],[52.527678,31.513167],[52.230642,31.555025],[52.142172,31.712535],[51.701682,31.444903],[51.871594,31.320052],[51.641117,30.772205],[51.535594,30.529506],[51.133448,30.652677],[51.17913,30.300657],[50.912169,30.16573],[50.601491,30.144827],[50.73957,29.869908],[51.154842,29.798026],[51.410537,29.469519],[51.578795,29.372781],[52.027657,28.632413],[52.197362,28.177298],[52.375336,28.030124],[52.510935,27.761381],[52.970855,27.382024],[53.071521,27.273064],[53.450309,27.171107],[53.854832,27.139377],[54.010688,27.40223],[54.158379,27.482199],[54.67411,27.519871],[54.940761,27.486436],[55.195215,27.712779],[55.534109,27.822101],[55.424969,28.033483],[55.460832,28.445835],[55.160075,28.702098],[55.12969,28.95074],[54.927531,29.389679],[54.595459,29.454585],[54.430197,29.793221],[54.07177,29.984268],[54.007588,30.263192],[53.638411,30.755151],[53.404937,31.261503],[53.125161,31.513942],[52.870706,31.597451]]]},"properties":{"LOCATION_TYPE":"level1","ADM0_A3":"IRN","LOCATION_ID":"IRN-14","NAME":"Fars","TYPE_EN":"Province"}},
{"type":"Feature","geometry":{"type":"Polygon","coordinates":[[[55.12969,28.95074],[55.395306,28.900303],[55.668261,28.754007],[56.044156,28.902164],[56.059245,28.349536],[56.337264,28.123374],[56.637918,28.168669],[56.822713,28.324395],[56.981359,28.277551],[57.01681,28.003769],[57.287904,27.748617],[57.408,27.046127],[57.815004,26.846889],[57.992874,26.939545],[58.130023,26.726302],[58.069872,26.217521],[58.509225,26.200262],[58.590564,26.052209],[58.863105,26.010247],[58.947028,26.286639],[58.885223,26.41999],[58.949405,26.702582],[58.820627,26.876603],[58.774945,27.229449],[58.89008,27.630794],[58.896591,28.091722],[59.042939,28.315171],[58.888013,28.471441],[59.366744,28.710858],[59.327263,29.053576],[59.444568,29.351749],[59.310313,29.781542],[59.515365,30.606608],[59.11632,31.106164],[58.972866,31.197889],[57.834744,31.637268],[56.761631,32.030087],[55.756835,31.576264],[55.684488,31.110918],[55.514989,31.046787],[55.11646,31.043248],[54.554428,30.957775],[54.400638,30.675466],[54.60383,30.29735],[54.616749,29.847972],[54.430197,29.793221],[54.595459,29.454585],[54.927531,29.389679],[55.12969,28.95074]]]},"properties":{"LOCATION_TYPE":"level1","ADM0_A3":"IRN","LOCATION_ID":"IRN-15","NAME":"Kerman","TYPE_EN":"Province"}},
{"type":"Feature","geometry":{"type":"Polygon","coordinates":[[[49.440528,35.437631],[49.117757,35.492718],[48.802531,35.635784],[48.690909,35.555815],[48.225718,35.690225],[47.96868,35.575297],[47.976948,35.306372],[48.124019,35.19023],[48.096424,34.976806],[47.851477,34.951226],[47.641154,34.637524],[47.998549,34.543525],[47.693968,34.349712],[48.211972,34.0588],[48.698041,34.085878],[48.970996,33.989088],[49.095846,34.110528],[48.959937,34.568226],[49.101634,34.601454],[49.140391,34.909368],[49.39712,35.147881],[49.440528,35.437631]]]},"properties":{"LOCATION_TYPE":"level1","ADM0_A3":"IRN","LOCATION_ID":"IRN-24","NAME":"Hamadan","TYPE_EN":"Province"}},
{"type":"Feature","geometry":{"type":"Polygon","coordinates":[[[50.001527,33.498653],[49.564034,33.704248],[49.463679,33.886666],[49.180905,33.67996],[48.923453,33.74161],[48.970996,33.989088],[48.698041,34.085878],[48.211972,34.0588],[47.693968,34.349712],[47.386183,34.037819],[47.313733,33.799565],[46.963573,33.717451],[46.82663,33.561414],[47.2449,33.251252],[47.465351,33.159527],[47.705853,32.920833],[47.898813,32.601473],[48.090119,32.971347],[48.567403,33.044702],[49.006342,32.942046],[49.2393,32.807042],[49.45324,32.808799],[49.844637,33.136944],[50.001527,33.498653]]]},"properties":{"LOCATION_TYPE":"level1","ADM0_A3":"IRN","LOCATION_ID":"IRN-20","NAME":"Lorestan","TYPE_EN":"Province"}},
{"type":"Feature","geometry":{"type":"Polygon","coordinates":[[[55.375153,34.341909],[55.386418,33.665465],[55.27459,33.470645],[54.986339,33.329956],[54.86986,33.027261],[54.709043,32.920084],[53.65071,32.612868],[53.334037,32.67413],[52.876184,32.472023],[52.904916,32.1646],[52.827091,31.744419],[52.870706,31.597451],[53.125161,31.513942],[53.404937,31.261503],[53.638411,30.755151],[54.007588,30.263192],[54.07177,29.984268],[54.430197,29.793221],[54.616749,29.847972],[54.60383,30.29735],[54.400638,30.675466],[54.554428,30.957775],[55.11646,31.043248],[55.514989,31.046787],[55.684488,31.110918],[55.756835,31.576264],[56.761631,32.030087],[57.834744,31.637268],[58.173948,32.146048],[58.224384,32.352548],[58.100361,32.568142],[58.147697,32.748596],[57.782241,32.996798],[57.642301,33.544051],[57.559929,33.653243],[57.105796,33.623581],[57.004821,34.142567],[57.198917,34.557736],[57.692014,34.866864],[57.67124,34.993937],[57.379578,35.177336],[57.016603,35.148294],[56.619211,34.993678],[56.21045,34.906061],[55.850886,34.407254],[55.375153,34.341909]]]},"properties":{"LOCATION_TYPE":"level1","ADM0_A3":"IRN","LOCATION_ID":"IRN-25","NAME":"Yazd","TYPE_EN":"Province"}},
{"type":"Feature","geometry":{"type":"Polygon","coordinates":[[[51.788912,34.541975],[51.882343,34.875494],[51.312352,35.153953],[50.784735,35.218419],[50.693681,34.915957],[50.153973,34.781495],[50.060025,34.577063],[50.293396,34.43795],[50.44119,34.224785],[51.032989,34.1058],[51.013765,34.357903],[51.158356,34.452523],[51.788912,34.541975]]]},"properties":{"LOCATION_TYPE":"level1","ADM0_A3":"IRN","LOCATION_ID":"IRN-26","NAME":"Qom","TYPE_EN":"Province"}},
{"type":"Feature","geometry":{"type":"Polygon","coordinates":[[[50.784735,35.218419],[51.312352,35.153953],[51.882343,34.875494],[51.980631,35.125246],[51.822501,35.315261],[51.853404,35.555453],[52.219686,35.414221],[52.674956,35.33619],[52.888276,35.41019],[53.079375,35.618136],[53.034727,35.831095],[52.398487,35.976202],[52.177002,35.78996],[51.950245,35.799805],[51.754392,36.010981],[51.356897,36.116271],[51.135716,35.973143],[51.05907,35.803714],[50.798688,35.604778],[50.871241,35.447191],[50.784735,35.218419]]]},"properties":{"LOCATION_TYPE":"level1","ADM0_A3":"IRN","LOCATION_ID":"IRN-07","NAME":"Tehran","TYPE_EN":"Province"}},
{"type":"Feature","geometry":{"type":"Polygon","coordinates":[[[50.285541,35.666015],[50.798688,35.604778],[51.05907,35.803714],[51.135716,35.973143],[51.356897,36.116271],[50.800962,36.318662],[50.534518,35.960803],[50.297736,35.853962],[50.285541,35.666015]]]},"properties":{"LOCATION_TYPE":"level1","ADM0_A3":"IRN","LOCATION_ID":"IRN-07","NAME":"Alborz","TYPE_EN":"Province"}}
]}