{"type":"FeatureCollection", "features": [
{"type":"Feature","geometry":{"type":"Polygon","coordinates":[[[44.069025,37.313727],[43.89363,37.224912],[43.479599,37.243361],[43.336145,37.32023],[43.083706,37.368831],[42.937048,37.320152],[42.77158,37.374903],[42.561257,37.146623],[42.376806,37.062001],[42.596501,36.796023],[42.690345,36.799589],[42.822327,36.7198],[43.15254,36.764113],[43.304675,36.930227],[43.627963,36.828476],[43.720463,36.954411],[43.828157,37.01185],[44.098528,37.207678],[44.069025,37.313727]]]},"properties":{"LOCATION_TYPE":"level1","ADM0_A3":"IRQ","LOCATION_ID":"IRQ-DA","NAME":"Dihok","TYPE_EN":"Province"}},
{"type":"Feature","geometry":{"type":"Polygon","coordinates":[[[44.069025,37.313727],[44.098528,37.207678],[43.828157,37.01185],[44.00055,36.935033],[44.058531,36.861342],[44.262446,36.789874],[44.297069,36.725846],[44.135322,36.600841],[43.998689,36.600764],[43.744751,36.332072],[43.547554,36.171462],[43.482545,36.043304],[43.352941,35.999121],[43.385394,35.857889],[43.334337,35.723453],[43.375058,35.588241],[43.358212,35.458224],[43.45464,35.427631],[43.741858,35.548089],[43.801079,35.648703],[43.768523,35.717898],[43.949907,35.841275],[44.05543,35.779858],[44.186585,35.845642],[44.296242,35.825075],[44.627282,35.885691],[44.751408,35.867191],[44.969276,35.910909],[44.627385,36.126787],[44.697975,36.205956],[44.539845,36.368969],[44.65467,36.448111],[45.009525,36.516196],[45.035266,36.689596],[44.831248,36.791916],[44.883441,36.886845],[44.880754,37.024925],[44.766549,37.078952],[44.733786,37.167242],[44.57824,37.166415],[44.428068,37.064767],[44.234281,36.983661],[44.180021,37.087608],[44.223171,37.254058],[44.069025,37.313727]]]},"properties":{"LOCATION_TYPE":"level1","ADM0_A3":"IRQ","LOCATION_ID":"IRQ-AR","NAME":"Arbil","TYPE_EN":"Province"}},
{"type":"Feature","geometry":{"type":"Polygon","coordinates":[[[46.561468,29.124167],[46.85345,29.44456],[46.957836,29.620441],[47.110488,29.960911],[47.197098,30.03424],[47.358225,30.092118],[47.674175,30.098216],[47.948009,29.994045],[48.038259,30.036851],[48.209239,30.024482],[48.33546,29.961412],[48.453145,30.001426],[48.383279,30.156455],[48.397025,30.220999],[48.15766,30.426309],[48.013586,30.463878],[48.015446,30.97625],[47.672935,30.994698],[47.676443,31.236517],[47.394761,31.27915],[47.211,31.244941],[47.126147,31.129806],[47.122116,30.838816],[47.058141,30.568935],[46.901148,30.591286],[46.574656,30.514081],[46.62871,30.306419],[46.726998,30.18237],[46.744568,30.089301],[46.662816,29.710771],[46.645246,29.455877],[46.588609,29.351103],[46.561468,29.124167]]]},"properties":{"LOCATION_TYPE":"level1","ADM0_A3":"IRQ","LOCATION_ID":"IRQ-BA","NAME":"Al-Basrah","TYPE_EN":"Province"}},
{"type":"Feature","geometry":{"type":"Polygon","coordinates":[[[46.561468,29.124167],[46.588609,29.351103],[46.645246,29.455877],[46.662816,29.710771],[46.744568,30.089301],[46.726998,30.18237],[46.62871,30.306419],[46.574656,30.514081],[46.528251,30.507751],[46.371361,30.733499],[46.210647,30.782307],[45.719825,30.837627],[45.705975,30.977308],[45.743182,31.176366],[45.809535,31.335607],[45.773361,31.539238],[45.785764,31.651531],[45.713107,31.637191],[45.292047,31.727599],[45.048031,31.681477],[45.110146,31.616365],[44.999352,31.36669],[44.978268,31.26264],[44.726914,31.407463],[44.651259,31.054926],[44.44538,30.793082],[44.328695,30.736057],[44.236401,30.615289],[44.05636,30.16697],[43.824013,29.81398],[44.691825,29.201836],[45.434932,29.136207],[46.357459,29.063137],[46.561468,29.124167]]]},"properties":{"LOCATION_TYPE":"level1","ADM0_A3":"IRQ","LOCATION_ID":"IRQ-MU","NAME":"Al-Muthannia","TYPE_EN":"Province"}},
{"type":"Feature","geometry":{"type":"Polygon","coordinates":[[[45.009525,36.516196],[44.65467,36.448111],[44.539845,36.368969],[44.697975,36.205956],[44.627385,36.126787],[44.969276,35.910909],[44.751408,35.867191],[44.627282,35.885691],[44.777143,35.705418],[44.752442,35.531604],[44.802258,35.470626],[44.684332,35.179894],[44.562066,35.129071],[44.662938,35.042022],[44.865923,35.02626],[44.951913,34.976728],[44.965969,34.867484],[45.189108,34.77457],[45.250086,34.528875],[45.44935,34.672018],[45.538544,34.858441],[45.719515,35.110028],[45.796202,34.903064],[45.913197,35.087317],[46.009212,35.06091],[46.165481,35.189946],[46.120161,35.318517],[45.963995,35.494165],[46.037065,35.691569],[46.23788,35.715547],[46.184963,35.798178],[46.060423,35.857244],[45.814185,35.80934],[45.718739,35.828305],[45.646857,35.933208],[45.453122,36.011653],[45.348322,36.087514],[45.238871,36.402999],[45.110817,36.402534],[45.009525,36.516196]]]},"properties":{"LOCATION_TYPE":"level1","ADM0_A3":"IRQ","LOCATION_ID":"IRQ-SU","NAME":"As-Sulaymaniyah","TYPE_EN":"Province"}},
{"type":"Feature","geometry":{"type":"Polygon","coordinates":[[[45.796202,34.903064],[45.719515,35.110028],[45.538544,34.858441],[45.44935,34.672018],[45.250086,34.528875],[45.189108,34.77457],[44.965969,34.867484],[44.716268,34.682483],[44.630382,34.524379],[44.521862,34.577347],[44.476696,34.339791],[44.508839,34.262689],[44.37293,34.16776],[44.290041,34.01826],[44.447758,33.935422],[44.39174,33.765407],[44.393084,33.570897],[44.244773,33.433334],[44.277849,33.378571],[44.42719,33.429148],[44.542636,33.369152],[44.504808,33.176011],[44.540052,33.005996],[44.665936,33.016125],[44.815177,33.161258],[45.11211,33.156194],[45.483663,33.066018],[45.669078,33.265567],[45.916092,33.415222],[45.964461,33.495966],[45.885964,33.63092],[45.658794,33.681692],[45.485781,33.938653],[45.419946,33.99436],[45.534357,34.128202],[45.55756,34.311964],[45.447954,34.36209],[45.500664,34.591688],[45.70153,34.551277],[45.627375,34.720828],[45.676571,34.818289],[45.796202,34.903064]]]},"properties":{"LOCATION_TYPE":"level1","ADM0_A3":"IRQ","LOCATION_ID":"IRQ-DI","NAME":"Diyala","TYPE_EN":"Province"}},
{"type":"Feature","geometry":{"type":"Polygon","coordinates":[[[45.964461,33.495966],[45.916092,33.415222],[45.669078,33.265567],[45.483663,33.066018],[45.11211,33.156194],[44.815177,33.161258],[44.665936,33.016125],[44.540052,33.005996],[44.564753,32.815749],[44.706346,32.8073],[44.969896,32.691855],[45.051752,32.497629],[45.198409,32.394431],[45.391886,32.335081],[45.383514,32.261287],[45.53813,32.114836],[45.686028,32.068921],[45.725716,31.947792],[45.825968,31.94234],[46.057582,32.004636],[46.317411,32.005437],[46.576827,31.983578],[46.603698,32.133724],[46.450219,32.221909],[46.444018,32.411614],[46.481122,32.60062],[46.600598,32.822519],[46.273433,32.959488],[46.09701,32.95432],[46.167187,33.168338],[46.155301,33.260219],[46.036239,33.367939],[45.964461,33.495966]]]},"properties":{"LOCATION_TYPE":"level1","ADM0_A3":"IRQ","LOCATION_ID":"IRQ-WA","NAME":"Wasit","TYPE_EN":"Province"}},
{"type":"Feature","geometry":{"type":"Polygon","coordinates":[[[46.600598,32.822519],[46.481122,32.60062],[46.444018,32.411614],[46.450219,32.221909],[46.603698,32.133724],[46.576827,31.983578],[46.317411,32.005437],[46.3109,31.935415],[46.432649,31.691218],[46.599151,31.541615],[46.605042,31.396043],[46.739504,31.297005],[46.749529,31.198122],[46.845854,31.139107],[47.126147,31.129806],[47.211,31.244941],[47.394761,31.27915],[47.676443,31.236517],[47.678929,31.407851],[47.831323,31.761835],[47.668077,32.012414],[47.395794,32.33702],[47.343342,32.458692],[47.058398,32.494478],[46.600598,32.822519]]]},"properties":{"LOCATION_TYPE":"level1","ADM0_A3":"IRQ","LOCATION_ID":"IRQ-MA","NAME":"Maysan","TYPE_EN":"Province"}},
{"type":"Feature","geometry":{"type":"Polygon","coordinates":[[[41.192326,35.158904],[41.195656,34.768473],[40.98802,34.42852],[40.936033,34.386068],[40.690467,34.331497],[39.880387,33.925605],[38.774511,33.371685],[39.057181,32.496596],[38.978633,32.475693],[39.046329,32.308494],[39.235775,32.352858],[39.291999,32.244519],[39.157744,32.121348],[40.029318,31.994379],[40.424126,31.920533],[41.547572,31.348734],[42.075395,31.079861],[42.783413,30.551045],[42.924233,30.815949],[42.936532,30.90416],[43.038128,31.048028],[43.111508,31.33987],[43.239253,31.631532],[43.409165,31.850304],[43.754673,32.001716],[43.795808,32.083417],[43.690595,32.16845],[43.477378,32.308235],[43.241836,32.510135],[43.210727,32.570984],[43.492674,32.644649],[43.759014,32.816809],[43.958175,32.8258],[44.129637,32.781152],[44.140903,32.876314],[44.057497,32.955146],[44.015743,33.089402],[43.899574,33.200558],[44.239192,33.138908],[44.287251,33.189163],[44.226272,33.30143],[44.277849,33.378571],[44.244773,33.433334],[44.137182,33.456744],[44.051916,33.622728],[43.971198,33.671072],[43.803456,33.667584],[43.429629,33.765329],[43.131869,33.999501],[43.063243,34.075595],[42.9602,34.318241],[42.928781,34.495879],[42.809201,34.439397],[42.53976,34.595305],[42.499866,34.740076],[42.491288,34.972723],[42.273317,34.948436],[42.189911,34.975927],[41.984239,34.964274],[41.578372,35.099848],[41.192326,35.158904]]]},"properties":{"LOCATION_TYPE":"level1","ADM0_A3":"IRQ","LOCATION_ID":"IRQ-AN","NAME":"Al-Anbar","TYPE_EN":"Province"}},
{"type":"Feature","geometry":{"type":"Polygon","coordinates":[[[43.824013,29.81398],[44.05636,30.16697],[44.236401,30.615289],[44.328695,30.736057],[44.44538,30.793082],[44.651259,31.054926],[44.726914,31.407463],[44.534574,31.475288],[44.434218,31.608717],[44.541705,31.640782],[44.514937,32.008305],[44.613329,32.062669],[44.629865,32.159459],[44.499744,32.216303],[44.373654,32.144989],[44.320634,32.212685],[44.319497,32.343711],[44.250044,32.306607],[43.690595,32.16845],[43.795808,32.083417],[43.754673,32.001716],[43.409165,31.850304],[43.239253,31.631532],[43.111508,31.33987],[43.038128,31.048028],[42.936532,30.90416],[42.924233,30.815949],[42.783413,30.551045],[43.824013,29.81398]]]},"properties":{"LOCATION_TYPE":"level1","ADM0_A3":"IRQ","LOCATION_ID":"IRQ-NA","NAME":"An-Najaf","TYPE_EN":"Province"}},
{"type":"Feature","geometry":{"type":"Polygon","coordinates":[[[42.376806,37.062001],[41.843781,36.617869],[41.789935,36.589292],[41.414867,36.527384],[41.276994,36.354785],[41.240614,36.043021],[41.343657,35.857657],[41.363501,35.655241],[41.261285,35.49432],[41.192326,35.158904],[41.578372,35.099848],[41.984239,34.964274],[42.189911,34.975927],[42.273317,34.948436],[42.491288,34.972723],[42.516403,35.070082],[42.631228,35.090907],[42.987692,35.092768],[42.945937,35.319886],[42.879688,35.479178],[43.258373,35.655576],[43.334337,35.723453],[43.385394,35.857889],[43.352941,35.999121],[43.482545,36.043304],[43.547554,36.171462],[43.744751,36.332072],[43.998689,36.600764],[44.135322,36.600841],[44.297069,36.725846],[44.262446,36.789874],[44.058531,36.861342],[44.00055,36.935033],[43.828157,37.01185],[43.720463,36.954411],[43.627963,36.828476],[43.304675,36.930227],[43.15254,36.764113],[42.822327,36.7198],[42.690345,36.799589],[42.596501,36.796023],[42.376806,37.062001]]]},"properties":{"LOCATION_TYPE":"level1","ADM0_A3":"IRQ","LOCATION_ID":"IRQ-NI","NAME":"Ninawa","TYPE_EN":"Province"}},
{"type":"Feature","geometry":{"type":"Polygon","coordinates":[[[44.562066,35.129071],[44.534471,35.030911],[44.402592,34.904536],[44.288387,34.704523],[44.128811,34.821983],[43.913113,34.905518],[43.493914,35.110674],[43.388391,35.213536],[43.358212,35.458224],[43.375058,35.588241],[43.334337,35.723453],[43.258373,35.655576],[42.879688,35.479178],[42.945937,35.319886],[42.987692,35.092768],[42.631228,35.090907],[42.516403,35.070082],[42.491288,34.972723],[42.499866,34.740076],[42.53976,34.595305],[42.809201,34.439397],[42.928781,34.495879],[42.9602,34.318241],[43.063243,34.075595],[43.131869,33.999501],[43.429629,33.765329],[43.803456,33.667584],[43.971198,33.671072],[44.051916,33.622728],[44.137182,33.456744],[44.244773,33.433334],[44.393084,33.570897],[44.39174,33.765407],[44.447758,33.935422],[44.290041,34.01826],[44.37293,34.16776],[44.508839,34.262689],[44.476696,34.339791],[44.521862,34.577347],[44.630382,34.524379],[44.716268,34.682483],[44.965969,34.867484],[44.951913,34.976728],[44.865923,35.02626],[44.662938,35.042022],[44.562066,35.129071]]]},"properties":{"LOCATION_TYPE":"level1","ADM0_A3":"IRQ","LOCATION_ID":"IRQ-SD","NAME":"Sala ad-Din","TYPE_EN":"Province"}},
{"type":"Feature","geometry":{"type":"Polygon","coordinates":[[[44.627282,35.885691],[44.296242,35.825075],[44.186585,35.845642],[44.05543,35.779858],[43.949907,35.841275],[43.768523,35.717898],[43.801079,35.648703],[43.741858,35.548089],[43.45464,35.427631],[43.358212,35.458224],[43.388391,35.213536],[43.493914,35.110674],[43.913113,34.905518],[44.128811,34.821983],[44.288387,34.704523],[44.402592,34.904536],[44.534471,35.030911],[44.562066,35.129071],[44.684332,35.179894],[44.802258,35.470626],[44.752442,35.531604],[44.777143,35.705418],[44.627282,35.885691]]]},"properties":{"LOCATION_TYPE":"level1","ADM0_A3":"IRQ","LOCATION_ID":"IRQ-TS","NAME":"At-Ta'mim","TYPE_EN":"Province"}},
{"type":"Feature","geometry":{"type":"Polygon","coordinates":[[[44.504808,33.176011],[44.542636,33.369152],[44.42719,33.429148],[44.277849,33.378571],[44.226272,33.30143],[44.287251,33.189163],[44.504808,33.176011]]]},"properties":{"LOCATION_TYPE":"level1","ADM0_A3":"IRQ","LOCATION_ID":"IRQ-BG","NAME":"Baghdad","TYPE_EN":"Province"}},
{"type":"Feature","geometry":{"type":"Polygon","coordinates":[[[44.504808,33.176011],[44.287251,33.189163],[44.239192,33.138908],[43.899574,33.200558],[44.015743,33.089402],[44.057497,32.955146],[44.140903,32.876314],[44.129637,32.781152],[44.260069,32.749578],[44.220381,32.607622],[44.319497,32.343711],[44.320634,32.212685],[44.373654,32.144989],[44.499744,32.216303],[44.629865,32.159459],[44.758023,32.125404],[44.935066,32.26909],[45.198409,32.394431],[45.051752,32.497629],[44.969896,32.691855],[44.706346,32.8073],[44.564753,32.815749],[44.540052,33.005996],[44.504808,33.176011]]]},"properties":{"LOCATION_TYPE":"level1","ADM0_A3":"IRQ","LOCATION_ID":"IRQ-BB","NAME":"Babil","TYPE_EN":"Province"}},
{"type":"Feature","geometry":{"type":"Polygon","coordinates":[[[45.198409,32.394431],[44.935066,32.26909],[44.758023,32.125404],[44.629865,32.159459],[44.613329,32.062669],[44.514937,32.008305],[44.541705,31.640782],[44.434218,31.608717],[44.534574,31.475288],[44.726914,31.407463],[44.978268,31.26264],[44.999352,31.36669],[45.110146,31.616365],[45.048031,31.681477],[45.292047,31.727599],[45.713107,31.637191],[45.785764,31.651531],[45.725716,31.947792],[45.686028,32.068921],[45.53813,32.114836],[45.383514,32.261287],[45.391886,32.335081],[45.198409,32.394431]]]},"properties":{"LOCATION_TYPE":"level1","ADM0_A3":"IRQ","LOCATION_ID":"IRQ-QA","NAME":"Al-Qādisiyyah","TYPE_EN":"Province"}},
{"type":"Feature","geometry":{"type":"Polygon","coordinates":[[[45.785764,31.651531],[45.773361,31.539238],[45.809535,31.335607],[45.743182,31.176366],[45.705975,30.977308],[45.719825,30.837627],[46.210647,30.782307],[46.371361,30.733499],[46.528251,30.507751],[46.574656,30.514081],[46.901148,30.591286],[47.058141,30.568935],[47.122116,30.838816],[47.126147,31.129806],[46.845854,31.139107],[46.749529,31.198122],[46.739504,31.297005],[46.605042,31.396043],[46.599151,31.541615],[46.432649,31.691218],[46.3109,31.935415],[46.317411,32.005437],[46.057582,32.004636],[45.825968,31.94234],[45.725716,31.947792],[45.785764,31.651531]]]},"properties":{"LOCATION_TYPE":"level1","ADM0_A3":"IRQ","LOCATION_ID":"IRQ-DQ","NAME":"Dhi-Qar","TYPE_EN":"Province"}},
{"type":"Feature","geometry":{"type":"Polygon","coordinates":[[[44.129637,32.781152],[43.958175,32.8258],[43.759014,32.816809],[43.492674,32.644649],[43.210727,32.570984],[43.241836,32.510135],[43.477378,32.308235],[43.690595,32.16845],[44.250044,32.306607],[44.319497,32.343711],[44.220381,32.607622],[44.260069,32.749578],[44.129637,32.781152]]]},"properties":{"LOCATION_TYPE":"level1","ADM0_A3":"IRQ","LOCATION_ID":"IRQ-KA","NAME":"Karbala'","TYPE_EN":"Province"}}
]}