{"type":"FeatureCollection", "features": [
{"type":"Feature","geometry":{"type":"Polygon","coordinates":[[[-14.614613,65.986274],[-14.694133,65.943766],[-15.101384,65.922005],[-15.225736,65.862938],[-15.315261,65.857272],[-15.45639,65.771567],[-15.664103,65.747899],[-15.65953,65.615737],[-15.703351,65.549539],[-16.013849,65.575843],[-16.089788,65.484169],[-16.172392,65.437298],[-16.02744,65.333067],[-16.204716,65.195969],[-16.209367,65.043007],[-16.452814,64.94446],[-16.621822,64.918234],[-16.676367,64.813719],[-16.635646,64.727781],[-16.686883,64.63869],[-16.876613,64.471956],[-17.341752,64.039399],[-17.384024,63.958577],[-17.38571,63.772992],[-17.207102,63.815375],[-17.114858,63.794908],[-16.895823,63.807766],[-16.757639,63.850287],[-16.611195,63.869371],[-16.350494,63.965562],[-16.308909,64.017076],[-16.17927,64.041938],[-15.992055,64.144477],[-15.733022,64.179267],[-15.713612,64.21662],[-15.464019,64.251288],[-15.363637,64.336819],[-15.265777,64.320543],[-15.226471,64.26789],[-15.106679,64.301418],[-14.995473,64.2626],[-14.899973,64.281643],[-14.892079,64.334662],[-14.712514,64.41413],[-14.510487,64.442328],[-14.509999,64.549018],[-14.438832,64.596869],[-14.493479,64.658271],[-14.270619,64.699286],[-14.048451,64.719713],[-14.048451,64.788642],[-13.867787,64.794745],[-13.766916,64.853827],[-13.739898,64.9112],[-13.993764,65.055487],[-13.830312,65.029608],[-13.801991,64.994086],[-13.647369,64.98664],[-13.526967,65.055487],[-13.520172,65.172187],[-13.654205,65.219957],[-13.567983,65.260972],[-13.687652,65.306383],[-13.609609,65.514228],[-13.685292,65.555162],[-13.821278,65.54149],[-13.890045,65.620185],[-14.027903,65.610419],[-14.247629,65.665025],[-14.397613,65.730048],[-14.329498,65.782375],[-14.694407,65.7508],[-14.86144,65.76203],[-14.822987,65.815863],[-14.662017,65.883938],[-14.614613,65.986274]]]},"properties":{"LOCATION_TYPE":"level1","ADM0_A3":"ISL","LOCATION_ID":"ISL-7","NAME":"Austurland","TYPE_EN":"Region"}},
{"type":"Feature","geometry":{"type":"Polygon","coordinates":[[[-17.38571,63.772992],[-17.384024,63.958577],[-17.341752,64.039399],[-16.876613,64.471956],[-18.333061,64.843226],[-18.426544,64.880614],[-18.87153,64.838627],[-19.154846,64.784676],[-19.404753,64.78509],[-19.720109,64.752327],[-19.977431,64.801626],[-20.044972,64.698248],[-20.313974,64.643858],[-20.628322,64.556628],[-20.789785,64.53141],[-21.149195,64.36403],[-21.387862,64.257628],[-21.417395,64.162854],[-21.605807,64.002037],[-21.652394,64.000021],[-21.931976,63.848169],[-21.793202,63.870551],[-21.659901,63.831855],[-21.366933,63.849555],[-21.23644,63.953355],[-21.168324,63.875556],[-20.948842,63.827216],[-20.442128,63.671373],[-20.337717,63.601711],[-20.185699,63.54442],[-19.769887,63.534247],[-19.550933,63.502021],[-19.287262,63.438666],[-19.055653,63.414374],[-18.974762,63.424384],[-18.732045,63.396715],[-18.397694,63.449205],[-18.132924,63.479315],[-17.964955,63.522528],[-17.883046,63.576117],[-17.823883,63.667426],[-17.935902,63.675767],[-17.86026,63.737006],[-17.690989,63.769273],[-17.590647,63.746527],[-17.38571,63.772992]]]},"properties":{"LOCATION_TYPE":"level1","ADM0_A3":"ISL","LOCATION_ID":"ISL-8","NAME":"Suðurland","TYPE_EN":"Region"}},
{"type":"Feature","geometry":{"type":"Polygon","coordinates":[[[-21.931976,63.848169],[-21.652394,64.000021],[-21.9303,64.00406],[-22.035574,64.00145],[-22.124176,64.043891],[-22.346059,64.017279],[-22.420888,63.97724],[-22.542795,63.982733],[-22.609975,64.061591],[-22.718739,64.070502],[-22.736806,63.993476],[-22.685902,63.945746],[-22.73058,63.891099],[-22.717519,63.828437],[-22.535878,63.821194],[-22.336415,63.863186],[-22.065785,63.835883],[-21.931976,63.848169]]]},"properties":{"LOCATION_TYPE":"level1","ADM0_A3":"ISL","LOCATION_ID":"ISL-2","NAME":"Suðurnes","TYPE_EN":"Independent Town"}},
{"type":"Feature","geometry":{"type":"Polygon","coordinates":[[[-22.124176,64.043891],[-22.035574,64.00145],[-21.9303,64.00406],[-21.837023,64.047159],[-21.655195,64.081559],[-21.606052,64.185988],[-21.61588,64.257245],[-21.875643,64.273719],[-21.757476,64.171088],[-21.864858,64.156317],[-21.963368,64.082261],[-22.124176,64.043891]]]},"properties":{"LOCATION_TYPE":"level1","ADM0_A3":"ISL","LOCATION_ID":"ISL-0","NAME":"Reykjavík","TYPE_EN":"Region"}},
{"type":"Feature","geometry":{"type":"Polygon","coordinates":[[[-21.875643,64.273719],[-21.61588,64.257245],[-21.606052,64.185988],[-21.655195,64.081559],[-21.837023,64.047159],[-21.9303,64.00406],[-21.652394,64.000021],[-21.605807,64.002037],[-21.417395,64.162854],[-21.387862,64.257628],[-21.149195,64.36403],[-21.17294,64.395553],[-21.425121,64.376126],[-21.603098,64.377753],[-21.764027,64.339301],[-21.875643,64.273719]]]},"properties":{"LOCATION_TYPE":"level1","ADM0_A3":"ISL","LOCATION_ID":"ISL-1","NAME":"Höfuðborgarsvæði","TYPE_EN":"Region"}},
{"type":"Feature","geometry":{"type":"Polygon","coordinates":[[[-21.425121,64.376126],[-21.17294,64.395553],[-21.149195,64.36403],[-20.789785,64.53141],[-20.628322,64.556628],[-20.313974,64.643858],[-20.044972,64.698248],[-19.977431,64.801626],[-19.809044,64.894644],[-19.81,64.93552],[-20.343791,64.943736],[-20.405648,64.954976],[-20.727127,64.913712],[-20.984217,64.972365],[-21.19144,65.014792],[-21.28668,65.102745],[-21.247431,65.169924],[-21.283114,65.232427],[-21.400523,65.290795],[-21.494936,65.372031],[-21.618339,65.36185],[-21.608391,65.42133],[-21.695302,65.453355],[-21.887074,65.420722],[-22.201283,65.317694],[-22.312856,65.304348],[-22.490346,65.233629],[-22.557688,65.168931],[-22.390736,65.163275],[-22.318959,65.138414],[-22.033844,65.114936],[-21.833079,65.178412],[-21.737416,65.159166],[-21.826243,65.035061],[-22.155181,65.027574],[-22.379994,65.058783],[-22.5454,65.052191],[-22.674428,65.007554],[-22.757069,65.071926],[-22.844716,65.009914],[-23.210194,65.016913],[-23.224029,64.949408],[-23.512847,64.946357],[-23.63801,64.898505],[-23.849762,64.930569],[-24.060048,64.891059],[-23.946116,64.760891],[-23.833567,64.725898],[-23.646596,64.750881],[-23.593495,64.810981],[-23.457143,64.793647],[-23.398427,64.82274],[-23.246246,64.830471],[-23.1881,64.804145],[-22.783925,64.792711],[-22.53189,64.809149],[-22.319651,64.753852],[-22.319651,64.678778],[-22.391021,64.637844],[-22.357533,64.56802],[-22.257639,64.555854],[-22.199045,64.471869],[-22.093088,64.472724],[-21.984771,64.370266],[-22.099965,64.315009],[-21.962636,64.297309],[-21.716542,64.393866],[-21.449452,64.39765],[-21.425121,64.376126]]]},"properties":{"LOCATION_TYPE":"level1","ADM0_A3":"ISL","LOCATION_ID":"ISL-3","NAME":"Vesturland","TYPE_EN":"Region"}},
{"type":"Feature","geometry":{"type":"Polygon","coordinates":[[[-21.695302,65.453355],[-21.608391,65.42133],[-21.618339,65.36185],[-21.494936,65.372031],[-21.400523,65.290795],[-21.283114,65.232427],[-21.247431,65.169924],[-21.28668,65.102745],[-21.19144,65.014792],[-20.984217,64.972365],[-21.075426,65.101375],[-21.083567,65.168402],[-21.19286,65.310126],[-21.19518,65.408108],[-21.278432,65.473293],[-21.369862,65.487128],[-21.298695,65.558905],[-21.442983,65.643378],[-21.609934,65.641547],[-21.689076,65.69302],[-21.443512,65.690497],[-21.332143,65.74079],[-21.417877,65.763495],[-21.278188,65.856879],[-21.318512,65.987779],[-21.401031,66.029446],[-21.509389,66.017076],[-21.548818,66.097642],[-21.723012,66.082221],[-21.749867,66.185777],[-21.920725,66.219672],[-21.979319,66.27497],[-22.214101,66.2897],[-22.243398,66.357123],[-22.376698,66.432563],[-22.574534,66.465888],[-22.670237,66.420966],[-22.850331,66.466986],[-23.135325,66.432807],[-23.02481,66.391832],[-23.098053,66.318305],[-22.939687,66.301459],[-22.682118,66.323635],[-22.484486,66.251166],[-22.78246,66.262763],[-22.97761,66.234198],[-22.865956,66.159491],[-22.449371,66.075914],[-22.484202,66.029446],[-22.381256,65.928778],[-22.577382,65.97309],[-22.682729,66.055854],[-22.85554,66.02851],[-23.027699,66.10871],[-23.304351,66.185777],[-23.461415,66.204169],[-23.669667,66.117499],[-23.547027,66.059516],[-23.792592,66.07038],[-23.8131,66.011379],[-23.6551,65.942572],[-23.820546,65.925727],[-23.866607,65.875556],[-23.628082,65.706],[-24.049875,65.803534],[-24.121571,65.74079],[-24.022857,65.676174],[-24.086781,65.651353],[-23.971303,65.558661],[-24.277943,65.63642],[-24.375396,65.569403],[-24.539906,65.508002],[-24.48176,65.488471],[-24.196685,65.501166],[-23.967763,65.464911],[-23.897532,65.404608],[-23.714101,65.426093],[-23.625396,65.466457],[-23.373036,65.498196],[-23.247426,65.485419],[-22.925771,65.573188],[-22.785227,65.508002],[-22.589182,65.53559],[-22.387196,65.491685],[-22.199208,65.432318],[-22.120269,65.485093],[-22.003163,65.503892],[-21.897572,65.446519],[-21.695302,65.453355]]]},"properties":{"LOCATION_TYPE":"level1","ADM0_A3":"ISL","LOCATION_ID":"ISL-4","NAME":"Vestfirðir","TYPE_EN":"Region"}},
{"type":"Feature","geometry":{"type":"Polygon","coordinates":[[[-21.083567,65.168402],[-21.075426,65.101375],[-20.984217,64.972365],[-20.727127,64.913712],[-20.405648,64.954976],[-20.343791,64.943736],[-19.81,64.93552],[-19.809044,64.894644],[-19.977431,64.801626],[-19.720109,64.752327],[-19.404753,64.78509],[-19.154846,64.784676],[-18.87153,64.838627],[-18.426544,64.880614],[-18.351613,65.068587],[-18.382516,65.218448],[-18.495739,65.257903],[-18.58762,65.352342],[-18.69738,65.372289],[-18.774016,65.428823],[-18.730143,65.520756],[-18.913646,65.5861],[-18.7997,65.709219],[-18.843211,65.776838],[-18.978087,65.827765],[-18.86259,65.937526],[-18.853081,66.011423],[-19.078765,66.157993],[-19.159739,66.097642],[-19.362701,66.088365],[-19.451894,66.055976],[-19.413645,66.007636],[-19.497914,65.977525],[-19.405832,65.860175],[-19.41804,65.753852],[-19.65038,65.76496],[-19.708404,65.87108],[-19.879791,65.905219],[-20.030588,66.083441],[-20.184804,66.131171],[-20.427846,66.083441],[-20.448883,66.029446],[-20.322581,65.869452],[-20.339101,65.830146],[-20.263295,65.744534],[-20.328521,65.627834],[-20.575185,65.535712],[-20.641713,65.604804],[-20.665761,65.690863],[-20.91808,65.601386],[-20.987294,65.506781],[-20.975006,65.437567],[-21.098866,65.445461],[-21.074086,65.338039],[-21.119944,65.267768],[-21.083567,65.168402]]]},"properties":{"LOCATION_TYPE":"level1","ADM0_A3":"ISL","LOCATION_ID":"ISL-5","NAME":"Norðurland vestra","TYPE_EN":"Region"}},
{"type":"Feature","geometry":{"type":"Polygon","coordinates":[[[-19.078765,66.157993],[-18.853081,66.011423],[-18.86259,65.937526],[-18.978087,65.827765],[-18.843211,65.776838],[-18.7997,65.709219],[-18.913646,65.5861],[-18.730143,65.520756],[-18.774016,65.428823],[-18.69738,65.372289],[-18.58762,65.352342],[-18.495739,65.257903],[-18.382516,65.218448],[-18.351613,65.068587],[-18.426544,64.880614],[-18.333061,64.843226],[-16.876613,64.471956],[-16.686883,64.63869],[-16.635646,64.727781],[-16.676367,64.813719],[-16.621822,64.918234],[-16.452814,64.94446],[-16.209367,65.043007],[-16.204716,65.195969],[-16.02744,65.333067],[-16.172392,65.437298],[-16.089788,65.484169],[-16.013849,65.575843],[-15.703351,65.549539],[-15.65953,65.615737],[-15.664103,65.747899],[-15.45639,65.771567],[-15.315261,65.857272],[-15.225736,65.862938],[-15.101384,65.922005],[-14.694133,65.943766],[-14.614613,65.986274],[-14.677317,66.05622],[-14.852691,66.037177],[-15.075999,66.049628],[-15.074127,66.097113],[-15.179351,66.111314],[-14.960357,66.185777],[-14.959137,66.296454],[-14.610748,66.363227],[-14.839752,66.391832],[-14.991119,66.361314],[-15.108754,66.278388],[-15.302154,66.268378],[-15.340443,66.182196],[-15.419667,66.172309],[-15.775136,66.289455],[-15.679555,66.344062],[-15.706695,66.395901],[-15.924062,66.422349],[-15.93871,66.502672],[-16.022939,66.536607],[-16.543324,66.506985],[-16.51537,66.367336],[-16.421946,66.287095],[-16.48705,66.189521],[-16.782541,66.131171],[-16.919749,66.124335],[-16.992421,66.19953],[-17.217356,66.194241],[-17.261464,66.129706],[-17.364654,66.083441],[-17.419342,65.994045],[-17.586903,65.985785],[-17.672963,66.007066],[-17.752349,66.085395],[-17.91275,66.152289],[-18.054067,66.149563],[-18.296986,66.179633],[-18.329213,66.103949],[-18.296986,66.015082],[-18.228139,65.939399],[-18.151519,65.924791],[-18.067616,65.830552],[-18.109486,65.731594],[-18.17984,65.740424],[-18.20816,65.855292],[-18.348012,65.950181],[-18.540028,65.974189],[-18.544545,66.08275],[-18.69225,66.169989],[-18.776845,66.193305],[-18.944692,66.19066],[-19.078765,66.157993]]]},"properties":{"LOCATION_TYPE":"level1","ADM0_A3":"ISL","LOCATION_ID":"ISL-6","NAME":"Norðurland eystra","TYPE_EN":"Region"}}
]}