{"type":"FeatureCollection", "features": [
{"type":"Feature","geometry":{"type":"Polygon","coordinates":[[[34.665941,31.873899],[34.60963,31.76553],[34.481204,31.583141],[34.556032,31.539825],[34.367339,31.392814],[34.350905,31.289254],[34.248351,31.211449],[34.329511,30.994492],[34.480407,30.651205],[34.53384,30.400213],[34.599469,30.344506],[34.734965,30.006697],[34.741373,29.940241],[34.824365,29.7417],[34.848239,29.569643],[34.886729,29.490058],[34.951345,29.54564],[35.002545,29.733096],[35.048951,29.842314],[35.086261,30.034034],[35.145276,30.154905],[35.124812,30.21609],[35.159952,30.347503],[35.140005,30.430185],[35.205324,30.617099],[35.310847,30.813314],[35.322216,30.88995],[35.385261,30.963279],[35.391565,31.023947],[35.438488,31.103736],[35.3957,31.25768],[35.452854,31.400823],[35.458538,31.491619],[35.390118,31.487071],[35.223307,31.381031],[35.164913,31.362273],[35.040166,31.363203],[34.927408,31.34491],[34.867153,31.396431],[34.926788,31.494409],[34.953176,31.60832],[34.872942,31.659101],[34.872631,31.752067],[34.827776,31.791987],[34.673729,31.786355],[34.665941,31.873899]]]},"properties":{"LOCATION_TYPE":"level1","ADM0_A3":"ISR","LOCATION_ID":"ISR-D","NAME":"HaDarom","TYPE_EN":"District"}},
{"type":"Feature","geometry":{"type":"Polygon","coordinates":[[[35.210359,32.541868],[35.270436,32.510471],[35.392909,32.494478],[35.406862,32.414793],[35.549592,32.39854],[35.579978,32.497733],[35.562718,32.64421],[35.75759,32.744347],[35.834226,32.827946],[35.888073,32.944941],[35.85903,32.99021],[35.833399,33.161129],[35.763842,33.334401],[35.698523,33.32267],[35.604576,33.244354],[35.549489,33.281019],[35.480139,33.087387],[35.331931,33.057156],[35.283665,33.101185],[35.105235,33.089016],[35.078461,32.998847],[35.075489,32.893075],[35.154423,32.784898],[35.132254,32.708727],[35.02487,32.607881],[35.052052,32.554111],[35.115511,32.528609],[35.210359,32.541868]]]},"properties":{"LOCATION_TYPE":"level1","ADM0_A3":"ISR","LOCATION_ID":"ISR-Z","NAME":"HaZafon","TYPE_EN":"District"}},
{"type":"Feature","geometry":{"type":"Polygon","coordinates":[[[35.210359,32.541868],[35.115511,32.528609],[35.052052,32.554111],[35.02487,32.607881],[35.132254,32.708727],[35.154423,32.784898],[35.075489,32.893075],[35.02768,32.826606],[34.94752,32.814154],[34.942068,32.724514],[34.867796,32.407505],[34.982496,32.405516],[35.03273,32.3822],[35.06435,32.463136],[35.210359,32.541868]]]},"properties":{"LOCATION_TYPE":"level1","ADM0_A3":"ISR","LOCATION_ID":"ISR-HA","NAME":"Haifa","TYPE_EN":"District"}},
{"type":"Feature","geometry":{"type":"Polygon","coordinates":[[[35.03273,32.3822],[34.982496,32.405516],[34.867796,32.407505],[34.804435,32.192506],[34.862555,32.172817],[34.808553,32.000114],[34.733887,32.01331],[34.665941,31.873899],[34.673729,31.786355],[34.827776,31.791987],[34.99854,31.853835],[35.039006,31.908637],[34.986695,31.967228],[35.007245,32.020772],[34.958223,32.186454],[35.011123,32.257102],[35.000685,32.335728],[35.03273,32.3822]]]},"properties":{"LOCATION_TYPE":"level1","ADM0_A3":"ISR","LOCATION_ID":"ISR-M","NAME":"HaMerkaz","TYPE_EN":"District"}},
{"type":"Feature","geometry":{"type":"Polygon","coordinates":[[[34.953176,31.60832],[35.148952,31.737349],[35.23797,31.709332],[35.262811,31.748625],[35.24998,31.844368],[35.173922,31.807551],[35.056018,31.853317],[34.99854,31.853835],[34.827776,31.791987],[34.872631,31.752067],[34.872942,31.659101],[34.953176,31.60832]]]},"properties":{"LOCATION_TYPE":"level1","ADM0_A3":"ISR","LOCATION_ID":"ISR-JM","NAME":"Jerusalem","TYPE_EN":"District"}},
{"type":"Feature","geometry":{"type":"Polygon","coordinates":[[[34.733887,32.01331],[34.808553,32.000114],[34.862555,32.172817],[34.804435,32.192506],[34.733887,32.01331]]]},"properties":{"LOCATION_TYPE":"level1","ADM0_A3":"ISR","LOCATION_ID":"ISR-TA","NAME":"Tel Aviv","TYPE_EN":"District"}}
]}