{"type":"FeatureCollection", "features": [
{"type":"Feature","geometry":{"type":"Polygon","coordinates":[[[7.84962,45.939712],[7.69398,45.928671],[7.541121,45.984119],[7.361803,45.907845],[7.183726,45.880456],[7.066938,45.890223],[6.800804,45.826455],[6.795946,45.718141],[6.963378,45.640729],[6.982808,45.511125],[7.075369,45.466286],[7.385478,45.52435],[7.545923,45.589806],[7.749324,45.564142],[7.880171,45.602693],[7.916294,45.729662],[7.863537,45.805995],[7.855935,45.919319],[7.84962,45.939712]]]},"properties":{"LOCATION_TYPE":"level1","ADM0_A3":"ITA","LOCATION_ID":"ITA-AO","NAME":"Aoste","TYPE_EN":"Province"}},
{"type":"Feature","geometry":{"type":"Polygon","coordinates":[[[7.84962,45.939712],[7.855935,45.919319],[7.957031,45.902411],[8.187239,45.947664],[8.322305,45.85395],[8.349902,45.77241],[8.38073,45.842151],[8.460776,45.868936],[8.598413,45.82599],[8.59314,45.917506],[8.720735,46.012022],[8.728974,46.108236],[8.601831,46.122819],[8.427165,46.251442],[8.441634,46.434945],[8.316267,46.433653],[8.291462,46.378359],[8.077315,46.262035],[8.129509,46.196044],[8.110595,46.126953],[8.018197,46.080858],[7.985848,45.999312],[7.84962,45.939712]]]},"properties":{"LOCATION_TYPE":"level1","ADM0_A3":"ITA","LOCATION_ID":"ITA-VB","NAME":"Verbano-Cusio-Ossola","TYPE_EN":"Province"}},
{"type":"Feature","geometry":{"type":"Polygon","coordinates":[[[8.728974,46.108236],[8.720735,46.012022],[8.59314,45.917506],[8.598413,45.82599],[8.56541,45.798623],[8.646072,45.688738],[8.705178,45.556781],[8.837036,45.568405],[8.926882,45.61591],[9.053005,45.623216],[9.058656,45.661372],[8.931958,45.651165],[8.947844,45.734903],[8.908885,45.828293],[8.870962,45.947067],[8.767919,45.983086],[8.834375,46.066388],[8.728974,46.108236]]]},"properties":{"LOCATION_TYPE":"level1","ADM0_A3":"ITA","LOCATION_ID":"ITA-VA","NAME":"Varese","TYPE_EN":"Province"}},
{"type":"Feature","geometry":{"type":"Polygon","coordinates":[[[8.908885,45.828293],[8.947844,45.734903],[8.931958,45.651165],[9.058656,45.661372],[9.192356,45.676148],[9.2472,45.742637],[9.32852,45.859949],[9.263328,45.961309],[9.303955,46.132959],[9.424593,46.16003],[9.440845,46.214522],[9.224831,46.231188],[9.072087,46.118892],[9.002117,46.03931],[9.001703,45.93606],[9.059271,45.881955],[9.002427,45.820718],[8.908885,45.828293]]]},"properties":{"LOCATION_TYPE":"level1","ADM0_A3":"ITA","LOCATION_ID":"ITA-CO","NAME":"Como","TYPE_EN":"Province"}},
{"type":"Feature","geometry":{"type":"Polygon","coordinates":[[[9.224831,46.231188],[9.440845,46.214522],[9.424593,46.16003],[9.414587,46.104505],[9.526868,46.011429],[9.625876,46.051529],[9.749604,46.062471],[9.871838,46.044025],[10.096948,46.090926],[10.169524,46.056989],[10.178489,46.173015],[10.290989,46.221289],[10.317883,46.277397],[10.445896,46.348094],[10.527854,46.342644],[10.618909,46.375362],[10.624709,46.454452],[10.493862,46.494475],[10.451829,46.546704],[10.295371,46.551087],[10.192122,46.626819],[10.09745,46.608035],[10.032752,46.532975],[10.026344,46.446262],[10.133417,46.414016],[10.091766,46.328956],[10.158945,46.262449],[10.042673,46.220487],[9.964022,46.356086],[9.899013,46.372158],[9.674324,46.291801],[9.559705,46.292731],[9.451598,46.370375],[9.437852,46.492047],[9.263186,46.485122],[9.268974,46.309371],[9.224831,46.231188]]]},"properties":{"LOCATION_TYPE":"level1","ADM0_A3":"ITA","LOCATION_ID":"ITA-SO","NAME":"Sondrio","TYPE_EN":"Province"}},
{"type":"Feature","geometry":{"type":"Polygon","coordinates":[[[10.451829,46.546704],[10.493862,46.494475],[10.624709,46.454452],[10.745229,46.484939],[10.839932,46.430722],[11.055286,46.515613],[11.214456,46.469317],[11.201755,46.339239],[11.156184,46.284021],[11.242009,46.231177],[11.31821,46.288471],[11.387556,46.281132],[11.476567,46.359629],[11.595308,46.386205],[11.684099,46.507681],[11.832239,46.504034],[12.022039,46.53941],[12.099141,46.667829],[12.21397,46.596066],[12.399221,46.639737],[12.469632,46.675799],[12.370387,46.711155],[12.269101,46.788566],[12.26662,46.868148],[12.1951,46.880085],[12.111178,46.992998],[12.180631,47.085215],[11.943643,47.038164],[11.746445,46.972457],[11.59648,47.00044],[11.31381,46.987262],[11.156611,46.956515],[11.091912,46.912435],[10.99693,46.76911],[10.880348,46.764589],[10.754775,46.790763],[10.629408,46.862412],[10.44854,46.832233],[10.369165,46.672398],[10.459082,46.623564],[10.451829,46.546704]]]},"properties":{"LOCATION_TYPE":"level1","ADM0_A3":"ITA","LOCATION_ID":"ITA-BZ","NAME":"Bozen","TYPE_EN":"Province"}},
{"type":"Feature","geometry":{"type":"Polygon","coordinates":[[[7.687932,44.090799],[7.630934,43.993543],[7.477869,43.865515],[7.502289,43.792222],[7.694998,43.791205],[7.959727,43.852851],[8.130226,43.940343],[7.992165,44.021332],[8.002119,44.11844],[7.740029,44.133667],[7.687932,44.090799]]]},"properties":{"LOCATION_TYPE":"level1","ADM0_A3":"ITA","LOCATION_ID":"ITA-IM","NAME":"Imperia","TYPE_EN":"Province"}},
{"type":"Feature","geometry":{"type":"Polygon","coordinates":[[[7.687932,44.090799],[7.740029,44.133667],[8.002119,44.11844],[8.077529,44.18583],[8.07164,44.311459],[8.205827,44.422432],[8.249751,44.534591],[8.197456,44.632754],[8.265505,44.702803],[8.130879,44.802471],[8.02396,44.805855],[7.943364,44.846262],[7.799773,44.843296],[7.753432,44.815083],[7.605381,44.834101],[7.495122,44.76414],[7.325823,44.785475],[7.038819,44.71212],[6.941467,44.66699],[6.931649,44.61795],[6.838838,44.502918],[6.9178,44.436307],[6.866123,44.372125],[6.996141,44.237818],[7.033451,44.242934],[7.38082,44.122941],[7.624733,44.180095],[7.687932,44.090799]]]},"properties":{"LOCATION_TYPE":"level1","ADM0_A3":"ITA","LOCATION_ID":"ITA-CN","NAME":"Cuneo","TYPE_EN":"Province"}},
{"type":"Feature","geometry":{"type":"Polygon","coordinates":[[[7.038819,44.71212],[7.325823,44.785475],[7.495122,44.76414],[7.605381,44.834101],[7.753432,44.815083],[7.799773,44.843296],[7.943364,44.846262],[7.89074,44.899854],[7.938948,45.049532],[7.89353,45.090291],[8.02886,45.132654],[8.129033,45.12303],[8.151907,45.16859],[8.059599,45.182477],[7.988342,45.263413],[7.97272,45.342449],[8.027036,45.403072],[8.027497,45.449104],[7.882214,45.534106],[7.880171,45.602693],[7.749324,45.564142],[7.545923,45.589806],[7.385478,45.52435],[7.075369,45.466286],[7.160679,45.410924],[7.092569,45.323953],[7.062183,45.218533],[6.958727,45.2098],[6.844109,45.130115],[6.736415,45.157348],[6.602728,45.10345],[6.723496,45.013378],[6.72794,44.928732],[6.86602,44.855661],[6.982808,44.846979],[7.038819,44.71212]]]},"properties":{"LOCATION_TYPE":"level1","ADM0_A3":"ITA","LOCATION_ID":"ITA-TO","NAME":"Turin","TYPE_EN":"Province"}},
{"type":"Feature","geometry":{"type":"Polygon","coordinates":[[[12.421107,43.895174],[12.483091,43.929201],[12.59135,43.893341],[12.633054,43.842541],[12.730833,43.88197],[12.753835,43.972398],[12.631358,44.030097],[12.458018,44.166409],[12.456416,44.094303],[12.326184,43.958578],[12.164158,43.928245],[12.102239,43.759033],[12.285842,43.768866],[12.351453,43.869951],[12.421107,43.895174]]]},"properties":{"LOCATION_TYPE":"level1","ADM0_A3":"ITA","LOCATION_ID":"ITA-RN","NAME":"Rimini","TYPE_EN":"Province"}},
{"type":"Feature","geometry":{"type":"Polygon","coordinates":[[[12.483091,43.929201],[12.421107,43.895174],[12.351453,43.869951],[12.285842,43.768866],[12.357627,43.722603],[12.19582,43.653356],[12.204807,43.616826],[12.319944,43.546184],[12.510491,43.512489],[12.604688,43.430344],[12.758167,43.461227],[12.96906,43.606225],[13.077627,43.727173],[13.177206,43.751519],[12.947276,43.89761],[12.753835,43.972398],[12.730833,43.88197],[12.633054,43.842541],[12.59135,43.893341],[12.483091,43.929201]]]},"properties":{"LOCATION_TYPE":"level1","ADM0_A3":"ITA","LOCATION_ID":"ITA-PU","NAME":"Pesaro e Urbino","TYPE_EN":"Province"}},
{"type":"Feature","geometry":{"type":"Polygon","coordinates":[[[12.469632,46.675799],[12.399221,46.639737],[12.21397,46.596066],[12.099141,46.667829],[12.022039,46.53941],[11.832239,46.504034],[11.888247,46.467394],[11.80385,46.345281],[11.853464,46.273716],[11.969436,46.196306],[11.896465,46.132663],[11.712136,46.101066],[11.684802,45.984325],[11.799697,45.88057],[11.925205,45.884965],[11.961438,45.954234],[12.19158,46.00409],[12.330908,46.082213],[12.422432,46.043079],[12.501965,46.111031],[12.456482,46.206381],[12.335918,46.269475],[12.500092,46.404181],[12.551162,46.457419],[12.640701,46.463878],[12.663662,46.516536],[12.75709,46.534477],[12.748499,46.641],[12.562003,46.65121],[12.469632,46.675799]]]},"properties":{"LOCATION_TYPE":"level1","ADM0_A3":"ITA","LOCATION_ID":"ITA-BL","NAME":"Belluno","TYPE_EN":"Province"}},
{"type":"Feature","geometry":{"type":"Polygon","coordinates":[[[12.748499,46.641],[12.75709,46.534477],[12.663662,46.516536],[12.640701,46.463878],[12.551162,46.457419],[12.500092,46.404181],[12.641975,46.339305],[12.801233,46.357014],[12.965698,46.328922],[12.977959,46.256061],[12.905735,45.961968],[12.972883,45.842624],[13.095628,45.652321],[13.069591,45.71369],[13.131358,45.768866],[13.422618,45.724066],[13.403635,45.889414],[13.461793,46.006392],[13.505098,46.066027],[13.616409,46.125041],[13.637389,46.180386],[13.510162,46.213976],[13.410116,46.207982],[13.365261,46.290302],[13.423242,46.344847],[13.600182,46.442644],[13.670256,46.518712],[13.478019,46.563567],[13.231109,46.552173],[13.064504,46.598035],[12.83041,46.609637],[12.748499,46.641]]]},"properties":{"LOCATION_TYPE":"level1","ADM0_A3":"ITA","LOCATION_ID":"ITA-UD","NAME":"Udine","TYPE_EN":"Province"}},
{"type":"Feature","geometry":{"type":"Polygon","coordinates":[[[13.461793,46.006392],[13.403635,45.889414],[13.422618,45.724066],[13.507823,45.714423],[13.583327,45.786789],[13.588514,45.806482],[13.56928,45.86454],[13.622817,45.966394],[13.509439,45.967428],[13.461793,46.006392]]]},"properties":{"LOCATION_TYPE":"level1","ADM0_A3":"ITA","LOCATION_ID":"ITA-GO","NAME":"Gorizia","TYPE_EN":"Province"}},
{"type":"Feature","geometry":{"type":"Polygon","coordinates":[[[13.588514,45.806482],[13.583327,45.786789],[13.726248,45.703762],[13.795584,45.617011],[13.858409,45.649359],[13.778724,45.743411],[13.588514,45.806482]]]},"properties":{"LOCATION_TYPE":"level1","ADM0_A3":"ITA","LOCATION_ID":"ITA-TS","NAME":"Trieste","TYPE_EN":"Province"}},
{"type":"Feature","geometry":{"type":"MultiPolygon","coordinates":[[[[13.095628,45.652321],[12.972883,45.842624],[12.826743,45.824441],[12.79196,45.85617],[12.672803,45.802062],[12.663025,45.701889],[12.522532,45.685684],[12.352639,45.583918],[12.231064,45.536709],[12.188591,45.584324],[12.092439,45.598354],[12.039573,45.571459],[11.981543,45.470725],[11.975918,45.397743],[12.149099,45.292182],[12.208751,45.309068],[12.272716,45.463609],[12.441905,45.530341],[12.487804,45.456732],[12.780772,45.553534],[12.943858,45.628567],[13.095628,45.652321]]],[[[12.199392,45.274604],[12.152512,45.194178],[11.987454,45.190585],[11.961943,45.14319],[12.148513,45.058244],[12.189119,45.114329],[12.321256,45.164807],[12.247325,45.196926],[12.199392,45.274604]]]]},"properties":{"LOCATION_TYPE":"level1","ADM0_A3":"ITA","LOCATION_ID":"ITA-VE","NAME":"Venezia","TYPE_EN":"Province"}},
{"type":"Feature","geometry":{"type":"Polygon","coordinates":[[[12.149099,45.292182],[11.975918,45.397743],[11.981543,45.470725],[12.039573,45.571459],[12.092439,45.598354],[11.954736,45.610559],[11.821824,45.687101],[11.711323,45.676258],[11.649382,45.63541],[11.74593,45.488216],[11.616687,45.386988],[11.602405,45.24388],[11.487158,45.265863],[11.406035,45.252251],[11.41858,45.131771],[11.753818,45.098695],[11.839995,45.138861],[11.961943,45.14319],[11.987454,45.190585],[12.152512,45.194178],[12.199392,45.274604],[12.149099,45.292182]]]},"properties":{"LOCATION_TYPE":"level1","ADM0_A3":"ITA","LOCATION_ID":"ITA-PD","NAME":"Padova","TYPE_EN":"Province"}},
{"type":"Feature","geometry":{"type":"Polygon","coordinates":[[[12.321256,45.164807],[12.189119,45.114329],[12.148513,45.058244],[11.961943,45.14319],[11.839995,45.138861],[11.753818,45.098695],[11.41858,45.131771],[11.332493,45.089522],[11.210303,45.104298],[11.195735,45.063396],[11.421504,44.949864],[11.606294,44.89881],[11.797346,44.977648],[11.990662,44.983866],[12.13511,44.936845],[12.272,44.936427],[12.293379,44.864752],[12.393397,44.793452],[12.444591,44.820502],[12.527029,44.943345],[12.376231,45.038967],[12.321256,45.164807]]]},"properties":{"LOCATION_TYPE":"level1","ADM0_A3":"ITA","LOCATION_ID":"ITA-RO","NAME":"Rovigo","TYPE_EN":"Province"}},
{"type":"Feature","geometry":{"type":"Polygon","coordinates":[[[12.393397,44.793452],[12.293379,44.864752],[12.272,44.936427],[12.13511,44.936845],[11.990662,44.983866],[11.797346,44.977648],[11.606294,44.89881],[11.421504,44.949864],[11.257017,44.947337],[11.336162,44.869224],[11.293337,44.802702],[11.606272,44.696409],[11.673201,44.635929],[11.795896,44.620515],[11.789348,44.554422],[12.005581,44.596675],[12.067522,44.551115],[12.177737,44.564199],[12.269582,44.629755],[12.246593,44.711615],[12.292328,44.843248],[12.393397,44.793452]]]},"properties":{"LOCATION_TYPE":"level1","ADM0_A3":"ITA","LOCATION_ID":"ITA-FE","NAME":"Ferrara","TYPE_EN":"Province"}},
{"type":"Feature","geometry":{"type":"Polygon","coordinates":[[[12.269582,44.629755],[12.177737,44.564199],[12.067522,44.551115],[12.005581,44.596675],[11.789348,44.554422],[11.742415,44.506477],[11.82033,44.395702],[11.756169,44.318831],[11.683352,44.318216],[11.526269,44.162223],[11.653799,44.118858],[11.71998,44.131684],[11.757839,44.193762],[11.894158,44.180777],[12.031641,44.330279],[12.21876,44.214878],[12.385615,44.228496],[12.318207,44.361151],[12.269582,44.629755]]]},"properties":{"LOCATION_TYPE":"level1","ADM0_A3":"ITA","LOCATION_ID":"ITA-RA","NAME":"Ravenna","TYPE_EN":"Province"}},
{"type":"Feature","geometry":{"type":"Polygon","coordinates":[[[12.385615,44.228496],[12.21876,44.214878],[12.031641,44.330279],[11.894158,44.180777],[11.757839,44.193762],[11.71998,44.131684],[11.7202,44.070232],[11.650701,43.990856],[11.716335,43.879143],[11.809277,43.826424],[11.968601,43.77314],[12.102239,43.759033],[12.164158,43.928245],[12.326184,43.958578],[12.456416,44.094303],[12.458018,44.166409],[12.385615,44.228496]]]},"properties":{"LOCATION_TYPE":"level1","ADM0_A3":"ITA","LOCATION_ID":"ITA-FC","NAME":"Forlì-Cesena","TYPE_EN":"Province"}},
{"type":"Feature","geometry":{"type":"Polygon","coordinates":[[[13.177206,43.751519],[13.077627,43.727173],[12.96906,43.606225],[12.758167,43.461227],[12.746499,43.37883],[12.851724,43.20609],[13.010852,43.308715],[13.098215,43.430938],[13.295156,43.408668],[13.646966,43.475281],[13.615571,43.560492],[13.253266,43.703192],[13.177206,43.751519]]]},"properties":{"LOCATION_TYPE":"level1","ADM0_A3":"ITA","LOCATION_ID":"ITA-AN","NAME":"Ancona","TYPE_EN":"Province"}},
{"type":"Feature","geometry":{"type":"Polygon","coordinates":[[[13.646966,43.475281],[13.295156,43.408668],[13.098215,43.430938],[13.010852,43.308715],[12.851724,43.20609],[12.837444,43.132483],[12.89532,43.08745],[12.91314,42.963425],[13.048799,42.917843],[13.166726,42.824514],[13.224294,42.847674],[13.241807,42.891959],[13.217637,42.938816],[13.343518,43.03799],[13.458765,43.030014],[13.452502,43.154818],[13.600994,43.267835],[13.744997,43.292246],[13.646966,43.475281]]]},"properties":{"LOCATION_TYPE":"level1","ADM0_A3":"ITA","LOCATION_ID":"ITA-MC","NAME":"Macerata","TYPE_EN":"Province"}},
{"type":"Feature","geometry":{"type":"Polygon","coordinates":[[[13.744997,43.292246],[13.600994,43.267835],[13.452502,43.154818],[13.458765,43.030014],[13.343518,43.03799],[13.217637,42.938816],[13.241807,42.891959],[13.294739,42.924468],[13.39656,42.901485],[13.406975,42.969281],[13.550413,42.992517],[13.779895,43.076464],[13.853485,43.067357],[13.744997,43.292246]]]},"properties":{"LOCATION_TYPE":"level1","ADM0_A3":"ITA","LOCATION_ID":"ITA-FM","NAME":"Fermo","TYPE_EN":"Province"}},
{"type":"Feature","geometry":{"type":"Polygon","coordinates":[[[13.853485,43.067357],[13.779895,43.076464],[13.550413,42.992517],[13.406975,42.969281],[13.39656,42.901485],[13.294739,42.924468],[13.241807,42.891959],[13.224294,42.847674],[13.248948,42.767781],[13.194478,42.734602],[13.26791,42.744622],[13.337564,42.687658],[13.429761,42.701731],[13.530418,42.807464],[13.681721,42.817022],[13.712791,42.860066],[13.905527,42.901561],[13.853485,43.067357]]]},"properties":{"LOCATION_TYPE":"level1","ADM0_A3":"ITA","LOCATION_ID":"ITA-AP","NAME":"Ascoli Piceno","TYPE_EN":"Province"}},
{"type":"Feature","geometry":{"type":"Polygon","coordinates":[[[13.905527,42.901561],[13.712791,42.860066],[13.681721,42.817022],[13.530418,42.807464],[13.429761,42.701731],[13.337564,42.687658],[13.375884,42.603766],[13.417588,42.529685],[13.531648,42.444058],[13.765415,42.420086],[13.825071,42.49521],[13.939109,42.500846],[13.994568,42.540507],[14.151263,42.531564],[14.075369,42.598822],[13.944672,42.798285],[13.905527,42.901561]]]},"properties":{"LOCATION_TYPE":"level1","ADM0_A3":"ITA","LOCATION_ID":"ITA-TE","NAME":"Teramo","TYPE_EN":"Province"}},
{"type":"Feature","geometry":{"type":"Polygon","coordinates":[[[14.151263,42.531564],[13.994568,42.540507],[13.939109,42.500846],[13.825071,42.49521],[13.765415,42.420086],[13.843594,42.269265],[13.795408,42.151162],[13.889341,42.163028],[14.01887,42.075115],[14.085381,42.086684],[14.125547,42.231747],[14.07356,42.314079],[14.167537,42.426194],[14.257159,42.446075],[14.151263,42.531564]]]},"properties":{"LOCATION_TYPE":"level1","ADM0_A3":"ITA","LOCATION_ID":"ITA-PE","NAME":"Pescara","TYPE_EN":"Province"}},
{"type":"Feature","geometry":{"type":"Polygon","coordinates":[[[14.257159,42.446075],[14.167537,42.426194],[14.07356,42.314079],[14.125547,42.231747],[14.085381,42.086684],[14.08158,42.00522],[14.117175,41.889523],[14.229411,41.877366],[14.282871,41.906233],[14.432944,41.83703],[14.490381,41.776079],[14.744341,42.013042],[14.763357,42.077948],[14.717052,42.160061],[14.560232,42.225653],[14.38738,42.372952],[14.257159,42.446075]]]},"properties":{"LOCATION_TYPE":"level1","ADM0_A3":"ITA","LOCATION_ID":"ITA-CH","NAME":"Chieti","TYPE_EN":"Province"}},
{"type":"Feature","geometry":{"type":"Polygon","coordinates":[[[14.763357,42.077948],[14.744341,42.013042],[14.490381,41.776079],[14.508508,41.690484],[14.423189,41.644495],[14.500379,41.604527],[14.382695,41.441961],[14.513848,41.389031],[14.602354,41.37311],[14.827024,41.425691],[14.995291,41.482073],[14.935042,41.525996],[14.933943,41.620094],[15.017615,41.619732],[15.107329,41.727475],[15.106077,41.829768],[15.14354,41.931183],[14.993663,42.010647],[14.871104,42.031806],[14.763357,42.077948]]]},"properties":{"LOCATION_TYPE":"level1","ADM0_A3":"ITA","LOCATION_ID":"ITA-CB","NAME":"Campobasso","TYPE_EN":"Province"}},
{"type":"Feature","geometry":{"type":"Polygon","coordinates":[[[15.14354,41.931183],[15.106077,41.829768],[15.107329,41.727475],[15.017615,41.619732],[14.933943,41.620094],[14.935042,41.525996],[14.995291,41.482073],[15.09364,41.430239],[15.071931,41.335405],[15.143452,41.274618],[15.252063,41.258831],[15.208931,41.149429],[15.287615,41.102506],[15.41176,41.103923],[15.55856,41.055122],[15.596397,41.109351],[15.771101,41.10455],[15.858333,41.136817],[16.020183,41.235199],[15.961121,41.421033],[15.971734,41.453904],[15.911794,41.502875],[15.891368,41.57685],[15.925304,41.640041],[16.027517,41.679918],[16.192882,41.79092],[16.140473,41.919908],[16.02711,41.944078],[15.774425,41.92121],[15.611339,41.928046],[15.446056,41.906928],[15.14354,41.931183]]]},"properties":{"LOCATION_TYPE":"level1","ADM0_A3":"ITA","LOCATION_ID":"ITA-FG","NAME":"Foggia","TYPE_EN":"Province"}},
{"type":"Feature","geometry":{"type":"Polygon","coordinates":[[[15.971734,41.453904],[15.961121,41.421033],[16.020183,41.235199],[15.858333,41.136817],[16.031345,41.016923],[15.987576,40.949906],[16.119038,40.90417],[16.196624,40.911432],[16.253269,40.972263],[16.335271,41.153494],[16.393982,41.188233],[16.500374,41.151912],[16.544164,41.235194],[16.021658,41.427802],[15.971734,41.453904]]]},"properties":{"LOCATION_TYPE":"level1","ADM0_A3":"ITA","LOCATION_ID":"ITA-BT","NAME":"Barletta-Andria Trani","TYPE_EN":"Province"}},
{"type":"Feature","geometry":{"type":"Polygon","coordinates":[[[16.544164,41.235194],[16.500374,41.151912],[16.393982,41.188233],[16.335271,41.153494],[16.253269,40.972263],[16.196624,40.911432],[16.245401,40.837547],[16.396443,40.712964],[16.497781,40.757821],[16.621026,40.758491],[16.715662,40.715392],[16.78615,40.732223],[16.923084,40.700879],[17.150193,40.713557],[17.257551,40.76494],[17.353682,40.74856],[17.31791,40.832781],[17.39226,40.893686],[17.276378,40.980211],[17.05714,41.081855],[16.593923,41.206977],[16.544164,41.235194]]]},"properties":{"LOCATION_TYPE":"level1","ADM0_A3":"ITA","LOCATION_ID":"ITA-BA","NAME":"Bari","TYPE_EN":"Province"}},
{"type":"Feature","geometry":{"type":"Polygon","coordinates":[[[17.39226,40.893686],[17.31791,40.832781],[17.353682,40.74856],[17.465017,40.593037],[17.485298,40.487535],[17.567827,40.434867],[17.612717,40.464168],[17.798496,40.379584],[17.943428,40.43223],[18.098928,40.517934],[18.037446,40.556952],[18.007009,40.650702],[17.843923,40.694159],[17.748383,40.747626],[17.476085,40.830146],[17.39226,40.893686]]]},"properties":{"LOCATION_TYPE":"level1","ADM0_A3":"ITA","LOCATION_ID":"ITA-BR","NAME":"Brindisi","TYPE_EN":"Province"}},
{"type":"Feature","geometry":{"type":"Polygon","coordinates":[[[18.098928,40.517934],[17.943428,40.43223],[17.798496,40.379584],[17.764022,40.293433],[17.912771,40.255316],[17.926036,40.176256],[17.997244,40.120429],[18.007335,39.98607],[18.071544,39.911526],[18.211274,39.839342],[18.383962,39.81391],[18.392589,39.916083],[18.434093,40.022528],[18.517426,40.114163],[18.437266,40.26789],[18.303233,40.399888],[18.098928,40.517934]]]},"properties":{"LOCATION_TYPE":"level1","ADM0_A3":"ITA","LOCATION_ID":"ITA-LE","NAME":"Lecce","TYPE_EN":"Province"}},
{"type":"Feature","geometry":{"type":"Polygon","coordinates":[[[17.764022,40.293433],[17.798496,40.379584],[17.612717,40.464168],[17.567827,40.434867],[17.485298,40.487535],[17.465017,40.593037],[17.353682,40.74856],[17.257551,40.76494],[17.150193,40.713557],[16.923084,40.700879],[16.78615,40.732223],[16.715662,40.715392],[16.711311,40.551531],[16.863277,40.39092],[16.976085,40.492621],[17.049571,40.51911],[17.247406,40.502834],[17.212901,40.406195],[17.512055,40.303697],[17.764022,40.293433]]]},"properties":{"LOCATION_TYPE":"level1","ADM0_A3":"ITA","LOCATION_ID":"ITA-TA","NAME":"Taranto","TYPE_EN":"Province"}},
{"type":"Feature","geometry":{"type":"Polygon","coordinates":[[[16.863277,40.39092],[16.711311,40.551531],[16.715662,40.715392],[16.621026,40.758491],[16.497781,40.757821],[16.396443,40.712964],[16.245401,40.837547],[16.121521,40.796109],[16.145845,40.695737],[16.056196,40.656362],[16.11917,40.582677],[16.095813,40.529273],[16.175706,40.298845],[16.233757,40.265084],[16.319341,40.280114],[16.39418,40.157693],[16.355684,40.117922],[16.398821,40.05553],[16.417581,40.129282],[16.640049,40.118749],[16.737559,40.211005],[16.782725,40.301581],[16.863277,40.39092]]]},"properties":{"LOCATION_TYPE":"level1","ADM0_A3":"ITA","LOCATION_ID":"ITA-MT","NAME":"Matera","TYPE_EN":"Province"}},
{"type":"Feature","geometry":{"type":"Polygon","coordinates":[[[16.640049,40.118749],[16.417581,40.129282],[16.398821,40.05553],[16.345291,39.93255],[16.068919,39.906688],[15.951936,40.004379],[15.858333,40.00818],[15.745808,39.924604],[15.781912,39.868598],[15.806407,39.695502],[15.867524,39.56391],[15.995396,39.438768],[16.034027,39.345242],[16.096888,39.050413],[16.261575,39.104104],[16.480906,39.064652],[16.498462,39.155487],[16.613181,39.194269],[16.765628,39.215758],[16.73324,39.359163],[16.85721,39.348638],[16.964524,39.403888],[17.019201,39.479223],[16.846202,39.55268],[16.749766,39.620022],[16.624848,39.625312],[16.515636,39.689602],[16.49171,39.805487],[16.631602,39.966213],[16.596934,40.04678],[16.640049,40.118749]]]},"properties":{"LOCATION_TYPE":"level1","ADM0_A3":"ITA","LOCATION_ID":"ITA-CS","NAME":"Cosenza","TYPE_EN":"Province"}},
{"type":"Feature","geometry":{"type":"Polygon","coordinates":[[[17.019201,39.479223],[16.964524,39.403888],[16.85721,39.348638],[16.73324,39.359163],[16.765628,39.215758],[16.613181,39.194269],[16.67721,39.094821],[16.87448,39.015115],[16.892235,38.929605],[17.021983,38.905951],[17.127696,38.928778],[17.172374,39.005194],[17.124522,39.090888],[17.145681,39.210679],[17.122244,39.338324],[17.158702,39.406195],[17.019201,39.479223]]]},"properties":{"LOCATION_TYPE":"level1","ADM0_A3":"ITA","LOCATION_ID":"ITA-KR","NAME":"Crotene","TYPE_EN":"Province"}},
{"type":"Feature","geometry":{"type":"Polygon","coordinates":[[[16.892235,38.929605],[16.87448,39.015115],[16.67721,39.094821],[16.613181,39.194269],[16.498462,39.155487],[16.480906,39.064652],[16.261575,39.104104],[16.096888,39.050413],[16.220063,38.899075],[16.213689,38.8104],[16.292732,38.821711],[16.372471,38.767505],[16.332239,38.660817],[16.41991,38.553964],[16.426546,38.517192],[16.573492,38.467325],[16.538829,38.723334],[16.610606,38.816555],[16.727794,38.878852],[16.892235,38.929605]]]},"properties":{"LOCATION_TYPE":"level1","ADM0_A3":"ITA","LOCATION_ID":"ITA-CZ","NAME":"Catanzaro","TYPE_EN":"Province"}},
{"type":"Feature","geometry":{"type":"Polygon","coordinates":[[[16.573492,38.467325],[16.426546,38.517192],[16.41991,38.553964],[16.350432,38.514182],[16.390357,38.450989],[16.276253,38.441211],[16.232879,38.496857],[16.082959,38.5547],[15.914422,38.505622],[15.786469,38.278022],[15.650564,38.241034],[15.627452,38.107367],[15.665782,37.966864],[15.761485,37.925238],[16.090017,37.949205],[16.169444,38.143215],[16.339854,38.300849],[16.467052,38.3487],[16.561371,38.416327],[16.573492,38.467325]]]},"properties":{"LOCATION_TYPE":"level1","ADM0_A3":"ITA","LOCATION_ID":"ITA-RC","NAME":"Reggio Calabria","TYPE_EN":"Province"}},
{"type":"Feature","geometry":{"type":"Polygon","coordinates":[[[15.914422,38.505622],[16.082959,38.5547],[16.232879,38.496857],[16.276253,38.441211],[16.390357,38.450989],[16.350432,38.514182],[16.41991,38.553964],[16.332239,38.660817],[16.372471,38.767505],[16.292732,38.821711],[16.213689,38.8104],[16.12086,38.720933],[16.002615,38.725409],[15.844493,38.660386],[15.914422,38.505622]]]},"properties":{"LOCATION_TYPE":"level1","ADM0_A3":"ITA","LOCATION_ID":"ITA-VV","NAME":"Vibo Valentia","TYPE_EN":"Province"}},
{"type":"Feature","geometry":{"type":"Polygon","coordinates":[[[15.745808,39.924604],[15.858333,40.00818],[15.951936,40.004379],[16.068919,39.906688],[16.345291,39.93255],[16.398821,40.05553],[16.355684,40.117922],[16.39418,40.157693],[16.319341,40.280114],[16.233757,40.265084],[16.175706,40.298845],[16.095813,40.529273],[16.11917,40.582677],[16.056196,40.656362],[16.145845,40.695737],[16.121521,40.796109],[16.245401,40.837547],[16.196624,40.911432],[16.119038,40.90417],[15.987576,40.949906],[16.031345,41.016923],[15.858333,41.136817],[15.771101,41.10455],[15.596397,41.109351],[15.55856,41.055122],[15.544036,40.943941],[15.470867,40.901797],[15.369221,40.898952],[15.34426,40.820685],[15.378516,40.7294],[15.489478,40.653748],[15.445598,40.605661],[15.517581,40.564703],[15.5922,40.433296],[15.70626,40.37431],[15.785427,40.268864],[15.775452,40.219821],[15.693999,40.162044],[15.646651,40.046932],[15.745808,39.924604]]]},"properties":{"LOCATION_TYPE":"level1","ADM0_A3":"ITA","LOCATION_ID":"ITA-PZ","NAME":"Potenza","TYPE_EN":"Province"}},
{"type":"Feature","geometry":{"type":"Polygon","coordinates":[[[15.646651,40.046932],[15.693999,40.162044],[15.775452,40.219821],[15.785427,40.268864],[15.70626,40.37431],[15.5922,40.433296],[15.517581,40.564703],[15.445598,40.605661],[15.489478,40.653748],[15.378516,40.7294],[15.34426,40.820685],[15.252547,40.787935],[15.237385,40.723489],[14.907796,40.806985],[14.762315,40.805842],[14.701099,40.848931],[14.60554,40.847645],[14.525339,40.777553],[14.582205,40.686827],[14.471365,40.624661],[14.5442,40.613593],[14.752208,40.676703],[14.888845,40.573065],[14.998267,40.397559],[14.932384,40.333726],[14.911143,40.241645],[15.034923,40.17536],[15.127208,40.169623],[15.263438,40.073717],[15.283051,40.029853],[15.4101,39.99397],[15.534923,40.077786],[15.646651,40.046932]]]},"properties":{"LOCATION_TYPE":"level1","ADM0_A3":"ITA","LOCATION_ID":"ITA-SA","NAME":"Salerno","TYPE_EN":"Province"}},
{"type":"Feature","geometry":{"type":"Polygon","coordinates":[[[14.471365,40.624661],[14.582205,40.686827],[14.525339,40.777553],[14.60554,40.847645],[14.571965,41.00954],[14.531316,41.013352],[14.473638,40.981602],[14.314885,41.004849],[14.272874,40.947039],[14.140378,40.979053],[14.010078,40.936831],[14.052257,40.837592],[14.203461,40.801215],[14.2942,40.838772],[14.474132,40.729682],[14.379731,40.633857],[14.471365,40.624661]]]},"properties":{"LOCATION_TYPE":"level1","ADM0_A3":"ITA","LOCATION_ID":"ITA-NA","NAME":"Napoli","TYPE_EN":"Province"}},
{"type":"Feature","geometry":{"type":"Polygon","coordinates":[[[14.010078,40.936831],[14.140378,40.979053],[14.272874,40.947039],[14.314885,41.004849],[14.473638,40.981602],[14.531316,41.013352],[14.42198,41.060615],[14.420398,41.243087],[14.488074,41.306973],[14.513848,41.389031],[14.382695,41.441961],[14.222512,41.494806],[14.120867,41.495663],[14.039282,41.394578],[13.961807,41.470702],[13.8597,41.419231],[13.872576,41.335405],[13.804922,41.253733],[13.743664,41.237603],[13.851725,41.147316],[14.010078,40.936831]]]},"properties":{"LOCATION_TYPE":"level1","ADM0_A3":"ITA","LOCATION_ID":"ITA-CE","NAME":"Caserta","TYPE_EN":"Province"}},
{"type":"Feature","geometry":{"type":"Polygon","coordinates":[[[13.743664,41.237603],[13.804922,41.253733],[13.872576,41.335405],[13.757703,41.312554],[13.707385,41.347227],[13.608662,41.331395],[13.549644,41.415364],[13.467708,41.454629],[13.419851,41.400093],[13.318074,41.401653],[13.265779,41.52771],[13.175208,41.583598],[13.103731,41.545431],[13.020081,41.577786],[12.934541,41.709622],[12.853528,41.701294],[12.847573,41.640683],[12.746982,41.573754],[12.602842,41.555648],[12.756453,41.463396],[12.774405,41.42094],[12.893565,41.399319],[12.979503,41.331],[13.044607,41.227525],[13.204845,41.283759],[13.324392,41.294827],[13.514415,41.229682],[13.594412,41.253119],[13.743664,41.237603]]]},"properties":{"LOCATION_TYPE":"level1","ADM0_A3":"ITA","LOCATION_ID":"ITA-LT","NAME":"Latina","TYPE_EN":"Province"}},
{"type":"Feature","geometry":{"type":"Polygon","coordinates":[[[12.774405,41.42094],[12.756453,41.463396],[12.602842,41.555648],[12.746982,41.573754],[12.847573,41.640683],[12.853528,41.701294],[12.934541,41.709622],[13.020081,41.577786],[13.103731,41.545431],[13.175208,41.583598],[13.147148,41.653251],[13.018586,41.752908],[13.007468,41.814871],[13.082637,41.858014],[13.184436,41.848247],[13.297857,41.947046],[13.097051,42.023666],[13.02843,42.031928],[13.029582,42.115643],[12.865569,42.106514],[12.764956,42.187263],[12.695347,42.14646],[12.624661,42.174706],[12.602205,42.277538],[12.520399,42.295772],[12.434839,42.185901],[12.303113,42.152975],[12.271516,42.179397],[12.116565,42.150833],[12.012568,42.159347],[11.914109,42.233362],[11.842852,42.162742],[11.739819,42.159937],[11.827485,42.034166],[11.91684,42.037909],[12.147472,41.903469],[12.239024,41.736274],[12.342784,41.702297],[12.448009,41.630764],[12.619395,41.459133],[12.774405,41.42094]]]},"properties":{"LOCATION_TYPE":"level1","ADM0_A3":"ITA","LOCATION_ID":"ITA-RM","NAME":"Roma","TYPE_EN":"Province"}},
{"type":"Feature","geometry":{"type":"Polygon","coordinates":[[[11.739819,42.159937],[11.842852,42.162742],[11.914109,42.233362],[12.012568,42.159347],[12.116565,42.150833],[12.271516,42.179397],[12.303113,42.152975],[12.434839,42.185901],[12.520399,42.295772],[12.465133,42.386932],[12.451516,42.42103],[12.280217,42.510404],[12.235833,42.64758],[12.156555,42.67543],[12.033662,42.64603],[11.930303,42.709103],[11.973918,42.755971],[11.889016,42.850387],[11.747227,42.798477],[11.807893,42.738349],[11.786909,42.651249],[11.671157,42.577036],[11.588166,42.566138],[11.590166,42.441959],[11.498145,42.434049],[11.451496,42.374371],[11.658214,42.279364],[11.739819,42.159937]]]},"properties":{"LOCATION_TYPE":"level1","ADM0_A3":"ITA","LOCATION_ID":"ITA-VT","NAME":"Viterbo","TYPE_EN":"Province"}},
{"type":"Feature","geometry":{"type":"Polygon","coordinates":[[[11.451496,42.374371],[11.498145,42.434049],[11.590166,42.441959],[11.588166,42.566138],[11.671157,42.577036],[11.786909,42.651249],[11.807893,42.738349],[11.747227,42.798477],[11.635012,42.799751],[11.611875,42.947869],[11.507966,42.980103],[11.449365,42.954043],[11.358926,42.999614],[11.361013,43.083253],[11.080906,43.087967],[11.059548,43.176549],[10.91165,43.162564],[10.737385,43.145601],[10.71728,43.108478],[10.787747,43.055678],[10.705054,42.940938],[10.77768,42.894721],[10.731293,42.804429],[10.89088,42.763902],[10.990001,42.710273],[11.18686,42.520819],[11.164191,42.439828],[11.376638,42.406887],[11.451496,42.374371]]]},"properties":{"LOCATION_TYPE":"level1","ADM0_A3":"ITA","LOCATION_ID":"ITA-GR","NAME":"Grosseto","TYPE_EN":"Province"}},
{"type":"Feature","geometry":{"type":"MultiPolygon","coordinates":[[[[10.705054,42.940938],[10.787747,43.055678],[10.71728,43.108478],[10.645737,43.158224],[10.685925,43.213958],[10.678367,43.309572],[10.541367,43.318317],[10.492742,43.400396],[10.467473,43.636305],[10.293418,43.57913],[10.317231,43.492621],[10.437022,43.388577],[10.516938,43.266791],[10.54656,43.147121],[10.499522,42.940497],[10.583263,42.959703],[10.705054,42.940938]]],[[[10.44337,42.845445],[10.399913,42.868842],[10.26588,42.804429],[10.111664,42.801256],[10.147227,42.737291],[10.337901,42.764838],[10.44337,42.845445]]]]},"properties":{"LOCATION_TYPE":"level1","ADM0_A3":"ITA","LOCATION_ID":"ITA-LI","NAME":"Livorno","TYPE_EN":"Province"}},
{"type":"Feature","geometry":{"type":"Polygon","coordinates":[[[10.293418,43.57913],[10.467473,43.636305],[10.492742,43.400396],[10.541367,43.318317],[10.678367,43.309572],[10.685925,43.213958],[10.645737,43.158224],[10.71728,43.108478],[10.737385,43.145601],[10.91165,43.162564],[10.929294,43.232063],[10.994465,43.269417],[10.95531,43.325392],[11.004814,43.383246],[10.952124,43.452229],[10.860476,43.472005],[10.828923,43.622726],[10.907256,43.680119],[10.793328,43.719384],[10.711106,43.786345],[10.603704,43.75755],[10.479492,43.755551],[10.420671,43.824732],[10.261771,43.816128],[10.293418,43.57913]]]},"properties":{"LOCATION_TYPE":"level1","ADM0_A3":"ITA","LOCATION_ID":"ITA-PI","NAME":"Pisa","TYPE_EN":"Province"}},
{"type":"Feature","geometry":{"type":"Polygon","coordinates":[[[10.261771,43.816128],[10.420671,43.824732],[10.479492,43.755551],[10.603704,43.75755],[10.711106,43.786345],[10.727805,43.814119],[10.652812,43.869534],[10.668655,43.974871],[10.735891,44.032077],[10.702031,44.093974],[10.610537,44.125702],[10.483931,44.186808],[10.47123,44.22459],[10.350974,44.274918],[10.253944,44.270604],[10.192529,44.211516],[10.185564,44.135941],[10.232102,44.083383],[10.143297,43.975092],[10.210134,43.920233],[10.261771,43.816128]]]},"properties":{"LOCATION_TYPE":"level1","ADM0_A3":"ITA","LOCATION_ID":"ITA-LU","NAME":"Lucca","TYPE_EN":"Province"}},
{"type":"Feature","geometry":{"type":"Polygon","coordinates":[[[10.143297,43.975092],[10.232102,44.083383],[10.185564,44.135941],[10.192529,44.211516],[10.253944,44.270604],[10.135708,44.341814],[10.072602,44.35213],[9.935559,44.470387],[9.835649,44.476254],[9.689773,44.357656],[9.852085,44.252594],[9.896953,44.168878],[10.056892,44.094446],[10.028458,44.049255],[10.143297,43.975092]]]},"properties":{"LOCATION_TYPE":"level1","ADM0_A3":"ITA","LOCATION_ID":"ITA-MS","NAME":"Massa-Carrara","TYPE_EN":"Province"}},
{"type":"Feature","geometry":{"type":"Polygon","coordinates":[[[10.028458,44.049255],[10.056892,44.094446],[9.896953,44.168878],[9.852085,44.252594],[9.689773,44.357656],[9.59852,44.427156],[9.476396,44.412478],[9.503445,44.327971],[9.562309,44.283411],[9.511241,44.215237],[9.771821,44.079413],[9.844737,44.108629],[9.962738,44.044664],[10.028458,44.049255]]]},"properties":{"LOCATION_TYPE":"level1","ADM0_A3":"ITA","LOCATION_ID":"ITA-SP","NAME":"La Spezia","TYPE_EN":"Province"}},
{"type":"Feature","geometry":{"type":"Polygon","coordinates":[[[9.511241,44.215237],[9.562309,44.283411],[9.503445,44.327971],[9.476396,44.412478],[9.450974,44.468706],[9.491335,44.551048],[9.414192,44.594071],[9.203144,44.613759],[9.14852,44.581107],[8.959226,44.682599],[8.878037,44.639994],[8.833235,44.561002],[8.613047,44.587512],[8.564158,44.516244],[8.650818,44.488668],[8.587668,44.424651],[8.630561,44.381895],[8.724783,44.423977],[8.826996,44.428453],[9.130056,44.363349],[9.230642,44.353705],[9.511241,44.215237]]]},"properties":{"LOCATION_TYPE":"level1","ADM0_A3":"ITA","LOCATION_ID":"ITA-GE","NAME":"Genova","TYPE_EN":"Province"}},
{"type":"Feature","geometry":{"type":"Polygon","coordinates":[[[8.630561,44.381895],[8.587668,44.424651],[8.650818,44.488668],[8.564158,44.516244],[8.389914,44.50684],[8.265461,44.521737],[8.249751,44.534591],[8.205827,44.422432],[8.07164,44.311459],[8.077529,44.18583],[8.002119,44.11844],[7.992165,44.021332],[8.130226,43.940343],[8.233165,44.103583],[8.408214,44.193508],[8.466075,44.304267],[8.630561,44.381895]]]},"properties":{"LOCATION_TYPE":"level1","ADM0_A3":"ITA","LOCATION_ID":"ITA-SV","NAME":"Savona","TYPE_EN":"Province"}},
{"type":"Feature","geometry":{"type":"Polygon","coordinates":[[[12.893891,37.573289],[12.90613,37.688977],[13.027463,37.740701],[13.08846,37.770287],[12.94634,37.843335],[13.048228,37.954033],[12.976111,38.044204],[12.901134,38.028062],[12.725352,38.125922],[12.576345,38.071723],[12.504161,38.011217],[12.427013,37.797024],[12.489024,37.682685],[12.594737,37.637885],[12.697765,37.56273],[12.893891,37.573289]]]},"properties":{"LOCATION_TYPE":"level1","ADM0_A3":"ITA","LOCATION_ID":"ITA-TP","NAME":"Trapani","TYPE_EN":"Province"}},
{"type":"Feature","geometry":{"type":"Polygon","coordinates":[[[14.179582,38.025692],[14.276389,37.920811],[14.279949,37.84016],[14.408753,37.861045],[14.461838,37.804443],[14.535557,37.869362],[14.602947,37.808289],[14.74221,37.818198],[14.761018,37.929885],[14.830891,37.963229],[14.928999,37.956604],[14.979514,37.892697],[15.097024,37.904045],[15.187024,37.873503],[15.259932,37.807769],[15.392589,37.976142],[15.500336,38.084947],[15.583751,38.240424],[15.512869,38.297593],[15.399669,38.232571],[15.245372,38.217231],[15.177419,38.156317],[15.087901,38.128241],[14.907074,38.18769],[14.733735,38.15762],[14.634613,38.081488],[14.511729,38.044379],[14.431895,38.049384],[14.273204,38.015123],[14.179582,38.025692]]]},"properties":{"LOCATION_TYPE":"level1","ADM0_A3":"ITA","LOCATION_ID":"ITA-ME","NAME":"Messina","TYPE_EN":"Province"}},
{"type":"Feature","geometry":{"type":"Polygon","coordinates":[[[12.976111,38.044204],[13.048228,37.954033],[12.94634,37.843335],[13.08846,37.770287],[13.027463,37.740701],[13.075166,37.69592],[13.201575,37.674497],[13.227656,37.628904],[13.4449,37.647668],[13.599565,37.644021],[13.73239,37.682989],[13.811272,37.726946],[13.881541,37.675574],[13.906502,37.60692],[13.974705,37.583179],[14.084722,37.642823],[14.134929,37.616753],[14.173755,37.671432],[14.26481,37.703018],[14.279949,37.84016],[14.276389,37.920811],[14.179582,38.025692],[14.020518,38.049384],[13.790782,37.973619],[13.651134,38.000963],[13.547374,38.05622],[13.51352,38.110541],[13.391368,38.103176],[13.371918,38.172797],[13.310232,38.21955],[13.207205,38.176093],[13.100922,38.19009],[13.069672,38.091132],[12.976111,38.044204]]]},"properties":{"LOCATION_TYPE":"level1","ADM0_A3":"ITA","LOCATION_ID":"ITA-PA","NAME":"Palermo","TYPE_EN":"Province"}},
{"type":"Feature","geometry":{"type":"Polygon","coordinates":[[[14.039304,37.114472],[13.990525,37.188396],[14.019529,37.277792],[13.882112,37.360299],[13.838782,37.436226],[13.738367,37.43249],[13.685369,37.498859],[13.733049,37.585244],[13.820281,37.630068],[13.73239,37.682989],[13.599565,37.644021],[13.4449,37.647668],[13.227656,37.628904],[13.201575,37.674497],[13.075166,37.69592],[13.027463,37.740701],[12.90613,37.688977],[12.893891,37.573289],[12.974132,37.55744],[13.026378,37.493232],[13.174083,37.487006],[13.278005,37.393704],[13.452647,37.298814],[13.569184,37.273505],[13.683442,37.189358],[13.894379,37.100816],[14.039304,37.114472]]]},"properties":{"LOCATION_TYPE":"level1","ADM0_A3":"ITA","LOCATION_ID":"ITA-AG","NAME":"Agrigento","TYPE_EN":"Province"}},
{"type":"Feature","geometry":{"type":"Polygon","coordinates":[[[14.334587,37.000579],[14.444019,37.052858],[14.472341,37.134167],[14.388845,37.183947],[14.352546,37.306038],[14.267337,37.340666],[14.169932,37.32522],[14.090061,37.346006],[14.077031,37.429084],[14.1424,37.483467],[14.134929,37.616753],[14.084722,37.642823],[13.974705,37.583179],[13.906502,37.60692],[13.881541,37.675574],[13.811272,37.726946],[13.73239,37.682989],[13.820281,37.630068],[13.733049,37.585244],[13.685369,37.498859],[13.738367,37.43249],[13.838782,37.436226],[13.882112,37.360299],[14.019529,37.277792],[13.990525,37.188396],[14.039304,37.114472],[14.126313,37.11225],[14.334587,37.000579]]]},"properties":{"LOCATION_TYPE":"level1","ADM0_A3":"ITA","LOCATION_ID":"ITA-CL","NAME":"Caltanissetta","TYPE_EN":"Province"}},
{"type":"Feature","geometry":{"type":"Polygon","coordinates":[[[15.00031,36.702368],[14.970198,36.794855],[14.862598,36.824045],[14.928713,36.88168],[14.901775,36.990554],[14.835286,37.04152],[14.793735,37.131981],[14.704461,37.123214],[14.570823,37.055923],[14.444019,37.052858],[14.334587,37.000579],[14.394542,36.945014],[14.487315,36.793362],[14.658946,36.753811],[14.780772,36.699368],[14.882172,36.730658],[15.00031,36.702368]]]},"properties":{"LOCATION_TYPE":"level1","ADM0_A3":"ITA","LOCATION_ID":"ITA-RG","NAME":"Ragusa","TYPE_EN":"Province"}},
{"type":"Feature","geometry":{"type":"Polygon","coordinates":[[[15.092535,37.358784],[14.901072,37.410254],[14.807468,37.316958],[14.857346,37.27109],[14.785364,37.208215],[14.793735,37.131981],[14.835286,37.04152],[14.901775,36.990554],[14.928713,36.88168],[14.862598,36.824045],[14.970198,36.794855],[15.00031,36.702368],[15.073578,36.659125],[15.134939,36.68769],[15.094005,36.799547],[15.174653,36.944078],[15.329438,37.027737],[15.303233,37.101223],[15.246593,37.118232],[15.183442,37.207465],[15.217459,37.28498],[15.092535,37.358784]]]},"properties":{"LOCATION_TYPE":"level1","ADM0_A3":"ITA","LOCATION_ID":"ITA-SR","NAME":"Siracusa","TYPE_EN":"Province"}},
{"type":"Feature","geometry":{"type":"Polygon","coordinates":[[[15.259932,37.807769],[15.187024,37.873503],[15.097024,37.904045],[14.979514,37.892697],[14.928999,37.956604],[14.830891,37.963229],[14.761018,37.929885],[14.74221,37.818198],[14.714898,37.697437],[14.791868,37.659709],[14.835615,37.596582],[14.772092,37.502385],[14.690288,37.555856],[14.542918,37.542518],[14.578821,37.451277],[14.570823,37.36176],[14.352546,37.306038],[14.388845,37.183947],[14.472341,37.134167],[14.444019,37.052858],[14.570823,37.055923],[14.704461,37.123214],[14.793735,37.131981],[14.785364,37.208215],[14.857346,37.27109],[14.807468,37.316958],[14.901072,37.410254],[15.092535,37.358784],[15.09669,37.494452],[15.163829,37.567694],[15.259932,37.807769]]]},"properties":{"LOCATION_TYPE":"level1","ADM0_A3":"ITA","LOCATION_ID":"ITA-CT","NAME":"Catania","TYPE_EN":"Province"}},
{"type":"Feature","geometry":{"type":"MultiPolygon","coordinates":[[[[8.455903,39.073554],[8.349294,39.062161],[8.437022,38.96719],[8.455903,39.073554]]],[[[8.610337,38.954893],[8.657629,39.03556],[8.81425,39.046953],[8.849033,39.087405],[8.755539,39.206013],[8.699267,39.374851],[8.656201,39.378389],[8.530627,39.479441],[8.398064,39.446502],[8.374034,39.378852],[8.426443,39.283271],[8.371755,39.230618],[8.504405,39.062934],[8.559581,39.056708],[8.610337,38.954893]]]]},"properties":{"LOCATION_TYPE":"level1","ADM0_A3":"ITA","LOCATION_ID":"ITA-CI","NAME":"Carbonia-Iglesias","TYPE_EN":"Province"}},
{"type":"Feature","geometry":{"type":"Polygon","coordinates":[[[8.392116,40.412321],[8.529639,40.411895],[8.62032,40.318785],[8.805615,40.362698],[8.941318,40.372761],[9.000249,40.316973],[9.183303,40.371058],[9.25845,40.505191],[9.189477,40.536754],[9.182248,40.64731],[9.019036,40.678203],[9.025869,40.78298],[8.966565,40.952752],[8.81125,40.94083],[8.640961,40.89647],[8.520518,40.826972],[8.310232,40.850653],[8.233165,40.910102],[8.1338,40.728909],[8.192149,40.694159],[8.140636,40.62519],[8.216319,40.570624],[8.312022,40.57807],[8.392116,40.412321]]]},"properties":{"LOCATION_TYPE":"level1","ADM0_A3":"ITA","LOCATION_ID":"ITA-SS","NAME":"Sassari","TYPE_EN":"Province"}},
{"type":"Feature","geometry":{"type":"Polygon","coordinates":[[[9.748844,40.660342],[9.574416,40.689783],[9.503708,40.64843],[9.424036,40.653528],[9.319138,40.550169],[9.189477,40.536754],[9.25845,40.505191],[9.183303,40.371058],[9.000249,40.316973],[8.941318,40.372761],[8.805615,40.362698],[8.62032,40.318785],[8.671604,40.222622],[8.767822,40.198013],[8.964763,40.215239],[9.00093,40.199705],[9.043645,40.06978],[8.985329,40.052532],[9.003127,39.917422],[9.15821,39.863138],[9.159265,39.829575],[9.196113,39.891736],[9.2804,39.917323],[9.318039,39.985724],[9.300308,40.0426],[9.4272,40.102761],[9.53291,40.216162],[9.627177,40.224523],[9.62615,40.263088],[9.74936,40.377265],[9.826671,40.519599],[9.753184,40.605292],[9.748844,40.660342]]]},"properties":{"LOCATION_TYPE":"level1","ADM0_A3":"ITA","LOCATION_ID":"ITA-NU","NAME":"Nuoro","TYPE_EN":"Province"}},
{"type":"Feature","geometry":{"type":"Polygon","coordinates":[[[8.81125,40.94083],[8.966565,40.952752],[9.025869,40.78298],[9.019036,40.678203],[9.182248,40.64731],[9.189477,40.536754],[9.319138,40.550169],[9.424036,40.653528],[9.503708,40.64843],[9.574416,40.689783],[9.748844,40.660342],[9.661794,40.809027],[9.683116,40.865424],[9.573253,40.906399],[9.587576,40.995795],[9.543142,41.036933],[9.546153,41.120917],[9.230642,41.262641],[9.171072,41.242906],[9.157563,41.168891],[9.02475,41.128852],[8.81125,40.94083]]]},"properties":{"LOCATION_TYPE":"level1","ADM0_A3":"ITA","LOCATION_ID":"ITA-OT","NAME":"Olbia-Tempio","TYPE_EN":"Province"}},
{"type":"Feature","geometry":{"type":"Polygon","coordinates":[[[8.54852,39.697913],[8.677119,39.633975],[8.843826,39.667461],[8.932991,39.779005],[9.003281,39.760515],[9.062893,39.816524],[9.159265,39.829575],[9.15821,39.863138],[9.003127,39.917422],[8.985329,40.052532],[9.043645,40.06978],[9.00093,40.199705],[8.964763,40.215239],[8.767822,40.198013],[8.671604,40.222622],[8.62032,40.318785],[8.529639,40.411895],[8.392116,40.412321],[8.385997,40.351793],[8.462901,40.314521],[8.459646,40.21601],[8.490001,40.104478],[8.401378,40.049872],[8.398285,39.905341],[8.494151,39.912421],[8.555186,39.852688],[8.535492,39.770819],[8.504405,39.721503],[8.54852,39.697913]]]},"properties":{"LOCATION_TYPE":"level1","ADM0_A3":"ITA","LOCATION_ID":"ITA-OR","NAME":"Oristrano","TYPE_EN":"Province"}},
{"type":"Feature","geometry":{"type":"Polygon","coordinates":[[[8.398064,39.446502],[8.530627,39.479441],[8.656201,39.378389],[8.699267,39.374851],[8.78217,39.403657],[8.929958,39.399537],[9.00449,39.477441],[8.995701,39.546304],[9.042217,39.639457],[9.057795,39.752902],[9.003281,39.760515],[8.932991,39.779005],[8.843826,39.667461],[8.677119,39.633975],[8.54852,39.697913],[8.516938,39.702135],[8.444021,39.757025],[8.46339,39.57685],[8.398064,39.446502]]]},"properties":{"LOCATION_TYPE":"level1","ADM0_A3":"ITA","LOCATION_ID":"ITA-VS","NAME":"Medio Campidano","TYPE_EN":"Province"}},
{"type":"Feature","geometry":{"type":"Polygon","coordinates":[[[9.6463,39.549088],[9.551125,39.575538],[9.399448,39.649795],[9.354448,39.775577],[9.272974,39.850724],[9.2804,39.917323],[9.196113,39.891736],[9.159265,39.829575],[9.062893,39.816524],[9.003281,39.760515],[9.057795,39.752902],[9.042217,39.639457],[8.995701,39.546304],[9.00449,39.477441],[8.929958,39.399537],[8.78217,39.403657],[8.699267,39.374851],[8.755539,39.206013],[8.849033,39.087405],[8.81425,39.046953],[8.657629,39.03556],[8.610337,38.954893],[8.841482,38.880561],[9.018321,38.995307],[9.044932,39.051256],[9.018321,39.146145],[9.078949,39.212348],[9.166026,39.187079],[9.252452,39.225165],[9.345063,39.196438],[9.450369,39.124416],[9.557791,39.139716],[9.567556,39.238105],[9.644867,39.483954],[9.6463,39.549088]]]},"properties":{"LOCATION_TYPE":"level1","ADM0_A3":"ITA","LOCATION_ID":"ITA-CA","NAME":"Cagliari","TYPE_EN":"Province"}},
{"type":"Feature","geometry":{"type":"Polygon","coordinates":[[[9.627177,40.224523],[9.53291,40.216162],[9.4272,40.102761],[9.300308,40.0426],[9.318039,39.985724],[9.2804,39.917323],[9.272974,39.850724],[9.354448,39.775577],[9.399448,39.649795],[9.551125,39.575538],[9.6463,39.549088],[9.648936,39.638983],[9.696625,39.851874],[9.69337,39.992906],[9.73227,40.08393],[9.654633,40.144599],[9.627177,40.224523]]]},"properties":{"LOCATION_TYPE":"level1","ADM0_A3":"ITA","LOCATION_ID":"ITA-OG","NAME":"Ogliastra","TYPE_EN":"Province"}},
{"type":"Feature","geometry":{"type":"Polygon","coordinates":[[[14.74221,37.818198],[14.602947,37.808289],[14.535557,37.869362],[14.461838,37.804443],[14.408753,37.861045],[14.279949,37.84016],[14.26481,37.703018],[14.173755,37.671432],[14.134929,37.616753],[14.1424,37.483467],[14.077031,37.429084],[14.090061,37.346006],[14.169932,37.32522],[14.267337,37.340666],[14.352546,37.306038],[14.570823,37.36176],[14.578821,37.451277],[14.542918,37.542518],[14.690288,37.555856],[14.772092,37.502385],[14.835615,37.596582],[14.791868,37.659709],[14.714898,37.697437],[14.74221,37.818198]]]},"properties":{"LOCATION_TYPE":"level1","ADM0_A3":"ITA","LOCATION_ID":"ITA-EN","NAME":"Enna","TYPE_EN":"Province"}},
{"type":"Feature","geometry":{"type":"Polygon","coordinates":[[[14.513848,41.389031],[14.488074,41.306973],[14.420398,41.243087],[14.42198,41.060615],[14.531316,41.013352],[14.571965,41.00954],[14.599651,41.051101],[14.834978,41.038478],[14.993665,41.106494],[14.965671,41.175598],[14.991555,41.272036],[15.104099,41.248075],[15.143452,41.274618],[15.071931,41.335405],[15.09364,41.430239],[14.995291,41.482073],[14.827024,41.425691],[14.602354,41.37311],[14.513848,41.389031]]]},"properties":{"LOCATION_TYPE":"level1","ADM0_A3":"ITA","LOCATION_ID":"ITA-BN","NAME":"Benevento","TYPE_EN":"Province"}},
{"type":"Feature","geometry":{"type":"Polygon","coordinates":[[[7.943364,44.846262],[8.02396,44.805855],[8.130879,44.802471],[8.265505,44.702803],[8.197456,44.632754],[8.249751,44.534591],[8.265461,44.521737],[8.346277,44.689817],[8.498855,44.767436],[8.372292,44.86395],[8.388398,44.963377],[8.303232,45.07224],[8.142546,45.049444],[8.129033,45.12303],[8.02886,45.132654],[7.89353,45.090291],[7.938948,45.049532],[7.89074,44.899854],[7.943364,44.846262]]]},"properties":{"LOCATION_TYPE":"level1","ADM0_A3":"ITA","LOCATION_ID":"ITA-AT","NAME":"Asti","TYPE_EN":"Province"}},
{"type":"Feature","geometry":{"type":"Polygon","coordinates":[[[10.169524,46.056989],[10.096948,46.090926],[9.871838,46.044025],[9.749604,46.062471],[9.625876,46.051529],[9.526868,46.011429],[9.540117,45.945642],[9.467871,45.84147],[9.447766,45.749943],[9.482768,45.671775],[9.496435,45.645254],[9.533943,45.558825],[9.510256,45.512034],[9.56488,45.458157],[9.674458,45.436844],[9.714075,45.482294],[9.807283,45.425033],[9.891453,45.42667],[9.856699,45.579743],[9.928879,45.665436],[10.072515,45.715885],[10.062341,45.784121],[10.13283,45.863102],[10.118525,45.953168],[10.204592,46.003969],[10.169524,46.056989]]]},"properties":{"LOCATION_TYPE":"level1","ADM0_A3":"ITA","LOCATION_ID":"ITA-BG","NAME":"Bergamo","TYPE_EN":"Province"}},
{"type":"Feature","geometry":{"type":"Polygon","coordinates":[[[9.891453,45.42667],[9.901545,45.350656],[10.00831,45.295395],[10.317817,45.204702],[10.396853,45.253877],[10.505947,45.40896],[10.61614,45.381956],[10.661755,45.419035],[10.644243,45.609571],[10.844897,45.834054],[10.728618,45.848831],[10.579226,45.794723],[10.52291,45.841338],[10.519482,45.916737],[10.460376,45.98159],[10.55855,46.118007],[10.590234,46.233374],[10.527854,46.342644],[10.445896,46.348094],[10.317883,46.277397],[10.290989,46.221289],[10.178489,46.173015],[10.169524,46.056989],[10.204592,46.003969],[10.118525,45.953168],[10.13283,45.863102],[10.062341,45.784121],[10.072515,45.715885],[9.928879,45.665436],[9.856699,45.579743],[9.891453,45.42667]]]},"properties":{"LOCATION_TYPE":"level1","ADM0_A3":"ITA","LOCATION_ID":"ITA-BS","NAME":"Brescia","TYPE_EN":"Province"}},
{"type":"Feature","geometry":{"type":"Polygon","coordinates":[[[9.891453,45.42667],[9.807283,45.425033],[9.714075,45.482294],[9.674458,45.436844],[9.56488,45.458157],[9.510256,45.512034],[9.473496,45.451159],[9.468267,45.379945],[9.70689,45.264633],[9.812754,45.166657],[9.882891,45.134148],[9.986601,45.128721],[10.071877,45.037534],[10.183542,45.046554],[10.350359,44.98402],[10.41397,44.9848],[10.501514,44.919431],[10.538796,44.967145],[10.534885,45.069538],[10.414717,45.081765],[10.392349,45.151836],[10.317817,45.204702],[10.00831,45.295395],[9.901545,45.350656],[9.891453,45.42667]]]},"properties":{"LOCATION_TYPE":"level1","ADM0_A3":"ITA","LOCATION_ID":"ITA-CR","NAME":"Cremona","TYPE_EN":"Province"}},
{"type":"Feature","geometry":{"type":"Polygon","coordinates":[[[10.317817,45.204702],[10.392349,45.151836],[10.414717,45.081765],[10.534885,45.069538],[10.538796,44.967145],[10.501514,44.919431],[10.632664,44.939481],[10.680256,44.987074],[10.887785,44.914023],[11.083081,44.961905],[11.163435,44.931516],[11.257017,44.947337],[11.421504,44.949864],[11.195735,45.063396],[11.210303,45.104298],[11.077346,45.099464],[10.993059,45.193936],[10.706404,45.329485],[10.661755,45.419035],[10.61614,45.381956],[10.505947,45.40896],[10.396853,45.253877],[10.317817,45.204702]]]},"properties":{"LOCATION_TYPE":"level1","ADM0_A3":"ITA","LOCATION_ID":"ITA-MN","NAME":"Mantova","TYPE_EN":"Province"}},
{"type":"Feature","geometry":{"type":"Polygon","coordinates":[[[9.496435,45.645254],[9.461059,45.599309],[9.306548,45.539247],[9.103718,45.591542],[9.053005,45.623216],[8.926882,45.61591],[8.837036,45.568405],[8.705178,45.556781],[8.832004,45.40818],[8.982956,45.264962],[9.043008,45.303579],[9.171328,45.299141],[9.220437,45.327574],[9.338848,45.312874],[9.473496,45.451159],[9.510256,45.512034],[9.533943,45.558825],[9.496435,45.645254]]]},"properties":{"LOCATION_TYPE":"level1","ADM0_A3":"ITA","LOCATION_ID":"ITA-MI","NAME":"Milano","TYPE_EN":"Province"}},
{"type":"Feature","geometry":{"type":"Polygon","coordinates":[[[9.526868,46.011429],[9.414587,46.104505],[9.424593,46.16003],[9.303955,46.132959],[9.263328,45.961309],[9.32852,45.859949],[9.2472,45.742637],[9.315227,45.666007],[9.482768,45.671775],[9.447766,45.749943],[9.467871,45.84147],[9.540117,45.945642],[9.526868,46.011429]]]},"properties":{"LOCATION_TYPE":"level1","ADM0_A3":"ITA","LOCATION_ID":"ITA-LC","NAME":"Lecco","TYPE_EN":"Province"}},
{"type":"Feature","geometry":{"type":"Polygon","coordinates":[[[9.482768,45.671775],[9.315227,45.666007],[9.2472,45.742637],[9.192356,45.676148],[9.058656,45.661372],[9.053005,45.623216],[9.103718,45.591542],[9.306548,45.539247],[9.461059,45.599309],[9.496435,45.645254],[9.482768,45.671775]]]},"properties":{"LOCATION_TYPE":"level1","ADM0_A3":"ITA","LOCATION_ID":"ITA-MB","NAME":"Monza e Brianza","TYPE_EN":"Province"}},
{"type":"Feature","geometry":{"type":"Polygon","coordinates":[[[9.473496,45.451159],[9.338848,45.312874],[9.315491,45.256426],[9.546049,45.132657],[9.681445,45.075338],[9.882891,45.134148],[9.812754,45.166657],[9.70689,45.264633],[9.468267,45.379945],[9.473496,45.451159]]]},"properties":{"LOCATION_TYPE":"level1","ADM0_A3":"ITA","LOCATION_ID":"ITA-LO","NAME":"Lodi","TYPE_EN":"Province"}},
{"type":"Feature","geometry":{"type":"Polygon","coordinates":[[[11.952711,43.173799],[11.883896,43.160257],[11.827405,43.221176],[11.752083,43.235963],[11.659028,43.320822],[11.53552,43.392947],[11.536619,43.451856],[11.39751,43.548239],[11.194021,43.486693],[11.05054,43.537747],[10.975942,43.521048],[10.952124,43.452229],[11.004814,43.383246],[10.95531,43.325392],[10.994465,43.269417],[10.929294,43.232063],[10.91165,43.162564],[11.059548,43.176549],[11.080906,43.087967],[11.361013,43.083253],[11.358926,42.999614],[11.449365,42.954043],[11.507966,42.980103],[11.611875,42.947869],[11.635012,42.799751],[11.747227,42.798477],[11.889016,42.850387],[11.931662,42.871681],[11.977808,43.046361],[11.917756,43.122431],[11.952711,43.173799]]]},"properties":{"LOCATION_TYPE":"level1","ADM0_A3":"ITA","LOCATION_ID":"ITA-SI","NAME":"Siena","TYPE_EN":"Province"}},
{"type":"Feature","geometry":{"type":"Polygon","coordinates":[[[11.39751,43.548239],[11.536619,43.451856],[11.53552,43.392947],[11.659028,43.320822],[11.752083,43.235963],[11.827405,43.221176],[11.883896,43.160257],[11.952711,43.173799],[12.022961,43.241885],[12.158401,43.262682],[12.132627,43.357252],[12.037068,43.416524],[12.134077,43.488814],[12.204807,43.616826],[12.19582,43.653356],[12.357627,43.722603],[12.285842,43.768866],[12.102239,43.759033],[11.968601,43.77314],[11.809277,43.826424],[11.716335,43.879143],[11.632112,43.845309],[11.57907,43.756353],[11.608425,43.697708],[11.507527,43.587262],[11.39751,43.548239]]]},"properties":{"LOCATION_TYPE":"level1","ADM0_A3":"ITA","LOCATION_ID":"ITA-AR","NAME":"Arezzo","TYPE_EN":"Province"}},
{"type":"Feature","geometry":{"type":"Polygon","coordinates":[[[10.711106,43.786345],[10.793328,43.719384],[10.907256,43.680119],[10.828923,43.622726],[10.860476,43.472005],[10.952124,43.452229],[10.975942,43.521048],[11.05054,43.537747],[11.194021,43.486693],[11.39751,43.548239],[11.507527,43.587262],[11.608425,43.697708],[11.57907,43.756353],[11.632112,43.845309],[11.716335,43.879143],[11.650701,43.990856],[11.7202,44.070232],[11.71998,44.131684],[11.653799,44.118858],[11.526269,44.162223],[11.391995,44.232445],[11.200106,44.104679],[11.139001,43.853933],[11.060405,43.811515],[10.964099,43.812482],[10.855269,43.796024],[10.727805,43.814119],[10.711106,43.786345]]]},"properties":{"LOCATION_TYPE":"level1","ADM0_A3":"ITA","LOCATION_ID":"ITA-FI","NAME":"Firenze","TYPE_EN":"Province"}},
{"type":"Feature","geometry":{"type":"Polygon","coordinates":[[[8.027036,45.403072],[7.97272,45.342449],[7.988342,45.263413],[8.059599,45.182477],[8.151907,45.16859],[8.334543,45.171128],[8.404724,45.204516],[8.556555,45.164789],[8.512621,45.31345],[8.483474,45.379297],[8.406833,45.42422],[8.391365,45.60622],[8.310527,45.697099],[8.349902,45.77241],[8.322305,45.85395],[8.187239,45.947664],[7.957031,45.902411],[7.855935,45.919319],[7.863537,45.805995],[7.916294,45.729662],[8.078386,45.720862],[8.182229,45.741934],[8.280381,45.661822],[8.262956,45.504267],[8.112202,45.378231],[8.027036,45.403072]]]},"properties":{"LOCATION_TYPE":"level1","ADM0_A3":"ITA","LOCATION_ID":"ITA-VC","NAME":"Vercelli","TYPE_EN":"Province"}},
{"type":"Feature","geometry":{"type":"Polygon","coordinates":[[[8.832004,45.40818],[8.658684,45.316411],[8.546492,45.364213],[8.512621,45.31345],[8.556555,45.164789],[8.669055,45.024801],[8.882432,45.000532],[9.14061,44.815611],[9.201431,44.682127],[9.309119,44.695717],[9.355217,44.826542],[9.302615,44.896173],[9.425046,45.101178],[9.546049,45.132657],[9.315491,45.256426],[9.338848,45.312874],[9.220437,45.327574],[9.171328,45.299141],[9.043008,45.303579],[8.982956,45.264962],[8.832004,45.40818]]]},"properties":{"LOCATION_TYPE":"level1","ADM0_A3":"ITA","LOCATION_ID":"ITA-PV","NAME":"Pavia","TYPE_EN":"Province"}},
{"type":"Feature","geometry":{"type":"Polygon","coordinates":[[[12.465133,42.386932],[12.520399,42.295772],[12.602205,42.277538],[12.624661,42.174706],[12.695347,42.14646],[12.764956,42.187263],[12.865569,42.106514],[13.029582,42.115643],[13.098765,42.173651],[13.233897,42.129058],[13.316953,42.196909],[13.16332,42.338556],[13.17835,42.399948],[13.135349,42.538288],[13.186106,42.586913],[13.338025,42.574564],[13.375884,42.603766],[13.337564,42.687658],[13.26791,42.744622],[13.194478,42.734602],[13.15385,42.645097],[12.987979,42.607996],[12.901978,42.6096],[12.880115,42.564688],[12.716111,42.489607],[12.528355,42.369505],[12.465133,42.386932]]]},"properties":{"LOCATION_TYPE":"level1","ADM0_A3":"ITA","LOCATION_ID":"ITA-RI","NAME":"Rieti","TYPE_EN":"Province"}},
{"type":"Feature","geometry":{"type":"Polygon","coordinates":[[[8.349902,45.77241],[8.310527,45.697099],[8.391365,45.60622],[8.406833,45.42422],[8.483474,45.379297],[8.512621,45.31345],[8.546492,45.364213],[8.658684,45.316411],[8.832004,45.40818],[8.705178,45.556781],[8.646072,45.688738],[8.56541,45.798623],[8.598413,45.82599],[8.460776,45.868936],[8.38073,45.842151],[8.349902,45.77241]]]},"properties":{"LOCATION_TYPE":"level1","ADM0_A3":"ITA","LOCATION_ID":"ITA-NO","NAME":"Novara","TYPE_EN":"Province"}},
{"type":"Feature","geometry":{"type":"Polygon","coordinates":[[[8.556555,45.164789],[8.404724,45.204516],[8.334543,45.171128],[8.151907,45.16859],[8.129033,45.12303],[8.142546,45.049444],[8.303232,45.07224],[8.388398,44.963377],[8.372292,44.86395],[8.498855,44.767436],[8.346277,44.689817],[8.265461,44.521737],[8.389914,44.50684],[8.564158,44.516244],[8.613047,44.587512],[8.833235,44.561002],[8.878037,44.639994],[8.959226,44.682599],[9.14852,44.581107],[9.203144,44.613759],[9.201431,44.682127],[9.14061,44.815611],[8.882432,45.000532],[8.669055,45.024801],[8.556555,45.164789]]]},"properties":{"LOCATION_TYPE":"level1","ADM0_A3":"ITA","LOCATION_ID":"ITA-AL","NAME":"Alessandria","TYPE_EN":"Province"}},
{"type":"Feature","geometry":{"type":"Polygon","coordinates":[[[11.832239,46.504034],[11.684099,46.507681],[11.595308,46.386205],[11.476567,46.359629],[11.387556,46.281132],[11.31821,46.288471],[11.242009,46.231177],[11.156184,46.284021],[11.201755,46.339239],[11.214456,46.469317],[11.055286,46.515613],[10.839932,46.430722],[10.745229,46.484939],[10.624709,46.454452],[10.618909,46.375362],[10.527854,46.342644],[10.590234,46.233374],[10.55855,46.118007],[10.460376,45.98159],[10.519482,45.916737],[10.52291,45.841338],[10.579226,45.794723],[10.728618,45.848831],[10.844897,45.834054],[10.900247,45.784077],[10.87667,45.715819],[11.130718,45.699593],[11.278726,45.918957],[11.35897,45.922934],[11.39261,45.981073],[11.495046,46.012439],[11.684802,45.984325],[11.712136,46.101066],[11.896465,46.132663],[11.969436,46.196306],[11.853464,46.273716],[11.80385,46.345281],[11.888247,46.467394],[11.832239,46.504034]]]},"properties":{"LOCATION_TYPE":"level1","ADM0_A3":"ITA","LOCATION_ID":"ITA-TN","NAME":"Trento","TYPE_EN":"Province"}},
{"type":"Feature","geometry":{"type":"Polygon","coordinates":[[[11.130718,45.699593],[11.228276,45.610471],[11.24937,45.547454],[11.330098,45.483371],[11.359255,45.356874],[11.487158,45.265863],[11.602405,45.24388],[11.616687,45.386988],[11.74593,45.488216],[11.649382,45.63541],[11.711323,45.676258],[11.821824,45.687101],[11.830789,45.760611],[11.742546,45.841635],[11.799697,45.88057],[11.684802,45.984325],[11.495046,46.012439],[11.39261,45.981073],[11.35897,45.922934],[11.278726,45.918957],[11.130718,45.699593]]]},"properties":{"LOCATION_TYPE":"level1","ADM0_A3":"ITA","LOCATION_ID":"ITA-VI","NAME":"Vicenza","TYPE_EN":"Province"}},
{"type":"Feature","geometry":{"type":"Polygon","coordinates":[[[11.130718,45.699593],[10.87667,45.715819],[10.900247,45.784077],[10.844897,45.834054],[10.644243,45.609571],[10.661755,45.419035],[10.706404,45.329485],[10.993059,45.193936],[11.077346,45.099464],[11.210303,45.104298],[11.332493,45.089522],[11.41858,45.131771],[11.406035,45.252251],[11.487158,45.265863],[11.359255,45.356874],[11.330098,45.483371],[11.24937,45.547454],[11.228276,45.610471],[11.130718,45.699593]]]},"properties":{"LOCATION_TYPE":"level1","ADM0_A3":"ITA","LOCATION_ID":"ITA-VR","NAME":"Verona","TYPE_EN":"Province"}},
{"type":"Feature","geometry":{"type":"Polygon","coordinates":[[[12.422432,46.043079],[12.330908,46.082213],[12.19158,46.00409],[11.961438,45.954234],[11.925205,45.884965],[11.799697,45.88057],[11.742546,45.841635],[11.830789,45.760611],[11.821824,45.687101],[11.954736,45.610559],[12.092439,45.598354],[12.188591,45.584324],[12.231064,45.536709],[12.352639,45.583918],[12.522532,45.685684],[12.663025,45.701889],[12.672803,45.802062],[12.567905,45.838855],[12.522268,45.924175],[12.444705,45.966242],[12.422432,46.043079]]]},"properties":{"LOCATION_TYPE":"level1","ADM0_A3":"ITA","LOCATION_ID":"ITA-TV","NAME":"Treviso","TYPE_EN":"Province"}},
{"type":"Feature","geometry":{"type":"Polygon","coordinates":[[[10.071877,45.037534],[9.986601,45.128721],[9.882891,45.134148],[9.681445,45.075338],[9.546049,45.132657],[9.425046,45.101178],[9.302615,44.896173],[9.355217,44.826542],[9.309119,44.695717],[9.201431,44.682127],[9.203144,44.613759],[9.414192,44.594071],[9.491335,44.551048],[9.639192,44.667383],[9.76626,44.706407],[9.895173,44.810491],[10.00697,44.871817],[9.999675,44.960366],[10.071877,45.037534]]]},"properties":{"LOCATION_TYPE":"level1","ADM0_A3":"ITA","LOCATION_ID":"ITA-PC","NAME":"Piacenza","TYPE_EN":"Province"}},
{"type":"Feature","geometry":{"type":"Polygon","coordinates":[[[10.071877,45.037534],[9.999675,44.960366],[10.00697,44.871817],[9.895173,44.810491],[9.76626,44.706407],[9.639192,44.667383],[9.491335,44.551048],[9.450974,44.468706],[9.476396,44.412478],[9.59852,44.427156],[9.689773,44.357656],[9.835649,44.476254],[9.935559,44.470387],[10.072602,44.35213],[10.135708,44.341814],[10.4005,44.568671],[10.463101,44.893899],[10.501514,44.919431],[10.41397,44.9848],[10.350359,44.98402],[10.183542,45.046554],[10.071877,45.037534]]]},"properties":{"LOCATION_TYPE":"level1","ADM0_A3":"ITA","LOCATION_ID":"ITA-PR","NAME":"Parma","TYPE_EN":"Province"}},
{"type":"Feature","geometry":{"type":"Polygon","coordinates":[[[10.135708,44.341814],[10.253944,44.270604],[10.350974,44.274918],[10.47123,44.22459],[10.534138,44.353141],[10.595881,44.366929],[10.673796,44.47086],[10.773135,44.558487],[10.817563,44.660506],[10.815102,44.807239],[10.887785,44.914023],[10.680256,44.987074],[10.632664,44.939481],[10.501514,44.919431],[10.463101,44.893899],[10.4005,44.568671],[10.135708,44.341814]]]},"properties":{"LOCATION_TYPE":"level1","ADM0_A3":"ITA","LOCATION_ID":"ITA-RE","NAME":"Reggio Emilia","TYPE_EN":"Province"}},
{"type":"Feature","geometry":{"type":"Polygon","coordinates":[[[10.47123,44.22459],[10.483931,44.186808],[10.610537,44.125702],[10.707393,44.162012],[10.815869,44.113513],[10.865749,44.230918],[10.960583,44.232544],[11.020635,44.307592],[11.044761,44.409248],[10.9924,44.444383],[11.117974,44.534416],[11.131707,44.601344],[11.078071,44.646981],[11.129597,44.780806],[11.293337,44.802702],[11.336162,44.869224],[11.257017,44.947337],[11.163435,44.931516],[11.083081,44.961905],[10.887785,44.914023],[10.815102,44.807239],[10.817563,44.660506],[10.773135,44.558487],[10.673796,44.47086],[10.595881,44.366929],[10.534138,44.353141],[10.47123,44.22459]]]},"properties":{"LOCATION_TYPE":"level1","ADM0_A3":"ITA","LOCATION_ID":"ITA-MO","NAME":"Modena","TYPE_EN":"Province"}},
{"type":"Feature","geometry":{"type":"Polygon","coordinates":[[[11.293337,44.802702],[11.129597,44.780806],[11.078071,44.646981],[11.131707,44.601344],[11.117974,44.534416],[10.9924,44.444383],[11.044761,44.409248],[11.020635,44.307592],[10.960583,44.232544],[10.865749,44.230918],[10.815869,44.113513],[10.92323,44.067958],[10.985303,44.125889],[11.048254,44.092383],[11.200106,44.104679],[11.391995,44.232445],[11.526269,44.162223],[11.683352,44.318216],[11.756169,44.318831],[11.82033,44.395702],[11.742415,44.506477],[11.789348,44.554422],[11.795896,44.620515],[11.673201,44.635929],[11.606272,44.696409],[11.293337,44.802702]]]},"properties":{"LOCATION_TYPE":"level1","ADM0_A3":"ITA","LOCATION_ID":"ITA-BO","NAME":"Bologna","TYPE_EN":"Province"}},
{"type":"Feature","geometry":{"type":"Polygon","coordinates":[[[10.610537,44.125702],[10.702031,44.093974],[10.735891,44.032077],[10.668655,43.974871],[10.652812,43.869534],[10.727805,43.814119],[10.855269,43.796024],[10.964099,43.812482],[11.00488,43.828555],[11.015823,43.995426],[11.048254,44.092383],[10.985303,44.125889],[10.92323,44.067958],[10.815869,44.113513],[10.707393,44.162012],[10.610537,44.125702]]]},"properties":{"LOCATION_TYPE":"level1","ADM0_A3":"ITA","LOCATION_ID":"ITA-PT","NAME":"Pistoia","TYPE_EN":"Province"}},
{"type":"Feature","geometry":{"type":"Polygon","coordinates":[[[12.901978,42.6096],[12.852012,42.671112],[12.733557,42.602151],[12.622903,42.683296],[12.49823,42.73268],[12.447363,42.691635],[12.298059,42.747995],[12.328293,42.888784],[12.30085,42.9148],[12.068269,42.938487],[11.998484,42.877293],[11.931662,42.871681],[11.889016,42.850387],[11.973918,42.755971],[11.930303,42.709103],[12.033662,42.64603],[12.156555,42.67543],[12.235833,42.64758],[12.280217,42.510404],[12.451516,42.42103],[12.465133,42.386932],[12.528355,42.369505],[12.716111,42.489607],[12.880115,42.564688],[12.901978,42.6096]]]},"properties":{"LOCATION_TYPE":"level1","ADM0_A3":"ITA","LOCATION_ID":"ITA-TR","NAME":"Terni","TYPE_EN":"Province"}},
{"type":"Feature","geometry":{"type":"Polygon","coordinates":[[[11.931662,42.871681],[11.998484,42.877293],[12.068269,42.938487],[12.30085,42.9148],[12.328293,42.888784],[12.298059,42.747995],[12.447363,42.691635],[12.49823,42.73268],[12.622903,42.683296],[12.733557,42.602151],[12.852012,42.671112],[12.901978,42.6096],[12.987979,42.607996],[13.15385,42.645097],[13.194478,42.734602],[13.248948,42.767781],[13.224294,42.847674],[13.166726,42.824514],[13.048799,42.917843],[12.91314,42.963425],[12.89532,43.08745],[12.837444,43.132483],[12.851724,43.20609],[12.746499,43.37883],[12.758167,43.461227],[12.604688,43.430344],[12.510491,43.512489],[12.319944,43.546184],[12.204807,43.616826],[12.134077,43.488814],[12.037068,43.416524],[12.132627,43.357252],[12.158401,43.262682],[12.022961,43.241885],[11.952711,43.173799],[11.917756,43.122431],[11.977808,43.046361],[11.931662,42.871681]]]},"properties":{"LOCATION_TYPE":"level1","ADM0_A3":"ITA","LOCATION_ID":"ITA-PG","NAME":"Perugia","TYPE_EN":"Province"}},
{"type":"Feature","geometry":{"type":"Polygon","coordinates":[[[13.175208,41.583598],[13.265779,41.52771],[13.318074,41.401653],[13.419851,41.400093],[13.467708,41.454629],[13.549644,41.415364],[13.608662,41.331395],[13.707385,41.347227],[13.757703,41.312554],[13.872576,41.335405],[13.8597,41.419231],[13.961807,41.470702],[14.010081,41.528941],[13.992568,41.62829],[13.945701,41.688176],[13.891846,41.723651],[13.744255,41.754611],[13.646631,41.81052],[13.578845,41.769904],[13.405217,41.831603],[13.370171,41.903102],[13.297857,41.947046],[13.184436,41.848247],[13.082637,41.858014],[13.007468,41.814871],[13.018586,41.752908],[13.147148,41.653251],[13.175208,41.583598]]]},"properties":{"LOCATION_TYPE":"level1","ADM0_A3":"ITA","LOCATION_ID":"ITA-FR","NAME":"Frosinone","TYPE_EN":"Province"}},
{"type":"Feature","geometry":{"type":"Polygon","coordinates":[[[14.571965,41.00954],[14.60554,40.847645],[14.701099,40.848931],[14.762315,40.805842],[14.907796,40.806985],[15.237385,40.723489],[15.252547,40.787935],[15.34426,40.820685],[15.369221,40.898952],[15.470867,40.901797],[15.544036,40.943941],[15.55856,41.055122],[15.41176,41.103923],[15.287615,41.102506],[15.208931,41.149429],[15.252063,41.258831],[15.143452,41.274618],[15.104099,41.248075],[14.991555,41.272036],[14.965671,41.175598],[14.993665,41.106494],[14.834978,41.038478],[14.599651,41.051101],[14.571965,41.00954]]]},"properties":{"LOCATION_TYPE":"level1","ADM0_A3":"ITA","LOCATION_ID":"ITA-AV","NAME":"Avellino","TYPE_EN":"Province"}},
{"type":"Feature","geometry":{"type":"Polygon","coordinates":[[[13.375884,42.603766],[13.338025,42.574564],[13.186106,42.586913],[13.135349,42.538288],[13.17835,42.399948],[13.16332,42.338556],[13.316953,42.196909],[13.233897,42.129058],[13.098765,42.173651],[13.029582,42.115643],[13.02843,42.031928],[13.097051,42.023666],[13.297857,41.947046],[13.370171,41.903102],[13.405217,41.831603],[13.578845,41.769904],[13.646631,41.81052],[13.744255,41.754611],[13.891846,41.723651],[13.945701,41.688176],[14.175183,41.76006],[14.143191,41.814706],[14.229411,41.877366],[14.117175,41.889523],[14.08158,42.00522],[14.085381,42.086684],[14.01887,42.075115],[13.889341,42.163028],[13.795408,42.151162],[13.843594,42.269265],[13.765415,42.420086],[13.531648,42.444058],[13.417588,42.529685],[13.375884,42.603766]]]},"properties":{"LOCATION_TYPE":"level1","ADM0_A3":"ITA","LOCATION_ID":"ITA-AQ","NAME":"L'Aquila","TYPE_EN":"Province"}},
{"type":"Feature","geometry":{"type":"Polygon","coordinates":[[[12.500092,46.404181],[12.335918,46.269475],[12.456482,46.206381],[12.501965,46.111031],[12.422432,46.043079],[12.444705,45.966242],[12.522268,45.924175],[12.567905,45.838855],[12.672803,45.802062],[12.79196,45.85617],[12.826743,45.824441],[12.972883,45.842624],[12.905735,45.961968],[12.977959,46.256061],[12.965698,46.328922],[12.801233,46.357014],[12.641975,46.339305],[12.500092,46.404181]]]},"properties":{"LOCATION_TYPE":"level1","ADM0_A3":"ITA","LOCATION_ID":"ITA-PN","NAME":"Pordenone","TYPE_EN":"Province"}},
{"type":"Feature","geometry":{"type":"Polygon","coordinates":[[[14.490381,41.776079],[14.432944,41.83703],[14.282871,41.906233],[14.229411,41.877366],[14.143191,41.814706],[14.175183,41.76006],[13.945701,41.688176],[13.992568,41.62829],[14.010081,41.528941],[13.961807,41.470702],[14.039282,41.394578],[14.120867,41.495663],[14.222512,41.494806],[14.382695,41.441961],[14.500379,41.604527],[14.423189,41.644495],[14.508508,41.690484],[14.490381,41.776079]]]},"properties":{"LOCATION_TYPE":"level1","ADM0_A3":"ITA","LOCATION_ID":"ITA-IS","NAME":"Isernia","TYPE_EN":"Province"}},
{"type":"Feature","geometry":{"type":"Polygon","coordinates":[[[8.027036,45.403072],[8.112202,45.378231],[8.262956,45.504267],[8.280381,45.661822],[8.182229,45.741934],[8.078386,45.720862],[7.916294,45.729662],[7.880171,45.602693],[7.882214,45.534106],[8.027497,45.449104],[8.027036,45.403072]]]},"properties":{"LOCATION_TYPE":"level1","ADM0_A3":"ITA","LOCATION_ID":"ITA-BI","NAME":"Biella","TYPE_EN":"Province"}},
{"type":"Feature","geometry":{"type":"Polygon","coordinates":[[[11.200106,44.104679],[11.048254,44.092383],[11.015823,43.995426],[11.00488,43.828555],[10.964099,43.812482],[11.060405,43.811515],[11.139001,43.853933],[11.200106,44.104679]]]},"properties":{"LOCATION_TYPE":"level1","ADM0_A3":"ITA","LOCATION_ID":"ITA-PO","NAME":"Prato","TYPE_EN":"Province"}}
]}