{"type":"FeatureCollection", "features": [
{"type":"Feature","geometry":{"type":"Polygon","coordinates":[[[-77.465292,18.476054],[-77.451468,18.376114],[-77.491156,18.196099],[-77.378966,18.204057],[-77.210863,18.1861],[-77.076763,18.2023],[-76.996406,18.241962],[-77.048599,18.321724],[-77.07035,18.413374],[-77.137359,18.408922],[-77.272613,18.459377],[-77.465292,18.476054]]]},"properties":{"LOCATION_TYPE":"level1","ADM0_A3":"JAM","LOCATION_ID":"JAM-06","NAME":"Saint Ann","TYPE_EN":"Parish"}},
{"type":"Feature","geometry":{"type":"Polygon","coordinates":[[[-77.735544,18.5067],[-77.781397,18.234443],[-77.640294,18.220852],[-77.597325,18.237233],[-77.491156,18.196099],[-77.451468,18.376114],[-77.465292,18.476054],[-77.735544,18.5067]]]},"properties":{"LOCATION_TYPE":"level1","ADM0_A3":"JAM","LOCATION_ID":"JAM-07","NAME":"Trelawny","TYPE_EN":"Parish"}},
{"type":"Feature","geometry":{"type":"Polygon","coordinates":[[[-78.000169,18.446688],[-78.007455,18.411719],[-77.921414,18.296119],[-77.895886,18.195556],[-77.781397,18.234443],[-77.735544,18.5067],[-77.902333,18.518785],[-78.000169,18.446688]]]},"properties":{"LOCATION_TYPE":"level1","ADM0_A3":"JAM","LOCATION_ID":"JAM-08","NAME":"Saint James","TYPE_EN":"Parish"}},
{"type":"Feature","geometry":{"type":"Polygon","coordinates":[[[-78.346043,18.297953],[-78.267543,18.294491],[-78.224341,18.338054],[-78.100189,18.338597],[-78.027144,18.304645],[-77.921414,18.296119],[-78.007455,18.411719],[-78.000169,18.446688],[-78.230621,18.444241],[-78.331939,18.367377],[-78.346043,18.297953]]]},"properties":{"LOCATION_TYPE":"level1","ADM0_A3":"JAM","LOCATION_ID":"JAM-09","NAME":"Hanover","TYPE_EN":"Parish"}},
{"type":"Feature","geometry":{"type":"Polygon","coordinates":[[[-77.964621,18.050569],[-77.936219,18.152071],[-77.895886,18.195556],[-77.921414,18.296119],[-78.027144,18.304645],[-78.100189,18.338597],[-78.224341,18.338054],[-78.267543,18.294491],[-78.346043,18.297953],[-78.340728,18.221869],[-78.227284,18.19184],[-78.075185,18.198432],[-77.964621,18.050569]]]},"properties":{"LOCATION_TYPE":"level1","ADM0_A3":"JAM","LOCATION_ID":"JAM-10","NAME":"Westmoreland","TYPE_EN":"Parish"}},
{"type":"Feature","geometry":{"type":"Polygon","coordinates":[[[-77.564566,17.857104],[-77.635256,18.131193],[-77.640294,18.220852],[-77.781397,18.234443],[-77.895886,18.195556],[-77.936219,18.152071],[-77.964621,18.050569],[-77.84557,18.017035],[-77.83967,17.949612],[-77.786733,17.884955],[-77.723866,17.853583],[-77.564566,17.857104]]]},"properties":{"LOCATION_TYPE":"level1","ADM0_A3":"JAM","LOCATION_ID":"JAM-11","NAME":"Saint Elizabeth","TYPE_EN":"Parish"}},
{"type":"Feature","geometry":{"type":"Polygon","coordinates":[[[-77.394581,17.853373],[-77.358968,17.897564],[-77.379922,17.968774],[-77.491156,18.196099],[-77.597325,18.237233],[-77.640294,18.220852],[-77.635256,18.131193],[-77.564566,17.857104],[-77.50182,17.841946],[-77.394581,17.853373]]]},"properties":{"LOCATION_TYPE":"level1","ADM0_A3":"JAM","LOCATION_ID":"JAM-12","NAME":"Manchester","TYPE_EN":"Parish"}},
{"type":"Feature","geometry":{"type":"Polygon","coordinates":[[[-77.134601,17.885097],[-77.186265,18.060319],[-77.210863,18.1861],[-77.378966,18.204057],[-77.491156,18.196099],[-77.379922,17.968774],[-77.358968,17.897564],[-77.394581,17.853373],[-77.320872,17.812445],[-77.216054,17.716702],[-77.133656,17.710435],[-77.140736,17.765286],[-77.198883,17.761786],[-77.134601,17.885097]]]},"properties":{"LOCATION_TYPE":"level1","ADM0_A3":"JAM","LOCATION_ID":"JAM-13","NAME":"Clarendon","TYPE_EN":"Parish"}},
{"type":"Feature","geometry":{"type":"Polygon","coordinates":[[[-76.849967,17.992276],[-76.889642,18.027505],[-76.872822,18.148298],[-76.955917,18.245088],[-76.996406,18.241962],[-77.076763,18.2023],[-77.210863,18.1861],[-77.186265,18.060319],[-77.134601,17.885097],[-77.093007,17.902493],[-76.955312,17.833441],[-76.912828,17.861287],[-76.887156,17.951856],[-76.849967,17.992276]]]},"properties":{"LOCATION_TYPE":"level1","ADM0_A3":"JAM","LOCATION_ID":"JAM-14","NAME":"Saint Catherine","TYPE_EN":"Parish"}},
{"type":"Feature","geometry":{"type":"Polygon","coordinates":[[[-76.812456,17.971528],[-76.781225,17.995388],[-76.726956,17.953791],[-76.657161,17.929691],[-76.616248,17.982288],[-76.627798,18.073626],[-76.735905,18.090705],[-76.751434,18.138609],[-76.806986,18.163801],[-76.872822,18.148298],[-76.889642,18.027505],[-76.849967,17.992276],[-76.812456,17.971528]]]},"properties":{"LOCATION_TYPE":"level1","ADM0_A3":"JAM","LOCATION_ID":"JAM-02","NAME":"Saint Andrew","TYPE_EN":"Parish"}},
{"type":"Feature","geometry":{"type":"Polygon","coordinates":[[[-76.726956,17.953791],[-76.781225,17.995388],[-76.812456,17.971528],[-76.726956,17.953791]]]},"properties":{"LOCATION_TYPE":"level1","ADM0_A3":"JAM","LOCATION_ID":"JAM-01","NAME":"Kingston","TYPE_EN":"Parish"}},
{"type":"Feature","geometry":{"type":"Polygon","coordinates":[[[-76.25679,17.996335],[-76.345774,17.99469],[-76.45215,18.040579],[-76.53602,18.026032],[-76.627798,18.073626],[-76.616248,17.982288],[-76.657161,17.929691],[-76.613149,17.874498],[-76.523549,17.860256],[-76.414906,17.877509],[-76.307362,17.870103],[-76.187978,17.915473],[-76.25679,17.996335]]]},"properties":{"LOCATION_TYPE":"level1","ADM0_A3":"JAM","LOCATION_ID":"JAM-03","NAME":"Saint Thomas","TYPE_EN":"Parish"}},
{"type":"Feature","geometry":{"type":"Polygon","coordinates":[[[-76.701459,18.266783],[-76.751434,18.138609],[-76.735905,18.090705],[-76.627798,18.073626],[-76.53602,18.026032],[-76.45215,18.040579],[-76.345774,17.99469],[-76.25679,17.996335],[-76.351145,18.155992],[-76.63036,18.225735],[-76.701459,18.266783]]]},"properties":{"LOCATION_TYPE":"level1","ADM0_A3":"JAM","LOCATION_ID":"JAM-04","NAME":"Portland","TYPE_EN":"Parish"}},
{"type":"Feature","geometry":{"type":"Polygon","coordinates":[[[-77.07035,18.413374],[-77.048599,18.321724],[-76.996406,18.241962],[-76.955917,18.245088],[-76.872822,18.148298],[-76.806986,18.163801],[-76.751434,18.138609],[-76.701459,18.266783],[-76.764638,18.273017],[-76.890948,18.376441],[-76.894919,18.409251],[-77.07035,18.413374]]]},"properties":{"LOCATION_TYPE":"level1","ADM0_A3":"JAM","LOCATION_ID":"JAM-05","NAME":"Saint Mary","TYPE_EN":"Parish"}}
]}