{"type":"FeatureCollection", "features": [
{"type":"Feature","geometry":{"type":"Polygon","coordinates":[[[36.081906,32.516265],[35.895721,32.713276],[35.740175,32.740535],[35.562718,32.64421],[35.545148,32.409573],[35.559562,32.190371],[35.635531,32.183824],[35.648863,32.355364],[35.848076,32.402002],[35.905333,32.338879],[36.017213,32.345959],[36.087234,32.408255],[36.081906,32.516265]]]},"properties":{"LOCATION_TYPE":"level1","ADM0_A3":"JOR","LOCATION_ID":"JOR-IR","NAME":"Irbid","TYPE_EN":"Province"}},
{"type":"Feature","geometry":{"type":"Polygon","coordinates":[[[35.457128,31.433524],[35.818,31.405939],[35.884404,31.505416],[35.810249,31.667912],[35.838154,31.784184],[35.708291,31.77465],[35.583544,31.680806],[35.502479,31.68536],[35.457128,31.433524]]]},"properties":{"LOCATION_TYPE":"level1","ADM0_A3":"JOR","LOCATION_ID":"JOR-MD","NAME":"Madaba","TYPE_EN":"Province"}},
{"type":"Feature","geometry":{"type":"Polygon","coordinates":[[[35.34711,30.92271],[35.475075,30.986248],[35.669947,30.969919],[35.830247,30.914857],[36.023776,30.767063],[36.140926,30.955062],[36.191931,31.094795],[36.151778,31.248636],[35.849161,31.25494],[35.818,31.405939],[35.457128,31.433524],[35.3957,31.25768],[35.438488,31.103736],[35.34711,30.92271]]]},"properties":{"LOCATION_TYPE":"level1","ADM0_A3":"JOR","LOCATION_ID":"JOR-KA","NAME":"Karak","TYPE_EN":"Province"}},
{"type":"Feature","geometry":{"type":"Polygon","coordinates":[[[35.263882,30.719967],[35.448049,30.608494],[35.662351,30.603352],[35.947708,30.656424],[36.023776,30.767063],[35.830247,30.914857],[35.669947,30.969919],[35.475075,30.986248],[35.34711,30.92271],[35.263882,30.719967]]]},"properties":{"LOCATION_TYPE":"level1","ADM0_A3":"JOR","LOCATION_ID":"JOR-AT","NAME":"Tafilah","TYPE_EN":"Province"}},
{"type":"Feature","geometry":{"type":"Polygon","coordinates":[[[35.263882,30.719967],[35.140005,30.430185],[35.145276,30.154905],[35.086261,30.034034],[35.048951,29.842314],[34.955577,29.558987],[34.949385,29.351686],[35.740251,29.231731],[35.688396,29.557188],[35.623542,29.787355],[35.51869,29.942488],[35.368312,29.955019],[35.299117,30.027056],[35.379474,30.232393],[35.377459,30.34497],[35.448049,30.608494],[35.263882,30.719967]]]},"properties":{"LOCATION_TYPE":"level1","ADM0_A3":"JOR","LOCATION_ID":"JOR-AQ","NAME":"Aqaba","TYPE_EN":"Province"}},
{"type":"Feature","geometry":{"type":"Polygon","coordinates":[[[35.502479,31.68536],[35.583544,31.680806],[35.708291,31.77465],[35.683745,31.897433],[35.941197,32.045848],[35.895876,32.095664],[35.694804,32.156177],[35.635531,32.183824],[35.559562,32.190371],[35.522824,32.057838],[35.55941,31.765349],[35.502479,31.68536]]]},"properties":{"LOCATION_TYPE":"level1","ADM0_A3":"JOR","LOCATION_ID":"JOR-BA","NAME":"Balqa","TYPE_EN":"Province"}},
{"type":"Feature","geometry":{"type":"Polygon","coordinates":[[[37.761412,31.69612],[38.998064,32.006936],[39.291999,32.244519],[39.235775,32.352858],[39.046329,32.308494],[38.978633,32.475693],[39.057181,32.496596],[38.774511,33.371685],[38.056726,32.994292],[36.819385,32.316788],[36.373108,32.386422],[36.177357,32.527318],[36.081906,32.516265],[36.087234,32.408255],[36.017213,32.345959],[35.990703,32.196666],[36.029977,32.133827],[36.433415,32.114112],[36.517957,32.063418],[37.761412,31.69612]]]},"properties":{"LOCATION_TYPE":"level1","ADM0_A3":"JOR","LOCATION_ID":"JOR-MA","NAME":"Mafraq","TYPE_EN":"Province"}},
{"type":"Feature","geometry":{"type":"Polygon","coordinates":[[[37.221722,31.247292],[36.151778,31.248636],[36.191931,31.094795],[36.140926,30.955062],[36.023776,30.767063],[35.947708,30.656424],[35.662351,30.603352],[35.448049,30.608494],[35.377459,30.34497],[35.379474,30.232393],[35.299117,30.027056],[35.368312,29.955019],[35.51869,29.942488],[35.623542,29.787355],[35.688396,29.557188],[35.740251,29.231731],[36.069457,29.200028],[36.477081,29.494609],[36.70487,29.831152],[36.756237,29.865517],[37.470198,29.994553],[37.634529,30.312776],[37.981071,30.499483],[37.480017,31.007256],[37.221722,31.247292]]]},"properties":{"LOCATION_TYPE":"level1","ADM0_A3":"JOR","LOCATION_ID":"JOR-MN","NAME":"Ma`an","TYPE_EN":"Province"}},
{"type":"Feature","geometry":{"type":"Polygon","coordinates":[[[36.997912,31.500814],[36.714276,31.7469],[36.589064,31.728606],[36.467521,31.826869],[36.534597,31.903815],[36.407473,32.011483],[36.301692,32.019338],[36.054471,31.950996],[35.941197,32.045848],[35.683745,31.897433],[35.708291,31.77465],[35.838154,31.784184],[35.810249,31.667912],[35.884404,31.505416],[35.818,31.405939],[35.849161,31.25494],[36.151778,31.248636],[37.221722,31.247292],[36.997912,31.500814]]]},"properties":{"LOCATION_TYPE":"level1","ADM0_A3":"JOR","LOCATION_ID":"JOR-AM","NAME":"Amman","TYPE_EN":"Province"}},
{"type":"Feature","geometry":{"type":"Polygon","coordinates":[[[37.761412,31.69612],[36.517957,32.063418],[36.433415,32.114112],[36.029977,32.133827],[35.990703,32.196666],[35.895876,32.095664],[35.941197,32.045848],[36.054471,31.950996],[36.301692,32.019338],[36.407473,32.011483],[36.534597,31.903815],[36.467521,31.826869],[36.589064,31.728606],[36.714276,31.7469],[36.997912,31.500814],[37.761412,31.69612]]]},"properties":{"LOCATION_TYPE":"level1","ADM0_A3":"JOR","LOCATION_ID":"JOR-AZ","NAME":"Zarqa","TYPE_EN":"Province"}},
{"type":"Feature","geometry":{"type":"Polygon","coordinates":[[[35.694804,32.156177],[35.905333,32.338879],[35.848076,32.402002],[35.648863,32.355364],[35.635531,32.183824],[35.694804,32.156177]]]},"properties":{"LOCATION_TYPE":"level1","ADM0_A3":"JOR","LOCATION_ID":"JOR-AJ","NAME":"Ajlun","TYPE_EN":"Province"}},
{"type":"Feature","geometry":{"type":"Polygon","coordinates":[[[35.694804,32.156177],[35.895876,32.095664],[35.990703,32.196666],[36.017213,32.345959],[35.905333,32.338879],[35.694804,32.156177]]]},"properties":{"LOCATION_TYPE":"level1","ADM0_A3":"JOR","LOCATION_ID":"JOR-JA","NAME":"Jarash","TYPE_EN":"Province"}}
]}