{"type":"FeatureCollection", "features": [
{"type":"Feature","geometry":{"type":"MultiPolygon","coordinates":[[[[131.150645,31.47134],[131.191817,31.574662],[131.035857,31.645356],[131.002371,31.723516],[130.897003,31.784262],[130.873438,31.887563],[130.783883,31.954846],[130.712363,32.09091],[130.589786,32.163463],[130.42437,32.113415],[130.344643,32.161785],[130.179861,32.093451],[130.220438,31.929595],[130.171431,31.790137],[130.336192,31.626166],[130.293268,31.444704],[130.192952,31.315157],[130.222205,31.2463],[130.451144,31.249388],[130.521739,31.168687],[130.639822,31.186469],[130.661957,31.258612],[130.573497,31.314602],[130.520518,31.43244],[130.529145,31.513251],[130.613048,31.682359],[130.686046,31.725531],[130.804535,31.687242],[130.799001,31.611721],[130.637878,31.622595],[130.695567,31.545803],[130.703417,31.459305],[130.795252,31.344425],[130.725428,31.04704],[130.924001,31.112982],[131.008159,31.221082],[131.06025,31.225315],[131.104015,31.328843],[131.013611,31.36307],[131.071788,31.449612],[131.150645,31.47134]]],[[[130.674571,30.374579],[130.498951,30.467962],[130.386264,30.339606],[130.437713,30.23897],[130.57728,30.235906],[130.647146,30.290513],[130.674571,30.374579]]],[[[131.052013,30.840237],[130.9393,30.672251],[130.930221,30.54086],[130.851495,30.470144],[130.885818,30.343851],[130.977797,30.40028],[130.964753,30.456319],[131.035564,30.557209],[131.078937,30.699084],[131.052013,30.840237]]]]},"properties":{"LOCATION_TYPE":"level1","ADM0_A3":"JPN","LOCATION_ID":"JPN-46","NAME":"Kagoshima","TYPE_EN":"Prefecture"}},
{"type":"Feature","geometry":{"type":"Polygon","coordinates":[[[131.200892,33.61271],[131.149494,33.495656],[130.95054,33.485192],[130.841296,33.352021],[130.834733,33.080927],[130.951211,33.032273],[131.009657,33.079532],[130.977566,33.160715],[131.124948,33.142448],[131.234657,32.975197],[131.262148,32.866289],[131.323902,32.822286],[131.464152,32.817894],[131.539703,32.74304],[131.819169,32.79836],[131.872325,32.731635],[131.982188,32.888902],[131.903168,32.983059],[131.929217,33.068271],[131.809574,33.127649],[131.872244,33.200344],[131.710862,33.270176],[131.51038,33.273404],[131.697436,33.406393],[131.737295,33.484608],[131.729538,33.580236],[131.667366,33.667192],[131.521045,33.676371],[131.417703,33.581682],[131.200892,33.61271]]]},"properties":{"LOCATION_TYPE":"level1","ADM0_A3":"JPN","LOCATION_ID":"JPN-44","NAME":"Ōita","TYPE_EN":"Prefecture"}},
{"type":"Feature","geometry":{"type":"Polygon","coordinates":[[[130.036275,33.457593],[130.258954,33.467983],[130.531909,33.337888],[130.38122,33.236447],[130.349361,33.142045],[130.422211,33.082587],[130.429158,32.980523],[130.579865,33.098368],[130.728641,33.134464],[130.834733,33.080927],[130.841296,33.352021],[130.95054,33.485192],[131.149494,33.495656],[131.200892,33.61271],[131.081309,33.634955],[131.009776,33.746161],[130.992929,33.897665],[130.828228,33.939585],[130.684418,33.934231],[130.548188,33.880764],[130.454356,33.807685],[130.467674,33.743564],[130.386485,33.677232],[130.390866,33.604874],[130.290294,33.574205],[130.159548,33.629596],[130.156423,33.525377],[130.036275,33.457593]]]},"properties":{"LOCATION_TYPE":"level1","ADM0_A3":"JPN","LOCATION_ID":"JPN-40","NAME":"Fukuoka","TYPE_EN":"Prefecture"}},
{"type":"Feature","geometry":{"type":"Polygon","coordinates":[[[129.814544,33.331246],[129.758209,33.279106],[129.829213,33.175081],[129.919336,33.144282],[129.925176,33.068783],[130.032198,32.987548],[130.204101,32.943573],[130.131946,33.101972],[130.219302,33.159466],[130.349361,33.142045],[130.38122,33.236447],[130.531909,33.337888],[130.258954,33.467983],[130.036275,33.457593],[129.910059,33.547205],[129.787257,33.454519],[129.868663,33.397447],[129.814544,33.331246]]]},"properties":{"LOCATION_TYPE":"level1","ADM0_A3":"JPN","LOCATION_ID":"JPN-41","NAME":"Saga","TYPE_EN":"Prefecture"}},
{"type":"Feature","geometry":{"type":"MultiPolygon","coordinates":[[[[130.204101,32.943573],[130.032198,32.987548],[129.925176,33.068783],[129.919336,33.144282],[129.829213,33.175081],[129.758209,33.279106],[129.814544,33.331246],[129.580413,33.371007],[129.552144,33.225839],[129.728526,33.122301],[129.74648,33.06559],[129.881444,33.062763],[129.945623,33.015758],[129.931224,32.928894],[129.7944,32.874921],[129.823277,32.979538],[129.681612,33.094092],[129.632403,32.979107],[129.69809,32.839545],[129.771007,32.813951],[129.894929,32.662689],[129.954891,32.745171],[130.093789,32.79486],[130.210314,32.73325],[130.129457,32.641134],[130.18148,32.592327],[130.341704,32.667258],[130.375782,32.747884],[130.33942,32.856579],[130.243588,32.875284],[130.204101,32.943573]]],[[[128.878427,32.673925],[128.842296,32.759467],[128.641768,32.761384],[128.662852,32.601549],[128.878427,32.673925]]],[[[129.555684,33.410805],[129.342501,33.17962],[129.446605,33.19852],[129.562163,33.366394],[129.555684,33.410805]]],[[[129.776378,33.773424],[129.68672,33.859796],[129.657127,33.742555],[129.776378,33.773424]]],[[[129.312528,34.279756],[129.198535,34.316228],[129.170354,34.146816],[129.276587,34.129111],[129.312528,34.279756]]],[[[129.452647,34.619452],[129.418228,34.685392],[129.3233,34.648072],[129.272349,34.375697],[129.361831,34.405486],[129.446083,34.514776],[129.452647,34.619452]]]]},"properties":{"LOCATION_TYPE":"level1","ADM0_A3":"JPN","LOCATION_ID":"JPN-42","NAME":"Nagasaki","TYPE_EN":"Prefecture"}},
{"type":"Feature","geometry":{"type":"MultiPolygon","coordinates":[[[[130.344643,32.161785],[130.42437,32.113415],[130.589786,32.163463],[130.712363,32.09091],[130.936897,32.114965],[131.005627,32.165789],[131.08712,32.299631],[131.000046,32.460112],[131.242253,32.79327],[131.323902,32.822286],[131.262148,32.866289],[131.234657,32.975197],[131.124948,33.142448],[130.977566,33.160715],[131.009657,33.079532],[130.951211,33.032273],[130.834733,33.080927],[130.728641,33.134464],[130.579865,33.098368],[130.429158,32.980523],[130.441254,32.923651],[130.593028,32.815863],[130.576508,32.698391],[130.641287,32.607489],[130.562022,32.427069],[130.477061,32.349026],[130.344643,32.161785]]],[[[130.410004,32.511623],[130.363048,32.527086],[130.218598,32.455959],[130.241954,32.395494],[130.358653,32.412909],[130.410004,32.511623]]],[[[130.160492,32.546332],[130.03297,32.521918],[129.975271,32.355414],[130.016612,32.293118],[130.011974,32.190619],[130.20338,32.338853],[130.198985,32.48017],[130.160492,32.546332]]]]},"properties":{"LOCATION_TYPE":"level1","ADM0_A3":"JPN","LOCATION_ID":"JPN-43","NAME":"Kumamoto","TYPE_EN":"Prefecture"}},
{"type":"Feature","geometry":{"type":"Polygon","coordinates":[[[131.872325,32.731635],[131.819169,32.79836],[131.539703,32.74304],[131.464152,32.817894],[131.323902,32.822286],[131.242253,32.79327],[131.000046,32.460112],[131.08712,32.299631],[131.005627,32.165789],[130.936897,32.114965],[130.712363,32.09091],[130.783883,31.954846],[130.873438,31.887563],[130.897003,31.784262],[131.002371,31.723516],[131.035857,31.645356],[131.191817,31.574662],[131.150645,31.47134],[131.26588,31.381171],[131.34547,31.394965],[131.450531,31.651109],[131.475271,31.762152],[131.447276,31.876899],[131.59254,32.303656],[131.68214,32.535061],[131.80064,32.680833],[131.872325,32.731635]]]},"properties":{"LOCATION_TYPE":"level1","ADM0_A3":"JPN","LOCATION_ID":"JPN-45","NAME":"Miyazaki","TYPE_EN":"Prefecture"}},
{"type":"Feature","geometry":{"type":"Polygon","coordinates":[[[134.442446,34.208267],[134.419734,34.161481],[134.219746,34.162618],[133.965394,34.071977],[133.828245,34.092881],[133.660607,33.997873],[133.647894,33.85566],[133.884986,33.790057],[134.017536,33.810779],[134.060169,33.67934],[134.158716,33.656241],[134.190083,33.551518],[134.295665,33.530323],[134.404022,33.654478],[134.732304,33.825952],[134.662364,33.875881],[134.695963,33.951893],[134.599783,34.009467],[134.628266,34.177924],[134.594249,34.232123],[134.442446,34.208267]]]},"properties":{"LOCATION_TYPE":"level1","ADM0_A3":"JPN","LOCATION_ID":"JPN-36","NAME":"Tokushima","TYPE_EN":"Prefecture"}},
{"type":"Feature","geometry":{"type":"MultiPolygon","coordinates":[[[[133.591884,34.023809],[133.660607,33.997873],[133.828245,34.092881],[133.965394,34.071977],[134.219746,34.162618],[134.419734,34.161481],[134.442446,34.208267],[134.257823,34.294176],[134.153005,34.385728],[134.081309,34.347724],[133.946544,34.376166],[133.672618,34.223131],[133.641287,34.079169],[133.591884,34.023809]]],[[[134.367361,34.554267],[134.203787,34.512437],[134.26238,34.420885],[134.346934,34.430813],[134.367361,34.554267]]]]},"properties":{"LOCATION_TYPE":"level1","ADM0_A3":"JPN","LOCATION_ID":"JPN-37","NAME":"Kagawa","TYPE_EN":"Prefecture"}},
{"type":"Feature","geometry":{"type":"Polygon","coordinates":[[[132.639903,32.908922],[132.673277,33.122888],[132.773632,33.239005],[132.876675,33.302722],[132.820245,33.450155],[132.950262,33.44969],[133.035425,33.511676],[133.066173,33.617974],[133.178827,33.771557],[133.268383,33.80481],[133.468525,33.81928],[133.647894,33.85566],[133.660607,33.997873],[133.591884,34.023809],[133.510997,33.965237],[133.322608,33.990553],[133.127011,33.933291],[132.942384,34.141262],[132.91911,34.068406],[132.769862,33.99627],[132.71237,33.904549],[132.676606,33.715644],[132.500612,33.624998],[132.381114,33.466051],[132.420121,33.304356],[132.536829,33.242584],[132.451834,33.052883],[132.472272,32.933672],[132.639903,32.908922]]]},"properties":{"LOCATION_TYPE":"level1","ADM0_A3":"JPN","LOCATION_ID":"JPN-38","NAME":"Ehime","TYPE_EN":"Prefecture"}},
{"type":"Feature","geometry":{"type":"Polygon","coordinates":[[[134.295665,33.530323],[134.190083,33.551518],[134.158716,33.656241],[134.060169,33.67934],[134.017536,33.810779],[133.884986,33.790057],[133.647894,33.85566],[133.468525,33.81928],[133.268383,33.80481],[133.178827,33.771557],[133.066173,33.617974],[133.035425,33.511676],[132.950262,33.44969],[132.820245,33.450155],[132.876675,33.302722],[132.773632,33.239005],[132.673277,33.122888],[132.639903,32.908922],[132.623377,32.799496],[132.812185,32.740302],[132.91505,32.777981],[133.018259,33.024023],[133.097116,33.048111],[133.253266,33.219062],[133.269379,33.346869],[133.414806,33.393052],[133.465909,33.454324],[133.607733,33.515825],[133.739397,33.537507],[133.925205,33.493693],[134.190255,33.248329],[134.244634,33.46075],[134.295665,33.530323]]]},"properties":{"LOCATION_TYPE":"level1","ADM0_A3":"JPN","LOCATION_ID":"JPN-39","NAME":"Kōchi","TYPE_EN":"Prefecture"}},
{"type":"Feature","geometry":{"type":"MultiPolygon","coordinates":[[[[131.675629,34.672143],[131.703414,34.571043],[131.667137,34.496086],[131.768474,34.416142],[131.77142,34.314262],[131.946758,34.306046],[132.050421,34.457845],[132.153309,34.716538],[132.424093,34.799737],[132.509101,34.789505],[132.667851,34.838236],[132.642529,34.894692],[132.747122,34.962207],[132.839158,35.06649],[133.127926,35.067317],[133.16441,35.205888],[133.299802,35.282446],[133.316958,35.423626],[133.249882,35.456131],[133.257498,35.5362],[133.105353,35.597517],[132.969737,35.516995],[132.864909,35.510983],[132.635359,35.440955],[132.671446,35.355128],[132.638679,35.294645],[132.408085,35.175051],[132.31685,35.062346],[132.063304,34.907489],[131.873758,34.759223],[131.858409,34.714504],[131.675629,34.672143]]],[[[133.367035,36.274237],[133.292003,36.342475],[133.209483,36.297187],[133.187755,36.216132],[133.32602,36.158149],[133.367035,36.274237]]]]},"properties":{"LOCATION_TYPE":"level1","ADM0_A3":"JPN","LOCATION_ID":"JPN-32","NAME":"Shimane","TYPE_EN":"Prefecture"}},
{"type":"Feature","geometry":{"type":"Polygon","coordinates":[[[132.240408,34.189805],[132.144007,34.22835],[132.070885,34.359453],[132.050421,34.457845],[131.946758,34.306046],[131.77142,34.314262],[131.768474,34.416142],[131.667137,34.496086],[131.703414,34.571043],[131.675629,34.672143],[131.596872,34.659589],[131.520763,34.551907],[131.454763,34.51911],[131.414317,34.423977],[131.236176,34.38231],[131.074718,34.42475],[130.927419,34.348944],[130.871593,34.279242],[130.92335,34.183783],[130.861583,34.112738],[130.912577,34.053342],[130.932086,33.945365],[131.035595,34.047975],[131.272227,33.926825],[131.355724,33.989447],[131.482921,34.03205],[131.741466,34.05622],[132.057791,33.89525],[132.213227,33.989651],[132.201915,34.108588],[132.240408,34.189805]]]},"properties":{"LOCATION_TYPE":"level1","ADM0_A3":"JPN","LOCATION_ID":"JPN-35","NAME":"Yamaguchi","TYPE_EN":"Prefecture"}},
{"type":"Feature","geometry":{"type":"Polygon","coordinates":[[[133.257498,35.5362],[133.249882,35.456131],[133.316958,35.423626],[133.299802,35.282446],[133.16441,35.205888],[133.127926,35.067317],[133.2643,35.050626],[133.39716,35.156614],[133.504234,35.18116],[133.57994,35.315157],[133.735227,35.295339],[133.811088,35.242242],[133.929066,35.319395],[134.08115,35.279165],[134.174581,35.161627],[134.395652,35.229219],[134.504793,35.25821],[134.502106,35.332391],[134.416788,35.544187],[134.365581,35.599965],[134.237765,35.546651],[134.03479,35.519356],[133.731145,35.502907],[133.580182,35.533603],[133.329626,35.465504],[133.257498,35.5362]]]},"properties":{"LOCATION_TYPE":"level1","ADM0_A3":"JPN","LOCATION_ID":"JPN-31","NAME":"Tottori","TYPE_EN":"Prefecture"}},
{"type":"Feature","geometry":{"type":"MultiPolygon","coordinates":[[[[134.365581,35.599965],[134.416788,35.544187],[134.502106,35.332391],[134.504793,35.25821],[134.395652,35.229219],[134.394102,35.140698],[134.263619,35.000965],[134.259743,34.821337],[134.304641,34.709109],[134.519054,34.759711],[134.744395,34.766547],[134.960297,34.643622],[135.045769,34.624967],[135.210902,34.65518],[135.286863,34.705443],[135.412934,34.692084],[135.448508,34.729198],[135.439826,34.90371],[135.363345,34.997451],[135.400862,35.076826],[135.343915,35.129174],[135.201288,35.170076],[135.159275,35.239555],[135.077781,35.23356],[134.955101,35.285805],[135.050496,35.416392],[135.04383,35.502691],[134.910866,35.51282],[134.86325,35.658278],[134.536987,35.672203],[134.365581,35.599965]]],[[[135.002682,34.608423],[134.798956,34.446794],[134.657169,34.288204],[134.728677,34.190939],[134.958254,34.270356],[134.902973,34.419006],[135.030121,34.578843],[135.002682,34.608423]]]]},"properties":{"LOCATION_TYPE":"level1","ADM0_A3":"JPN","LOCATION_ID":"JPN-28","NAME":"Hyōgo","TYPE_EN":"Prefecture"}},
{"type":"Feature","geometry":{"type":"Polygon","coordinates":[[[134.86325,35.658278],[134.910866,35.51282],[135.04383,35.502691],[135.050496,35.416392],[134.955101,35.285805],[135.077781,35.23356],[135.159275,35.239555],[135.201288,35.170076],[135.343915,35.129174],[135.400862,35.076826],[135.363345,34.997451],[135.538218,34.909782],[135.646377,34.899188],[135.70627,34.759532],[135.832257,34.699123],[136.036482,34.715349],[136.003099,34.773692],[135.873547,34.868105],[135.814739,35.005564],[135.836598,35.120751],[135.826986,35.2633],[135.742857,35.337585],[135.518788,35.373448],[135.453055,35.439129],[135.478761,35.543725],[135.45239,35.571781],[135.262042,35.557547],[135.242394,35.62264],[135.304047,35.68891],[135.226846,35.772321],[135.08412,35.739022],[134.927013,35.641181],[134.86325,35.658278]]]},"properties":{"LOCATION_TYPE":"level1","ADM0_A3":"JPN","LOCATION_ID":"JPN-26","NAME":"Kyōto","TYPE_EN":"Urban Prefecture"}},
{"type":"Feature","geometry":{"type":"Polygon","coordinates":[[[135.478761,35.543725],[135.453055,35.439129],[135.518788,35.373448],[135.742857,35.337585],[136.088624,35.522638],[136.167275,35.675006],[136.257296,35.645628],[136.337033,35.766396],[136.455372,35.751901],[136.768582,35.790994],[136.778969,35.886983],[136.698561,35.943543],[136.720885,36.074801],[136.62301,36.074465],[136.53299,36.139913],[136.416924,36.140456],[136.3052,36.184148],[136.226719,36.285603],[136.162627,36.252242],[135.957286,35.973131],[135.993454,35.885142],[136.099457,35.775702],[135.956005,35.728325],[135.981668,35.643638],[135.854747,35.579047],[135.706093,35.562095],[135.724431,35.490732],[135.558279,35.491767],[135.478761,35.543725]]]},"properties":{"LOCATION_TYPE":"level1","ADM0_A3":"JPN","LOCATION_ID":"JPN-18","NAME":"Fukui","TYPE_EN":"Prefecture"}},
{"type":"Feature","geometry":{"type":"Polygon","coordinates":[[[136.226719,36.285603],[136.3052,36.184148],[136.416924,36.140456],[136.53299,36.139913],[136.62301,36.074465],[136.720885,36.074801],[136.811887,36.220063],[136.773233,36.291997],[136.757575,36.418992],[136.78362,36.543403],[136.777109,36.718948],[136.859791,36.887025],[136.914878,36.937306],[137.044425,36.956404],[137.053966,37.07982],[136.874685,37.069648],[136.930431,37.221625],[137.014171,37.184882],[137.108721,37.28345],[137.230235,37.292141],[137.253601,37.429106],[137.351205,37.445676],[137.29571,37.53149],[137.113841,37.487747],[136.934766,37.399457],[136.749094,37.357917],[136.670259,37.149957],[136.767613,36.980999],[136.760555,36.870599],[136.639961,36.662601],[136.430186,36.432522],[136.226719,36.285603]]]},"properties":{"LOCATION_TYPE":"level1","ADM0_A3":"JPN","LOCATION_ID":"JPN-17","NAME":"Ishikawa","TYPE_EN":"Prefecture"}},
{"type":"Feature","geometry":{"type":"Polygon","coordinates":[[[137.044425,36.956404],[136.914878,36.937306],[136.859791,36.887025],[136.777109,36.718948],[136.78362,36.543403],[136.757575,36.418992],[136.773233,36.291997],[136.85049,36.342795],[136.957977,36.273316],[137.132591,36.425219],[137.28483,36.450799],[137.565381,36.377005],[137.62822,36.434521],[137.71948,36.589834],[137.732658,36.77481],[137.694779,36.911959],[137.614564,36.975108],[137.427108,36.922011],[137.333344,36.762726],[137.156993,36.76081],[137.005544,36.835924],[137.044425,36.956404]]]},"properties":{"LOCATION_TYPE":"level1","ADM0_A3":"JPN","LOCATION_ID":"JPN-16","NAME":"Toyama","TYPE_EN":"Prefecture"}},
{"type":"Feature","geometry":{"type":"MultiPolygon","coordinates":[[[[137.614564,36.975108],[137.694779,36.911959],[137.732658,36.77481],[137.801078,36.803387],[137.884742,36.922139],[138.005458,36.882917],[138.011969,36.825763],[138.215419,36.859766],[138.382076,36.986166],[138.555243,37.000636],[138.574467,36.922966],[138.669603,36.822585],[138.679525,36.730652],[138.808148,36.767834],[138.958681,36.894441],[138.973977,36.971981],[139.104512,37.035569],[139.214583,36.945652],[139.235202,37.139904],[139.160116,37.240776],[139.208795,37.441126],[139.381394,37.460815],[139.419532,37.503344],[139.556061,37.51815],[139.533272,37.613673],[139.724629,37.820379],[139.617401,37.909573],[139.679154,38.187566],[139.844415,38.24087],[139.862244,38.31438],[139.721632,38.377038],[139.701788,38.494395],[139.548718,38.545003],[139.462169,38.374986],[139.432384,38.169135],[139.304535,38.041938],[139.059881,37.945942],[138.857677,37.827826],[138.765636,37.63467],[138.550629,37.377916],[138.437516,37.322037],[138.244895,37.183789],[138.097502,37.171059],[137.896739,37.057522],[137.614564,36.975108]]],[[[138.459239,38.069892],[138.519298,38.30744],[138.310069,38.168118],[138.232677,38.007758],[138.34254,37.966864],[138.287852,37.905992],[138.265147,37.798326],[138.486501,37.89175],[138.575206,38.035102],[138.459239,38.069892]]]]},"properties":{"LOCATION_TYPE":"level1","ADM0_A3":"JPN","LOCATION_ID":"JPN-15","NAME":"Niigata","TYPE_EN":"Prefecture"}},
{"type":"Feature","geometry":{"type":"Polygon","coordinates":[[[139.548718,38.545003],[139.701788,38.494395],[139.721632,38.377038],[139.862244,38.31438],[139.844415,38.24087],[139.679154,38.187566],[139.617401,37.909573],[139.724629,37.820379],[139.932369,37.811594],[140.104296,37.722659],[140.203308,37.738498],[140.273743,37.799554],[140.269557,37.964246],[140.282321,38.04512],[140.396526,38.091164],[140.46138,38.244849],[140.587936,38.465714],[140.541117,38.642138],[140.598995,38.659785],[140.616048,38.765438],[140.5329,38.88171],[140.342783,39.003847],[140.210698,39.019996],[140.012157,39.109809],[139.880855,39.115106],[139.773844,38.817117],[139.599215,38.648254],[139.548718,38.545003]]]},"properties":{"LOCATION_TYPE":"level1","ADM0_A3":"JPN","LOCATION_ID":"JPN-06","NAME":"Yamagata","TYPE_EN":"Prefecture"}},
{"type":"Feature","geometry":{"type":"Polygon","coordinates":[[[139.880855,39.115106],[140.012157,39.109809],[140.210698,39.019996],[140.342783,39.003847],[140.5329,38.88171],[140.641989,38.889332],[140.75945,38.951731],[140.796088,39.174715],[140.693356,39.302563],[140.658112,39.392273],[140.813762,39.643937],[140.790197,39.719772],[140.870554,39.878316],[140.842494,39.977457],[140.855413,40.180597],[140.926261,40.243978],[140.962745,40.368647],[140.940369,40.468202],[140.849935,40.499518],[140.71692,40.425543],[140.544218,40.407973],[140.384692,40.480113],[140.300615,40.447092],[140.061353,40.464094],[139.943762,40.42928],[140.024263,40.355016],[139.978038,40.125474],[139.904193,40.017695],[139.822113,39.961086],[139.697731,39.988566],[139.760102,39.858059],[139.877452,39.892808],[140.027599,39.82453],[140.059296,39.727492],[140.048577,39.50467],[139.99531,39.327329],[139.93181,39.287112],[139.880855,39.115106]]]},"properties":{"LOCATION_TYPE":"level1","ADM0_A3":"JPN","LOCATION_ID":"JPN-05","NAME":"Akita","TYPE_EN":"Prefecture"}},
{"type":"Feature","geometry":{"type":"Polygon","coordinates":[[[139.943762,40.42928],[140.061353,40.464094],[140.300615,40.447092],[140.384692,40.480113],[140.544218,40.407973],[140.71692,40.425543],[140.849935,40.499518],[140.940369,40.468202],[140.962745,40.368647],[140.926261,40.243978],[141.001502,40.211318],[141.302518,40.355392],[141.53687,40.3564],[141.680988,40.451006],[141.57555,40.542279],[141.519696,40.537986],[141.437387,40.670141],[141.405553,40.816823],[141.390817,41.161011],[141.457465,41.377473],[141.276096,41.353196],[141.10775,41.463869],[140.907102,41.500799],[140.836951,41.418222],[140.765554,41.195956],[140.798155,41.128578],[140.977562,41.196478],[141.058076,41.183068],[141.205911,41.26472],[141.27048,41.185204],[141.236407,41.015722],[141.185249,40.911215],[141.111346,40.872633],[140.975066,40.937755],[140.870726,40.915135],[140.799223,40.839081],[140.673025,40.895575],[140.631521,41.093085],[140.642666,41.171379],[140.548598,41.226243],[140.483674,41.183468],[140.332779,41.237153],[140.300162,41.111277],[140.324834,41.027461],[140.270763,40.812405],[140.107618,40.744073],[140.045977,40.76777],[139.860362,40.608791],[139.942786,40.544586],[139.943762,40.42928]]]},"properties":{"LOCATION_TYPE":"level1","ADM0_A3":"JPN","LOCATION_ID":"JPN-02","NAME":"Aomori","TYPE_EN":"Prefecture"}},
{"type":"Feature","geometry":{"type":"Polygon","coordinates":[[[141.680988,40.451006],[141.53687,40.3564],[141.302518,40.355392],[141.001502,40.211318],[140.926261,40.243978],[140.855413,40.180597],[140.842494,39.977457],[140.870554,39.878316],[140.790197,39.719772],[140.813762,39.643937],[140.658112,39.392273],[140.693356,39.302563],[140.796088,39.174715],[140.75945,38.951731],[141.005275,38.872925],[141.112607,38.869462],[141.146145,38.786212],[141.217768,38.753785],[141.320708,38.813032],[141.448865,38.816287],[141.482352,38.963617],[141.640304,38.967503],[141.806488,39.029486],[141.908865,39.109768],[141.905284,39.330471],[141.970876,39.443264],[142.069347,39.540473],[141.978282,39.647854],[142.0088,39.752753],[141.949555,39.996568],[141.854991,40.054999],[141.877208,40.139309],[141.743777,40.383922],[141.680988,40.451006]]]},"properties":{"LOCATION_TYPE":"level1","ADM0_A3":"JPN","LOCATION_ID":"JPN-03","NAME":"Iwate","TYPE_EN":"Prefecture"}},
{"type":"Feature","geometry":{"type":"Polygon","coordinates":[[[141.640304,38.967503],[141.482352,38.963617],[141.448865,38.816287],[141.320708,38.813032],[141.217768,38.753785],[141.146145,38.786212],[141.112607,38.869462],[141.005275,38.872925],[140.75945,38.951731],[140.641989,38.889332],[140.5329,38.88171],[140.616048,38.765438],[140.598995,38.659785],[140.541117,38.642138],[140.587936,38.465714],[140.46138,38.244849],[140.396526,38.091164],[140.282321,38.04512],[140.269557,37.964246],[140.404588,37.954635],[140.517397,37.893191],[140.651601,37.882908],[140.694699,37.798546],[140.849625,37.798778],[140.933193,37.889805],[140.925792,38.049384],[140.966807,38.170478],[141.09783,38.371527],[141.333181,38.409003],[141.457774,38.330878],[141.471446,38.435736],[141.547618,38.518622],[141.467052,38.569525],[141.572602,38.718655],[141.530528,38.780829],[141.636729,38.891099],[141.640304,38.967503]]]},"properties":{"LOCATION_TYPE":"level1","ADM0_A3":"JPN","LOCATION_ID":"JPN-04","NAME":"Miyagi","TYPE_EN":"Prefecture"}},
{"type":"Feature","geometry":{"type":"Polygon","coordinates":[[[140.933193,37.889805],[140.849625,37.798778],[140.694699,37.798546],[140.651601,37.882908],[140.517397,37.893191],[140.404588,37.954635],[140.269557,37.964246],[140.273743,37.799554],[140.203308,37.738498],[140.104296,37.722659],[139.932369,37.811594],[139.724629,37.820379],[139.533272,37.613673],[139.556061,37.51815],[139.419532,37.503344],[139.381394,37.460815],[139.208795,37.441126],[139.160116,37.240776],[139.235202,37.139904],[139.214583,36.945652],[139.359587,36.902037],[139.861314,37.130447],[139.958155,37.139387],[140.098095,37.105823],[140.231265,36.99999],[140.237311,36.924827],[140.406913,36.815763],[140.481224,36.797108],[140.561477,36.917902],[140.797286,36.846489],[140.835216,36.908433],[140.960297,36.966213],[141.007823,37.133857],[141.04184,37.377143],[141.022227,37.726955],[140.933193,37.889805]]]},"properties":{"LOCATION_TYPE":"level1","ADM0_A3":"JPN","LOCATION_ID":"JPN-07","NAME":"Fukushima","TYPE_EN":"Prefecture"}},
{"type":"Feature","geometry":{"type":"Polygon","coordinates":[[[140.797286,36.846489],[140.561477,36.917902],[140.481224,36.797108],[140.406913,36.815763],[140.237311,36.924827],[140.266767,36.718638],[140.221033,36.677193],[140.237621,36.541336],[140.181139,36.414884],[139.953504,36.362122],[139.791809,36.241587],[139.653729,36.203139],[139.674038,36.152212],[139.752845,36.079555],[139.805451,36.077798],[139.932369,35.938479],[140.127344,35.854427],[140.345573,35.855434],[140.551452,35.888559],[140.859467,35.735378],[140.646034,36.01332],[140.57838,36.160956],[140.564107,36.283096],[140.616873,36.337795],[140.623546,36.50609],[140.693858,36.617987],[140.741873,36.768459],[140.797286,36.846489]]]},"properties":{"LOCATION_TYPE":"level1","ADM0_A3":"JPN","LOCATION_ID":"JPN-08","NAME":"Ibaraki","TYPE_EN":"Prefecture"}},
{"type":"Feature","geometry":{"type":"Polygon","coordinates":[[[140.859467,35.735378],[140.551452,35.888559],[140.345573,35.855434],[140.127344,35.854427],[139.932369,35.938479],[139.805451,36.077798],[139.752845,36.079555],[139.874801,35.85037],[139.863949,35.778127],[139.864243,35.632068],[140.00895,35.65976],[140.0796,35.603583],[140.005859,35.473427],[139.900121,35.423104],[139.824158,35.328424],[139.824609,35.199064],[139.867686,35.013332],[139.778812,34.954139],[139.8431,34.899982],[139.926396,34.907357],[139.990968,35.020502],[140.134603,35.122645],[140.321214,35.130394],[140.394195,35.196592],[140.413097,35.301215],[140.385919,35.380999],[140.483467,35.565991],[140.661056,35.688635],[140.859467,35.735378]]]},"properties":{"LOCATION_TYPE":"level1","ADM0_A3":"JPN","LOCATION_ID":"JPN-12","NAME":"Chiba","TYPE_EN":"Prefecture"}},
{"type":"Feature","geometry":{"type":"Polygon","coordinates":[[[139.864243,35.632068],[139.863949,35.778127],[139.757806,35.795283],[139.535597,35.751565],[139.384495,35.754924],[139.27153,35.808977],[139.013613,35.877294],[138.922818,35.835384],[139.035783,35.696349],[139.121772,35.654],[139.245279,35.591678],[139.399068,35.556305],[139.539421,35.612607],[139.786621,35.51153],[139.806825,35.638193],[139.864243,35.632068]]]},"properties":{"LOCATION_TYPE":"level1","ADM0_A3":"JPN","LOCATION_ID":"JPN-13","NAME":"Tokyo","TYPE_EN":"Metropolis"}},
{"type":"Feature","geometry":{"type":"Polygon","coordinates":[[[139.786621,35.51153],[139.539421,35.612607],[139.399068,35.556305],[139.245279,35.591678],[139.121772,35.654],[139.080483,35.504939],[138.933256,35.437062],[138.900339,35.380941],[138.986587,35.381148],[138.973564,35.204957],[139.094431,35.117474],[139.145957,35.235227],[139.233367,35.285324],[139.414856,35.318815],[139.526603,35.302037],[139.660589,35.178232],[139.734228,35.265203],[139.648358,35.297891],[139.657238,35.377022],[139.786621,35.51153]]]},"properties":{"LOCATION_TYPE":"level1","ADM0_A3":"JPN","LOCATION_ID":"JPN-14","NAME":"Kanagawa","TYPE_EN":"Prefecture"}},
{"type":"Feature","geometry":{"type":"Polygon","coordinates":[[[139.094431,35.117474],[138.973564,35.204957],[138.986587,35.381148],[138.900339,35.380941],[138.697199,35.350762],[138.533953,35.409674],[138.510543,35.207464],[138.383471,35.190307],[138.328229,35.299887],[138.235883,35.303685],[138.241309,35.517781],[138.196144,35.627851],[138.143227,35.560956],[138.126794,35.384533],[138.085505,35.336965],[137.805573,35.194519],[137.770227,35.081166],[137.579179,34.845031],[137.488435,34.809762],[137.467903,34.670969],[137.683506,34.670755],[137.792166,34.63939],[137.892798,34.667697],[138.047237,34.65464],[138.190176,34.601228],[138.215989,34.712283],[138.340831,34.826483],[138.367108,34.917309],[138.514293,34.980178],[138.554082,35.096069],[138.696186,35.138976],[138.803332,35.121909],[138.744001,34.728892],[138.835297,34.595893],[138.940826,34.661107],[139.08839,34.842271],[139.14088,34.870551],[139.086548,34.997305],[139.094431,35.117474]]]},"properties":{"LOCATION_TYPE":"level1","ADM0_A3":"JPN","LOCATION_ID":"JPN-22","NAME":"Shizuoka","TYPE_EN":"Prefecture"}},
{"type":"Feature","geometry":{"type":"Polygon","coordinates":[[[137.467903,34.670969],[137.488435,34.809762],[137.579179,34.845031],[137.770227,35.081166],[137.805573,35.194519],[137.575148,35.188163],[137.547863,35.270354],[137.422031,35.21599],[137.293202,35.26777],[137.199616,35.241234],[137.070838,35.284927],[136.952912,35.384145],[136.770598,35.352106],[136.680061,35.236377],[136.673446,35.138812],[136.751801,35.02615],[136.823465,34.954855],[136.827726,34.871941],[136.915564,34.77596],[137.297928,34.797191],[137.309256,34.725664],[137.12102,34.637661],[137.140727,34.589289],[137.467903,34.670969]]]},"properties":{"LOCATION_TYPE":"level1","ADM0_A3":"JPN","LOCATION_ID":"JPN-23","NAME":"Aichi","TYPE_EN":"Prefecture"}},
{"type":"Feature","geometry":{"type":"Polygon","coordinates":[[[136.751801,35.02615],[136.673446,35.138812],[136.515161,35.231907],[136.398786,35.202606],[136.443176,35.131835],[136.399871,34.949469],[136.240501,34.863118],[136.124591,34.872342],[136.003099,34.773692],[136.036482,34.715349],[136.05245,34.574582],[136.202519,34.501512],[136.202674,34.458827],[136.069245,34.376998],[136.1187,34.24114],[136.087229,34.009449],[136.003823,33.993119],[135.957521,33.917956],[135.847657,33.838142],[135.86316,33.787085],[135.99374,33.68626],[136.104744,33.891411],[136.273204,33.971422],[136.243826,34.064154],[136.299001,34.154283],[136.52296,34.273098],[136.59254,34.262641],[136.846446,34.307563],[136.916026,34.433987],[136.632986,34.591132],[136.568126,34.596381],[136.519542,34.680854],[136.53494,34.765695],[136.616115,34.853501],[136.65919,34.983954],[136.751801,35.02615]]]},"properties":{"LOCATION_TYPE":"level1","ADM0_A3":"JPN","LOCATION_ID":"JPN-24","NAME":"Mie","TYPE_EN":"Prefecture"}},
{"type":"Feature","geometry":{"type":"Polygon","coordinates":[[[135.99374,33.68626],[135.86316,33.787085],[135.847657,33.838142],[135.817271,33.872222],[135.598266,33.890128],[135.613304,33.954853],[135.551086,34.082468],[135.632889,34.18458],[135.709061,34.225353],[135.646842,34.371752],[135.188471,34.274303],[135.085271,34.299182],[135.187022,34.135932],[135.094493,34.067613],[135.065454,33.885572],[135.152758,33.875854],[135.196462,33.814765],[135.391612,33.713568],[135.327695,33.671193],[135.444835,33.550849],[135.637543,33.494615],[135.765571,33.481545],[135.884776,33.528998],[135.99374,33.68626]]]},"properties":{"LOCATION_TYPE":"level1","ADM0_A3":"JPN","LOCATION_ID":"JPN-30","NAME":"Wakayama","TYPE_EN":"Prefecture"}},
{"type":"Feature","geometry":{"type":"Polygon","coordinates":[[[135.085271,34.299182],[135.188471,34.274303],[135.646842,34.371752],[135.665136,34.493063],[135.622037,34.553421],[135.70627,34.759532],[135.646377,34.899188],[135.538218,34.909782],[135.363345,34.997451],[135.439826,34.90371],[135.448508,34.729198],[135.412934,34.692084],[135.414379,34.558125],[135.31969,34.428758],[135.208985,34.342278],[135.085271,34.299182]]]},"properties":{"LOCATION_TYPE":"level1","ADM0_A3":"JPN","LOCATION_ID":"JPN-27","NAME":"Ōsaka","TYPE_EN":"Urban Prefecture"}},
{"type":"Feature","geometry":{"type":"Polygon","coordinates":[[[134.304641,34.709109],[134.259743,34.821337],[134.263619,35.000965],[134.394102,35.140698],[134.395652,35.229219],[134.174581,35.161627],[134.08115,35.279165],[133.929066,35.319395],[133.811088,35.242242],[133.735227,35.295339],[133.57994,35.315157],[133.504234,35.18116],[133.39716,35.156614],[133.2643,35.050626],[133.304143,34.997399],[133.310085,34.87689],[133.362227,34.792709],[133.392664,34.608224],[133.443023,34.472673],[133.568858,34.459906],[133.699962,34.525946],[133.821788,34.462144],[133.93629,34.451239],[133.983165,34.528632],[134.177257,34.614447],[134.247813,34.718166],[134.304641,34.709109]]]},"properties":{"LOCATION_TYPE":"level1","ADM0_A3":"JPN","LOCATION_ID":"JPN-33","NAME":"Okayama","TYPE_EN":"Prefecture"}},
{"type":"Feature","geometry":{"type":"Polygon","coordinates":[[[133.443023,34.472673],[133.392664,34.608224],[133.362227,34.792709],[133.310085,34.87689],[133.304143,34.997399],[133.2643,35.050626],[133.127926,35.067317],[132.839158,35.06649],[132.747122,34.962207],[132.642529,34.894692],[132.667851,34.838236],[132.509101,34.789505],[132.424093,34.799737],[132.153309,34.716538],[132.050421,34.457845],[132.070885,34.359453],[132.144007,34.22835],[132.240408,34.189805],[132.222504,34.238959],[132.383474,34.365668],[132.496837,34.362494],[132.559825,34.218411],[132.656261,34.199286],[132.778087,34.242743],[132.836192,34.311103],[133.076915,34.316718],[133.165782,34.292304],[133.247325,34.4265],[133.341075,34.348049],[133.443023,34.472673]]]},"properties":{"LOCATION_TYPE":"level1","ADM0_A3":"JPN","LOCATION_ID":"JPN-34","NAME":"Hiroshima","TYPE_EN":"Prefecture"}},
{"type":"Feature","geometry":{"type":"MultiPolygon","coordinates":[[[[145.767426,43.387274],[145.675955,43.381985],[145.468435,43.252997],[145.321625,43.276272],[145.311697,43.366767],[145.194835,43.620673],[145.074718,43.75373],[145.122325,43.91706],[145.260427,44.069403],[145.349864,44.211615],[145.341482,44.345526],[145.201671,44.205797],[145.048513,44.122138],[144.831228,43.942206],[144.740489,43.914618],[144.430431,43.942572],[144.318614,43.991197],[144.215099,44.111477],[143.999197,44.133979],[143.929698,44.098944],[143.783214,44.100653],[143.680431,44.182359],[143.405284,44.31745],[143.35141,44.381049],[143.118419,44.496894],[142.981456,44.586493],[142.630707,44.883734],[142.539317,45.018459],[142.221202,45.299628],[142.056651,45.402045],[141.96046,45.51024],[141.823253,45.422553],[141.692149,45.402289],[141.583751,45.251166],[141.586436,45.164374],[141.721853,44.955146],[141.783458,44.765367],[141.791759,44.596991],[141.747244,44.424221],[141.655447,44.276923],[141.670177,44.066636],[141.640636,43.937934],[141.528168,43.841213],[141.38502,43.791327],[141.337413,43.712836],[141.391368,43.579088],[141.37086,43.497138],[141.440115,43.361721],[141.37086,43.250718],[141.169119,43.140855],[141.021983,43.174994],[140.988292,43.226996],[140.809906,43.19245],[140.487153,43.372382],[140.360118,43.325181],[140.338064,43.210517],[140.43922,43.134019],[140.52711,43.015448],[140.377126,42.893785],[140.260753,42.760972],[140.200369,42.814276],[140.053884,42.694159],[139.876964,42.663398],[139.832774,42.588813],[139.84962,42.469306],[139.767589,42.310981],[139.787446,42.246772],[139.927501,42.138902],[140.027599,42.105536],[140.14503,41.982652],[140.129731,41.823228],[140.019542,41.696967],[139.983653,41.560492],[140.038259,41.442572],[140.208995,41.401109],[140.274669,41.482367],[140.400645,41.513007],[140.452891,41.681057],[140.604259,41.736274],[140.641612,41.81509],[140.959972,41.721991],[141.043305,41.723863],[141.182791,41.818305],[140.974294,41.913764],[140.713552,42.13349],[140.548839,42.105536],[140.291759,42.259589],[140.288585,42.350165],[140.38087,42.505072],[140.525645,42.580634],[140.733653,42.564154],[141.016775,42.316107],[141.091563,42.391791],[141.427745,42.564399],[141.726085,42.617174],[141.925955,42.55858],[142.06258,42.470728],[142.167752,42.459859],[142.281016,42.366523],[142.459972,42.271308],[142.75766,42.158393],[142.959727,42.105373],[143.25294,41.941881],[143.337901,42.150214],[143.348969,42.319159],[143.44809,42.455024],[143.638845,42.661078],[143.886404,42.844184],[144.042003,42.926581],[144.323009,43.002631],[144.49586,42.933254],[144.741954,42.924221],[144.757579,43.018785],[145.000173,42.986151],[145.099294,43.044623],[145.125499,43.120063],[145.302501,43.173489],[145.5171,43.174994],[145.629161,43.30976],[145.760102,43.336982],[145.767426,43.387274]]],[[[139.548513,42.243354],[139.414317,42.172512],[139.508962,42.100816],[139.548513,42.243354]]],[[[141.327159,45.172349],[141.202647,45.249091],[141.150076,45.147121],[141.235362,45.102484],[141.327159,45.172349]]]]},"properties":{"LOCATION_TYPE":"level1","ADM0_A3":"JPN","LOCATION_ID":"JPN-01","NAME":"Hokkaidō","TYPE_EN":"Circuit"}},
{"type":"Feature","geometry":{"type":"MultiPolygon","coordinates":[[[[123.814708,24.39175],[123.683442,24.285305],[123.873057,24.258246],[123.936046,24.341457],[123.814708,24.39175]]],[[[124.329112,24.583564],[124.143077,24.384914],[124.241873,24.363715],[124.273936,24.487942],[124.329112,24.583564]]],[[[125.387218,24.782172],[125.27475,24.856431],[125.2588,24.733385],[125.3838,24.726955],[125.387218,24.782172]]],[[[128.337657,26.796942],[128.225922,26.800971],[128.014903,26.634833],[127.96461,26.69717],[127.88559,26.620185],[127.937511,26.532131],[127.731293,26.439887],[127.741873,26.320543],[127.635916,26.191352],[127.651703,26.084377],[127.796886,26.139716],[127.777517,26.233344],[127.940278,26.44774],[128.172211,26.623481],[128.243337,26.633287],[128.337657,26.796942]]],[[[128.98878,27.811103],[128.965505,27.894355],[128.894542,27.891303],[128.894542,27.728217],[128.98878,27.811103]]],[[[129.70753,28.462144],[129.687755,28.508979],[129.399587,28.371731],[129.227712,28.304592],[129.242442,28.214301],[129.371104,28.167222],[129.420177,28.249945],[129.553966,28.328437],[129.70753,28.462144]]]]},"properties":{"LOCATION_TYPE":"level1","ADM0_A3":"JPN","LOCATION_ID":"JPN-47","NAME":"Okinawa","TYPE_EN":"Prefecture"}},
{"type":"Feature","geometry":{"type":"Polygon","coordinates":[[[139.214583,36.945652],[139.104512,37.035569],[138.973977,36.971981],[138.958681,36.894441],[138.808148,36.767834],[138.679525,36.730652],[138.499226,36.682051],[138.40471,36.570378],[138.376805,36.467826],[138.438403,36.400285],[138.583769,36.416899],[138.629864,36.310652],[138.587024,36.270215],[138.614516,36.031031],[138.700919,35.969536],[138.750735,36.027181],[139.018213,36.128906],[139.11185,36.270861],[139.378604,36.222492],[139.674038,36.152212],[139.653729,36.203139],[139.588669,36.260113],[139.440512,36.268484],[139.3384,36.368556],[139.445887,36.585933],[139.312045,36.632157],[139.359587,36.902037],[139.214583,36.945652]]]},"properties":{"LOCATION_TYPE":"level1","ADM0_A3":"JPN","LOCATION_ID":"JPN-10","NAME":"Gunma","TYPE_EN":"Prefecture"}},
{"type":"Feature","geometry":{"type":"Polygon","coordinates":[[[138.679525,36.730652],[138.669603,36.822585],[138.574467,36.922966],[138.555243,37.000636],[138.382076,36.986166],[138.215419,36.859766],[138.011969,36.825763],[138.005458,36.882917],[137.884742,36.922139],[137.801078,36.803387],[137.732658,36.77481],[137.71948,36.589834],[137.62822,36.434521],[137.565381,36.377005],[137.624499,36.314993],[137.53944,36.117899],[137.577319,36.031238],[137.462804,35.889386],[137.375935,35.868509],[137.323226,35.801639],[137.444045,35.733375],[137.510759,35.634569],[137.528174,35.539226],[137.585225,35.495095],[137.605741,35.39399],[137.547863,35.270354],[137.575148,35.188163],[137.805573,35.194519],[138.085505,35.336965],[138.126794,35.384533],[138.143227,35.560956],[138.196144,35.627851],[138.168549,35.698803],[138.216504,35.850396],[138.287198,35.862669],[138.360268,35.957805],[138.466308,35.888197],[138.715699,35.896466],[138.700919,35.969536],[138.614516,36.031031],[138.587024,36.270215],[138.629864,36.310652],[138.583769,36.416899],[138.438403,36.400285],[138.376805,36.467826],[138.40471,36.570378],[138.499226,36.682051],[138.679525,36.730652]]]},"properties":{"LOCATION_TYPE":"level1","ADM0_A3":"JPN","LOCATION_ID":"JPN-20","NAME":"Nagano","TYPE_EN":"Prefecture"}},
{"type":"Feature","geometry":{"type":"Polygon","coordinates":[[[139.359587,36.902037],[139.312045,36.632157],[139.445887,36.585933],[139.3384,36.368556],[139.440512,36.268484],[139.588669,36.260113],[139.653729,36.203139],[139.791809,36.241587],[139.953504,36.362122],[140.181139,36.414884],[140.237621,36.541336],[140.221033,36.677193],[140.266767,36.718638],[140.237311,36.924827],[140.231265,36.99999],[140.098095,37.105823],[139.958155,37.139387],[139.861314,37.130447],[139.359587,36.902037]]]},"properties":{"LOCATION_TYPE":"level1","ADM0_A3":"JPN","LOCATION_ID":"JPN-09","NAME":"Tochigi","TYPE_EN":"Prefecture"}},
{"type":"Feature","geometry":{"type":"Polygon","coordinates":[[[137.565381,36.377005],[137.28483,36.450799],[137.132591,36.425219],[136.957977,36.273316],[136.85049,36.342795],[136.773233,36.291997],[136.811887,36.220063],[136.720885,36.074801],[136.698561,35.943543],[136.778969,35.886983],[136.768582,35.790994],[136.455372,35.751901],[136.337033,35.766396],[136.257296,35.645628],[136.359357,35.533852],[136.407623,35.393395],[136.398786,35.202606],[136.515161,35.231907],[136.673446,35.138812],[136.680061,35.236377],[136.770598,35.352106],[136.952912,35.384145],[137.070838,35.284927],[137.199616,35.241234],[137.293202,35.26777],[137.422031,35.21599],[137.547863,35.270354],[137.605741,35.39399],[137.585225,35.495095],[137.528174,35.539226],[137.510759,35.634569],[137.444045,35.733375],[137.323226,35.801639],[137.375935,35.868509],[137.462804,35.889386],[137.577319,36.031238],[137.53944,36.117899],[137.624499,36.314993],[137.565381,36.377005]]]},"properties":{"LOCATION_TYPE":"level1","ADM0_A3":"JPN","LOCATION_ID":"JPN-21","NAME":"Gifu","TYPE_EN":"Prefecture"}},
{"type":"Feature","geometry":{"type":"Polygon","coordinates":[[[136.257296,35.645628],[136.167275,35.675006],[136.088624,35.522638],[135.742857,35.337585],[135.826986,35.2633],[135.836598,35.120751],[135.814739,35.005564],[135.873547,34.868105],[136.003099,34.773692],[136.124591,34.872342],[136.240501,34.863118],[136.399871,34.949469],[136.443176,35.131835],[136.398786,35.202606],[136.407623,35.393395],[136.359357,35.533852],[136.257296,35.645628]]]},"properties":{"LOCATION_TYPE":"level1","ADM0_A3":"JPN","LOCATION_ID":"JPN-25","NAME":"Shiga","TYPE_EN":"Prefecture"}},
{"type":"Feature","geometry":{"type":"Polygon","coordinates":[[[139.674038,36.152212],[139.378604,36.222492],[139.11185,36.270861],[139.018213,36.128906],[138.750735,36.027181],[138.700919,35.969536],[138.715699,35.896466],[138.922818,35.835384],[139.013613,35.877294],[139.27153,35.808977],[139.384495,35.754924],[139.535597,35.751565],[139.757806,35.795283],[139.863949,35.778127],[139.874801,35.85037],[139.752845,36.079555],[139.674038,36.152212]]]},"properties":{"LOCATION_TYPE":"level1","ADM0_A3":"JPN","LOCATION_ID":"JPN-11","NAME":"Saitama","TYPE_EN":"Prefecture"}},
{"type":"Feature","geometry":{"type":"Polygon","coordinates":[[[138.715699,35.896466],[138.466308,35.888197],[138.360268,35.957805],[138.287198,35.862669],[138.216504,35.850396],[138.168549,35.698803],[138.196144,35.627851],[138.241309,35.517781],[138.235883,35.303685],[138.328229,35.299887],[138.383471,35.190307],[138.510543,35.207464],[138.533953,35.409674],[138.697199,35.350762],[138.900339,35.380941],[138.933256,35.437062],[139.080483,35.504939],[139.121772,35.654],[139.035783,35.696349],[138.922818,35.835384],[138.715699,35.896466]]]},"properties":{"LOCATION_TYPE":"level1","ADM0_A3":"JPN","LOCATION_ID":"JPN-19","NAME":"Yamanashi","TYPE_EN":"Prefecture"}},
{"type":"Feature","geometry":{"type":"Polygon","coordinates":[[[136.036482,34.715349],[135.832257,34.699123],[135.70627,34.759532],[135.622037,34.553421],[135.665136,34.493063],[135.646842,34.371752],[135.709061,34.225353],[135.632889,34.18458],[135.551086,34.082468],[135.613304,33.954853],[135.598266,33.890128],[135.817271,33.872222],[135.847657,33.838142],[135.957521,33.917956],[136.003823,33.993119],[136.087229,34.009449],[136.1187,34.24114],[136.069245,34.376998],[136.202674,34.458827],[136.202519,34.501512],[136.05245,34.574582],[136.036482,34.715349]]]},"properties":{"LOCATION_TYPE":"level1","ADM0_A3":"JPN","LOCATION_ID":"JPN-29","NAME":"Nara","TYPE_EN":"Prefecture"}}
]}