{"type":"FeatureCollection", "features": [
{"type":"Feature","geometry":{"type":"Polygon","coordinates":[[[82.297137,45.554545],[82.488949,45.901695],[82.838953,46.732446],[83.150356,47.211538],[83.905348,46.973956],[84.663545,46.983852],[84.916036,46.850552],[85.205114,47.033719],[85.498636,47.051832],[85.65966,47.206525],[85.670357,47.384344],[85.515379,47.92028],[85.586383,48.141249],[85.783683,48.407589],[86.19203,48.418234],[86.565083,48.527323],[86.744503,48.70354],[86.727502,48.990344],[87.116315,49.129767],[86.610196,49.795515],[86.111519,49.520183],[85.384018,49.615681],[85.263095,49.581523],[85.032618,49.884967],[84.975774,50.075187],[84.249978,50.259931],[84.101719,50.62859],[83.820496,50.868007],[83.433956,50.992651],[83.107568,50.992651],[82.975896,50.881908],[82.073109,50.715665],[81.763464,50.784343],[81.460226,50.730341],[81.400798,50.959113],[81.058287,50.947072],[81.14717,51.13595],[80.682754,51.302012],[80.476152,51.20964],[80.439048,50.958131],[79.990083,50.788116],[79.304323,51.686378],[78.758015,51.296843],[78.189161,51.141892],[78.297268,50.880977],[78.688458,50.701092],[78.820233,50.35119],[78.472761,50.027179],[77.732858,50.202569],[77.448431,49.986045],[77.185398,49.875199],[77.169171,49.644955],[76.769299,49.491631],[76.630083,49.352337],[77.046595,49.053182],[76.971664,48.804747],[77.361304,48.816504],[77.347248,48.61295],[76.952647,48.350589],[77.157079,48.276227],[77.271077,48.019602],[77.071813,47.625724],[76.93146,47.221976],[77.057653,47.127279],[77.580929,47.174847],[77.851093,47.179808],[78.275254,47.304296],[78.804627,47.068729],[79.308472,47.031031],[79.491407,46.862024],[80.018713,46.879542],[80.779493,46.591988],[81.16686,46.54026],[81.604766,46.390192],[81.913481,46.063494],[82.13972,45.688994],[82.297137,45.554545]]]},"properties":{"LOCATION_TYPE":"level1","ADM0_A3":"KAZ","LOCATION_ID":"KAZ-VOS","NAME":"East Kazakhstan","TYPE_EN":"Region"}},
{"type":"Feature","geometry":{"type":"Polygon","coordinates":[[[82.297137,45.554545],[82.13972,45.688994],[81.913481,46.063494],[81.604766,46.390192],[81.16686,46.54026],[80.779493,46.591988],[80.018713,46.879542],[79.491407,46.862024],[79.308472,47.031031],[78.804627,47.068729],[78.275254,47.304296],[77.851093,47.179808],[77.580929,47.174847],[77.599636,46.675756],[77.159663,46.546617],[77.019206,46.646869],[76.526006,46.646171],[75.895967,46.689967],[75.402767,46.679477],[74.761876,46.39952],[74.18434,45.955852],[74.05639,45.776793],[74.094113,45.26933],[73.84679,45.258323],[73.89981,45.077636],[74.539564,44.655337],[74.610568,44.412871],[74.758672,44.31342],[75.148829,44.220764],[75.326493,44.078343],[75.272956,43.877115],[75.017985,43.562716],[75.428192,43.468484],[75.297141,43.297719],[75.365354,43.157779],[75.807059,42.936771],[76.404463,42.889244],[76.956884,42.988514],[77.163693,42.921981],[78.496118,42.875601],[79.030866,42.756151],[79.47642,42.453973],[79.917943,42.42444],[80.268413,42.237966],[80.140048,42.622955],[80.227485,42.790981],[80.476152,42.863896],[80.368148,43.02846],[80.773395,43.112925],[80.712727,43.458873],[80.345101,44.103097],[80.376313,44.67128],[80.061707,45.018959],[80.853855,45.126497],[81.739279,45.338061],[81.950119,45.144481],[82.294594,45.228197],[82.585222,45.17683],[82.615711,45.435419],[82.297137,45.554545]],[[76.961768,43.192336],[76.808652,43.271286],[76.901957,43.364591],[77.033541,43.378946],[76.961768,43.192336]]]},"properties":{"LOCATION_TYPE":"level1","ADM0_A3":"KAZ","LOCATION_ID":"KAZ-ALA","NAME":"Almaty","TYPE_EN":"Region"}},
{"type":"Feature","geometry":{"type":"Polygon","coordinates":[[[70.888825,42.338575],[71.00319,42.563527],[71.404613,42.794883],[71.847738,42.834053],[72.725824,42.652876],[72.840752,42.555698],[73.41002,42.58965],[73.493012,42.894954],[73.634089,43.062463],[74.25865,43.215761],[74.71392,42.999883],[75.178594,42.84966],[75.646163,42.806096],[75.807059,42.936771],[75.365354,43.157779],[75.297141,43.297719],[75.428192,43.468484],[75.017985,43.562716],[75.272956,43.877115],[75.326493,44.078343],[75.148829,44.220764],[74.758672,44.31342],[74.610568,44.412871],[74.539564,44.655337],[73.89981,45.077636],[73.84679,45.258323],[74.094113,45.26933],[74.05639,45.776793],[74.18434,45.955852],[69.170796,45.936886],[69.516202,45.388754],[69.804659,44.663321],[69.911216,44.170534],[69.642395,43.533312],[69.530981,43.412493],[69.674228,43.26413],[70.103246,43.156591],[70.256208,42.983216],[70.267887,42.760284],[70.888825,42.338575]]]},"properties":{"LOCATION_TYPE":"level1","ADM0_A3":"KAZ","LOCATION_ID":"KAZ-ZHA","NAME":"Zhambyl","TYPE_EN":"Region"}},
{"type":"Feature","geometry":{"type":"Polygon","coordinates":[[[70.888825,42.338575],[70.267887,42.760284],[70.256208,42.983216],[70.103246,43.156591],[69.674228,43.26413],[69.530981,43.412493],[69.642395,43.533312],[69.911216,44.170534],[69.804659,44.663321],[69.516202,45.388754],[69.170796,45.936886],[67.275718,45.95766],[67.436122,45.6984],[67.292151,45.253465],[67.593528,45.071668],[67.607274,44.310422],[67.863693,44.213581],[68.202277,43.973053],[67.835271,43.422621],[67.924361,43.160363],[67.434572,42.985413],[66.736113,42.608924],[66.496644,42.578693],[66.184312,42.352893],[66.013159,42.37287],[66.017241,41.997619],[66.504137,41.993484],[66.688208,41.199192],[66.81528,41.141883],[67.937434,41.20038],[68.131324,41.029641],[68.067504,40.788002],[68.461743,40.584656],[68.627418,40.667131],[68.549696,40.835028],[68.746274,41.0638],[69.039176,41.220276],[69.044447,41.379181],[69.624566,41.66831],[69.870856,41.699575],[70.13637,41.848093],[70.315067,42.034593],[70.610243,42.02741],[70.888825,42.338575]]]},"properties":{"LOCATION_TYPE":"level1","ADM0_A3":"KAZ","LOCATION_ID":"KAZ-YUZ","NAME":"South Kazakhstan","TYPE_EN":"Region"}},
{"type":"Feature","geometry":{"type":"Polygon","coordinates":[[[52.861887,45.767463],[52.738455,45.52558],[52.566661,45.400702],[51.957774,45.371649],[51.792491,45.405463],[51.397227,45.332587],[51.243419,45.10106],[50.982188,44.989488],[50.970714,44.847154],[51.319347,44.596381],[51.143321,44.484768],[50.847911,44.632799],[50.299083,44.655341],[50.230154,44.390937],[50.344574,44.311265],[50.847179,44.189276],[51.141856,43.633734],[51.319591,43.442532],[51.266287,43.187567],[51.651052,43.191392],[51.932791,42.834947],[52.1692,42.88703],[52.574229,42.798529],[52.74464,42.657375],[52.599132,42.344713],[52.402029,42.092515],[52.437671,41.748876],[52.978709,42.126629],[53.412274,42.258171],[54.047171,42.345401],[54.195276,42.318064],[54.738291,42.04821],[55.429515,41.290814],[55.978422,41.321717],[55.977389,42.698532],[55.976769,43.616383],[55.978422,44.996221],[56.70761,45.161911],[56.54118,45.953784],[56.473173,46.084474],[55.831559,46.235111],[55.476852,46.480419],[55.246582,46.346009],[54.90345,46.333865],[53.94909,46.187517],[53.536092,45.82573],[53.038964,45.738449],[52.861887,45.767463]]]},"properties":{"LOCATION_TYPE":"level1","ADM0_A3":"KAZ","LOCATION_ID":"KAZ-MAN","NAME":"Mangghystau","TYPE_EN":"Region"}},
{"type":"Feature","geometry":{"type":"Polygon","coordinates":[[[59.055132,45.324023],[61.036305,44.382822],[61.161672,44.168106],[62.026115,43.480629],[63.208007,43.627467],[64.426744,43.547033],[64.956531,43.69736],[65.271447,43.417015],[65.51691,43.297229],[65.795239,42.877203],[66.101267,42.990323],[66.013159,42.37287],[66.184312,42.352893],[66.496644,42.578693],[66.736113,42.608924],[67.434572,42.985413],[67.924361,43.160363],[67.835271,43.422621],[68.202277,43.973053],[67.863693,44.213581],[67.607274,44.310422],[67.593528,45.071668],[67.292151,45.253465],[67.436122,45.6984],[67.275718,45.95766],[66.978889,46.056104],[65.553136,46.290767],[65.013221,46.517419],[63.818565,46.850164],[63.209817,46.961165],[62.842087,47.183864],[62.449863,47.248202],[62.319535,47.445528],[62.04844,47.570688],[61.858995,47.776464],[61.327141,47.733469],[60.764694,47.099916],[60.537835,47.112008],[60.411434,46.923803],[60.169072,46.884555],[59.668431,46.580232],[59.112599,46.066026],[59.027229,45.818134],[59.055132,45.324023]],[[63.383914,45.565824],[62.900274,45.7477],[62.812527,45.895184],[62.900274,46.208964],[63.210488,46.372261],[63.443548,46.388694],[63.754899,46.296658],[63.9553,46.061427],[63.867553,45.7477],[63.383914,45.565824]]]},"properties":{"LOCATION_TYPE":"level1","ADM0_A3":"KAZ","LOCATION_ID":"KAZ-KZY","NAME":"Qyzylorda","TYPE_EN":"Region"}},
{"type":"Feature","geometry":{"type":"Polygon","coordinates":[[[59.055132,45.324023],[59.027229,45.818134],[59.112599,46.066026],[59.668431,46.580232],[60.169072,46.884555],[60.411434,46.923803],[60.537835,47.112008],[60.764694,47.099916],[61.327141,47.733469],[61.858995,47.776464],[62.04844,47.570688],[62.319535,47.445528],[62.449863,47.248202],[62.842087,47.183864],[64.106299,47.805584],[64.203554,47.878525],[63.970494,48.15117],[63.661469,48.469729],[63.029672,48.691912],[63.030913,48.863038],[62.664527,48.878257],[62.447072,49.050624],[62.485003,49.228081],[62.293593,49.443752],[62.610577,49.855123],[62.889733,50.024208],[62.534199,50.43904],[62.375242,50.850643],[62.030147,51.065152],[61.92452,51.239457],[61.646259,51.263193],[61.513175,51.159514],[61.372098,50.782483],[60.718495,50.652672],[60.300433,50.684659],[60.021276,50.854055],[59.774677,50.533712],[59.522806,50.474646],[59.437643,50.631123],[58.925943,50.678148],[58.664357,50.789924],[58.595007,51.023372],[57.768804,51.119672],[57.737282,50.938236],[57.352706,50.885991],[57.168221,51.093782],[56.508003,51.066264],[56.078881,50.72476],[55.659992,50.530043],[55.305389,50.664971],[54.638246,51.027687],[54.67628,50.602545],[54.545517,50.530519],[54.391543,50.35827],[54.551224,50.031365],[54.453245,49.814686],[54.179153,49.612734],[53.764502,49.471528],[53.673241,49.18444],[54.053269,49.005536],[54.07177,48.716768],[54.4426,48.657625],[54.577579,48.813403],[54.800511,48.741211],[54.793689,48.427664],[54.872858,48.09076],[54.973213,48.012315],[55.072535,47.645826],[54.997501,47.152264],[55.291333,46.791149],[55.493802,46.659633],[56.271222,46.457165],[56.473173,46.084474],[56.54118,45.953784],[56.70761,45.161911],[58.531445,45.558719],[59.055132,45.324023]]]},"properties":{"LOCATION_TYPE":"level1","ADM0_A3":"KAZ","LOCATION_ID":"KAZ-AKT","NAME":"Aqtöbe","TYPE_EN":"Region"}},
{"type":"Feature","geometry":{"type":"Polygon","coordinates":[[[73.450697,53.44856],[73.229669,53.66241],[73.485261,53.874852],[73.062754,53.979084],[72.956818,54.117525],[72.656164,54.042542],[72.151802,54.368259],[72.066743,54.222376],[71.708728,54.132201],[71.182301,54.101557],[71.180337,54.727358],[71.005981,54.774229],[70.977145,55.077983],[70.665743,55.309183],[70.197038,55.133483],[69.673866,55.33404],[68.722502,55.352798],[68.6053,55.195598],[68.262376,55.194048],[68.166051,54.95613],[67.817338,54.952151],[67.622725,54.853862],[66.446517,54.710925],[66.097776,54.637158],[66.371897,54.102434],[66.019774,53.993914],[66.230821,53.744136],[66.119923,53.579676],[66.287665,53.479527],[66.324562,53.256233],[66.163228,53.079344],[66.05295,52.402125],[66.310196,52.296343],[67.147974,52.208441],[67.452865,52.235184],[67.700188,52.372282],[68.026267,52.26358],[68.844201,52.808999],[68.922646,53.111487],[68.582408,53.400694],[69.000781,53.644736],[69.40272,53.575128],[69.837629,53.687679],[70.113168,53.362945],[70.465394,53.261736],[70.672203,53.395139],[71.059673,53.413381],[71.313405,53.289512],[71.608374,53.379791],[71.825105,53.196882],[71.731054,53.011493],[71.923807,52.912481],[72.442535,52.992838],[72.89522,52.994698],[72.962606,52.761844],[73.967816,52.56767],[74.031585,52.854733],[73.573938,52.971082],[73.768759,53.192567],[73.450697,53.44856]]]},"properties":{"LOCATION_TYPE":"level1","ADM0_A3":"KAZ","LOCATION_ID":"KAZ-SEV","NAME":"North Kazakhstan","TYPE_EN":"Region"}},
{"type":"Feature","geometry":{"type":"Polygon","coordinates":[[[66.097776,54.637158],[65.477378,54.632687],[65.214293,54.527887],[65.212949,54.343041],[64.578518,54.38557],[63.708648,54.250437],[63.084655,54.08564],[62.550579,54.026833],[61.193505,54.018254],[61.20198,53.81961],[61.007573,53.635745],[61.280734,53.542418],[61.20291,53.276439],[62.050662,53.124769],[62.094173,52.992477],[61.574257,52.955839],[61.190301,53.013148],[60.696171,52.734922],[61.039922,52.334998],[60.672193,52.144338],[60.506518,52.15165],[60.138065,51.888875],[60.452051,51.805469],[60.515096,51.61791],[60.937396,51.611166],[61.023283,51.485515],[61.473798,51.425803],[61.646259,51.263193],[61.92452,51.239457],[62.030147,51.065152],[62.375242,50.850643],[62.534199,50.43904],[62.889733,50.024208],[62.610577,49.855123],[62.293593,49.443752],[62.485003,49.228081],[62.447072,49.050624],[62.664527,48.878257],[63.030913,48.863038],[63.029672,48.691912],[63.661469,48.469729],[63.970494,48.15117],[64.216783,48.402214],[64.547203,48.502259],[64.741299,48.840533],[65.071408,48.87681],[65.524197,48.832782],[66.159094,49.002384],[67.525212,49.834013],[67.762097,50.029918],[67.755586,50.18934],[68.108846,50.264581],[68.272867,50.41191],[68.09665,50.505548],[67.334113,50.332484],[67.124616,50.617867],[66.834918,50.586628],[66.477007,50.664091],[66.060185,50.897462],[65.720878,50.793799],[65.708372,50.973788],[65.50332,51.262013],[65.6445,51.556957],[65.430146,51.694003],[65.860507,51.894068],[66.037241,52.178262],[66.05295,52.402125],[66.163228,53.079344],[66.324562,53.256233],[66.287665,53.479527],[66.119923,53.579676],[66.230821,53.744136],[66.019774,53.993914],[66.371897,54.102434],[66.097776,54.637158]]]},"properties":{"LOCATION_TYPE":"level1","ADM0_A3":"KAZ","LOCATION_ID":"KAZ-KUS","NAME":"Qostanay","TYPE_EN":"Region"}},
{"type":"Feature","geometry":{"type":"Polygon","coordinates":[[[79.304323,51.686378],[78.476481,52.637925],[77.866802,53.272331],[77.612761,53.442786],[76.525695,53.961307],[76.766094,54.36459],[76.433091,54.316582],[75.640375,54.09887],[75.027906,53.807931],[74.772004,53.830876],[74.616458,53.680704],[74.213899,53.59704],[73.872731,53.632128],[73.450697,53.44856],[73.768759,53.192567],[73.573938,52.971082],[74.031585,52.854733],[73.967816,52.56767],[74.027864,52.468064],[74.052359,51.906548],[73.836248,51.623361],[74.273637,51.537216],[73.852268,51.409937],[73.713878,51.25651],[74.034169,51.178323],[74.094423,51.037247],[73.973707,50.644196],[74.082228,50.577482],[74.47962,50.617221],[74.949668,50.430462],[75.161852,50.228149],[75.655258,50.149756],[76.583677,50.296827],[76.980035,50.635333],[77.62382,50.461003],[77.732858,50.202569],[78.472761,50.027179],[78.820233,50.35119],[78.688458,50.701092],[78.297268,50.880977],[78.189161,51.141892],[78.758015,51.296843],[79.304323,51.686378]]]},"properties":{"LOCATION_TYPE":"level1","ADM0_A3":"KAZ","LOCATION_ID":"KAZ-PAV","NAME":"Pavlodar","TYPE_EN":"Region"}},
{"type":"Feature","geometry":{"type":"Polygon","coordinates":[[[54.545517,50.530519],[54.37976,50.619444],[54.478566,50.853486],[54.176569,50.967898],[53.93586,51.185611],[53.67386,51.219872],[53.610298,51.388415],[53.153272,51.512671],[52.505818,51.478874],[52.334872,51.763715],[51.869164,51.673074],[51.620497,51.518691],[51.371934,51.629589],[50.925449,51.679689],[50.581698,51.635299],[50.325383,51.303459],[49.98685,51.22982],[49.779059,51.102179],[49.423112,51.101998],[49.36942,50.82677],[48.67339,50.579549],[48.701296,50.334603],[48.885677,50.019894],[48.417592,49.811689],[48.239308,49.864761],[47.993225,50.181796],[47.624669,50.440798],[47.294766,50.275434],[47.308719,50.044802],[46.899907,49.820319],[46.775108,49.332545],[47.020881,49.096849],[46.753818,48.91407],[46.479312,48.410225],[47.112121,48.242205],[48.907537,48.06009],[49.456754,48.013917],[49.910887,48.040996],[51.155669,48.63021],[51.754908,48.630934],[51.811339,48.504714],[52.525094,48.405676],[52.913391,48.985434],[53.324942,48.975047],[53.673241,49.18444],[53.764502,49.471528],[54.179153,49.612734],[54.453245,49.814686],[54.551224,50.031365],[54.391543,50.35827],[54.545517,50.530519]]]},"properties":{"LOCATION_TYPE":"level1","ADM0_A3":"KAZ","LOCATION_ID":"KAZ-ZAP","NAME":"West Kazakhstan","TYPE_EN":"Region"}},
{"type":"Feature","geometry":{"type":"Polygon","coordinates":[[[47.112121,48.242205],[47.051164,47.974644],[47.174464,47.770522],[47.435326,47.834394],[47.649732,47.765587],[48.044488,47.769695],[48.525079,47.410234],[48.697265,47.100976],[49.00629,46.76911],[48.455109,46.660796],[49.227131,46.327879],[49.469249,46.562649],[49.817393,46.540432],[50.168793,46.749091],[50.606944,46.868109],[50.857432,47.040025],[51.187022,47.116889],[51.502615,47.061347],[51.763682,46.915717],[52.238943,46.80683],[52.455903,47.001166],[52.919932,46.957465],[53.188162,46.718004],[53.082856,46.434963],[53.156749,46.341702],[53.086599,46.020494],[52.861887,45.767463],[53.038964,45.738449],[53.536092,45.82573],[53.94909,46.187517],[54.90345,46.333865],[55.246582,46.346009],[55.476852,46.480419],[55.831559,46.235111],[56.473173,46.084474],[56.271222,46.457165],[55.493802,46.659633],[55.291333,46.791149],[54.997501,47.152264],[55.072535,47.645826],[54.973213,48.012315],[54.872858,48.09076],[54.793689,48.427664],[54.800511,48.741211],[54.577579,48.813403],[54.4426,48.657625],[54.07177,48.716768],[54.053269,49.005536],[53.673241,49.18444],[53.324942,48.975047],[52.913391,48.985434],[52.525094,48.405676],[51.811339,48.504714],[51.754908,48.630934],[51.155669,48.63021],[49.910887,48.040996],[49.456754,48.013917],[48.907537,48.06009],[47.112121,48.242205]]]},"properties":{"LOCATION_TYPE":"level1","ADM0_A3":"KAZ","LOCATION_ID":"KAZ-ATY","NAME":"Atyrau","TYPE_EN":"Region"}},
{"type":"Feature","geometry":{"type":"Polygon","coordinates":[[[66.05295,52.402125],[66.037241,52.178262],[65.860507,51.894068],[65.430146,51.694003],[65.6445,51.556957],[65.50332,51.262013],[65.708372,50.973788],[65.720878,50.793799],[66.060185,50.897462],[66.477007,50.664091],[66.834918,50.586628],[67.124616,50.617867],[67.334113,50.332484],[68.09665,50.505548],[68.778055,50.753595],[68.995407,50.699283],[68.820947,50.186963],[69.156327,50.116424],[69.500802,50.331037],[69.751019,50.187996],[70.247113,50.221586],[70.291038,49.987078],[70.614429,50.072758],[70.674167,50.235125],[70.950326,50.414494],[71.757202,50.7422],[71.940343,50.650397],[71.885979,50.465447],[72.275516,50.415011],[72.499792,50.529552],[72.542787,50.676442],[73.45715,51.005931],[73.269151,51.224315],[73.713878,51.25651],[73.852268,51.409937],[74.273637,51.537216],[73.836248,51.623361],[74.052359,51.906548],[74.027864,52.468064],[73.967816,52.56767],[72.962606,52.761844],[72.89522,52.994698],[72.442535,52.992838],[71.923807,52.912481],[71.731054,53.011493],[71.825105,53.196882],[71.608374,53.379791],[71.313405,53.289512],[71.059673,53.413381],[70.672203,53.395139],[70.465394,53.261736],[70.113168,53.362945],[69.837629,53.687679],[69.40272,53.575128],[69.000781,53.644736],[68.582408,53.400694],[68.922646,53.111487],[68.844201,52.808999],[68.026267,52.26358],[67.700188,52.372282],[67.452865,52.235184],[67.147974,52.208441],[66.310196,52.296343],[66.05295,52.402125]],[[71.469549,50.974697],[71.25008,51.156258],[71.581279,51.206137],[71.469549,50.974697]]]},"properties":{"LOCATION_TYPE":"level1","ADM0_A3":"KAZ","LOCATION_ID":"KAZ-AKM","NAME":"Aqmola","TYPE_EN":"Region"}},
{"type":"Feature","geometry":{"type":"Polygon","coordinates":[[[68.09665,50.505548],[68.272867,50.41191],[68.108846,50.264581],[67.755586,50.18934],[67.762097,50.029918],[67.525212,49.834013],[66.159094,49.002384],[65.524197,48.832782],[65.071408,48.87681],[64.741299,48.840533],[64.547203,48.502259],[64.216783,48.402214],[63.970494,48.15117],[64.203554,47.878525],[64.106299,47.805584],[62.842087,47.183864],[63.209817,46.961165],[63.818565,46.850164],[65.013221,46.517419],[65.553136,46.290767],[66.978889,46.056104],[67.275718,45.95766],[69.170796,45.936886],[74.18434,45.955852],[74.761876,46.39952],[75.402767,46.679477],[75.895967,46.689967],[76.526006,46.646171],[77.019206,46.646869],[77.159663,46.546617],[77.599636,46.675756],[77.580929,47.174847],[77.057653,47.127279],[76.93146,47.221976],[77.071813,47.625724],[77.271077,48.019602],[77.157079,48.276227],[76.952647,48.350589],[77.347248,48.61295],[77.361304,48.816504],[76.971664,48.804747],[77.046595,49.053182],[76.630083,49.352337],[76.769299,49.491631],[77.169171,49.644955],[77.185398,49.875199],[77.448431,49.986045],[77.732858,50.202569],[77.62382,50.461003],[76.980035,50.635333],[76.583677,50.296827],[75.655258,50.149756],[75.161852,50.228149],[74.949668,50.430462],[74.47962,50.617221],[74.082228,50.577482],[73.973707,50.644196],[74.094423,51.037247],[74.034169,51.178323],[73.713878,51.25651],[73.269151,51.224315],[73.45715,51.005931],[72.542787,50.676442],[72.499792,50.529552],[72.275516,50.415011],[71.885979,50.465447],[71.940343,50.650397],[71.757202,50.7422],[70.950326,50.414494],[70.674167,50.235125],[70.614429,50.072758],[70.291038,49.987078],[70.247113,50.221586],[69.751019,50.187996],[69.500802,50.331037],[69.156327,50.116424],[68.820947,50.186963],[68.995407,50.699283],[68.778055,50.753595],[68.09665,50.505548]]]},"properties":{"LOCATION_TYPE":"level1","ADM0_A3":"KAZ","LOCATION_ID":"KAZ-KAR","NAME":"Qaraghandy","TYPE_EN":"Region"}},
{"type":"Feature","geometry":{"type":"Polygon","coordinates":[[[76.961768,43.192336],[77.033541,43.378946],[76.901957,43.364591],[76.808652,43.271286],[76.961768,43.192336]]]},"properties":{"LOCATION_TYPE":"level1","ADM0_A3":"KAZ","LOCATION_ID":"KAZ-ALA","NAME":"Almaty City","TYPE_EN":"City"}},
{"type":"Feature","geometry":{"type":"Polygon","coordinates":[[[71.469549,50.974697],[71.581279,51.206137],[71.25008,51.156258],[71.469549,50.974697]]]},"properties":{"LOCATION_TYPE":"level1","ADM0_A3":"KAZ","LOCATION_ID":"KAZ-AST","NAME":"Astana","TYPE_EN":"City"}}
]}