{"type":"FeatureCollection", "features": [
{"type":"Feature","geometry":{"type":"Polygon","coordinates":[[[36.045325,4.443716],[35.933755,4.52218],[35.920835,4.619332],[35.700365,4.589111],[35.610641,4.620014],[35.52218,4.780461],[35.570836,4.904313],[35.396117,4.926429],[35.411598,5.030376],[35.245726,4.98172],[34.666277,4.76498],[34.381188,4.620158],[33.977078,4.219692],[34.069269,4.08802],[34.061104,4.007767],[34.278868,3.709723],[34.337056,3.734579],[34.439686,3.667736],[34.434518,3.52622],[34.382118,3.466043],[34.434001,3.182029],[34.545622,3.097383],[34.574664,2.946126],[34.6405,2.860137],[34.730107,2.85285],[34.81868,2.597982],[34.923584,2.477318],[34.865603,2.347506],[34.967509,2.101914],[34.978671,1.675945],[34.778993,1.388547],[34.797907,1.231916],[34.683805,1.209075],[34.566883,1.103022],[34.797132,0.82672],[35.051122,0.883667],[35.152924,0.807341],[35.164242,0.708019],[35.08714,0.632778],[34.967819,0.628644],[34.845036,0.570663],[34.928235,0.372122],[34.910252,0.178749],[34.758633,-0.007493],[34.816201,-0.036948],[35.11303,-0.01943],[35.213438,-0.037258],[35.325627,-0.188619],[35.267594,-0.235127],[35.120782,-0.12764],[35.049106,-0.211511],[34.99867,-0.36065],[35.031898,-0.446071],[35.072413,-0.780779],[34.975571,-0.894725],[34.573218,-1.009964],[34.680292,-1.232379],[34.718893,-1.412414],[35.844871,-2.041063],[36.703527,-2.520414],[37.644865,-3.045963],[37.679996,-3.192148],[37.834621,-3.153141],[37.850434,-3.010049],[37.917924,-2.779933],[37.89653,-2.703762],[37.600165,-2.361923],[37.71251,-2.18643],[37.593499,-2.154907],[37.179002,-1.90748],[37.158073,-1.779788],[36.996688,-1.582642],[36.97979,-1.460686],[36.869616,-1.413247],[36.676242,-1.298215],[36.50788,-1.251861],[36.584878,-0.997407],[36.518733,-0.77742],[36.506485,-0.615259],[36.401582,-0.585029],[36.370111,-0.399769],[36.255906,-0.388193],[36.2064,-0.279569],[36.212601,-0.141076],[36.261487,0.000517],[36.483231,0.111001],[36.599916,0.00832],[36.544364,-0.101751],[36.668336,-0.149551],[36.80781,-0.12485],[36.881398,-0.28174],[37.023353,-0.231562],[37.003819,-0.099477],[37.086191,0.019224],[37.21161,0.068006],[37.358216,0.205259],[37.394235,0.349281],[37.330931,0.528185],[36.878917,0.586218],[36.960979,0.757422],[37.104537,0.792768],[37.294137,0.733134],[37.381212,0.592729],[37.566782,0.576968],[37.697885,0.672724],[37.828885,0.696237],[38.000658,0.801243],[38.056985,0.794525],[38.035539,1.136985],[37.942625,1.273153],[37.932496,1.408312],[37.850744,1.499702],[37.561821,1.418725],[37.478777,1.590885],[37.384933,1.69367],[37.250522,1.922338],[37.140658,2.015588],[36.966561,2.020471],[36.89318,2.225756],[36.826931,2.290016],[36.745902,2.519433],[36.636038,2.409026],[36.532168,2.422669],[36.518112,2.551628],[36.443647,2.630692],[36.380963,2.846442],[36.120876,3.008137],[36.142942,3.219804],[36.04548,3.267915],[36.045325,4.443716]]]},"properties":{"LOCATION_TYPE":"level1","ADM0_A3":"KEN","LOCATION_ID":"KEN-700","NAME":"Rift Valley","TYPE_EN":"Province"}},
{"type":"Feature","geometry":{"type":"Polygon","coordinates":[[[39.296338,3.49199],[39.180481,3.476998],[39.06793,3.526582],[38.895227,3.513585],[38.660306,3.594459],[38.496906,3.62394],[38.389935,3.596888],[38.101891,3.612649],[37.976731,3.72644],[37.111874,4.282298],[37.015652,4.370587],[36.844087,4.432237],[36.619501,4.443373],[36.045325,4.443716],[36.04548,3.267915],[36.142942,3.219804],[36.120876,3.008137],[36.380963,2.846442],[36.443647,2.630692],[36.518112,2.551628],[36.532168,2.422669],[36.636038,2.409026],[36.745902,2.519433],[36.826931,2.290016],[36.89318,2.225756],[36.966561,2.020471],[37.140658,2.015588],[37.250522,1.922338],[37.384933,1.69367],[37.478777,1.590885],[37.561821,1.418725],[37.850744,1.499702],[37.932496,1.408312],[37.942625,1.273153],[38.035539,1.136985],[38.056985,0.794525],[38.000658,0.801243],[37.828885,0.696237],[37.697885,0.672724],[37.566782,0.576968],[37.381212,0.592729],[37.294137,0.733134],[37.104537,0.792768],[36.960979,0.757422],[36.878917,0.586218],[37.330931,0.528185],[37.394235,0.349281],[37.358216,0.205259],[37.21161,0.068006],[37.086191,0.019224],[37.316513,-0.15937],[37.429168,-0.427312],[37.476917,-0.590145],[37.480224,-0.746621],[37.242771,-0.869611],[37.364262,-1.038799],[37.215796,-1.077092],[37.131512,-1.237133],[37.070223,-1.298835],[36.974312,-1.289637],[36.869616,-1.413247],[36.97979,-1.460686],[36.996688,-1.582642],[37.158073,-1.779788],[37.179002,-1.90748],[37.593499,-2.154907],[37.71251,-2.18643],[37.600165,-2.361923],[37.89653,-2.703762],[37.917924,-2.779933],[38.134861,-2.690016],[38.278108,-2.790785],[38.351954,-2.921837],[38.444145,-2.984934],[38.539074,-2.963953],[38.65669,-3.028962],[38.79172,-3.043173],[39.042144,-3.018058],[38.630025,-2.411429],[38.797146,-2.333656],[38.979461,-1.968872],[38.960237,-1.764336],[39.000131,-1.686822],[38.996514,-1.146286],[38.870682,-0.865167],[38.415878,-0.080563],[38.546516,-0.024236],[38.74578,-0.065215],[38.747175,0.215336],[38.692708,0.447467],[38.825879,0.585598],[39.15852,0.71112],[39.307503,0.926042],[39.444962,0.998854],[39.279391,1.441592],[39.45075,1.528486],[39.215622,1.706563],[39.067931,1.911382],[38.943184,2.132738],[38.885306,2.519976],[38.970779,2.573823],[39.112941,2.909151],[39.323316,3.042347],[39.327192,3.199779],[39.296338,3.49199]]]},"properties":{"LOCATION_TYPE":"level1","ADM0_A3":"KEN","LOCATION_ID":"KEN-400","NAME":"Eastern","TYPE_EN":"National Capital Area"}},
{"type":"Feature","geometry":{"type":"Polygon","coordinates":[[[41.535944,-1.676312],[41.522871,-1.572771],[40.979751,-0.870798],[40.968486,-0.002738],[40.968486,0.62234],[40.968486,1.747181],[40.965385,2.814145],[41.342727,3.201149],[41.835927,3.94945],[41.699811,3.996915],[41.429543,3.948882],[41.215293,3.936608],[41.114524,3.962343],[41.0059,4.086677],[40.887354,4.156052],[40.763744,4.284933],[40.700699,4.243515],[40.382682,4.121377],[39.848451,3.867284],[39.745098,3.660579],[39.574979,3.497901],[39.536325,3.405013],[39.296338,3.49199],[39.327192,3.199779],[39.323316,3.042347],[39.112941,2.909151],[38.970779,2.573823],[38.885306,2.519976],[38.943184,2.132738],[39.067931,1.911382],[39.215622,1.706563],[39.45075,1.528486],[39.279391,1.441592],[39.444962,0.998854],[39.307503,0.926042],[39.15852,0.71112],[38.825879,0.585598],[38.692708,0.447467],[38.747175,0.215336],[38.74578,-0.065215],[38.933831,-0.093121],[39.057079,-0.037879],[39.143017,-0.127279],[39.306883,-0.1341],[39.430389,-0.188722],[39.59441,-0.346283],[39.633219,-0.489531],[39.75254,-0.59278],[39.811503,-0.689622],[39.887674,-1.015183],[40.005755,-1.257546],[40.033453,-1.480426],[40.113449,-1.626154],[40.108643,-1.81839],[40.168329,-2.043027],[40.223003,-2.057083],[40.996547,-1.71111],[41.535944,-1.676312]]]},"properties":{"LOCATION_TYPE":"level1","ADM0_A3":"KEN","LOCATION_ID":"KEN-500","NAME":"North-Eastern","TYPE_EN":"Province"}},
{"type":"Feature","geometry":{"type":"Polygon","coordinates":[[[41.535944,-1.676312],[40.996547,-1.71111],[40.223003,-2.057083],[40.168329,-2.043027],[40.108643,-1.81839],[40.113449,-1.626154],[40.033453,-1.480426],[40.005755,-1.257546],[39.887674,-1.015183],[39.811503,-0.689622],[39.75254,-0.59278],[39.633219,-0.489531],[39.59441,-0.346283],[39.430389,-0.188722],[39.306883,-0.1341],[39.143017,-0.127279],[39.057079,-0.037879],[38.933831,-0.093121],[38.74578,-0.065215],[38.546516,-0.024236],[38.415878,-0.080563],[38.870682,-0.865167],[38.996514,-1.146286],[39.000131,-1.686822],[38.960237,-1.764336],[38.979461,-1.968872],[38.797146,-2.333656],[38.630025,-2.411429],[39.042144,-3.018058],[38.79172,-3.043173],[38.65669,-3.028962],[38.539074,-2.963953],[38.444145,-2.984934],[38.351954,-2.921837],[38.278108,-2.790785],[38.134861,-2.690016],[37.917924,-2.779933],[37.850434,-3.010049],[37.834621,-3.153141],[37.679996,-3.192148],[37.700055,-3.31437],[37.590294,-3.404081],[37.599079,-3.513428],[37.722276,-3.53999],[37.770955,-3.655435],[38.508274,-4.186152],[39.190603,-4.677504],[39.264334,-4.606622],[39.362478,-4.633966],[39.551117,-4.402114],[39.669688,-4.087986],[39.786388,-3.917169],[39.867035,-3.69492],[39.848969,-3.625177],[39.96518,-3.399184],[40.12908,-3.251886],[40.119151,-3.183526],[40.225108,-2.993748],[40.162608,-2.934259],[40.174978,-2.762628],[40.243907,-2.656671],[40.389822,-2.560317],[40.523611,-2.525079],[40.615896,-2.552504],[40.828624,-2.37477],[40.838064,-2.24505],[40.924815,-2.217218],[40.904307,-2.080336],[41.028656,-2.043227],[41.198985,-1.943129],[41.303477,-1.95615],[41.535944,-1.676312]]]},"properties":{"LOCATION_TYPE":"level1","ADM0_A3":"KEN","LOCATION_ID":"KEN-300","NAME":"Coast","TYPE_EN":"Province"}},
{"type":"Feature","geometry":{"type":"Polygon","coordinates":[[[34.718893,-1.412414],[34.680292,-1.232379],[34.573218,-1.009964],[34.975571,-0.894725],[35.072413,-0.780779],[35.031898,-0.446071],[34.99867,-0.36065],[35.049106,-0.211511],[35.120782,-0.12764],[35.267594,-0.235127],[35.325627,-0.188619],[35.213438,-0.037258],[35.11303,-0.01943],[34.816201,-0.036948],[34.758633,-0.007493],[34.505832,0.003669],[34.512963,0.098289],[34.354265,0.306597],[34.227606,0.302152],[34.091852,0.206654],[34.075884,0.118753],[33.95248,-0.115702],[33.894809,-0.662749],[33.904214,-1.002573],[34.052526,-1.0404],[34.718893,-1.412414]]]},"properties":{"LOCATION_TYPE":"level1","ADM0_A3":"KEN","LOCATION_ID":"KEN-600","NAME":"Nyanza","TYPE_EN":"Province"}},
{"type":"Feature","geometry":{"type":"Polygon","coordinates":[[[34.566883,1.103022],[34.507485,1.102518],[34.388009,0.815817],[34.276181,0.680838],[34.132417,0.572834],[34.087976,0.367369],[33.893569,0.109814],[33.95248,-0.115702],[34.075884,0.118753],[34.091852,0.206654],[34.227606,0.302152],[34.354265,0.306597],[34.512963,0.098289],[34.505832,0.003669],[34.758633,-0.007493],[34.910252,0.178749],[34.928235,0.372122],[34.845036,0.570663],[34.967819,0.628644],[35.08714,0.632778],[35.164242,0.708019],[35.152924,0.807341],[35.051122,0.883667],[34.797132,0.82672],[34.566883,1.103022]]]},"properties":{"LOCATION_TYPE":"level1","ADM0_A3":"KEN","LOCATION_ID":"KEN-800","NAME":"Western","TYPE_EN":"Province"}},
{"type":"Feature","geometry":{"type":"Polygon","coordinates":[[[37.131512,-1.237133],[36.808637,-1.170264],[36.676242,-1.298215],[36.869616,-1.413247],[36.974312,-1.289637],[37.070223,-1.298835],[37.131512,-1.237133]]]},"properties":{"LOCATION_TYPE":"level1","ADM0_A3":"KEN","LOCATION_ID":"KEN-110","NAME":"Nairobi","TYPE_EN":"National Capital Area"}},
{"type":"Feature","geometry":{"type":"Polygon","coordinates":[[[37.086191,0.019224],[37.003819,-0.099477],[37.023353,-0.231562],[36.881398,-0.28174],[36.80781,-0.12485],[36.668336,-0.149551],[36.544364,-0.101751],[36.599916,0.00832],[36.483231,0.111001],[36.261487,0.000517],[36.212601,-0.141076],[36.2064,-0.279569],[36.255906,-0.388193],[36.370111,-0.399769],[36.401582,-0.585029],[36.506485,-0.615259],[36.518733,-0.77742],[36.584878,-0.997407],[36.50788,-1.251861],[36.676242,-1.298215],[36.808637,-1.170264],[37.131512,-1.237133],[37.215796,-1.077092],[37.364262,-1.038799],[37.242771,-0.869611],[37.480224,-0.746621],[37.476917,-0.590145],[37.429168,-0.427312],[37.316513,-0.15937],[37.086191,0.019224]]]},"properties":{"LOCATION_TYPE":"level1","ADM0_A3":"KEN","LOCATION_ID":"KEN-200","NAME":"Central","TYPE_EN":"Province"}}
]}