{"type":"FeatureCollection", "features": [
{"type":"Feature","geometry":{"type":"Polygon","coordinates":[[[78.231335,41.172856],[78.359692,41.287455],[78.359899,41.377527],[78.619211,41.478089],[78.672128,41.538448],[78.976192,41.6418],[79.30413,41.787554],[79.410997,41.778588],[79.610985,41.867626],[79.747514,41.879745],[79.842909,42.00183],[80.181906,42.020976],[80.256527,42.084357],[80.210328,42.189519],[79.917943,42.42444],[79.696458,42.459838],[79.47642,42.453973],[79.242119,42.629776],[79.148274,42.790981],[79.030866,42.756151],[78.687114,42.804598],[78.496118,42.875601],[78.030616,42.854672],[77.907006,42.891285],[77.403265,42.919759],[77.21189,42.909944],[77.125143,42.807852],[76.842421,42.801884],[76.803664,42.765219],[76.453246,42.737547],[76.253413,42.673726],[76.148975,42.60262],[75.850285,42.591897],[75.637068,42.459786],[75.781194,42.351188],[75.953948,42.375295],[75.981853,42.213083],[76.161377,42.034024],[76.620057,41.932273],[76.65313,41.791506],[76.729922,41.727789],[76.661037,41.60635],[77.213768,41.585291],[77.344251,41.626968],[77.304563,41.437884],[77.415358,41.384968],[77.387401,41.26637],[77.645783,41.311897],[77.645318,41.229758],[77.890161,41.199656],[78.164046,41.245932],[78.231335,41.172856]]]},"properties":{"LOCATION_TYPE":"level1","ADM0_A3":"KGZ","LOCATION_ID":"KGZ-Y","NAME":"Ysyk-Köl","TYPE_EN":"Region"}},
{"type":"Feature","geometry":{"type":"Polygon","coordinates":[[[78.231335,41.172856],[78.164046,41.245932],[77.890161,41.199656],[77.645318,41.229758],[77.645783,41.311897],[77.387401,41.26637],[77.415358,41.384968],[77.304563,41.437884],[77.344251,41.626968],[77.213768,41.585291],[76.661037,41.60635],[76.729922,41.727789],[76.65313,41.791506],[76.620057,41.932273],[76.161377,42.034024],[75.981853,42.213083],[75.953948,42.375295],[75.781194,42.351188],[75.637068,42.459786],[75.293058,42.433483],[75.009406,42.449399],[74.819289,42.423612],[74.873601,42.327675],[74.623797,42.248765],[74.340765,42.237913],[74.279787,41.947233],[74.161499,41.913256],[73.956396,41.971289],[73.800901,41.957594],[73.756356,41.901835],[73.97934,41.833493],[73.946474,41.618545],[74.076337,41.564957],[74.407169,41.546198],[74.751954,41.61175],[74.638525,41.376855],[74.357973,41.303112],[74.399883,41.214358],[74.205579,41.201904],[74.041713,40.972021],[74.421122,40.66682],[74.581732,40.559876],[74.832312,40.508116],[75.039068,40.441099],[75.19389,40.441254],[75.481832,40.614111],[75.559863,40.63287],[75.666936,40.450245],[75.681819,40.291702],[75.921495,40.309117],[76.244162,40.441202],[76.330152,40.348081],[76.449111,40.415519],[76.624191,40.627547],[76.630805,40.728885],[76.770848,40.867119],[76.860972,41.013208],[77.007733,41.044214],[77.118838,41.011658],[77.332985,41.02065],[77.474888,40.982047],[77.665574,41.001271],[77.866699,41.064058],[78.074955,41.039512],[78.231335,41.172856]]]},"properties":{"LOCATION_TYPE":"level1","ADM0_A3":"KGZ","LOCATION_ID":"KGZ-N","NAME":"Naryn","TYPE_EN":"Region"}},
{"type":"Feature","geometry":{"type":"Polygon","coordinates":[[[74.832312,40.508116],[74.581732,40.559876],[74.421122,40.66682],[74.041713,40.972021],[73.927664,41.017445],[73.885496,41.120023],[73.692898,41.091704],[73.462782,41.094985],[73.257937,40.984889],[73.260883,40.904351],[73.135042,40.835274],[73.118048,40.782938],[72.783908,40.669663],[72.748355,40.575096],[72.585781,40.508743],[72.447908,40.560471],[72.370497,40.38565],[72.235931,40.459909],[72.099299,40.426371],[71.956672,40.31568],[72.013239,40.262072],[72.186323,40.29661],[72.271692,40.143441],[72.28642,39.95105],[72.481292,39.861288],[72.528007,39.739332],[72.237844,39.638614],[72.08545,39.633085],[71.71338,39.738427],[71.575404,39.685873],[71.509654,39.584998],[71.512875,39.458833],[71.740251,39.448343],[71.732913,39.285097],[71.843501,39.285045],[72.049793,39.368864],[72.094751,39.275072],[72.203272,39.24081],[72.31634,39.328815],[72.65048,39.393772],[72.835275,39.356204],[73.167864,39.355377],[73.367645,39.443795],[73.820744,39.468186],[73.926784,39.592882],[73.823018,39.805685],[74.003989,40.060812],[74.167596,40.10639],[74.369858,40.105822],[74.705755,40.331286],[74.832312,40.508116]]]},"properties":{"LOCATION_TYPE":"level1","ADM0_A3":"KGZ","LOCATION_ID":"KGZ-O","NAME":"Osh","TYPE_EN":"Region"}},
{"type":"Feature","geometry":{"type":"Polygon","coordinates":[[[77.21189,42.909944],[76.956884,42.988514],[76.688786,42.910328],[76.404463,42.889244],[76.254498,42.921154],[75.770599,42.92565],[75.646163,42.806096],[75.178594,42.84966],[74.862851,42.975828],[74.71392,42.999883],[74.558167,43.115044],[74.25865,43.215761],[74.039852,43.181861],[73.634089,43.062463],[73.493012,42.894954],[73.503554,42.794082],[73.41002,42.58965],[73.505077,42.421557],[73.67662,42.450122],[73.606029,42.314678],[73.279693,42.292923],[73.081204,42.237577],[73.112261,42.13934],[73.381805,42.019141],[73.800901,41.957594],[73.956396,41.971289],[74.161499,41.913256],[74.279787,41.947233],[74.340765,42.237913],[74.623797,42.248765],[74.873601,42.327675],[74.819289,42.423612],[75.009406,42.449399],[75.293058,42.433483],[75.637068,42.459786],[75.850285,42.591897],[76.148975,42.60262],[76.253413,42.673726],[76.453246,42.737547],[76.803664,42.765219],[76.842421,42.801884],[77.125143,42.807852],[77.21189,42.909944]],[[74.629843,42.805501],[74.514553,42.858599],[74.620851,42.935674],[74.671753,42.869218],[74.629843,42.805501]]]},"properties":{"LOCATION_TYPE":"level1","ADM0_A3":"KGZ","LOCATION_ID":"KGZ-C","NAME":"Chuy","TYPE_EN":"Region"}},
{"type":"Feature","geometry":{"type":"Polygon","coordinates":[[[73.505077,42.421557],[73.326201,42.428677],[73.316589,42.493712],[73.115051,42.550841],[72.840752,42.555698],[72.725824,42.652876],[72.476744,42.682564],[72.292362,42.76106],[72.10488,42.750337],[71.847738,42.834053],[71.583568,42.759639],[71.404613,42.794883],[71.149021,42.677939],[71.127007,42.590606],[71.00319,42.563527],[70.939835,42.387827],[70.858134,42.291063],[71.077604,42.281167],[71.249868,42.198385],[71.627236,42.202876],[72.126895,42.069836],[72.212574,42.164248],[72.383262,42.206468],[72.628105,42.152208],[72.803288,42.065753],[73.112261,42.13934],[73.081204,42.237577],[73.279693,42.292923],[73.606029,42.314678],[73.67662,42.450122],[73.505077,42.421557]]]},"properties":{"LOCATION_TYPE":"level1","ADM0_A3":"KGZ","LOCATION_ID":"KGZ-T","NAME":"Talas","TYPE_EN":"Region"}},
{"type":"Feature","geometry":{"type":"Polygon","coordinates":[[[71.249868,42.198385],[70.977145,42.044231],[70.845474,42.030356],[70.825113,41.93633],[70.550091,41.824063],[70.453663,41.71208],[70.169288,41.578342],[70.203446,41.505633],[70.344419,41.493799],[70.477227,41.404657],[70.633807,41.467496],[70.759691,41.372515],[70.75628,41.269627],[70.914203,41.193042],[71.024688,41.189787],[71.276145,41.113151],[71.421459,41.162088],[71.412571,41.334687],[71.585532,41.323525],[71.68413,41.534055],[71.863034,41.312208],[71.871613,41.194489],[72.169889,41.168651],[72.185599,41.041062],[72.476744,41.011813],[72.619474,40.88009],[73.00343,40.870168],[73.135042,40.835274],[73.260883,40.904351],[73.257937,40.984889],[73.462782,41.094985],[73.692898,41.091704],[73.885496,41.120023],[73.927664,41.017445],[74.041713,40.972021],[74.205579,41.201904],[74.399883,41.214358],[74.357973,41.303112],[74.638525,41.376855],[74.751954,41.61175],[74.407169,41.546198],[74.076337,41.564957],[73.946474,41.618545],[73.97934,41.833493],[73.756356,41.901835],[73.800901,41.957594],[73.381805,42.019141],[73.112261,42.13934],[72.803288,42.065753],[72.628105,42.152208],[72.383262,42.206468],[72.212574,42.164248],[72.126895,42.069836],[71.627236,42.202876],[71.249868,42.198385]]]},"properties":{"LOCATION_TYPE":"level1","ADM0_A3":"KGZ","LOCATION_ID":"KGZ-J","NAME":"Jalal-Abad","TYPE_EN":"Region"}},
{"type":"Feature","geometry":{"type":"Polygon","coordinates":[[[72.013239,40.262072],[71.836473,40.249172],[71.673072,40.147886],[71.365132,40.294131],[71.053213,40.274235],[70.962883,40.189693],[70.63944,40.084945],[70.627399,39.993891],[70.14717,40.136983],[69.969558,40.211603],[69.575474,40.1036],[69.463129,40.025413],[69.313991,39.986914],[69.226296,39.751011],[69.29115,39.658872],[69.286189,39.539707],[69.496099,39.532575],[69.669421,39.577792],[69.830445,39.536244],[70.019684,39.568594],[70.20603,39.5241],[70.459967,39.599548],[70.622128,39.563529],[70.739744,39.386228],[71.009288,39.407622],[71.062928,39.495627],[71.236923,39.514488],[71.361618,39.587559],[71.509654,39.584998],[71.575404,39.685873],[71.71338,39.738427],[72.08545,39.633085],[72.237844,39.638614],[72.528007,39.739332],[72.481292,39.861288],[72.28642,39.95105],[72.271692,40.143441],[72.186323,40.29661],[72.013239,40.262072]],[[71.176926,40.042001],[71.221058,39.931724],[71.113674,39.874466],[70.952961,40.079208],[70.977145,40.144579],[71.176926,40.042001]]]},"properties":{"LOCATION_TYPE":"level1","ADM0_A3":"KGZ","LOCATION_ID":"KGZ-B","NAME":"Batken","TYPE_EN":"Region"}},
{"type":"Feature","geometry":{"type":"Polygon","coordinates":[[[74.629843,42.805501],[74.671753,42.869218],[74.620851,42.935674],[74.514553,42.858599],[74.629843,42.805501]]]},"properties":{"LOCATION_TYPE":"level1","ADM0_A3":"KGZ","LOCATION_ID":"KGZ-GB","NAME":"Bishkek","TYPE_EN":"Region"}}
]}