{"type":"FeatureCollection", "features": [
{"type":"Feature","geometry":{"type":"Polygon","coordinates":[[[107.574907,13.293633],[107.610516,13.400372],[107.596925,13.535066],[107.44324,13.783475],[107.430734,13.984471],[107.343143,14.020618],[107.31994,14.119837],[107.386912,14.421912],[107.455745,14.433875],[107.505252,14.541026],[107.414921,14.543429],[107.28728,14.598516],[107.211213,14.493458],[107.078559,14.400776],[107.030345,14.436097],[106.946113,14.32352],[106.792995,14.322589],[106.707161,14.429301],[106.622049,14.457594],[106.624789,14.297706],[106.588977,14.112266],[106.629285,14.027284],[106.657242,13.78642],[106.561951,13.612735],[106.608976,13.335569],[106.738529,13.222914],[106.85108,13.16731],[107.045022,13.171625],[107.082384,13.318464],[107.202532,13.315389],[107.25395,13.370089],[107.37048,13.284357],[107.472334,13.331202],[107.574907,13.293633]]]},"properties":{"LOCATION_TYPE":"level1","ADM0_A3":"KHM","LOCATION_ID":"KHM-16","NAME":"Rôtânôkiri","TYPE_EN":"Province"}},
{"type":"Feature","geometry":{"type":"Polygon","coordinates":[[[106.790562,12.067409],[106.977687,12.097247],[107.152508,12.27703],[107.320198,12.329223],[107.415851,12.254085],[107.514295,12.343847],[107.55667,12.472676],[107.565093,12.606415],[107.535947,12.799633],[107.494296,12.858751],[107.460396,13.021609],[107.574907,13.293633],[107.472334,13.331202],[107.37048,13.284357],[107.25395,13.370089],[107.202532,13.315389],[107.082384,13.318464],[107.045022,13.171625],[106.85108,13.16731],[106.738529,13.222914],[106.608976,13.335569],[106.438909,13.42068],[106.361601,13.422178],[106.378706,13.230356],[106.348889,13.101371],[106.428212,13.009025],[106.611767,12.916215],[106.617813,12.847588],[106.474307,12.76196],[106.396845,12.686926],[106.379636,12.513578],[106.552649,12.412214],[106.596729,12.314882],[106.736462,12.262223],[106.78788,12.193365],[106.790562,12.067409]]]},"properties":{"LOCATION_TYPE":"level1","ADM0_A3":"KHM","LOCATION_ID":"KHM-11","NAME":"Môndól Kiri","TYPE_EN":"Province"}},
{"type":"Feature","geometry":{"type":"Polygon","coordinates":[[[106.790562,12.067409],[106.78788,12.193365],[106.736462,12.262223],[106.596729,12.314882],[106.552649,12.412214],[106.379636,12.513578],[106.396845,12.686926],[106.474307,12.76196],[106.617813,12.847588],[106.611767,12.916215],[106.428212,13.009025],[106.348889,13.101371],[106.378706,13.230356],[106.361601,13.422178],[106.221351,13.363965],[106.100325,13.343346],[106.019503,13.204466],[105.86928,13.115944],[105.716576,13.212786],[105.577721,13.26981],[105.637924,13.047602],[105.680609,12.778419],[105.751974,12.507557],[105.780965,12.342503],[105.759364,12.266022],[105.973718,12.203493],[106.05485,12.094172],[106.154172,12.045854],[106.174326,11.955033],[106.395398,11.965807],[106.70158,11.970795],[106.790562,12.067409]]]},"properties":{"LOCATION_TYPE":"level1","ADM0_A3":"KHM","LOCATION_ID":"KHM-10","NAME":"Krâchéh","TYPE_EN":"Province"}},
{"type":"Feature","geometry":{"type":"Polygon","coordinates":[[[105.820986,11.641474],[105.934081,11.642856],[106.01542,11.770497],[106.154636,11.746313],[106.287341,11.674586],[106.398859,11.746313],[106.438753,11.863721],[106.395398,11.965807],[106.174326,11.955033],[106.154172,12.045854],[106.05485,12.094172],[105.973718,12.203493],[105.759364,12.266022],[105.780965,12.342503],[105.751974,12.507557],[105.561547,12.48761],[105.507907,12.457948],[105.399903,12.483709],[105.346986,12.351753],[105.265182,12.392112],[105.137283,12.370847],[105.200483,12.216464],[105.11961,12.204863],[104.924428,12.260751],[104.887376,12.235067],[104.868566,12.076653],[104.894611,12.00348],[104.81875,11.891755],[104.898951,11.809564],[104.9991,11.888965],[105.072946,11.763055],[105.154543,11.747061],[105.329416,11.868785],[105.448582,11.777783],[105.699523,11.745976],[105.820986,11.641474]]]},"properties":{"LOCATION_TYPE":"level1","ADM0_A3":"KHM","LOCATION_ID":"KHM-3","NAME":"Kâmpóng Cham","TYPE_EN":"Province"}},
{"type":"Feature","geometry":{"type":"Polygon","coordinates":[[[105.793179,11.582884],[105.706034,11.560742],[105.651102,11.407624],[105.662109,11.255696],[105.609657,11.187044],[105.61724,10.970837],[105.752904,11.015608],[105.861011,10.839314],[105.931342,10.896364],[106.0179,10.819806],[106.15505,10.784847],[106.131434,10.96928],[106.160321,11.053512],[106.063066,11.093329],[105.973975,11.190378],[105.899871,11.218593],[105.843441,11.304091],[105.871036,11.413284],[105.853208,11.546867],[105.793179,11.582884]]]},"properties":{"LOCATION_TYPE":"level1","ADM0_A3":"KHM","LOCATION_ID":"KHM-20","NAME":"Svay Rieng","TYPE_EN":"Province"}},
{"type":"Feature","geometry":{"type":"Polygon","coordinates":[[[105.820986,11.641474],[105.699523,11.745976],[105.448582,11.777783],[105.329416,11.868785],[105.154543,11.747061],[105.112375,11.595365],[105.13687,11.54436],[105.295,11.426486],[105.263374,11.384189],[105.289212,11.260605],[105.199398,11.050411],[105.209145,10.891647],[105.327503,10.84828],[105.410496,10.963001],[105.473851,10.94091],[105.61724,10.970837],[105.609657,11.187044],[105.662109,11.255696],[105.651102,11.407624],[105.706034,11.560742],[105.793179,11.582884],[105.820986,11.641474]]]},"properties":{"LOCATION_TYPE":"level1","ADM0_A3":"KHM","LOCATION_ID":"KHM-14","NAME":"Prey Vêng","TYPE_EN":"Province"}},
{"type":"Feature","geometry":{"type":"Polygon","coordinates":[[[105.209145,10.891647],[105.199398,11.050411],[105.289212,11.260605],[105.263374,11.384189],[105.295,11.426486],[105.13687,11.54436],[105.112375,11.595365],[105.154543,11.747061],[105.072946,11.763055],[104.9991,11.888965],[104.898951,11.809564],[104.81875,11.891755],[104.761027,11.82256],[104.669922,11.611953],[104.650853,11.445632],[104.744129,11.355483],[104.935125,11.328947],[104.934505,11.268356],[105.019719,11.185261],[105.010262,10.98889],[105.038548,10.922582],[105.209145,10.891647]],[[104.923498,11.446253],[104.808053,11.434703],[104.788984,11.598259],[104.916211,11.678306],[104.963237,11.495526],[104.923498,11.446253]]]},"properties":{"LOCATION_TYPE":"level1","ADM0_A3":"KHM","LOCATION_ID":"KHM-8","NAME":"Kândal","TYPE_EN":"Province"}},
{"type":"Feature","geometry":{"type":"Polygon","coordinates":[[[105.038548,10.922582],[105.010262,10.98889],[105.019719,11.185261],[104.934505,11.268356],[104.935125,11.328947],[104.744129,11.355483],[104.705268,11.318793],[104.673642,11.100072],[104.561194,11.087256],[104.437636,11.121259],[104.536648,11.025581],[104.577627,10.888871],[104.702529,10.889103],[104.739168,10.792752],[104.67881,10.712602],[104.700634,10.524231],[104.854406,10.531322],[105.066227,10.746425],[105.014809,10.84921],[105.038548,10.922582]]]},"properties":{"LOCATION_TYPE":"level1","ADM0_A3":"KHM","LOCATION_ID":"KHM-21","NAME":"Takêv","TYPE_EN":"Province"}},
{"type":"Feature","geometry":{"type":"Polygon","coordinates":[[[104.700634,10.524231],[104.67881,10.712602],[104.739168,10.792752],[104.702529,10.889103],[104.577627,10.888871],[104.536648,11.025581],[104.437636,11.121259],[104.261988,11.119167],[104.144682,11.160895],[104.050631,11.054519],[103.942007,10.98889],[103.953841,10.678392],[103.916879,10.615973],[104.071788,10.555976],[104.268565,10.552069],[104.387561,10.554395],[104.424186,10.451052],[104.494273,10.427737],[104.55401,10.518326],[104.700634,10.524231]]]},"properties":{"LOCATION_TYPE":"level1","ADM0_A3":"KHM","LOCATION_ID":"KHM-7","NAME":"Kâmpôt","TYPE_EN":"Province"}},
{"type":"Feature","geometry":{"type":"Polygon","coordinates":[[[104.045064,14.356968],[103.870331,14.34326],[103.550247,14.42186],[103.457023,14.374421],[103.138231,14.319747],[103.01693,14.238872],[103.190529,14.121309],[103.263806,14.000903],[103.342457,14.003874],[103.433201,13.887163],[103.686726,13.99527],[103.813023,14.124616],[104.073782,14.244557],[104.045064,14.356968]]]},"properties":{"LOCATION_TYPE":"level1","ADM0_A3":"KHM","LOCATION_ID":"KHM-22","NAME":"Otdar Mean Chey","TYPE_EN":"Province"}},
{"type":"Feature","geometry":{"type":"Polygon","coordinates":[[[105.895581,13.924799],[105.787113,14.010154],[105.744015,14.086945],[105.617253,14.10299],[105.533175,14.16433],[105.347864,14.106065],[105.256913,14.182443],[105.155007,14.33047],[105.047314,14.214069],[104.975949,14.301118],[104.97383,14.380648],[104.771672,14.439869],[104.594628,14.41],[104.458508,14.357042],[104.450813,14.13335],[104.390765,13.913492],[104.429213,13.704487],[104.421978,13.603769],[104.634265,13.558759],[104.577937,13.414427],[104.563365,13.283737],[104.727179,13.358591],[104.884999,13.338695],[104.881743,13.191598],[104.997343,13.115479],[105.095425,13.162737],[105.189476,13.254824],[105.386984,13.390759],[105.545837,13.468687],[105.579892,13.636791],[105.52496,13.825746],[105.709755,13.864374],[105.714406,13.908996],[105.895581,13.924799]]]},"properties":{"LOCATION_TYPE":"level1","ADM0_A3":"KHM","LOCATION_ID":"KHM-13","NAME":"Preah Vihéar","TYPE_EN":"Province"}},
{"type":"Feature","geometry":{"type":"Polygon","coordinates":[[[104.458508,14.357042],[104.247466,14.401086],[104.045064,14.356968],[104.073782,14.244557],[103.813023,14.124616],[103.686726,13.99527],[103.433201,13.887163],[103.403539,13.64834],[103.405503,13.428225],[103.683935,13.316397],[103.808734,13.145244],[104.155999,12.79785],[104.191708,12.749119],[104.273667,12.851955],[104.383531,12.917532],[104.466833,13.078117],[104.487452,13.226557],[104.563365,13.283737],[104.577937,13.414427],[104.634265,13.558759],[104.421978,13.603769],[104.429213,13.704487],[104.390765,13.913492],[104.450813,14.13335],[104.458508,14.357042]]]},"properties":{"LOCATION_TYPE":"level1","ADM0_A3":"KHM","LOCATION_ID":"KHM-17","NAME":"Siemréab","TYPE_EN":"Province"}},
{"type":"Feature","geometry":{"type":"Polygon","coordinates":[[[103.01693,14.238872],[102.918606,14.185492],[102.869772,14.020618],[102.772827,13.936076],[102.69862,13.761797],[102.57439,13.693894],[102.513205,13.567157],[102.332234,13.5646],[102.329528,13.484603],[102.640898,13.461168],[102.716191,13.417114],[102.81112,13.435459],[102.963824,13.408174],[103.160866,13.458378],[103.252127,13.422618],[103.405503,13.428225],[103.403539,13.64834],[103.433201,13.887163],[103.342457,14.003874],[103.263806,14.000903],[103.190529,14.121309],[103.01693,14.238872]]]},"properties":{"LOCATION_TYPE":"level1","ADM0_A3":"KHM","LOCATION_ID":"KHM-1","NAME":"Bântéay Méanchey","TYPE_EN":"Province"}},
{"type":"Feature","geometry":{"type":"Polygon","coordinates":[[[102.765012,12.044564],[102.843004,11.866047],[102.9138,11.765536],[102.975108,11.529242],[103.030284,11.542873],[103.114513,11.458238],[103.078868,11.273505],[103.113617,11.161078],[103.095551,10.933987],[103.181163,10.864447],[103.277354,10.932685],[103.40211,10.884345],[103.474457,11.133694],[103.53297,11.162746],[103.659516,11.029771],[103.722423,10.894843],[103.688731,10.742987],[103.78703,10.893599],[103.942007,10.98889],[104.050631,11.054519],[104.144682,11.160895],[104.092696,11.275875],[104.117862,11.351607],[104.054042,11.537281],[103.935083,11.5633],[103.809044,11.653733],[103.776746,11.796438],[103.793076,11.898266],[103.863511,11.908447],[103.649984,12.021256],[103.491285,12.142282],[103.412117,12.136546],[103.293726,12.029008],[103.146087,11.979502],[103.000773,12.029085],[102.765012,12.044564]]]},"properties":{"LOCATION_TYPE":"level1","ADM0_A3":"KHM","LOCATION_ID":"KHM-9","NAME":"Kaôh Kong","TYPE_EN":"Province"}},
{"type":"Feature","geometry":{"type":"Polygon","coordinates":[[[102.765012,12.044564],[103.000773,12.029085],[103.146087,11.979502],[103.293726,12.029008],[103.412117,12.136546],[103.491285,12.142282],[103.649984,12.021256],[103.863511,11.908447],[103.944798,11.98237],[103.995131,11.945576],[104.111609,12.081098],[104.198529,12.107788],[104.180081,12.183391],[104.219923,12.277287],[104.344102,12.347231],[104.398569,12.433531],[104.40508,12.551327],[104.191708,12.749119],[104.155999,12.79785],[103.808734,13.145244],[103.679491,13.019387],[103.669414,12.886139],[103.627815,12.860921],[103.642232,12.677469],[103.60239,12.596363],[103.505548,12.558691],[103.339667,12.587707],[103.150841,12.519314],[102.957933,12.477921],[102.804454,12.408597],[102.763751,12.425261],[102.715053,12.342194],[102.692212,12.178483],[102.765012,12.044564]]]},"properties":{"LOCATION_TYPE":"level1","ADM0_A3":"KHM","LOCATION_ID":"KHM-15","NAME":"Pouthisat","TYPE_EN":"Province"}},
{"type":"Feature","geometry":{"type":"Polygon","coordinates":[[[102.763751,12.425261],[102.804454,12.408597],[102.957933,12.477921],[103.150841,12.519314],[103.339667,12.587707],[103.505548,12.558691],[103.60239,12.596363],[103.642232,12.677469],[103.627815,12.860921],[103.669414,12.886139],[103.679491,13.019387],[103.808734,13.145244],[103.683935,13.316397],[103.405503,13.428225],[103.252127,13.422618],[103.160866,13.458378],[102.963824,13.408174],[102.81112,13.435459],[102.716191,13.417114],[102.640898,13.461168],[102.329528,13.484603],[102.328203,13.27516],[102.38205,13.136615],[102.490097,12.995188],[102.586121,13.019464],[102.608755,13.095583],[102.69769,13.100777],[102.74053,13.042951],[102.758204,12.809322],[102.660328,12.694497],[102.495877,12.654152],[102.558628,12.63122],[102.763751,12.425261]]]},"properties":{"LOCATION_TYPE":"level1","ADM0_A3":"KHM","LOCATION_ID":"KHM-2","NAME":"Batdâmbâng","TYPE_EN":"Province"}},
{"type":"Feature","geometry":{"type":"Polygon","coordinates":[[[102.495877,12.654152],[102.660328,12.694497],[102.758204,12.809322],[102.74053,13.042951],[102.69769,13.100777],[102.608755,13.095583],[102.586121,13.019464],[102.490097,12.995188],[102.464836,12.927532],[102.504316,12.799737],[102.495877,12.654152]]]},"properties":{"LOCATION_TYPE":"level1","ADM0_A3":"KHM","LOCATION_ID":"KHM-24","NAME":"Krong Pailin","TYPE_EN":"Municipality"}},
{"type":"Feature","geometry":{"type":"Polygon","coordinates":[[[106.622049,14.457594],[106.540246,14.521673],[106.320156,14.444494],[106.235975,14.484362],[106.15412,14.367548],[105.96917,14.33202],[106.012474,14.225774],[106.144559,14.072398],[106.049216,13.915457],[105.895581,13.924799],[105.714406,13.908996],[105.709755,13.864374],[105.52496,13.825746],[105.579892,13.636791],[105.545837,13.468687],[105.577721,13.26981],[105.716576,13.212786],[105.86928,13.115944],[106.019503,13.204466],[106.100325,13.343346],[106.221351,13.363965],[106.361601,13.422178],[106.438909,13.42068],[106.608976,13.335569],[106.561951,13.612735],[106.657242,13.78642],[106.629285,14.027284],[106.588977,14.112266],[106.624789,14.297706],[106.622049,14.457594]]]},"properties":{"LOCATION_TYPE":"level1","ADM0_A3":"KHM","LOCATION_ID":"KHM-19","NAME":"Stœng Trêng","TYPE_EN":"Province"}},
{"type":"Feature","geometry":{"type":"Polygon","coordinates":[[[103.916879,10.615973],[103.953841,10.678392],[103.942007,10.98889],[103.78703,10.893599],[103.688731,10.742987],[103.567393,10.726508],[103.506847,10.635443],[103.623871,10.500922],[103.747081,10.508979],[103.916879,10.615973]]]},"properties":{"LOCATION_TYPE":"level1","ADM0_A3":"KHM","LOCATION_ID":"KHM-18","NAME":"Krong Preah Sihanouk","TYPE_EN":"Municipality"}},
{"type":"Feature","geometry":{"type":"Polygon","coordinates":[[[104.424186,10.451052],[104.387561,10.554395],[104.268565,10.552069],[104.306163,10.478583],[104.424186,10.451052]]]},"properties":{"LOCATION_TYPE":"level1","ADM0_A3":"KHM","LOCATION_ID":"KHM-23","NAME":"Kep","TYPE_EN":"Province"}},
{"type":"Feature","geometry":{"type":"Polygon","coordinates":[[[104.198529,12.107788],[104.324206,11.840621],[104.517889,11.736131],[104.675089,11.809512],[104.761027,11.82256],[104.81875,11.891755],[104.894611,12.00348],[104.868566,12.076653],[104.887376,12.235067],[104.852288,12.299792],[104.864845,12.412524],[104.830377,12.532569],[104.602432,12.596441],[104.50404,12.519391],[104.40508,12.551327],[104.398569,12.433531],[104.344102,12.347231],[104.219923,12.277287],[104.180081,12.183391],[104.198529,12.107788]]]},"properties":{"LOCATION_TYPE":"level1","ADM0_A3":"KHM","LOCATION_ID":"KHM-4","NAME":"Kâmpóng Chhnang","TYPE_EN":"Province"}},
{"type":"Feature","geometry":{"type":"Polygon","coordinates":[[[104.40508,12.551327],[104.50404,12.519391],[104.602432,12.596441],[104.830377,12.532569],[104.864845,12.412524],[104.852288,12.299792],[104.887376,12.235067],[104.924428,12.260751],[105.11961,12.204863],[105.200483,12.216464],[105.137283,12.370847],[105.265182,12.392112],[105.346986,12.351753],[105.399903,12.483709],[105.507907,12.457948],[105.561547,12.48761],[105.751974,12.507557],[105.680609,12.778419],[105.637924,13.047602],[105.577721,13.26981],[105.545837,13.468687],[105.386984,13.390759],[105.189476,13.254824],[105.095425,13.162737],[104.997343,13.115479],[104.881743,13.191598],[104.884999,13.338695],[104.727179,13.358591],[104.563365,13.283737],[104.487452,13.226557],[104.466833,13.078117],[104.383531,12.917532],[104.273667,12.851955],[104.191708,12.749119],[104.40508,12.551327]]]},"properties":{"LOCATION_TYPE":"level1","ADM0_A3":"KHM","LOCATION_ID":"KHM-6","NAME":"Kâmpóng Thum","TYPE_EN":"Province"}},
{"type":"Feature","geometry":{"type":"Polygon","coordinates":[[[103.863511,11.908447],[103.793076,11.898266],[103.776746,11.796438],[103.809044,11.653733],[103.935083,11.5633],[104.054042,11.537281],[104.117862,11.351607],[104.092696,11.275875],[104.144682,11.160895],[104.261988,11.119167],[104.437636,11.121259],[104.561194,11.087256],[104.673642,11.100072],[104.705268,11.318793],[104.744129,11.355483],[104.650853,11.445632],[104.669922,11.611953],[104.761027,11.82256],[104.675089,11.809512],[104.517889,11.736131],[104.324206,11.840621],[104.198529,12.107788],[104.111609,12.081098],[103.995131,11.945576],[103.944798,11.98237],[103.863511,11.908447]]]},"properties":{"LOCATION_TYPE":"level1","ADM0_A3":"KHM","LOCATION_ID":"KHM-5","NAME":"Kâmpóng Spœ","TYPE_EN":"Province"}},
{"type":"Feature","geometry":{"type":"Polygon","coordinates":[[[104.923498,11.446253],[104.963237,11.495526],[104.916211,11.678306],[104.788984,11.598259],[104.808053,11.434703],[104.923498,11.446253]]]},"properties":{"LOCATION_TYPE":"level1","ADM0_A3":"KHM","LOCATION_ID":"KHM-12","NAME":"Phnom Penh","TYPE_EN":"Municipality"}}
]}