{"type":"FeatureCollection", "features": [
{"type":"Feature","geometry":{"type":"MultiPolygon","coordinates":[[[[173.038259,1.341051],[173.078624,1.360012],[173.162934,1.356513],[173.171723,1.374172],[173.084727,1.366685],[173.038259,1.341051]]],[[[-151.807729,-11.385919],[-151.819529,-11.420994],[-151.800893,-11.461114],[-151.784495,-11.429376],[-151.807729,-11.385919]]],[[[-155.011708,-4.047052],[-154.977528,-4.078709],[-154.958567,-4.071222],[-154.940297,-4.031996],[-155.011708,-4.047052]]],[[[176.786143,-2.608168],[176.827322,-2.656183],[176.838227,-2.633884],[176.786143,-2.608168]]],[[[176.409353,-1.332696],[176.44988,-1.425388],[176.459321,-1.405857],[176.444835,-1.373793],[176.409353,-1.332696]]],[[[174.765147,-1.202895],[174.748302,-1.237481],[174.772716,-1.247735],[174.765147,-1.202895]]],[[[-157.190989,1.763902],[-157.222971,1.773586],[-157.289784,1.818752],[-157.325429,1.835842],[-157.347727,1.860785],[-157.336171,1.939114],[-157.321848,1.972113],[-157.385854,1.990465],[-157.423818,2.020453],[-157.496287,2.03441],[-157.408884,1.969306],[-157.355051,1.947659],[-157.354115,1.93183],[-157.382069,1.902167],[-157.419993,1.929023],[-157.424428,1.901842],[-157.490671,1.850165],[-157.500925,1.865871],[-157.537302,1.86636],[-157.549509,1.884467],[-157.532826,1.916083],[-157.543528,1.929023],[-157.578236,1.907945],[-157.581166,1.880316],[-157.546824,1.856431],[-157.528269,1.862494],[-157.448964,1.800238],[-157.410593,1.781928],[-157.309275,1.751899],[-157.286855,1.75023],[-157.246409,1.713324],[-157.213246,1.712795],[-157.174631,1.733791],[-157.190989,1.763902]]],[[[-159.284535,3.874823],[-159.319895,3.879096],[-159.342275,3.925767],[-159.37682,3.933295],[-159.406321,3.902574],[-159.393788,3.888577],[-159.36616,3.911444],[-159.347849,3.902777],[-159.335439,3.871487],[-159.291371,3.847602],[-159.294789,3.805976],[-159.342763,3.819566],[-159.352854,3.79914],[-159.308705,3.784654],[-159.263417,3.79914],[-159.253285,3.828681],[-159.284535,3.874823]]]]},"properties":{"LOCATION_TYPE":"level1","ADM0_A3":"KIR","LOCATION_ID":"KIR-X01~","NAME":"Kiribati","TYPE_EN":null}},
{"type":"Feature","geometry":{"type":"Polygon","coordinates":[[[-155.899322,-5.616795],[-155.906443,-5.635349],[-155.867991,-5.630304],[-155.879628,-5.60947],[-155.899322,-5.616795]]]},"properties":{"LOCATION_TYPE":"level1","ADM0_A3":"KIR","LOCATION_ID":"KIR-X02~","NAME":null,"TYPE_EN":null}}
]}