{"type":"FeatureCollection", "features": [
{"type":"Feature","geometry":{"type":"Polygon","coordinates":[[[-62.621567,17.128328],[-62.578619,17.145498],[-62.626373,17.140692],[-62.621567,17.128328]]]},"properties":{"LOCATION_TYPE":"level1","ADM0_A3":"KNA","LOCATION_ID":"KNA-10","NAME":"Saint Paul Charlestown","TYPE_EN":"Parish"}},
{"type":"Feature","geometry":{"type":"Polygon","coordinates":[[[-62.565745,17.100531],[-62.578619,17.145498],[-62.621567,17.128328],[-62.612172,17.104153],[-62.565745,17.100531]]]},"properties":{"LOCATION_TYPE":"level1","ADM0_A3":"KNA","LOCATION_ID":"KNA-07","NAME":"Saint John Figtree","TYPE_EN":"Parish"}},
{"type":"Feature","geometry":{"type":"Polygon","coordinates":[[[-62.536956,17.138393],[-62.578619,17.145498],[-62.565745,17.100531],[-62.536956,17.138393]]]},"properties":{"LOCATION_TYPE":"level1","ADM0_A3":"KNA","LOCATION_ID":"KNA-04","NAME":"Saint George Gingerland","TYPE_EN":"Parish"}},
{"type":"Feature","geometry":{"type":"Polygon","coordinates":[[[-62.61255,17.189129],[-62.578619,17.145498],[-62.536956,17.138393],[-62.546498,17.183783],[-62.599233,17.202948],[-62.61255,17.189129]]]},"properties":{"LOCATION_TYPE":"level1","ADM0_A3":"KNA","LOCATION_ID":"KNA-05","NAME":"Saint James Windward","TYPE_EN":"Parish"}},
{"type":"Feature","geometry":{"type":"Polygon","coordinates":[[[-62.626373,17.140692],[-62.578619,17.145498],[-62.61255,17.189129],[-62.626373,17.140692]]]},"properties":{"LOCATION_TYPE":"level1","ADM0_A3":"KNA","LOCATION_ID":"KNA-12","NAME":"Saint Thomas Lowland","TYPE_EN":"Parish"}},
{"type":"Feature","geometry":{"type":"Polygon","coordinates":[[[-62.856636,17.380425],[-62.807619,17.366713],[-62.822336,17.410102],[-62.856636,17.380425]]]},"properties":{"LOCATION_TYPE":"level1","ADM0_A3":"KNA","LOCATION_ID":"KNA-09","NAME":"Saint Paul Capesterre","TYPE_EN":"Parish"}},
{"type":"Feature","geometry":{"type":"Polygon","coordinates":[[[-62.831614,17.330146],[-62.807619,17.366713],[-62.856636,17.380425],[-62.861073,17.362291],[-62.831614,17.330146]]]},"properties":{"LOCATION_TYPE":"level1","ADM0_A3":"KNA","LOCATION_ID":"KNA-02","NAME":"Saint Anne Sandy Point","TYPE_EN":"Parish"}},
{"type":"Feature","geometry":{"type":"Polygon","coordinates":[[[-62.771625,17.298017],[-62.754424,17.331033],[-62.787509,17.349846],[-62.807619,17.366713],[-62.831614,17.330146],[-62.771625,17.298017]]]},"properties":{"LOCATION_TYPE":"level1","ADM0_A3":"KNA","LOCATION_ID":"KNA-13","NAME":"Saint Thomas Middle Island","TYPE_EN":"Parish"}},
{"type":"Feature","geometry":{"type":"Polygon","coordinates":[[[-62.723805,17.291693],[-62.734313,17.318708],[-62.738206,17.330385],[-62.745341,17.331033],[-62.754424,17.331033],[-62.771625,17.298017],[-62.723805,17.291693]]]},"properties":{"LOCATION_TYPE":"level1","ADM0_A3":"KNA","LOCATION_ID":"KNA-14","NAME":"Trinity Palmetto Point","TYPE_EN":"Parish"}},
{"type":"Feature","geometry":{"type":"Polygon","coordinates":[[[-62.681164,17.2994],[-62.734313,17.318708],[-62.723805,17.291693],[-62.670481,17.26317],[-62.659739,17.225491],[-62.624745,17.225287],[-62.63683,17.258205],[-62.66686,17.273505],[-62.681164,17.2994]]]},"properties":{"LOCATION_TYPE":"level1","ADM0_A3":"KNA","LOCATION_ID":"KNA-03","NAME":"Saint George Basseterre","TYPE_EN":"Parish"}},
{"type":"Feature","geometry":{"type":"Polygon","coordinates":[[[-62.703561,17.341604],[-62.738206,17.330385],[-62.734313,17.318708],[-62.681164,17.2994],[-62.703561,17.341604]]]},"properties":{"LOCATION_TYPE":"level1","ADM0_A3":"KNA","LOCATION_ID":"KNA-11","NAME":"Saint Peter Basseterre","TYPE_EN":"Parish"}},
{"type":"Feature","geometry":{"type":"Polygon","coordinates":[[[-62.730509,17.364614],[-62.745341,17.331033],[-62.738206,17.330385],[-62.703561,17.341604],[-62.730509,17.364614]]]},"properties":{"LOCATION_TYPE":"level1","ADM0_A3":"KNA","LOCATION_ID":"KNA-08","NAME":"Saint Mary Cayon","TYPE_EN":"Parish"}},
{"type":"Feature","geometry":{"type":"Polygon","coordinates":[[[-62.769423,17.386997],[-62.787509,17.349846],[-62.754424,17.331033],[-62.745341,17.331033],[-62.730509,17.364614],[-62.769423,17.386997]]]},"properties":{"LOCATION_TYPE":"level1","ADM0_A3":"KNA","LOCATION_ID":"KNA-01","NAME":"Christ Church Nichola Town","TYPE_EN":"Parish"}},
{"type":"Feature","geometry":{"type":"Polygon","coordinates":[[[-62.822336,17.410102],[-62.807619,17.366713],[-62.787509,17.349846],[-62.769423,17.386997],[-62.822336,17.410102]]]},"properties":{"LOCATION_TYPE":"level1","ADM0_A3":"KNA","LOCATION_ID":"KNA-06","NAME":"Saint John Capesterre","TYPE_EN":"Parish"}}
]}