{"type":"FeatureCollection", "features": [
{"type":"Feature","geometry":{"type":"Polygon","coordinates":[[[129.422618,36.616645],[129.463471,36.69245],[129.471202,36.771877],[129.437999,36.856147],[129.413097,37.027737],[129.430186,37.073065],[129.378917,37.130113],[129.331065,37.282172],[129.189952,37.469387],[129.148204,37.505113],[129.06422,37.67886],[128.923839,37.802314],[128.692475,38.064927],[128.631602,38.144965],[128.562755,38.288967],[128.474457,38.426093],[128.441417,38.505805],[128.364919,38.624335],[128.274785,38.571497],[128.268067,38.45352],[128.172362,38.355954],[128.039864,38.304278],[127.800757,38.293917],[127.753731,38.325362],[127.47194,38.295906],[127.377113,38.318515],[127.157489,38.307224],[127.090464,38.285855],[126.966065,38.213038],[127.035998,38.180305],[127.0823,38.119947],[127.176765,38.0738],[127.290556,38.138138],[127.296757,38.083619],[127.366417,38.057574],[127.451683,38.060959],[127.504497,37.948847],[127.625833,37.881099],[127.620665,37.840533],[127.53788,37.791647],[127.556483,37.677752],[127.53974,37.604578],[127.616324,37.593029],[127.831092,37.508486],[127.769183,37.44805],[127.767323,37.403118],[127.607023,37.131351],[127.818999,37.166052],[127.810421,37.117786],[127.888453,37.114402],[127.917701,37.186025],[127.987568,37.218271],[128.038004,37.150808],[128.19107,37.202794],[128.321915,37.175431],[128.29835,37.100475],[128.385477,37.116339],[128.42072,37.063733],[128.508363,37.074146],[128.650267,37.022262],[128.755997,36.996037],[128.758477,37.064973],[128.803849,37.092878],[128.88188,37.06102],[129.060991,37.02451],[129.114321,37.041279],[129.098095,36.918729],[129.168374,36.841628],[129.286093,36.819562],[129.274415,36.731143],[129.288987,36.656083],[129.347175,36.611745],[129.422618,36.616645]]]},"properties":{"LOCATION_TYPE":"level1","ADM0_A3":"KOR","LOCATION_ID":"KOR-42","NAME":"Gangwon","TYPE_EN":"Province"}},
{"type":"Feature","geometry":{"type":"MultiPolygon","coordinates":[[[[126.966065,38.213038],[126.919829,38.134598],[126.847327,38.082018],[126.761906,37.979001],[126.665787,37.937634],[126.68686,37.773627],[126.531016,37.754706],[126.560515,37.607353],[126.603792,37.549297],[126.700618,37.552023],[126.795806,37.443038],[126.720045,37.377053],[126.73331,37.30617],[126.822544,37.295607],[126.792491,37.223456],[126.709972,37.261705],[126.658458,37.254299],[126.702891,37.124701],[126.755219,37.048814],[126.858653,37.041327],[126.837901,36.975898],[126.961689,36.905112],[127.04778,36.897361],[127.130876,36.925808],[127.259964,36.878938],[127.380577,36.914801],[127.467393,37.009576],[127.517726,37.014278],[127.607023,37.131351],[127.767323,37.403118],[127.769183,37.44805],[127.831092,37.508486],[127.616324,37.593029],[127.53974,37.604578],[127.556483,37.677752],[127.53788,37.791647],[127.620665,37.840533],[127.625833,37.881099],[127.504497,37.948847],[127.451683,38.060959],[127.366417,38.057574],[127.296757,38.083619],[127.290556,38.138138],[127.176765,38.0738],[127.0823,38.119947],[127.035998,38.180305],[126.966065,38.213038]],[[127.11589,37.550576],[127.192061,37.52833],[127.144622,37.457766],[126.92076,37.429473],[126.842522,37.477506],[126.793739,37.551662],[126.868773,37.560292],[126.966028,37.613415],[127.023079,37.67721],[127.090258,37.680801],[127.124468,37.603312],[127.11589,37.550576]]],[[[126.507823,37.596869],[126.529063,37.624905],[126.521495,37.751166],[126.425304,37.824449],[126.36964,37.785346],[126.369151,37.719062],[126.416677,37.651842],[126.410167,37.602037],[126.507823,37.596869]]]]},"properties":{"LOCATION_TYPE":"level1","ADM0_A3":"KOR","LOCATION_ID":"KOR-41","NAME":"Gyeonggi","TYPE_EN":"Province"}},
{"type":"Feature","geometry":{"type":"MultiPolygon","coordinates":[[[[126.405414,36.458836],[126.360244,36.60936],[126.314818,36.581787],[126.342621,36.438381],[126.405414,36.458836]]],[[[126.812084,36.047304],[126.857094,36.092216],[127.06473,36.132627],[127.11403,36.055706],[127.338409,36.09821],[127.43246,35.98708],[127.571056,35.992997],[127.619012,36.029507],[127.575914,36.087436],[127.558344,36.186034],[127.465739,36.203604],[127.482276,36.374498],[127.449823,36.290783],[127.316587,36.23321],[127.290691,36.360101],[127.21899,36.456242],[127.150823,36.441239],[127.084057,36.48829],[127.080932,36.63978],[127.104239,36.691572],[127.246528,36.646032],[127.339339,36.76481],[127.259964,36.878938],[127.130876,36.925808],[127.04778,36.897361],[126.961689,36.905112],[126.860199,36.869574],[126.904796,36.822252],[126.849132,36.788031],[126.834321,36.895494],[126.796235,36.955756],[126.714348,36.993042],[126.566173,36.99079],[126.559093,36.942369],[126.479584,36.929023],[126.427745,37.008368],[126.36378,37.001451],[126.415538,36.899848],[126.336029,36.824652],[126.229991,36.873033],[126.130951,36.768052],[126.203136,36.705878],[126.424238,36.606581],[126.470329,36.540199],[126.498779,36.420106],[126.571544,36.305609],[126.534923,36.219631],[126.589447,36.130805],[126.692475,35.999905],[126.812084,36.047304]]]]},"properties":{"LOCATION_TYPE":"level1","ADM0_A3":"KOR","LOCATION_ID":"KOR-44","NAME":"South Chungcheong","TYPE_EN":"Province"}},
{"type":"Feature","geometry":{"type":"MultiPolygon","coordinates":[[[[126.720045,37.377053],[126.795806,37.443038],[126.700618,37.552023],[126.603792,37.549297],[126.595985,37.439657],[126.720045,37.377053]]],[[[126.563303,37.514443],[126.500661,37.530185],[126.355511,37.466223],[126.443413,37.420625],[126.563303,37.514443]]]]},"properties":{"LOCATION_TYPE":"level1","ADM0_A3":"KOR","LOCATION_ID":"KOR-28","NAME":"Incheon","TYPE_EN":"Metropolitan City"}},
{"type":"Feature","geometry":{"type":"Polygon","coordinates":[[[126.4369,35.370562],[126.583726,35.391845],[126.570083,35.301231],[126.689973,35.313969],[126.751364,35.339781],[126.791259,35.430215],[126.866913,35.462022],[126.933162,35.434478],[126.980084,35.382595],[127.036825,35.42838],[127.126742,35.284436],[127.261204,35.301489],[127.29345,35.283764],[127.431013,35.290973],[127.496435,35.333115],[127.617461,35.276633],[127.688258,35.386367],[127.654772,35.513336],[127.62914,35.522173],[127.706552,35.734822],[127.769804,35.802673],[127.867575,35.834195],[127.913877,35.88706],[127.918528,35.950752],[127.877601,36.007363],[127.75368,35.97522],[127.619012,36.029507],[127.571056,35.992997],[127.43246,35.98708],[127.338409,36.09821],[127.11403,36.055706],[127.06473,36.132627],[126.857094,36.092216],[126.812084,36.047304],[126.744477,35.989569],[126.521417,35.97052],[126.608809,35.931127],[126.612289,35.890224],[126.733165,35.885565],[126.597168,35.71389],[126.467559,35.639638],[126.513158,35.576897],[126.418224,35.394029],[126.4369,35.370562]]]},"properties":{"LOCATION_TYPE":"level1","ADM0_A3":"KOR","LOCATION_ID":"KOR-45","NAME":"North Jeolla","TYPE_EN":"Province"}},
{"type":"Feature","geometry":{"type":"MultiPolygon","coordinates":[[[[127.80499,34.957147],[127.78913,35.007295],[127.646917,35.156252],[127.617461,35.276633],[127.496435,35.333115],[127.431013,35.290973],[127.29345,35.283764],[127.261204,35.301489],[127.126742,35.284436],[127.036825,35.42838],[126.980084,35.382595],[126.933162,35.434478],[126.866913,35.462022],[126.791259,35.430215],[126.751364,35.339781],[126.689973,35.313969],[126.570083,35.301231],[126.583726,35.391845],[126.4369,35.370562],[126.361583,35.269029],[126.363536,35.187974],[126.450287,35.066596],[126.320649,35.083319],[126.374115,35.016832],[126.409272,34.844468],[126.364017,34.74916],[126.290294,34.75023],[126.271088,34.642483],[126.324962,34.569648],[126.490245,34.508612],[126.479584,34.348822],[126.532807,34.292222],[126.605317,34.321682],[126.629649,34.389228],[126.71754,34.43183],[126.761485,34.479193],[126.755219,34.557685],[126.807872,34.553168],[126.809825,34.451239],[126.88502,34.421088],[126.994151,34.540676],[127.010265,34.612494],[127.148041,34.691474],[127.290782,34.721381],[127.357921,34.698228],[127.260997,34.62995],[127.223481,34.54682],[127.315926,34.444901],[127.391788,34.50478],[127.343598,34.578192],[127.3921,34.602037],[127.45224,34.574774],[127.500759,34.612164],[127.406016,34.700019],[127.385265,34.760199],[127.510997,34.884711],[127.584483,34.746243],[127.572276,34.647406],[127.645274,34.626288],[127.63795,34.698228],[127.749848,34.737128],[127.774506,34.829332],[127.699962,34.842271],[127.641124,34.899115],[127.744395,34.960191],[127.80499,34.957147]],[[126.985562,35.23878],[127.005819,35.193046],[126.966442,35.150077],[126.850273,35.184881],[126.822885,35.234077],[126.933989,35.254593],[126.985562,35.23878]]],[[[126.380056,34.49844],[126.350352,34.538153],[126.274425,34.537258],[126.1963,34.502753],[126.115733,34.436184],[126.124278,34.403469],[126.209972,34.358791],[126.345876,34.409003],[126.380056,34.49844]]],[[[126.763927,34.309231],[126.721853,34.381293],[126.653656,34.395209],[126.644867,34.337104],[126.7317,34.289374],[126.763927,34.309231]]]]},"properties":{"LOCATION_TYPE":"level1","ADM0_A3":"KOR","LOCATION_ID":"KOR-46","NAME":"South Jeolla","TYPE_EN":"Metropolitan City"}},
{"type":"Feature","geometry":{"type":"MultiPolygon","coordinates":[[[[128.962778,35.133386],[129.010968,35.238108],[129.093134,35.270767],[129.199274,35.163639],[129.255707,35.246975],[129.268836,35.315724],[129.207855,35.372156],[129.064298,35.466259],[129.0027,35.473959],[129.008488,35.579508],[128.912576,35.590954],[128.789793,35.530183],[128.68861,35.552585],[128.61492,35.5438],[128.502369,35.59713],[128.421443,35.579276],[128.340311,35.610178],[128.219595,35.612762],[128.216495,35.705108],[128.124304,35.793629],[127.965554,35.827245],[127.913877,35.88706],[127.867575,35.834195],[127.769804,35.802673],[127.706552,35.734822],[127.62914,35.522173],[127.654772,35.513336],[127.688258,35.386367],[127.617461,35.276633],[127.646917,35.156252],[127.78913,35.007295],[127.80499,34.957147],[127.891205,34.946682],[128.019298,34.998684],[128.063975,34.927924],[128.139415,34.891913],[128.207042,34.890692],[128.224132,34.937893],[128.340831,34.872707],[128.435313,34.843166],[128.44044,34.965155],[128.499604,35.009223],[128.462738,35.071967],[128.526378,35.103461],[128.627045,35.090766],[128.91842,35.081882],[128.962778,35.133386]]],[[[128.069591,34.815009],[127.961925,34.806952],[127.90561,34.868964],[127.829356,34.868964],[127.868012,34.721869],[127.975271,34.699937],[128.060069,34.708401],[128.069591,34.815009]]],[[[128.748546,34.868964],[128.693858,34.986274],[128.583995,34.909898],[128.488455,34.868964],[128.573497,34.753485],[128.618175,34.725572],[128.748546,34.868964]]]]},"properties":{"LOCATION_TYPE":"level1","ADM0_A3":"KOR","LOCATION_ID":"KOR-48","NAME":"South Gyeongsang","TYPE_EN":"Province"}},
{"type":"Feature","geometry":{"type":"Polygon","coordinates":[[[129.199274,35.163639],[129.093134,35.270767],[129.010968,35.238108],[128.962778,35.133386],[128.997026,35.075728],[129.120257,35.149617],[129.199274,35.163639]]]},"properties":{"LOCATION_TYPE":"level1","ADM0_A3":"KOR","LOCATION_ID":"KOR-26","NAME":"Busan","TYPE_EN":"Metropolitan City"}},
{"type":"Feature","geometry":{"type":"Polygon","coordinates":[[[129.459056,35.610784],[129.379008,35.626353],[129.28599,35.612684],[129.244649,35.664051],[129.175506,35.682189],[129.098611,35.665911],[129.080008,35.617723],[129.008488,35.579508],[129.0027,35.473959],[129.064298,35.466259],[129.207855,35.372156],[129.268836,35.315724],[129.360444,35.353583],[129.357758,35.451809],[129.4546,35.513251],[129.459056,35.610784]]]},"properties":{"LOCATION_TYPE":"level1","ADM0_A3":"KOR","LOCATION_ID":"KOR-31","NAME":"Ulsan","TYPE_EN":"Metropolitan City"}},
{"type":"Feature","geometry":{"type":"MultiPolygon","coordinates":[[[[129.422618,36.616645],[129.347175,36.611745],[129.288987,36.656083],[129.274415,36.731143],[129.286093,36.819562],[129.168374,36.841628],[129.098095,36.918729],[129.114321,37.041279],[129.060991,37.02451],[128.88188,37.06102],[128.803849,37.092878],[128.758477,37.064973],[128.755997,36.996037],[128.650267,37.022262],[128.465058,36.910435],[128.419893,36.847777],[128.425371,36.788969],[128.341655,36.760754],[128.237889,36.831887],[128.202439,36.776308],[128.126578,36.79517],[128.057124,36.77574],[128.025809,36.716932],[127.950464,36.696985],[127.862718,36.64071],[127.799983,36.541982],[127.888143,36.479402],[127.860031,36.442246],[127.830885,36.29223],[127.949017,36.219443],[128.022708,36.215852],[128.034077,36.16371],[127.964624,36.151592],[127.968241,36.094567],[127.927003,36.023822],[127.877601,36.007363],[127.918528,35.950752],[127.913877,35.88706],[127.965554,35.827245],[128.124304,35.793629],[128.216495,35.705108],[128.219595,35.612762],[128.340311,35.610178],[128.421443,35.579276],[128.502369,35.59713],[128.61492,35.5438],[128.68861,35.552585],[128.789793,35.530183],[128.912576,35.590954],[129.008488,35.579508],[129.080008,35.617723],[129.098611,35.665911],[129.175506,35.682189],[129.244649,35.664051],[129.28599,35.612684],[129.379008,35.626353],[129.459056,35.610784],[129.443053,35.63609],[129.497651,35.74787],[129.53559,35.939036],[129.58725,36.016913],[129.542572,36.065904],[129.433051,35.996108],[129.380859,36.041487],[129.418712,36.072984],[129.382335,36.20185],[129.386567,36.322699],[129.440929,36.407945],[129.447113,36.493313],[129.422618,36.616645]],[[128.74132,35.84882],[128.688714,35.788126],[128.59859,35.802983],[128.562417,35.768282],[128.481285,35.827736],[128.576679,35.999612],[128.693158,36.009327],[128.745971,35.967572],[128.762301,35.877707],[128.74132,35.84882]]],[[[130.903575,37.545844],[130.832286,37.532131],[130.811046,37.487006],[130.896739,37.463121],[130.903575,37.545844]]]]},"properties":{"LOCATION_TYPE":"level1","ADM0_A3":"KOR","LOCATION_ID":"KOR-47","NAME":"North Gyeongsang","TYPE_EN":"Metropolitan City"}},
{"type":"Feature","geometry":{"type":"Polygon","coordinates":[[[126.946056,33.478013],[126.898204,33.518988],[126.79236,33.563797],[126.484935,33.520758],[126.310567,33.464476],[126.206228,33.375556],[126.171397,33.269355],[126.286143,33.200385],[126.333427,33.238169],[126.470562,33.228714],[126.606919,33.24061],[126.640723,33.264666],[126.840587,33.310207],[126.87353,33.373046],[126.93922,33.430854],[126.946056,33.478013]]]},"properties":{"LOCATION_TYPE":"level1","ADM0_A3":"KOR","LOCATION_ID":"KOR-49","NAME":"Jeju","TYPE_EN":"Province"}},
{"type":"Feature","geometry":{"type":"Polygon","coordinates":[[[127.11589,37.550576],[127.124468,37.603312],[127.090258,37.680801],[127.023079,37.67721],[126.966028,37.613415],[126.868773,37.560292],[126.793739,37.551662],[126.842522,37.477506],[126.92076,37.429473],[127.144622,37.457766],[127.192061,37.52833],[127.11589,37.550576]]]},"properties":{"LOCATION_TYPE":"level1","ADM0_A3":"KOR","LOCATION_ID":"KOR-11","NAME":"Seoul","TYPE_EN":"Capital Metropolitan City"}},
{"type":"Feature","geometry":{"type":"Polygon","coordinates":[[[127.21899,36.456242],[127.290691,36.360101],[127.316587,36.23321],[127.449823,36.290783],[127.482276,36.374498],[127.470184,36.418966],[127.401764,36.418811],[127.352568,36.479066],[127.21899,36.456242]]]},"properties":{"LOCATION_TYPE":"level1","ADM0_A3":"KOR","LOCATION_ID":"KOR-30","NAME":"Daejeon","TYPE_EN":"Metropolitan City"}},
{"type":"Feature","geometry":{"type":"Polygon","coordinates":[[[127.246528,36.646032],[127.104239,36.691572],[127.080932,36.63978],[127.084057,36.48829],[127.150823,36.441239],[127.21899,36.456242],[127.352568,36.479066],[127.361353,36.543661],[127.211698,36.535651],[127.246528,36.646032]]]},"properties":{"LOCATION_TYPE":"level1","ADM0_A3":"KOR","LOCATION_ID":"KOR-50","NAME":"Sejong","TYPE_EN":"Special self-governing city"}},
{"type":"Feature","geometry":{"type":"Polygon","coordinates":[[[127.607023,37.131351],[127.517726,37.014278],[127.467393,37.009576],[127.380577,36.914801],[127.259964,36.878938],[127.339339,36.76481],[127.246528,36.646032],[127.211698,36.535651],[127.361353,36.543661],[127.352568,36.479066],[127.401764,36.418811],[127.470184,36.418966],[127.482276,36.374498],[127.465739,36.203604],[127.558344,36.186034],[127.575914,36.087436],[127.619012,36.029507],[127.75368,35.97522],[127.877601,36.007363],[127.927003,36.023822],[127.968241,36.094567],[127.964624,36.151592],[128.034077,36.16371],[128.022708,36.215852],[127.949017,36.219443],[127.830885,36.29223],[127.860031,36.442246],[127.888143,36.479402],[127.799983,36.541982],[127.862718,36.64071],[127.950464,36.696985],[128.025809,36.716932],[128.057124,36.77574],[128.126578,36.79517],[128.202439,36.776308],[128.237889,36.831887],[128.341655,36.760754],[128.425371,36.788969],[128.419893,36.847777],[128.465058,36.910435],[128.650267,37.022262],[128.508363,37.074146],[128.42072,37.063733],[128.385477,37.116339],[128.29835,37.100475],[128.321915,37.175431],[128.19107,37.202794],[128.038004,37.150808],[127.987568,37.218271],[127.917701,37.186025],[127.888453,37.114402],[127.810421,37.117786],[127.818999,37.166052],[127.607023,37.131351]]]},"properties":{"LOCATION_TYPE":"level1","ADM0_A3":"KOR","LOCATION_ID":"KOR-43","NAME":"North Chungcheong","TYPE_EN":"Province"}},
{"type":"Feature","geometry":{"type":"Polygon","coordinates":[[[126.985562,35.23878],[126.933989,35.254593],[126.822885,35.234077],[126.850273,35.184881],[126.966442,35.150077],[127.005819,35.193046],[126.985562,35.23878]]]},"properties":{"LOCATION_TYPE":"level1","ADM0_A3":"KOR","LOCATION_ID":"KOR-29","NAME":"Gwangju","TYPE_EN":"Metropolitan City"}},
{"type":"Feature","geometry":{"type":"Polygon","coordinates":[[[128.74132,35.84882],[128.762301,35.877707],[128.745971,35.967572],[128.693158,36.009327],[128.576679,35.999612],[128.481285,35.827736],[128.562417,35.768282],[128.59859,35.802983],[128.688714,35.788126],[128.74132,35.84882]]]},"properties":{"LOCATION_TYPE":"level1","ADM0_A3":"KOR","LOCATION_ID":"KOR-27","NAME":"Daegu","TYPE_EN":"Metropolitan City"}}
]}