{"type":"FeatureCollection", "features": [
{"type":"Feature","geometry":{"type":"Polygon","coordinates":[[[20.10392,42.653108],[20.085626,42.530015],[20.152702,42.493402],[20.305936,42.437644],[20.372605,42.463286],[20.439274,42.540211],[20.364912,42.535083],[20.323885,42.586366],[20.200805,42.601751],[20.10392,42.653108]]]},"properties":{"LOCATION_TYPE":"level1","ADM0_A3":"KOS","LOCATION_ID":"KOS-X02~","NAME":"Dečani","TYPE_EN":"District"}},
{"type":"Feature","geometry":{"type":"Polygon","coordinates":[[[20.152702,42.493402],[20.249647,42.318607],[20.333363,42.317883],[20.473665,42.237123],[20.580687,42.297005],[20.509374,42.37824],[20.506273,42.468984],[20.541,42.502057],[20.503378,42.524826],[20.439274,42.540211],[20.372605,42.463286],[20.305936,42.437644],[20.152702,42.493402]]]},"properties":{"LOCATION_TYPE":"level1","ADM0_A3":"KOS","LOCATION_ID":"KOS-X01~","NAME":"Đakovica","TYPE_EN":"District"}},
{"type":"Feature","geometry":{"type":"Polygon","coordinates":[[[20.552161,42.07379],[20.59929,41.94788],[20.567147,41.873182],[20.681456,41.84401],[20.750495,41.906797],[20.755353,42.042784],[20.784912,42.082032],[20.767489,42.127378],[20.613638,42.124813],[20.552161,42.07379]]]},"properties":{"LOCATION_TYPE":"level1","ADM0_A3":"KOS","LOCATION_ID":"KOS-X03~","NAME":"Dragaš","TYPE_EN":"District"}},
{"type":"Feature","geometry":{"type":"Polygon","coordinates":[[[20.552161,42.07379],[20.613638,42.124813],[20.767489,42.127378],[20.784912,42.082032],[20.975145,42.134658],[20.857042,42.188346],[20.856019,42.232513],[20.705949,42.327384],[20.580687,42.297005],[20.473665,42.237123],[20.549371,42.123476],[20.552161,42.07379]]]},"properties":{"LOCATION_TYPE":"level1","ADM0_A3":"KOS","LOCATION_ID":"KOS-X21~","NAME":"Prizren","TYPE_EN":"District"}},
{"type":"Feature","geometry":{"type":"Polygon","coordinates":[[[21.48151,42.247784],[21.514893,42.317832],[21.596645,42.372092],[21.618969,42.449245],[21.531616,42.488927],[21.464947,42.55816],[21.382893,42.52739],[21.293409,42.556628],[21.249555,42.4479],[21.275197,42.401745],[21.341866,42.427387],[21.441869,42.358154],[21.48151,42.247784]]]},"properties":{"LOCATION_TYPE":"level1","ADM0_A3":"KOS","LOCATION_ID":"KOS-X05~","NAME":"Gnjilane","TYPE_EN":"District"}},
{"type":"Feature","geometry":{"type":"Polygon","coordinates":[[[21.48151,42.247784],[21.441869,42.358154],[21.341866,42.427387],[21.275197,42.401745],[21.244427,42.317127],[21.271435,42.249785],[21.360602,42.220114],[21.48151,42.247784]]]},"properties":{"LOCATION_TYPE":"level1","ADM0_A3":"KOS","LOCATION_ID":"KOS-X27~","NAME":"Vitina","TYPE_EN":"District"}},
{"type":"Feature","geometry":{"type":"Polygon","coordinates":[[[21.360602,42.220114],[21.271435,42.249785],[21.244427,42.317127],[21.11109,42.2761],[21.098484,42.195953],[21.237804,42.097354],[21.360602,42.220114]]]},"properties":{"LOCATION_TYPE":"level1","ADM0_A3":"KOS","LOCATION_ID":"KOS-X07~","NAME":"Kačanik","TYPE_EN":"District"}},
{"type":"Feature","geometry":{"type":"Polygon","coordinates":[[[21.098484,42.195953],[21.11109,42.2761],[20.965656,42.291823],[20.856019,42.232513],[20.857042,42.188346],[20.975145,42.134658],[21.098484,42.195953]]]},"properties":{"LOCATION_TYPE":"level1","ADM0_A3":"KOS","LOCATION_ID":"KOS-X24~","NAME":"Štrpce","TYPE_EN":"District"}},
{"type":"Feature","geometry":{"type":"Polygon","coordinates":[[[20.993431,43.104148],[20.838552,43.170467],[20.855088,43.231445],[20.79442,43.263071],[20.597533,43.184962],[20.643835,43.052257],[20.744411,43.027406],[20.813644,42.970994],[20.995752,43.054375],[20.993431,43.104148]]]},"properties":{"LOCATION_TYPE":"level1","ADM0_A3":"KOS","LOCATION_ID":"KOS-X12~","NAME":"Leposavić","TYPE_EN":"District"}},
{"type":"Feature","geometry":{"type":"Polygon","coordinates":[[[20.993431,43.104148],[20.995752,43.054375],[21.058384,42.976654],[21.055697,42.922703],[21.097407,42.794741],[21.11109,42.763295],[21.193143,42.755602],[21.303403,42.804322],[21.387149,42.754962],[21.398931,42.854569],[21.260542,42.886556],[21.225298,42.973554],[21.139309,43.005826],[21.092593,43.090678],[20.993431,43.104148]]]},"properties":{"LOCATION_TYPE":"level1","ADM0_A3":"KOS","LOCATION_ID":"KOS-X19~","NAME":"Podujevo","TYPE_EN":"District"}},
{"type":"Feature","geometry":{"type":"Polygon","coordinates":[[[20.617273,43.02213],[20.476403,42.966371],[20.494367,42.887467],[20.592056,42.86958],[20.63071,42.823071],[20.744411,42.829964],[20.790567,42.896632],[20.667486,43.014585],[20.617273,43.02213]]]},"properties":{"LOCATION_TYPE":"level1","ADM0_A3":"KOS","LOCATION_ID":"KOS-X29~","NAME":"Zubin Potok","TYPE_EN":"District"}},
{"type":"Feature","geometry":{"type":"Polygon","coordinates":[[[20.617273,43.02213],[20.667486,43.014585],[20.790567,42.896632],[20.813644,42.970994],[20.744411,43.027406],[20.643835,43.052257],[20.617273,43.02213]]]},"properties":{"LOCATION_TYPE":"level1","ADM0_A3":"KOS","LOCATION_ID":"KOS-X30~","NAME":"Zvečan","TYPE_EN":"District"}},
{"type":"Feature","geometry":{"type":"Polygon","coordinates":[[[20.494367,42.887467],[20.4763,42.855525],[20.319166,42.824145],[20.331578,42.722268],[20.457223,42.66842],[20.623682,42.697187],[20.63071,42.823071],[20.592056,42.86958],[20.494367,42.887467]]]},"properties":{"LOCATION_TYPE":"level1","ADM0_A3":"KOS","LOCATION_ID":"KOS-X06~","NAME":"Istok","TYPE_EN":"District"}},
{"type":"Feature","geometry":{"type":"Polygon","coordinates":[[[21.387149,42.754962],[21.303403,42.804322],[21.193143,42.755602],[21.11109,42.763295],[21.100833,42.653035],[21.082883,42.573545],[21.193143,42.553032],[21.218785,42.604316],[21.326482,42.581432],[21.42392,42.617137],[21.479514,42.73225],[21.387149,42.754962]]]},"properties":{"LOCATION_TYPE":"level1","ADM0_A3":"KOS","LOCATION_ID":"KOS-X20~","NAME":"Priština","TYPE_EN":"District"}},
{"type":"Feature","geometry":{"type":"Polygon","coordinates":[[[21.479514,42.73225],[21.42392,42.617137],[21.464947,42.55816],[21.531616,42.488927],[21.618969,42.449245],[21.717671,42.551151],[21.738652,42.68215],[21.612665,42.680393],[21.479514,42.73225]]]},"properties":{"LOCATION_TYPE":"level1","ADM0_A3":"KOS","LOCATION_ID":"KOS-X10~","NAME":"Kosovska Kamenica","TYPE_EN":"District"}},
{"type":"Feature","geometry":{"type":"Polygon","coordinates":[[[20.319166,42.824145],[20.226083,42.806768],[20.183398,42.742508],[20.076325,42.773437],[20.024751,42.723414],[20.10392,42.653108],[20.200805,42.601751],[20.323885,42.586366],[20.364912,42.535083],[20.439274,42.540211],[20.503378,42.524826],[20.457223,42.66842],[20.331578,42.722268],[20.319166,42.824145]]]},"properties":{"LOCATION_TYPE":"level1","ADM0_A3":"KOS","LOCATION_ID":"KOS-X18~","NAME":"Peć","TYPE_EN":"District"}},
{"type":"Feature","geometry":{"type":"Polygon","coordinates":[[[20.580687,42.297005],[20.705949,42.327384],[20.716205,42.381232],[20.646972,42.476106],[20.541,42.502057],[20.506273,42.468984],[20.509374,42.37824],[20.580687,42.297005]]]},"properties":{"LOCATION_TYPE":"level1","ADM0_A3":"KOS","LOCATION_ID":"KOS-X17~","NAME":"Orahovac","TYPE_EN":"District"}},
{"type":"Feature","geometry":{"type":"Polygon","coordinates":[[[20.623682,42.697187],[20.759178,42.609415],[20.82212,42.697187],[20.925886,42.71083],[20.846979,42.740217],[20.834158,42.806886],[20.744411,42.829964],[20.63071,42.823071],[20.623682,42.697187]]]},"properties":{"LOCATION_TYPE":"level1","ADM0_A3":"KOS","LOCATION_ID":"KOS-X22~","NAME":"Srbica","TYPE_EN":"District"}},
{"type":"Feature","geometry":{"type":"Polygon","coordinates":[[[20.623682,42.697187],[20.457223,42.66842],[20.503378,42.524826],[20.541,42.502057],[20.716205,42.560724],[20.759178,42.609415],[20.623682,42.697187]]]},"properties":{"LOCATION_TYPE":"level1","ADM0_A3":"KOS","LOCATION_ID":"KOS-X08~","NAME":"Klina","TYPE_EN":"District"}},
{"type":"Feature","geometry":{"type":"Polygon","coordinates":[[[20.995752,43.054375],[20.813644,42.970994],[20.790567,42.896632],[20.744411,42.829964],[20.834158,42.806886],[20.913647,42.829964],[20.972624,42.932531],[21.055697,42.922703],[21.058384,42.976654],[20.995752,43.054375]]]},"properties":{"LOCATION_TYPE":"level1","ADM0_A3":"KOS","LOCATION_ID":"KOS-X11~","NAME":"Kosovska Mitrovica","TYPE_EN":"District"}},
{"type":"Feature","geometry":{"type":"Polygon","coordinates":[[[20.759178,42.609415],[20.785636,42.522624],[20.860153,42.497096],[20.975188,42.565853],[20.970059,42.624829],[20.970741,42.684372],[20.925886,42.71083],[20.82212,42.697187],[20.759178,42.609415]]]},"properties":{"LOCATION_TYPE":"level1","ADM0_A3":"KOS","LOCATION_ID":"KOS-X04~","NAME":"Glogovac","TYPE_EN":"District"}},
{"type":"Feature","geometry":{"type":"Polygon","coordinates":[[[20.759178,42.609415],[20.716205,42.560724],[20.541,42.502057],[20.646972,42.476106],[20.716205,42.381232],[20.852107,42.473542],[20.860153,42.497096],[20.785636,42.522624],[20.759178,42.609415]]]},"properties":{"LOCATION_TYPE":"level1","ADM0_A3":"KOS","LOCATION_ID":"KOS-X14~","NAME":"Mališevo","TYPE_EN":"District"}},
{"type":"Feature","geometry":{"type":"Polygon","coordinates":[[[20.705949,42.327384],[20.856019,42.232513],[20.965656,42.291823],[20.946982,42.35559],[20.893134,42.453029],[20.852107,42.473542],[20.716205,42.381232],[20.705949,42.327384]]]},"properties":{"LOCATION_TYPE":"level1","ADM0_A3":"KOS","LOCATION_ID":"KOS-X25~","NAME":"Suva Reka","TYPE_EN":"District"}},
{"type":"Feature","geometry":{"type":"Polygon","coordinates":[[[21.11109,42.2761],[21.244427,42.317127],[21.275197,42.401745],[21.249555,42.4479],[21.095704,42.450465],[21.046985,42.368411],[20.946982,42.35559],[20.965656,42.291823],[21.11109,42.2761]]]},"properties":{"LOCATION_TYPE":"level1","ADM0_A3":"KOS","LOCATION_ID":"KOS-X26~","NAME":"Uroševac","TYPE_EN":"District"}},
{"type":"Feature","geometry":{"type":"Polygon","coordinates":[[[21.293409,42.556628],[21.382893,42.52739],[21.464947,42.55816],[21.42392,42.617137],[21.326482,42.581432],[21.293409,42.556628]]]},"properties":{"LOCATION_TYPE":"level1","ADM0_A3":"KOS","LOCATION_ID":"KOS-X15~","NAME":"Novo Brdo","TYPE_EN":"District"}},
{"type":"Feature","geometry":{"type":"Polygon","coordinates":[[[21.097407,42.794741],[21.043088,42.715584],[20.970741,42.684372],[20.970059,42.624829],[21.100833,42.653035],[21.11109,42.763295],[21.097407,42.794741]]]},"properties":{"LOCATION_TYPE":"level1","ADM0_A3":"KOS","LOCATION_ID":"KOS-X16~","NAME":"Obilić","TYPE_EN":"District"}},
{"type":"Feature","geometry":{"type":"Polygon","coordinates":[[[21.100833,42.653035],[20.970059,42.624829],[20.975188,42.565853],[21.082883,42.573545],[21.100833,42.653035]]]},"properties":{"LOCATION_TYPE":"level1","ADM0_A3":"KOS","LOCATION_ID":"KOS-X09~","NAME":"Kosovo Polje","TYPE_EN":"District"}},
{"type":"Feature","geometry":{"type":"Polygon","coordinates":[[[20.860153,42.497096],[20.852107,42.473542],[20.893134,42.453029],[21.095704,42.450465],[21.249555,42.4479],[21.293409,42.556628],[21.326482,42.581432],[21.218785,42.604316],[21.193143,42.553032],[21.082883,42.573545],[20.975188,42.565853],[20.860153,42.497096]]]},"properties":{"LOCATION_TYPE":"level1","ADM0_A3":"KOS","LOCATION_ID":"KOS-X13~","NAME":"Lipljan","TYPE_EN":"District"}},
{"type":"Feature","geometry":{"type":"Polygon","coordinates":[[[21.095704,42.450465],[20.893134,42.453029],[20.946982,42.35559],[21.046985,42.368411],[21.095704,42.450465]]]},"properties":{"LOCATION_TYPE":"level1","ADM0_A3":"KOS","LOCATION_ID":"KOS-X23~","NAME":"Štimlje","TYPE_EN":"District"}},
{"type":"Feature","geometry":{"type":"Polygon","coordinates":[[[21.055697,42.922703],[20.972624,42.932531],[20.913647,42.829964],[20.834158,42.806886],[20.846979,42.740217],[20.925886,42.71083],[20.970741,42.684372],[21.043088,42.715584],[21.097407,42.794741],[21.055697,42.922703]]]},"properties":{"LOCATION_TYPE":"level1","ADM0_A3":"KOS","LOCATION_ID":"KOS-X28~","NAME":"Vučitrn","TYPE_EN":"District"}}
]}