{"type":"FeatureCollection", "features": [
{"type":"Feature","geometry":{"type":"MultiPolygon","coordinates":[[[[47.858488,29.323203],[47.849258,29.501979],[47.965531,29.576298],[48.180917,29.562217],[48.021739,29.779731],[47.948009,29.994045],[47.674175,30.098216],[47.358225,30.092118],[47.110488,29.960911],[46.957836,29.620441],[46.85345,29.44456],[46.532436,29.095745],[47.434086,28.994588],[47.446323,28.976243],[47.523125,29.02102],[47.746781,29.048977],[47.841659,29.26625],[47.864862,29.309968],[47.858488,29.323203]]],[[[48.352712,29.709784],[48.344493,29.790595],[48.158702,29.879218],[48.046072,29.800442],[48.161632,29.629706],[48.229015,29.599921],[48.352712,29.709784]]]]},"properties":{"LOCATION_TYPE":"level1","ADM0_A3":"KWT","LOCATION_ID":"KWT-JA","NAME":"Al Jahrah","TYPE_EN":"Province"}},
{"type":"Feature","geometry":{"type":"Polygon","coordinates":[[[47.446323,28.976243],[47.596815,28.608823],[47.668129,28.533505],[48.432781,28.54048],[48.328787,28.759955],[48.158458,29.017279],[48.106131,29.213525],[48.034567,29.208734],[47.877212,29.185041],[47.841659,29.26625],[47.746781,29.048977],[47.523125,29.02102],[47.446323,28.976243]]]},"properties":{"LOCATION_TYPE":"level1","ADM0_A3":"KWT","LOCATION_ID":"KWT-AH","NAME":"Al Ahmadi","TYPE_EN":"Province"}},
{"type":"Feature","geometry":{"type":"Polygon","coordinates":[[[48.093825,29.310418],[48.008722,29.295373],[48.034567,29.208734],[48.106131,29.213525],[48.093825,29.310418]]]},"properties":{"LOCATION_TYPE":"level1","ADM0_A3":"KWT","LOCATION_ID":"KWT-MU","NAME":"Mubarak Al-Kabeer","TYPE_EN":"Province"}},
{"type":"Feature","geometry":{"type":"Polygon","coordinates":[[[48.008364,29.369155],[47.991779,29.330355],[48.008722,29.295373],[48.093825,29.310418],[48.008364,29.369155]]]},"properties":{"LOCATION_TYPE":"level1","ADM0_A3":"KWT","LOCATION_ID":"KWT-HA","NAME":"Hawalli","TYPE_EN":"Province"}},
{"type":"Feature","geometry":{"type":"Polygon","coordinates":[[[47.858488,29.323203],[47.864862,29.309968],[47.991779,29.330355],[48.008364,29.369155],[47.858488,29.323203]]]},"properties":{"LOCATION_TYPE":"level1","ADM0_A3":"KWT","LOCATION_ID":"KWT-KU","NAME":"Al Asimah","TYPE_EN":"Province"}},
{"type":"Feature","geometry":{"type":"Polygon","coordinates":[[[47.864862,29.309968],[47.841659,29.26625],[47.877212,29.185041],[48.034567,29.208734],[48.008722,29.295373],[47.991779,29.330355],[47.864862,29.309968]]]},"properties":{"LOCATION_TYPE":"level1","ADM0_A3":"KWT","LOCATION_ID":"KWT-FA","NAME":"Al Farwaniyah","TYPE_EN":"Province"}}
]}