{"type":"FeatureCollection", "features": [
{"type":"Feature","geometry":{"type":"Polygon","coordinates":[[[102.925885,21.14064],[102.887859,21.226923],[102.89499,21.495278],[102.974107,21.575325],[102.947804,21.737124],[102.786676,21.739914],[102.650664,21.657801],[102.59103,21.901352],[102.226246,22.228412],[102.118655,22.397549],[102.014579,22.446073],[101.817795,22.406334],[101.654549,22.446125],[101.606128,22.284842],[101.518227,22.228205],[101.6068,21.967601],[101.751546,21.80637],[101.72855,21.717539],[101.722504,21.30423],[101.82149,21.221071],[102.038351,21.118401],[102.147698,21.015229],[102.309445,20.962493],[102.508916,20.869037],[102.566484,20.934226],[102.787039,21.031585],[102.925885,21.14064]]]},"properties":{"LOCATION_TYPE":"level1","ADM0_A3":"LAO","LOCATION_ID":"LAO-PH","NAME":"Phôngsali","TYPE_EN":"Province"}},
{"type":"Feature","geometry":{"type":"Polygon","coordinates":[[[101.82149,21.221071],[101.768453,21.16045],[101.730876,20.998667],[101.619978,20.938774],[101.444382,20.74938],[101.560654,20.633211],[101.540293,20.47565],[101.455234,20.355657],[101.228581,20.308296],[101.243981,20.136006],[101.011747,20.091978],[100.957693,20.008857],[100.741686,19.957025],[100.763183,19.870674],[101.257933,19.821297],[101.559414,19.823467],[101.707622,19.930799],[101.898618,19.979323],[101.992255,20.059525],[102.152142,20.091642],[102.202165,20.179492],[102.143151,20.409401],[102.232137,20.60621],[102.338591,20.674682],[102.351923,20.848211],[102.309445,20.962493],[102.147698,21.015229],[102.038351,21.118401],[101.82149,21.221071]]]},"properties":{"LOCATION_TYPE":"level1","ADM0_A3":"LAO","LOCATION_ID":"LAO-OU","NAME":"Oudômxai","TYPE_EN":"Province"}},
{"type":"Feature","geometry":{"type":"Polygon","coordinates":[[[101.768453,21.16045],[101.717905,21.134473],[101.495127,21.242839],[101.275296,21.174109],[101.171426,21.403398],[101.003426,21.405981],[100.791966,21.297357],[100.725407,21.311672],[100.637557,21.069671],[100.543454,21.0274],[100.515704,20.886478],[100.607776,20.839881],[100.717605,20.761162],[100.824161,20.593808],[100.938056,20.496088],[101.006993,20.350954],[101.228581,20.308296],[101.455234,20.355657],[101.540293,20.47565],[101.560654,20.633211],[101.444382,20.74938],[101.619978,20.938774],[101.730876,20.998667],[101.768453,21.16045]]]},"properties":{"LOCATION_TYPE":"level1","ADM0_A3":"LAO","LOCATION_ID":"LAO-LM","NAME":"Louang Namtha","TYPE_EN":"Province"}},
{"type":"Feature","geometry":{"type":"Polygon","coordinates":[[[100.607776,20.839881],[100.383671,20.831701],[100.21133,20.697394],[100.149266,20.548101],[100.09728,20.283233],[100.306518,20.399686],[100.364395,20.368965],[100.543351,20.06658],[100.407659,19.794257],[100.678227,19.818739],[100.763183,19.870674],[100.741686,19.957025],[100.957693,20.008857],[101.011747,20.091978],[101.243981,20.136006],[101.228581,20.308296],[101.006993,20.350954],[100.938056,20.496088],[100.824161,20.593808],[100.717605,20.761162],[100.607776,20.839881]]]},"properties":{"LOCATION_TYPE":"level1","ADM0_A3":"LAO","LOCATION_ID":"LAO-BK","NAME":"Bokeo","TYPE_EN":"Province"}},
{"type":"Feature","geometry":{"type":"Polygon","coordinates":[[[100.407659,19.794257],[100.46196,19.537103],[100.745509,19.485013],[100.874597,19.612912],[101.124659,19.565112],[101.192872,19.452793],[101.229149,19.143587],[101.317877,19.05013],[101.232921,18.892724],[101.240104,18.673642],[101.030298,18.427791],[101.145536,18.336246],[101.165173,18.053421],[101.008284,17.89524],[100.901934,17.561927],[101.132307,17.461674],[101.247029,17.592157],[101.545505,17.813672],[101.423608,17.92888],[101.420817,18.214702],[101.659769,18.47094],[101.742555,18.502204],[101.861721,18.793323],[101.803223,18.885566],[101.810354,19.049923],[101.824307,19.279082],[101.906266,19.403209],[101.816659,19.481447],[101.814902,19.656733],[101.745966,19.74125],[101.707622,19.930799],[101.559414,19.823467],[101.257933,19.821297],[100.763183,19.870674],[100.678227,19.818739],[100.407659,19.794257]]]},"properties":{"LOCATION_TYPE":"level1","ADM0_A3":"LAO","LOCATION_ID":"LAO-XA","NAME":"Xaignabouri","TYPE_EN":"Province"}},
{"type":"Feature","geometry":{"type":"Polygon","coordinates":[[[103.087703,18.138667],[103.260756,18.400196],[103.396768,18.441408],[103.832091,18.320666],[104.000039,18.318444],[104.281982,17.861488],[104.432933,18.184885],[104.549722,18.229534],[104.793015,18.075874],[104.831255,18.003837],[105.039718,17.940817],[105.132219,17.99115],[105.25692,18.247464],[105.079973,18.454353],[105.169477,18.630569],[105.112684,18.698343],[104.721959,18.792007],[104.259603,19.10413],[104.253306,18.984371],[104.121635,18.825854],[103.885473,18.877143],[103.775402,18.827172],[103.570764,18.9498],[103.484154,18.930369],[103.487668,18.632842],[103.368296,18.551374],[103.083868,18.513237],[102.821662,18.510653],[102.903931,18.293509],[103.087703,18.138667]]]},"properties":{"LOCATION_TYPE":"level1","ADM0_A3":"LAO","LOCATION_ID":"LAO-BL","NAME":"Bolikhamxai","TYPE_EN":"Province"}},
{"type":"Feature","geometry":{"type":"Polygon","coordinates":[[[104.74634,16.943532],[104.863398,17.085831],[105.164775,17.111385],[105.228234,17.055703],[105.484342,17.100404],[105.633894,17.043353],[105.728668,17.109499],[105.888348,17.051233],[106.093917,17.058778],[106.40402,17.014642],[106.259953,17.28923],[106.185435,17.257397],[106.019296,17.394495],[105.846025,17.597997],[105.735282,17.664039],[105.594154,17.888108],[105.606039,17.964124],[105.476021,18.127318],[105.25692,18.247464],[105.132219,17.99115],[105.039718,17.940817],[104.831255,18.003837],[104.793015,18.075874],[104.549722,18.229534],[104.432933,18.184885],[104.281982,17.861488],[104.481198,17.640423],[104.714517,17.515263],[104.816423,17.372791],[104.809912,17.171666],[104.74634,16.943532]]]},"properties":{"LOCATION_TYPE":"level1","ADM0_A3":"LAO","LOCATION_ID":"LAO-KH","NAME":"Khammouan","TYPE_EN":"Province"}},
{"type":"Feature","geometry":{"type":"Polygon","coordinates":[[[104.74634,16.943532],[104.778338,16.715828],[104.754515,16.528915],[105.015481,16.276734],[105.079301,16.105426],[105.423232,16.00504],[105.79006,15.885439],[106.140219,15.990911],[106.121099,16.142813],[106.195306,16.178858],[106.387233,16.136095],[106.643858,16.216711],[106.751511,16.428268],[106.655174,16.47083],[106.640188,16.586637],[106.535078,16.683531],[106.533425,16.97266],[106.40402,17.014642],[106.093917,17.058778],[105.888348,17.051233],[105.728668,17.109499],[105.633894,17.043353],[105.484342,17.100404],[105.228234,17.055703],[105.164775,17.111385],[104.863398,17.085831],[104.74634,16.943532]]]},"properties":{"LOCATION_TYPE":"level1","ADM0_A3":"LAO","LOCATION_ID":"LAO-SV","NAME":"Savannakhét","TYPE_EN":"Province"}},
{"type":"Feature","geometry":{"type":"Polygon","coordinates":[[[105.423232,16.00504],[105.372565,15.882132],[105.447961,15.764879],[105.612912,15.72147],[105.650998,15.634602],[105.592243,15.427546],[105.6341,15.453889],[106.07273,15.459884],[106.160683,15.288421],[106.373487,15.399939],[106.351163,15.513033],[106.679101,15.545175],[106.654917,15.752682],[106.804365,15.962023],[107.069052,16.077572],[107.13599,16.184784],[106.859865,16.411816],[106.751511,16.428268],[106.643858,16.216711],[106.387233,16.136095],[106.195306,16.178858],[106.121099,16.142813],[106.140219,15.990911],[105.79006,15.885439],[105.423232,16.00504]]]},"properties":{"LOCATION_TYPE":"level1","ADM0_A3":"LAO","LOCATION_ID":"LAO-SL","NAME":"Saravan","TYPE_EN":"Province"}},
{"type":"Feature","geometry":{"type":"Polygon","coordinates":[[[102.055527,18.192345],[102.153537,18.210104],[102.306706,18.051457],[102.567517,17.970842],[102.595577,17.850074],[102.722184,17.881804],[102.938605,18.008928],[103.037927,17.990686],[103.087703,18.138667],[102.903931,18.293509],[102.537649,18.241678],[102.144598,18.428152],[102.058298,18.347097],[102.055527,18.192345]]]},"properties":{"LOCATION_TYPE":"level1","ADM0_A3":"LAO","LOCATION_ID":"LAO-VI","NAME":"Vientiane [prefecture]","TYPE_EN":"Municipality|Prefecture"}},
{"type":"Feature","geometry":{"type":"Polygon","coordinates":[[[102.055527,18.192345],[102.058298,18.347097],[102.144598,18.428152],[102.537649,18.241678],[102.903931,18.293509],[102.821662,18.510653],[103.083868,18.513237],[103.368296,18.551374],[103.487668,18.632842],[103.484154,18.930369],[103.570764,18.9498],[103.775402,18.827172],[103.885473,18.877143],[103.885783,19.008943],[103.581512,19.085915],[103.508235,19.149348],[103.263186,19.121986],[102.905068,19.201955],[102.745905,19.314377],[102.575786,19.224253],[102.37094,19.389204],[102.096952,19.384347],[101.956805,19.153482],[101.810354,19.049923],[101.803223,18.885566],[101.861721,18.793323],[101.742555,18.502204],[101.659769,18.47094],[101.420817,18.214702],[101.423608,17.92888],[101.545505,17.813672],[101.729067,17.912189],[101.790407,18.073575],[101.904301,18.037117],[102.055527,18.192345]]]},"properties":{"LOCATION_TYPE":"level1","ADM0_A3":"LAO","LOCATION_ID":"LAO-VI","NAME":"Vientiane","TYPE_EN":"Province"}},
{"type":"Feature","geometry":{"type":"Polygon","coordinates":[[[105.592243,15.427546],[105.563975,15.272531],[105.443775,15.133806],[105.58356,14.977588],[105.489147,14.786334],[105.510128,14.593581],[105.415973,14.428164],[105.184308,14.34574],[105.256913,14.182443],[105.347864,14.106065],[105.533175,14.16433],[105.744015,14.086945],[105.873051,13.936851],[106.049216,13.915457],[106.144559,14.072398],[105.96917,14.33202],[106.15412,14.367548],[106.235975,14.484362],[106.339999,14.448988],[106.341034,14.528106],[106.175979,14.753389],[106.214943,14.889324],[106.342067,15.005648],[106.502161,14.962239],[106.485211,14.826641],[106.610785,14.768169],[106.797027,14.897334],[106.812013,15.066109],[106.683959,15.138198],[106.666182,15.222327],[106.373487,15.399939],[106.160683,15.288421],[106.07273,15.459884],[105.6341,15.453889],[105.592243,15.427546]]]},"properties":{"LOCATION_TYPE":"level1","ADM0_A3":"LAO","LOCATION_ID":"LAO-CH","NAME":"Champasak","TYPE_EN":"Province"}},
{"type":"Feature","geometry":{"type":"Polygon","coordinates":[[[102.925885,21.14064],[102.787039,21.031585],[102.566484,20.934226],[102.508916,20.869037],[102.309445,20.962493],[102.351923,20.848211],[102.338591,20.674682],[102.232137,20.60621],[102.143151,20.409401],[102.202165,20.179492],[102.152142,20.091642],[101.992255,20.059525],[101.898618,19.979323],[101.707622,19.930799],[101.745966,19.74125],[101.814902,19.656733],[101.816659,19.481447],[101.906266,19.403209],[101.824307,19.279082],[101.810354,19.049923],[101.956805,19.153482],[102.096952,19.384347],[102.37094,19.389204],[102.575786,19.224253],[102.745905,19.314377],[102.671077,19.526302],[102.870962,19.695594],[102.952507,19.818791],[103.138232,19.915064],[103.114151,20.176366],[103.23559,20.312481],[103.177299,20.475185],[103.226599,20.707005],[103.389115,20.794288],[103.115287,20.868391],[102.925885,21.14064]]]},"properties":{"LOCATION_TYPE":"level1","ADM0_A3":"LAO","LOCATION_ID":"LAO-LP","NAME":"Louangphrabang","TYPE_EN":"Province"}},
{"type":"Feature","geometry":{"type":"Polygon","coordinates":[[[104.200203,19.698586],[104.380068,19.685285],[104.505848,19.60281],[104.805003,19.790886],[104.780663,19.908088],[104.953211,20.009271],[104.907994,20.175333],[104.657053,20.212695],[104.680928,20.340982],[104.575508,20.414052],[104.542642,20.535699],[104.600726,20.660549],[104.389059,20.770981],[104.295267,20.879812],[104.056676,20.958825],[103.775557,20.834905],[103.665383,20.658275],[103.577946,20.732896],[103.389115,20.794288],[103.226599,20.707005],[103.177299,20.475185],[103.23559,20.312481],[103.114151,20.176366],[103.138232,19.915064],[103.470512,19.868426],[103.686622,19.929585],[103.795143,20.028339],[103.88754,19.949739],[103.952136,19.782565],[104.15264,19.840831],[104.200203,19.698586]]]},"properties":{"LOCATION_TYPE":"level1","ADM0_A3":"LAO","LOCATION_ID":"LAO-HO","NAME":"Houaphan","TYPE_EN":"Province"}},
{"type":"Feature","geometry":{"type":"Polygon","coordinates":[[[104.200203,19.698586],[104.15264,19.840831],[103.952136,19.782565],[103.88754,19.949739],[103.795143,20.028339],[103.686622,19.929585],[103.470512,19.868426],[103.138232,19.915064],[102.952507,19.818791],[102.870962,19.695594],[102.671077,19.526302],[102.745905,19.314377],[102.905068,19.201955],[103.263186,19.121986],[103.508235,19.149348],[103.581512,19.085915],[103.885783,19.008943],[103.885473,18.877143],[104.121635,18.825854],[104.253306,18.984371],[104.259603,19.10413],[104.14773,19.182887],[103.972754,19.225288],[103.85674,19.317194],[104.089956,19.48367],[104.017351,19.600407],[104.200203,19.698586]]]},"properties":{"LOCATION_TYPE":"level1","ADM0_A3":"LAO","LOCATION_ID":"LAO-XI","NAME":"Xiangkhoang","TYPE_EN":"Province"}},
{"type":"Feature","geometry":{"type":"Polygon","coordinates":[[[107.13599,16.184784],[107.069052,16.077572],[106.804365,15.962023],[106.654917,15.752682],[106.679101,15.545175],[106.351163,15.513033],[106.373487,15.399939],[106.666182,15.222327],[106.683959,15.138198],[106.790722,15.254676],[106.945131,15.229071],[107.09737,15.271368],[107.238033,15.253643],[107.502386,15.044037],[107.656818,15.205688],[107.573154,15.411231],[107.369342,15.496058],[107.16026,15.758729],[107.175246,15.848543],[107.390633,15.935824],[107.298959,16.064189],[107.13599,16.184784]]]},"properties":{"LOCATION_TYPE":"level1","ADM0_A3":"LAO","LOCATION_ID":"LAO-XE","NAME":"Xékong","TYPE_EN":"Province"}},
{"type":"Feature","geometry":{"type":"Polygon","coordinates":[[[107.502386,15.044037],[107.238033,15.253643],[107.09737,15.271368],[106.945131,15.229071],[106.790722,15.254676],[106.683959,15.138198],[106.812013,15.066109],[106.797027,14.897334],[106.610785,14.768169],[106.485211,14.826641],[106.502161,14.962239],[106.342067,15.005648],[106.214943,14.889324],[106.175979,14.753389],[106.341034,14.528106],[106.339999,14.448988],[106.512496,14.590351],[106.605358,14.466637],[106.792995,14.322589],[106.946113,14.32352],[107.211213,14.493458],[107.28728,14.598516],[107.414921,14.543429],[107.522253,14.718689],[107.555326,14.876199],[107.461947,14.956814],[107.502386,15.044037]]]},"properties":{"LOCATION_TYPE":"level1","ADM0_A3":"LAO","LOCATION_ID":"LAO-AT","NAME":"Attapu","TYPE_EN":"Province"}}
]}