{"type":"FeatureCollection", "features": [
{"type":"Feature","geometry":{"type":"Polygon","coordinates":[[[35.288825,33.099201],[35.331931,33.057156],[35.480139,33.087387],[35.512282,33.147409],[35.549489,33.281019],[35.604576,33.244354],[35.698523,33.32267],[35.785753,33.357887],[35.845116,33.418742],[35.78224,33.427521],[35.716146,33.480722],[35.634859,33.433308],[35.588143,33.384526],[35.524375,33.385663],[35.52887,33.499868],[35.419937,33.476665],[35.387639,33.42256],[35.314723,33.373932],[35.353842,33.317708],[35.420712,33.276781],[35.292399,33.139502],[35.288825,33.099201]]]},"properties":{"LOCATION_TYPE":"level1","ADM0_A3":"LBN","LOCATION_ID":"LBN-NA","NAME":"An Nabatiyah","TYPE_EN":"Province"}},
{"type":"Feature","geometry":{"type":"Polygon","coordinates":[[[35.288825,33.099201],[35.292399,33.139502],[35.420712,33.276781],[35.353842,33.317708],[35.314723,33.373932],[35.387639,33.42256],[35.419937,33.476665],[35.52887,33.499868],[35.524375,33.385663],[35.588143,33.384526],[35.634859,33.433308],[35.613568,33.509738],[35.59636,33.606218],[35.476729,33.571698],[35.377055,33.589489],[35.349132,33.513861],[35.271007,33.457506],[35.174653,33.170152],[35.105235,33.089016],[35.288825,33.099201]]]},"properties":{"LOCATION_TYPE":"level1","ADM0_A3":"LBN","LOCATION_ID":"LBN-JA","NAME":"South Lebanon","TYPE_EN":"Province"}},
{"type":"Feature","geometry":{"type":"Polygon","coordinates":[[[35.845116,33.418742],[35.919492,33.462351],[35.933238,33.527825],[36.019847,33.55263],[36.012923,33.608027],[35.921559,33.640299],[35.946984,33.700838],[36.05044,33.816438],[36.13829,33.850622],[36.165678,33.829797],[36.311096,33.87199],[36.267171,33.910386],[36.391091,34.044719],[36.47522,34.053504],[36.488449,34.088644],[36.604101,34.199102],[36.579917,34.286901],[36.515941,34.36165],[36.530617,34.41418],[36.41972,34.498335],[36.329851,34.498603],[36.249033,34.461566],[36.197512,34.361159],[36.011322,34.152231],[35.997937,34.067792],[35.953134,33.993119],[35.857223,33.90775],[35.770148,33.808066],[35.741002,33.734737],[35.613568,33.509738],[35.634859,33.433308],[35.716146,33.480722],[35.78224,33.427521],[35.845116,33.418742]]]},"properties":{"LOCATION_TYPE":"level1","ADM0_A3":"LBN","LOCATION_ID":"LBN-BI","NAME":"Beqaa","TYPE_EN":"Province"}},
{"type":"Feature","geometry":{"type":"Polygon","coordinates":[[[36.329851,34.498603],[36.388921,34.596236],[36.323808,34.679486],[36.26159,34.627242],[36.037934,34.62843],[35.980642,34.638495],[35.983165,34.538642],[35.903331,34.477973],[35.805431,34.458686],[35.705821,34.316596],[35.665212,34.311347],[35.644958,34.217664],[35.738367,34.187216],[35.849626,34.191763],[36.011322,34.152231],[36.197512,34.361159],[36.249033,34.461566],[36.329851,34.498603]]]},"properties":{"LOCATION_TYPE":"level1","ADM0_A3":"LBN","LOCATION_ID":"LBN-AS","NAME":"North Lebanon","TYPE_EN":"Province"}},
{"type":"Feature","geometry":{"type":"Polygon","coordinates":[[[35.548093,33.906196],[35.482996,33.865166],[35.477306,33.8039],[35.377055,33.589489],[35.476729,33.571698],[35.59636,33.606218],[35.613568,33.509738],[35.741002,33.734737],[35.770148,33.808066],[35.857223,33.90775],[35.953134,33.993119],[35.997937,34.067792],[36.011322,34.152231],[35.849626,34.191763],[35.738367,34.187216],[35.644958,34.217664],[35.647716,34.119127],[35.613536,33.99315],[35.548093,33.906196]]]},"properties":{"LOCATION_TYPE":"level1","ADM0_A3":"LBN","LOCATION_ID":"LBN-JL","NAME":"Mount Lebanon","TYPE_EN":"Province"}},
{"type":"Feature","geometry":{"type":"Polygon","coordinates":[[[35.482996,33.865166],[35.548093,33.906196],[35.47047,33.902086],[35.482996,33.865166]]]},"properties":{"LOCATION_TYPE":"level1","ADM0_A3":"LBN","LOCATION_ID":"LBN-BA","NAME":"Beirut","TYPE_EN":"Province"}}
]}