{"type":"FeatureCollection", "features": [
{"type":"Feature","geometry":{"type":"Polygon","coordinates":[[[-10.864025,7.543684],[-10.977904,7.484919],[-11.126319,7.368027],[-11.217889,7.25408],[-11.317211,7.213566],[-11.373229,7.138842],[-11.407283,6.99637],[-11.476186,6.91942],[-11.368276,6.811347],[-11.353179,6.701158],[-11.077073,6.592529],[-11.077277,6.633032],[-10.976198,6.721657],[-10.978549,6.823511],[-10.939068,6.993114],[-10.883154,7.056908],[-10.756728,7.133312],[-10.70239,7.19336],[-10.547128,7.273897],[-10.52837,7.396422],[-10.586609,7.47696],[-10.864025,7.543684]]]},"properties":{"LOCATION_TYPE":"level1","ADM0_A3":"LBR","LOCATION_ID":"LBR-CM","NAME":"Grand Cape Mount","TYPE_EN":"County"}},
{"type":"Feature","geometry":{"type":"Polygon","coordinates":[[[-10.864025,7.543684],[-10.586609,7.47696],[-10.52837,7.396422],[-10.547128,7.273897],[-10.70239,7.19336],[-10.756728,7.133312],[-10.883154,7.056908],[-10.939068,6.993114],[-10.808301,6.982029],[-10.759725,6.944719],[-10.729469,6.816303],[-10.608313,6.870382],[-10.468787,6.877281],[-10.456204,6.948129],[-10.344247,6.982572],[-10.18715,7.137911],[-10.111961,7.12277],[-10.095476,7.042051],[-9.973572,7.122718],[-9.920603,7.124759],[-9.813246,7.211756],[-9.833303,7.328523],[-9.684782,7.670119],[-9.695921,7.736953],[-9.948406,7.840917],[-10.108065,7.803787],[-10.226852,7.896706],[-10.408818,7.952307],[-10.464513,8.004289],[-10.564764,7.978298],[-10.616221,8.022509],[-10.615187,7.769036],[-10.730581,7.705474],[-10.864025,7.543684]]]},"properties":{"LOCATION_TYPE":"level1","ADM0_A3":"LBR","LOCATION_ID":"LBR-X1~","NAME":"Gbapolu","TYPE_EN":"County"}},
{"type":"Feature","geometry":{"type":"Polygon","coordinates":[[[-10.616221,8.022509],[-10.564764,7.978298],[-10.464513,8.004289],[-10.408818,7.952307],[-10.226852,7.896706],[-10.108065,7.803787],[-9.948406,7.840917],[-9.695921,7.736953],[-9.684782,7.670119],[-9.833303,7.328523],[-9.813246,7.211756],[-9.669068,7.213048],[-9.631551,7.284491],[-9.546363,7.311182],[-9.487099,7.373204],[-9.353507,7.62243],[-9.355471,7.741906],[-9.43867,7.866239],[-9.42234,8.015791],[-9.51081,8.261047],[-9.579178,8.387293],[-9.683513,8.487054],[-9.806813,8.506252],[-9.961119,8.479561],[-10.04039,8.425663],[-10.091085,8.510102],[-10.181829,8.519584],[-10.282236,8.484625],[-10.364918,8.148212],[-10.529249,8.124286],[-10.616221,8.022509]]]},"properties":{"LOCATION_TYPE":"level1","ADM0_A3":"LBR","LOCATION_ID":"LBR-LO","NAME":"Lofa","TYPE_EN":"County"}},
{"type":"Feature","geometry":{"type":"Polygon","coordinates":[[[-8.61872,6.492835],[-8.461313,6.633421],[-8.351759,6.755351],[-8.316619,6.836276],[-8.319978,6.95999],[-8.284115,7.017867],[-8.302615,7.137602],[-8.387675,7.314955],[-8.44364,7.537112],[-8.54782,7.600777],[-8.567405,7.688214],[-8.686571,7.694364],[-8.739178,7.565689],[-8.729617,7.50869],[-8.865371,7.346891],[-8.857827,7.273046],[-9.032855,7.240283],[-9.106085,7.202975],[-9.168944,7.000348],[-9.109697,6.885575],[-9.110472,6.808474],[-9.184369,6.626211],[-9.13569,6.543425],[-9.144062,6.355065],[-9.069079,6.282743],[-9.089207,6.114692],[-9.069079,6.000952],[-9.101119,5.965734],[-9.086391,5.831892],[-8.943945,5.83551],[-8.902836,5.875197],[-8.927176,6.014362],[-8.85364,6.035317],[-8.853821,6.121332],[-8.75778,6.205978],[-8.659311,6.376304],[-8.61872,6.492835]]]},"properties":{"LOCATION_TYPE":"level1","ADM0_A3":"LBR","LOCATION_ID":"LBR-NI","NAME":"Nimba","TYPE_EN":"County"}},
{"type":"Feature","geometry":{"type":"Polygon","coordinates":[[[-8.61872,6.492835],[-8.659311,6.376304],[-8.75778,6.205978],[-8.853821,6.121332],[-8.85364,6.035317],[-8.927176,6.014362],[-8.902836,5.875197],[-8.584974,5.705027],[-8.520818,5.782619],[-8.452243,5.781999],[-8.361525,5.684873],[-8.482577,5.531937],[-8.430772,5.470028],[-8.285664,5.458168],[-8.089914,5.485324],[-7.409852,5.513417],[-7.396676,5.585087],[-7.449489,5.732364],[-7.446543,5.845949],[-7.559146,5.839851],[-7.680483,5.94093],[-7.717173,5.900752],[-7.799648,5.974468],[-7.805695,6.062034],[-7.864502,6.101696],[-7.844142,6.183965],[-7.934886,6.271427],[-8.060098,6.301141],[-8.170582,6.274011],[-8.388811,6.355091],[-8.405089,6.436327],[-8.515625,6.437593],[-8.61872,6.492835]]]},"properties":{"LOCATION_TYPE":"level1","ADM0_A3":"LBR","LOCATION_ID":"LBR-GG","NAME":"Grand Gedeh","TYPE_EN":"County"}},
{"type":"Feature","geometry":{"type":"Polygon","coordinates":[[[-7.409852,5.513417],[-8.089914,5.485324],[-8.285664,5.458168],[-8.430772,5.470028],[-8.417388,5.360164],[-8.347134,5.288179],[-8.3091,5.170072],[-8.214816,5.13625],[-8.024957,5.112815],[-7.84303,5.065117],[-7.84303,4.890761],[-7.716784,4.879057],[-7.605997,4.817363],[-7.6055,4.897428],[-7.555322,4.948433],[-7.578163,5.054731],[-7.488918,5.140669],[-7.468247,5.273452],[-7.41378,5.266708],[-7.396934,5.366444],[-7.449954,5.422771],[-7.409852,5.513417]]]},"properties":{"LOCATION_TYPE":"level1","ADM0_A3":"LBR","LOCATION_ID":"LBR-X2~","NAME":"River Gee","TYPE_EN":"County"}},
{"type":"Feature","geometry":{"type":"Polygon","coordinates":[[[-7.605997,4.817363],[-7.716784,4.879057],[-7.84303,4.890761],[-7.84303,5.065117],[-8.024957,5.112815],[-8.016714,5.054085],[-8.100379,4.886498],[-8.077357,4.839343],[-7.896799,4.750563],[-7.815099,4.616669],[-7.843999,4.455607],[-7.712717,4.361518],[-7.593251,4.347235],[-7.564314,4.425829],[-7.576871,4.509338],[-7.576871,4.775291],[-7.605997,4.817363]]]},"properties":{"LOCATION_TYPE":"level1","ADM0_A3":"LBR","LOCATION_ID":"LBR-MY","NAME":"Maryland","TYPE_EN":"County"}},
{"type":"Feature","geometry":{"type":"Polygon","coordinates":[[[-9.487099,7.373204],[-9.546363,7.311182],[-9.631551,7.284491],[-9.669068,7.213048],[-9.813246,7.211756],[-9.920603,7.124759],[-9.973572,7.122718],[-10.095476,7.042051],[-10.111961,7.12277],[-10.18715,7.137911],[-10.344247,6.982572],[-10.456204,6.948129],[-10.468787,6.877281],[-10.506149,6.836095],[-10.449382,6.77907],[-10.356856,6.761991],[-10.286731,6.766254],[-10.204436,6.711477],[-10.081059,6.670678],[-10.004655,6.691323],[-9.859651,6.64515],[-9.824899,6.769665],[-9.726429,6.746333],[-9.745446,6.652049],[-9.668164,6.646933],[-9.583828,6.567946],[-9.637365,6.484152],[-9.516416,6.474851],[-9.44686,6.508363],[-9.329968,6.615669],[-9.184369,6.626211],[-9.110472,6.808474],[-9.109697,6.885575],[-9.168944,7.000348],[-9.106085,7.202975],[-9.206281,7.298367],[-9.234341,7.381308],[-9.335007,7.419652],[-9.438101,7.421564],[-9.487099,7.373204]]]},"properties":{"LOCATION_TYPE":"level1","ADM0_A3":"LBR","LOCATION_ID":"LBR-BG","NAME":"Bong","TYPE_EN":"County"}},
{"type":"Feature","geometry":{"type":"Polygon","coordinates":[[[-10.806617,6.402364],[-10.806131,6.510146],[-10.69898,6.575878],[-10.60821,6.534201],[-10.559944,6.821341],[-10.506149,6.836095],[-10.468787,6.877281],[-10.608313,6.870382],[-10.729469,6.816303],[-10.759725,6.944719],[-10.808301,6.982029],[-10.939068,6.993114],[-10.978549,6.823511],[-10.976198,6.721657],[-11.077277,6.633032],[-11.077073,6.592529],[-10.895904,6.49901],[-10.806617,6.402364]]]},"properties":{"LOCATION_TYPE":"level1","ADM0_A3":"LBR","LOCATION_ID":"LBR-BM","NAME":"Bomi","TYPE_EN":"County"}},
{"type":"Feature","geometry":{"type":"Polygon","coordinates":[[[-10.636814,6.22191],[-10.616117,6.289565],[-10.468193,6.378474],[-10.383598,6.45219],[-10.411452,6.615901],[-10.356856,6.761991],[-10.449382,6.77907],[-10.506149,6.836095],[-10.559944,6.821341],[-10.60821,6.534201],[-10.69898,6.575878],[-10.806131,6.510146],[-10.806617,6.402364],[-10.788319,6.292955],[-10.636814,6.22191]]]},"properties":{"LOCATION_TYPE":"level1","ADM0_A3":"LBR","LOCATION_ID":"LBR-MO","NAME":"Montserrado","TYPE_EN":"County"}},
{"type":"Feature","geometry":{"type":"Polygon","coordinates":[[[-10.36704,6.151061],[-10.311432,6.335893],[-10.17821,6.551358],[-10.111651,6.487718],[-9.961273,6.504952],[-9.841642,6.541565],[-9.745446,6.652049],[-9.726429,6.746333],[-9.824899,6.769665],[-9.859651,6.64515],[-10.004655,6.691323],[-10.081059,6.670678],[-10.204436,6.711477],[-10.286731,6.766254],[-10.356856,6.761991],[-10.411452,6.615901],[-10.383598,6.45219],[-10.468193,6.378474],[-10.616117,6.289565],[-10.636814,6.22191],[-10.36704,6.151061]]]},"properties":{"LOCATION_TYPE":"level1","ADM0_A3":"LBR","LOCATION_ID":"LBR-MG","NAME":"Margibi","TYPE_EN":"County"}},
{"type":"Feature","geometry":{"type":"Polygon","coordinates":[[[-9.733149,5.581187],[-9.680024,5.646452],[-9.691134,5.832745],[-9.651912,6.032294],[-9.604809,6.090946],[-9.529103,6.080482],[-9.454482,6.170399],[-9.443578,6.323852],[-9.354953,6.354057],[-9.144062,6.355065],[-9.13569,6.543425],[-9.184369,6.626211],[-9.329968,6.615669],[-9.44686,6.508363],[-9.516416,6.474851],[-9.637365,6.484152],[-9.583828,6.567946],[-9.668164,6.646933],[-9.745446,6.652049],[-9.841642,6.541565],[-9.961273,6.504952],[-10.111651,6.487718],[-10.17821,6.551358],[-10.311432,6.335893],[-10.36704,6.151061],[-10.046213,5.89643],[-10.039947,5.854315],[-9.733149,5.581187]]]},"properties":{"LOCATION_TYPE":"level1","ADM0_A3":"LBR","LOCATION_ID":"LBR-GB","NAME":"Grand Bassa","TYPE_EN":"County"}},
{"type":"Feature","geometry":{"type":"Polygon","coordinates":[[[-9.418227,5.271228],[-9.314801,5.436671],[-9.357434,5.582967],[-9.264597,5.66105],[-9.153467,5.712882],[-9.086391,5.831892],[-9.101119,5.965734],[-9.069079,6.000952],[-9.089207,6.114692],[-9.069079,6.282743],[-9.144062,6.355065],[-9.354953,6.354057],[-9.443578,6.323852],[-9.454482,6.170399],[-9.529103,6.080482],[-9.604809,6.090946],[-9.651912,6.032294],[-9.691134,5.832745],[-9.680024,5.646452],[-9.733149,5.581187],[-9.596995,5.488349],[-9.587636,5.430732],[-9.497467,5.38939],[-9.418227,5.271228]]]},"properties":{"LOCATION_TYPE":"level1","ADM0_A3":"LBR","LOCATION_ID":"LBR-RI","NAME":"River Cess","TYPE_EN":"County"}},
{"type":"Feature","geometry":{"type":"Polygon","coordinates":[[[-8.703574,4.821887],[-8.654169,4.912336],[-8.552315,5.019022],[-8.456455,5.086744],[-8.384263,5.095452],[-8.3091,5.170072],[-8.347134,5.288179],[-8.417388,5.360164],[-8.430772,5.470028],[-8.482577,5.531937],[-8.361525,5.684873],[-8.452243,5.781999],[-8.520818,5.782619],[-8.584974,5.705027],[-8.902836,5.875197],[-8.943945,5.83551],[-9.086391,5.831892],[-9.153467,5.712882],[-9.264597,5.66105],[-9.357434,5.582967],[-9.314801,5.436671],[-9.418227,5.271228],[-9.278717,5.145738],[-9.014801,4.978461],[-8.848297,4.91356],[-8.703574,4.821887]]]},"properties":{"LOCATION_TYPE":"level1","ADM0_A3":"LBR","LOCATION_ID":"LBR-SI","NAME":"Sinoe","TYPE_EN":"County"}},
{"type":"Feature","geometry":{"type":"Polygon","coordinates":[[[-7.843999,4.455607],[-7.815099,4.616669],[-7.896799,4.750563],[-8.077357,4.839343],[-8.100379,4.886498],[-8.016714,5.054085],[-8.024957,5.112815],[-8.214816,5.13625],[-8.3091,5.170072],[-8.384263,5.095452],[-8.456455,5.086744],[-8.552315,5.019022],[-8.654169,4.912336],[-8.703574,4.821887],[-8.607533,4.786933],[-8.438547,4.676174],[-8.300201,4.627265],[-8.257314,4.579983],[-8.100331,4.55329],[-7.843999,4.455607]]]},"properties":{"LOCATION_TYPE":"level1","ADM0_A3":"LBR","LOCATION_ID":"LBR-GK","NAME":"Grand Kru","TYPE_EN":"County"}}
]}