{"type":"FeatureCollection", "features": [
{"type":"Feature","geometry":{"type":"Polygon","coordinates":[[[11.526085,32.417863],[10.873217,32.136696],[10.108096,31.411831],[10.270153,30.915633],[9.871314,30.355151],[9.286544,30.117129],[9.667709,29.608323],[9.826149,29.128533],[9.827276,28.618647],[10.374902,28.614042],[10.909856,28.844648],[11.323888,28.544899],[11.95186,28.595051],[11.729341,29.08701],[11.589918,30.542425],[11.945659,31.086811],[11.852951,31.247369],[11.862666,32.307563],[11.526085,32.417863]]]},"properties":{"LOCATION_TYPE":"level1","ADM0_A3":"LBY","LOCATION_ID":"LBY-GD","NAME":"Ghadamis","TYPE_EN":"Municipality|Governarate"}},
{"type":"Feature","geometry":{"type":"Polygon","coordinates":[[[11.526085,32.417863],[11.862666,32.307563],[12.462113,32.600801],[12.573216,32.812568],[11.506047,33.136376],[11.526085,32.417863]]]},"properties":{"LOCATION_TYPE":"level1","ADM0_A3":"LBY","LOCATION_ID":"LBY-NQ","NAME":"An Nuqat al Khams","TYPE_EN":"Municipality|Governarate"}},
{"type":"Feature","geometry":{"type":"Polygon","coordinates":[[[19.185837,21.864177],[21.634472,20.654968],[23.981306,19.496124],[23.981306,19.995421],[24.968016,19.994956],[24.981245,22.287168],[24.981245,23.746278],[24.981245,26.080838],[24.981245,27.049239],[23.091852,27.014682],[21.922828,27.007628],[19.169817,27.012873],[19.16806,26.003762],[19.179016,23.5181],[19.185837,21.864177]]]},"properties":{"LOCATION_TYPE":"level1","ADM0_A3":"LBY","LOCATION_ID":"LBY-KF","NAME":"Al Kufrah","TYPE_EN":"Municipality|Governarate"}},
{"type":"Feature","geometry":{"type":"Polygon","coordinates":[[[19.185837,21.864177],[19.179016,23.5181],[19.16806,26.003762],[18.514974,26.149774],[18.204088,26.376452],[17.409821,26.052286],[16.940496,26.163416],[16.620722,26.425777],[16.279658,27.075169],[14.82755,26.757902],[14.424371,26.376271],[13.934375,26.246874],[13.481896,26.117993],[13.205427,25.876767],[12.159909,25.575907],[11.594052,25.651975],[11.399542,25.551438],[11.334017,24.796781],[11.46724,24.326339],[11.968861,23.517351],[13.482257,23.179672],[14.23172,22.617949],[15.985101,23.44472],[17.434832,22.728795],[19.185837,21.864177]]]},"properties":{"LOCATION_TYPE":"level1","ADM0_A3":"LBY","LOCATION_ID":"LBY-MQ","NAME":"Murzuq","TYPE_EN":"Municipality|Governarate"}},
{"type":"Feature","geometry":{"type":"Polygon","coordinates":[[[24.981245,28.096701],[24.981245,29.181372],[24.688343,30.144156],[24.994887,30.785099],[24.861252,31.38036],[25.156261,31.663072],[24.9817,31.967922],[24.090668,32.005764],[23.669688,32.183254],[23.251356,32.216726],[22.956563,31.233339],[22.968862,30.799361],[23.057022,30.769957],[23.062086,28.139265],[24.981245,28.096701]]]},"properties":{"LOCATION_TYPE":"level1","ADM0_A3":"LBY","LOCATION_ID":"LBY-BU","NAME":"Al Butnan","TYPE_EN":"Municipality|Governarate"}},
{"type":"Feature","geometry":{"type":"Polygon","coordinates":[[[24.981245,28.096701],[23.062086,28.139265],[23.057022,30.769957],[22.968862,30.799361],[22.619219,30.829023],[22.11248,31.119884],[21.717155,31.065623],[21.31904,31.035057],[20.59371,31.006997],[20.141648,31.223858],[20.036469,30.819078],[19.748871,30.510932],[19.338552,30.298814],[18.780528,30.375922],[18.699252,29.517423],[18.51363,29.164706],[18.499264,28.502085],[19.172194,28.347417],[19.169817,27.012873],[21.922828,27.007628],[23.091852,27.014682],[24.981245,27.049239],[24.981245,28.096701]]]},"properties":{"LOCATION_TYPE":"level1","ADM0_A3":"LBY","LOCATION_ID":"LBY-AJ","NAME":"Ajdabiya","TYPE_EN":"Municipality|Governarate"}},
{"type":"Feature","geometry":{"type":"Polygon","coordinates":[[[9.931274,27.818642],[10.89177,27.531498],[11.164001,27.325878],[11.374738,26.21747],[13.012364,27.250352],[13.190544,27.292185],[13.983157,27.128913],[14.421167,27.172709],[15.068466,27.632009],[15.795863,27.721202],[15.894048,27.996276],[15.589674,28.214841],[15.017616,28.144846],[14.958705,28.407724],[14.527,28.719488],[14.419823,29.209096],[13.992046,29.55246],[13.659043,29.421951],[13.104451,28.739306],[12.688456,28.430306],[11.95186,28.595051],[11.323888,28.544899],[10.909856,28.844648],[10.374902,28.614042],[9.827276,28.618647],[9.776953,28.267578],[9.931274,27.818642]]]},"properties":{"LOCATION_TYPE":"level1","ADM0_A3":"LBY","LOCATION_ID":"LBY-WS","NAME":"Ash Shati'","TYPE_EN":"Municipality|Governarate"}},
{"type":"Feature","geometry":{"type":"Polygon","coordinates":[[[9.931274,27.818642],[9.721349,27.291875],[9.910588,26.843117],[9.835761,26.504223],[9.482604,26.352553],[9.401162,26.113394],[9.9695,25.395402],[10.032028,24.856339],[10.450194,24.476931],[10.720668,24.552301],[11.46724,24.326339],[11.334017,24.796781],[11.399542,25.551438],[11.303666,25.749218],[11.374738,26.21747],[11.164001,27.325878],[10.89177,27.531498],[9.931274,27.818642]]]},"properties":{"LOCATION_TYPE":"level1","ADM0_A3":"LBY","LOCATION_ID":"LBY-GT","NAME":"Ghat","TYPE_EN":"Municipality|Governarate"}},
{"type":"Feature","geometry":{"type":"Polygon","coordinates":[[[16.137378,31.261236],[16.115637,31.049268],[16.531219,29.632946],[16.418564,29.4088],[16.981217,29.430504],[17.333857,29.282606],[17.665413,29.329425],[17.982086,28.733053],[18.499264,28.502085],[18.51363,29.164706],[18.699252,29.517423],[18.780528,30.375922],[18.175304,30.786078],[17.365896,31.086615],[16.137378,31.261236]]]},"properties":{"LOCATION_TYPE":"level1","ADM0_A3":"LBY","LOCATION_ID":"LBY-SR","NAME":"Surt","TYPE_EN":"Municipality|Governarate"}},
{"type":"Feature","geometry":{"type":"Polygon","coordinates":[[[14.755825,32.449675],[14.666733,31.967765],[14.122063,32.14256],[13.397663,32.050783],[13.632378,31.508284],[13.934168,31.24321],[14.21167,30.721045],[14.950127,30.409204],[14.854215,29.86195],[15.051929,29.70196],[15.599906,29.559953],[15.879682,29.37676],[16.418564,29.4088],[16.531219,29.632946],[16.115637,31.049268],[16.137378,31.261236],[15.761485,31.388129],[15.490408,31.664862],[15.370453,32.159084],[15.195974,32.389797],[14.755825,32.449675]]]},"properties":{"LOCATION_TYPE":"level1","ADM0_A3":"LBY","LOCATION_ID":"LBY-MI","NAME":"Misratah","TYPE_EN":"Municipality|Governarate"}},
{"type":"Feature","geometry":{"type":"Polygon","coordinates":[[[13.954436,32.758236],[13.236433,32.333737],[13.250799,32.317382],[13.397663,32.050783],[14.122063,32.14256],[14.666733,31.967765],[14.755825,32.449675],[13.954436,32.758236]]]},"properties":{"LOCATION_TYPE":"level1","ADM0_A3":"LBY","LOCATION_ID":"LBY-MB","NAME":"Al Marqab","TYPE_EN":"Municipality|Governarate"}},
{"type":"Feature","geometry":{"type":"Polygon","coordinates":[[[13.103204,32.877419],[13.076339,32.721207],[13.236433,32.333737],[13.954436,32.758236],[13.103204,32.877419]]]},"properties":{"LOCATION_TYPE":"level1","ADM0_A3":"LBY","LOCATION_ID":"LBY-TN","NAME":"Tajura' wa an Nawahi al Arba","TYPE_EN":"Municipality|Governarate"}},
{"type":"Feature","geometry":{"type":"Polygon","coordinates":[[[12.573216,32.812568],[12.462113,32.600801],[11.862666,32.307563],[12.819611,32.260202],[13.076339,32.721207],[13.103204,32.877419],[12.573216,32.812568]]]},"properties":{"LOCATION_TYPE":"level1","ADM0_A3":"LBY","LOCATION_ID":"LBY-ZA","NAME":"Az Zawiyah","TYPE_EN":"Municipality|Governarate"}},
{"type":"Feature","geometry":{"type":"Polygon","coordinates":[[[21.986179,32.913095],[22.033208,32.552613],[21.917763,31.282019],[22.11248,31.119884],[22.619219,30.829023],[22.968862,30.799361],[22.956563,31.233339],[23.251356,32.216726],[23.086436,32.64647],[21.986179,32.913095]]]},"properties":{"LOCATION_TYPE":"level1","ADM0_A3":"LBY","LOCATION_ID":"LBY-QB","NAME":"Al Qubbah","TYPE_EN":"Municipality|Governarate"}},
{"type":"Feature","geometry":{"type":"Polygon","coordinates":[[[21.357044,32.780337],[21.461977,32.131631],[21.632096,31.999158],[21.614939,31.473299],[21.717155,31.065623],[22.11248,31.119884],[21.917763,31.282019],[22.033208,32.552613],[21.986179,32.913095],[21.357044,32.780337]]]},"properties":{"LOCATION_TYPE":"level1","ADM0_A3":"LBY","LOCATION_ID":"LBY-JA","NAME":"Al Jabal al Akhdar","TYPE_EN":"Municipality|Governarate"}},
{"type":"Feature","geometry":{"type":"Polygon","coordinates":[[[20.576033,32.562712],[20.309283,32.035306],[20.548545,31.579726],[21.146441,31.59771],[21.31904,31.035057],[21.717155,31.065623],[21.614939,31.473299],[21.632096,31.999158],[21.461977,32.131631],[21.357044,32.780337],[20.576033,32.562712]]]},"properties":{"LOCATION_TYPE":"level1","ADM0_A3":"LBY","LOCATION_ID":"LBY-MJ","NAME":"Al Marj","TYPE_EN":"Municipality|Governarate"}},
{"type":"Feature","geometry":{"type":"Polygon","coordinates":[[[20.141648,31.223858],[20.59371,31.006997],[21.31904,31.035057],[21.146441,31.59771],[20.548545,31.579726],[20.309283,32.035306],[20.576033,32.562712],[20.071544,32.176418],[19.920665,31.717719],[20.141648,31.223858]]]},"properties":{"LOCATION_TYPE":"level1","ADM0_A3":"LBY","LOCATION_ID":"LBY-BA","NAME":"Benghazi","TYPE_EN":"Municipality|Governarate"}},
{"type":"Feature","geometry":{"type":"Polygon","coordinates":[[[13.250799,32.317382],[13.236433,32.333737],[13.076339,32.721207],[12.819611,32.260202],[13.250799,32.317382]]]},"properties":{"LOCATION_TYPE":"level1","ADM0_A3":"LBY","LOCATION_ID":"LBY-JI","NAME":"Al Jifarah","TYPE_EN":"Municipality|Governarate"}},
{"type":"Feature","geometry":{"type":"Polygon","coordinates":[[[12.819611,32.260202],[11.862666,32.307563],[11.852951,31.247369],[11.945659,31.086811],[11.589918,30.542425],[11.729341,29.08701],[11.95186,28.595051],[12.688456,28.430306],[13.104451,28.739306],[13.659043,29.421951],[13.992046,29.55246],[14.419823,29.209096],[14.752413,29.405337],[14.854215,29.86195],[14.950127,30.409204],[14.21167,30.721045],[13.934168,31.24321],[13.632378,31.508284],[13.397663,32.050783],[13.250799,32.317382],[12.819611,32.260202]]]},"properties":{"LOCATION_TYPE":"level1","ADM0_A3":"LBY","LOCATION_ID":"LBY-MZ","NAME":"Mizdah","TYPE_EN":"Municipality|Governarate"}},
{"type":"Feature","geometry":{"type":"Polygon","coordinates":[[[14.419823,29.209096],[14.527,28.719488],[14.958705,28.407724],[15.017616,28.144846],[15.589674,28.214841],[15.894048,27.996276],[15.795863,27.721202],[16.279658,27.075169],[16.620722,26.425777],[16.940496,26.163416],[17.409821,26.052286],[18.204088,26.376452],[18.514974,26.149774],[19.16806,26.003762],[19.169817,27.012873],[19.172194,28.347417],[18.499264,28.502085],[17.982086,28.733053],[17.665413,29.329425],[17.333857,29.282606],[16.981217,29.430504],[16.418564,29.4088],[15.879682,29.37676],[15.599906,29.559953],[15.051929,29.70196],[14.854215,29.86195],[14.752413,29.405337],[14.419823,29.209096]]]},"properties":{"LOCATION_TYPE":"level1","ADM0_A3":"LBY","LOCATION_ID":"LBY-JU","NAME":"Al Jufrah","TYPE_EN":"Municipality|Governarate"}},
{"type":"Feature","geometry":{"type":"Polygon","coordinates":[[[15.795863,27.721202],[15.068466,27.632009],[14.421167,27.172709],[13.983157,27.128913],[14.146248,26.671189],[13.934375,26.246874],[14.424371,26.376271],[14.82755,26.757902],[16.279658,27.075169],[15.795863,27.721202]]]},"properties":{"LOCATION_TYPE":"level1","ADM0_A3":"LBY","LOCATION_ID":"LBY-SB","NAME":"Sabha","TYPE_EN":"Municipality|Governarate"}},
{"type":"Feature","geometry":{"type":"Polygon","coordinates":[[[13.983157,27.128913],[13.190544,27.292185],[13.012364,27.250352],[11.374738,26.21747],[11.303666,25.749218],[11.399542,25.551438],[11.594052,25.651975],[12.159909,25.575907],[13.205427,25.876767],[13.481896,26.117993],[13.934375,26.246874],[14.146248,26.671189],[13.983157,27.128913]]]},"properties":{"LOCATION_TYPE":"level1","ADM0_A3":"LBY","LOCATION_ID":"LBY-WD","NAME":"Wadi al Hayaa","TYPE_EN":"Municipality|Governarate"}}
]}