{"type":"FeatureCollection", "features": [
{"type":"Feature","geometry":{"type":"Polygon","coordinates":[[[-60.97997,14.043524],[-60.935588,14.017963],[-60.92799,14.053215],[-60.901031,14.073391],[-60.933461,14.111884],[-60.97997,14.043524]]]},"properties":{"LOCATION_TYPE":"level1","ADM0_A3":"LCA","LOCATION_ID":"LCA-06","NAME":"Gros Islet","TYPE_EN":"Quarter"}},
{"type":"Feature","geometry":{"type":"Polygon","coordinates":[[[-61.026601,13.987372],[-60.984387,13.965486],[-60.980627,13.892796],[-60.960575,13.87901],[-60.960575,13.900316],[-60.940522,13.979272],[-60.935588,14.017963],[-60.97997,14.043524],[-61.026601,13.987372]]]},"properties":{"LOCATION_TYPE":"level1","ADM0_A3":"LCA","LOCATION_ID":"LCA-02","NAME":"Castries","TYPE_EN":"Quarter"}},
{"type":"Feature","geometry":{"type":"Polygon","coordinates":[[[-61.066884,13.909003],[-61.040784,13.905329],[-61.010706,13.87149],[-60.980627,13.892796],[-60.984387,13.965486],[-61.026601,13.987372],[-61.066884,13.909003]]]},"properties":{"LOCATION_TYPE":"level1","ADM0_A3":"LCA","LOCATION_ID":"LCA-01","NAME":"Anse-la-Raye","TYPE_EN":"Quarter"}},
{"type":"Feature","geometry":{"type":"Polygon","coordinates":[[[-61.068105,13.792182],[-60.981578,13.835766],[-60.975223,13.839233],[-60.964335,13.845172],[-60.960575,13.87901],[-60.980627,13.892796],[-61.010706,13.87149],[-61.040784,13.905329],[-61.066884,13.909003],[-61.078114,13.869615],[-61.068105,13.792182]]]},"properties":{"LOCATION_TYPE":"level1","ADM0_A3":"LCA","LOCATION_ID":"LCA-10","NAME":"Soufrière","TYPE_EN":"Quarter"}},
{"type":"Feature","geometry":{"type":"Polygon","coordinates":[[[-61.018923,13.756246],[-60.980943,13.8308],[-60.981578,13.835766],[-61.068105,13.792182],[-61.018923,13.756246]]]},"properties":{"LOCATION_TYPE":"level1","ADM0_A3":"LCA","LOCATION_ID":"LCA-03","NAME":"Choiseul","TYPE_EN":"Quarter"}},
{"type":"Feature","geometry":{"type":"Polygon","coordinates":[[[-60.967088,13.730641],[-60.963857,13.775791],[-60.980943,13.8308],[-61.018923,13.756246],[-60.967088,13.730641]]]},"properties":{"LOCATION_TYPE":"level1","ADM0_A3":"LCA","LOCATION_ID":"LCA-07","NAME":"Laborie","TYPE_EN":"Quarter"}},
{"type":"Feature","geometry":{"type":"Polygon","coordinates":[[[-60.918039,13.774001],[-60.975223,13.839233],[-60.981578,13.835766],[-60.980943,13.8308],[-60.963857,13.775791],[-60.967088,13.730641],[-60.940785,13.722113],[-60.918039,13.774001]]]},"properties":{"LOCATION_TYPE":"level1","ADM0_A3":"LCA","LOCATION_ID":"LCA-11","NAME":"Vieux Fort","TYPE_EN":"Quarter"}},
{"type":"Feature","geometry":{"type":"Polygon","coordinates":[[[-60.892201,13.833197],[-60.964335,13.845172],[-60.975223,13.839233],[-60.918039,13.774001],[-60.892201,13.833197]]]},"properties":{"LOCATION_TYPE":"level1","ADM0_A3":"LCA","LOCATION_ID":"LCA-08","NAME":"Micoud","TYPE_EN":"Quarter"}},
{"type":"Feature","geometry":{"type":"Polygon","coordinates":[[[-60.890225,13.908475],[-60.960575,13.900316],[-60.960575,13.87901],[-60.964335,13.845172],[-60.892201,13.833197],[-60.890225,13.908475]]]},"properties":{"LOCATION_TYPE":"level1","ADM0_A3":"LCA","LOCATION_ID":"LCA-09","NAME":"Praslin","TYPE_EN":"Quarter"}},
{"type":"Feature","geometry":{"type":"Polygon","coordinates":[[[-60.882965,13.980618],[-60.940522,13.979272],[-60.960575,13.900316],[-60.890225,13.908475],[-60.882965,13.980618]]]},"properties":{"LOCATION_TYPE":"level1","ADM0_A3":"LCA","LOCATION_ID":"LCA-05","NAME":"Dennery","TYPE_EN":"Quarter"}},
{"type":"Feature","geometry":{"type":"Polygon","coordinates":[[[-60.901031,14.073391],[-60.92799,14.053215],[-60.935588,14.017963],[-60.940522,13.979272],[-60.882965,13.980618],[-60.901031,14.073391]]]},"properties":{"LOCATION_TYPE":"level1","ADM0_A3":"LCA","LOCATION_ID":"LCA-04","NAME":"Dauphin","TYPE_EN":"Quarter"}}
]}