{"type":"FeatureCollection", "features": [
{"type":"Feature","geometry":{"type":"Polygon","coordinates":[[[9.588253,47.062977],[9.582768,47.086801],[9.567753,47.088469],[9.560524,47.089026],[9.537168,47.102928],[9.527158,47.130733],[9.511853,47.129372],[9.502861,47.094698],[9.522153,47.086801],[9.533134,47.05553],[9.560636,47.0524],[9.588253,47.062977]]]},"properties":{"LOCATION_TYPE":"level1","ADM0_A3":"LIE","LOCATION_ID":"LIE-09","NAME":"Triesen","TYPE_EN":null}},
{"type":"Feature","geometry":{"type":"MultiPolygon","coordinates":[[[[9.605131,47.077594],[9.597783,47.090694],[9.582768,47.086801],[9.588253,47.062977],[9.605131,47.077594]]],[[[9.609508,47.12241],[9.563304,47.147972],[9.576095,47.108489],[9.591665,47.111269],[9.61416,47.110699],[9.609508,47.12241]]],[[[9.551954,47.175571],[9.531051,47.194684],[9.486434,47.196918],[9.495534,47.155951],[9.52549,47.165211],[9.54829,47.160762],[9.552057,47.16689],[9.551954,47.175571]]]]},"properties":{"LOCATION_TYPE":"level1","ADM0_A3":"LIE","LOCATION_ID":"LIE-07","NAME":"Schaan","TYPE_EN":null}},
{"type":"Feature","geometry":{"type":"MultiPolygon","coordinates":[[[[9.61416,47.110699],[9.591665,47.111269],[9.597783,47.090694],[9.605131,47.077594],[9.61416,47.110699]]],[[[9.560524,47.089026],[9.567753,47.088469],[9.576095,47.108489],[9.563304,47.147972],[9.54829,47.160762],[9.527158,47.130733],[9.537168,47.102928],[9.560524,47.089026]]]]},"properties":{"LOCATION_TYPE":"level1","ADM0_A3":"LIE","LOCATION_ID":"LIE-10","NAME":"Triesenberg","TYPE_EN":null}},
{"type":"Feature","geometry":{"type":"MultiPolygon","coordinates":[[[[9.567114,47.160825],[9.563304,47.147972],[9.609508,47.12241],[9.581823,47.154901],[9.567114,47.160825]]],[[[9.533134,47.05553],[9.522153,47.086801],[9.502861,47.094698],[9.477023,47.063898],[9.533134,47.05553]]]]},"properties":{"LOCATION_TYPE":"level1","ADM0_A3":"LIE","LOCATION_ID":"LIE-01","NAME":"Balzers","TYPE_EN":null}},
{"type":"Feature","geometry":{"type":"MultiPolygon","coordinates":[[[[9.552057,47.16689],[9.54829,47.160762],[9.563304,47.147972],[9.567114,47.160825],[9.552057,47.16689]]],[[[9.561876,47.190609],[9.531051,47.194684],[9.551954,47.175571],[9.561876,47.190609]]]]},"properties":{"LOCATION_TYPE":"level1","ADM0_A3":"LIE","LOCATION_ID":"LIE-05","NAME":"Planken","TYPE_EN":null}},
{"type":"Feature","geometry":{"type":"Polygon","coordinates":[[[9.554331,47.211615],[9.519929,47.22527],[9.512699,47.224714],[9.509363,47.204694],[9.531051,47.194684],[9.561876,47.190609],[9.554331,47.211615]]]},"properties":{"LOCATION_TYPE":"level1","ADM0_A3":"LIE","LOCATION_ID":"LIE-02","NAME":"Eschen","TYPE_EN":null}},
{"type":"Feature","geometry":{"type":"Polygon","coordinates":[[[9.543132,47.234817],[9.519929,47.22527],[9.554331,47.211615],[9.543132,47.234817]]]},"properties":{"LOCATION_TYPE":"level1","ADM0_A3":"LIE","LOCATION_ID":"LIE-04","NAME":"Mauren","TYPE_EN":null}},
{"type":"Feature","geometry":{"type":"Polygon","coordinates":[[[9.534182,47.251176],[9.519929,47.22527],[9.543132,47.234817],[9.534182,47.251176]]]},"properties":{"LOCATION_TYPE":"level1","ADM0_A3":"LIE","LOCATION_ID":"LIE-08","NAME":"Schellenberg","TYPE_EN":null}},
{"type":"Feature","geometry":{"type":"Polygon","coordinates":[[[9.534182,47.251176],[9.497044,47.228934],[9.512699,47.224714],[9.519929,47.22527],[9.534182,47.251176]]]},"properties":{"LOCATION_TYPE":"level1","ADM0_A3":"LIE","LOCATION_ID":"LIE-06","NAME":"Ruggell","TYPE_EN":null}},
{"type":"Feature","geometry":{"type":"MultiPolygon","coordinates":[[[[9.511853,47.129372],[9.527158,47.130733],[9.54829,47.160762],[9.52549,47.165211],[9.495534,47.155951],[9.511853,47.129372]]],[[[9.567753,47.088469],[9.582768,47.086801],[9.597783,47.090694],[9.591665,47.111269],[9.576095,47.108489],[9.567753,47.088469]]]]},"properties":{"LOCATION_TYPE":"level1","ADM0_A3":"LIE","LOCATION_ID":"LIE-11","NAME":"Vaduz","TYPE_EN":null}},
{"type":"Feature","geometry":{"type":"Polygon","coordinates":[[[9.486434,47.196918],[9.531051,47.194684],[9.509363,47.204694],[9.512699,47.224714],[9.497044,47.228934],[9.486434,47.196918]]]},"properties":{"LOCATION_TYPE":"level1","ADM0_A3":"LIE","LOCATION_ID":"LIE-03","NAME":"Gamprin","TYPE_EN":null}}
]}