{"type":"FeatureCollection", "features": [
{"type":"Feature","geometry":{"type":"Polygon","coordinates":[[[80.922919,8.988916],[80.765748,8.936819],[80.753035,8.90509],[80.810603,8.91589],[80.912612,8.836799],[80.883983,8.786079],[80.896075,8.625727],[80.987129,8.474263],[80.924187,8.336856],[81.041183,8.27673],[81.204997,8.21862],[81.310314,8.257429],[81.416677,8.253852],[81.365733,8.482164],[81.213145,8.472398],[81.2317,8.651068],[81.092784,8.85163],[80.978526,8.979967],[80.922919,8.988916]]]},"properties":{"LOCATION_TYPE":"level1","ADM0_A3":"LKA","LOCATION_ID":"LKA-53","NAME":"Trikuṇāmalaya","TYPE_EN":"District"}},
{"type":"Feature","geometry":{"type":"Polygon","coordinates":[[[80.625981,9.454753],[80.614757,9.446194],[80.500647,9.345166],[80.399155,9.302197],[80.241542,9.295299],[80.191726,9.237214],[80.217461,9.141406],[80.174983,8.950255],[80.340037,8.95904],[80.414348,9.010355],[80.42644,9.088205],[80.518734,9.078593],[80.616609,9.125671],[80.784144,9.004541],[80.765748,8.936819],[80.922919,8.988916],[80.930675,9.020982],[80.834483,9.239488],[80.79363,9.250556],[80.744395,9.359687],[80.625981,9.454753]]]},"properties":{"LOCATION_TYPE":"level1","ADM0_A3":"LKA","LOCATION_ID":"LKA-45","NAME":"Mulativ","TYPE_EN":"District"}},
{"type":"Feature","geometry":{"type":"MultiPolygon","coordinates":[[[[80.44174,9.576898],[80.456391,9.528713],[80.614757,9.446194],[80.625981,9.454753],[80.44174,9.576898]]],[[[80.256026,9.61559],[80.290672,9.680808],[80.222341,9.754462],[80.122325,9.818915],[79.988455,9.822943],[79.909679,9.768297],[79.947032,9.693183],[80.087413,9.618354],[80.173595,9.648668],[80.256026,9.61559]]]]},"properties":{"LOCATION_TYPE":"level1","ADM0_A3":"LKA","LOCATION_ID":"LKA-41","NAME":"Yāpanaya","TYPE_EN":"District"}},
{"type":"Feature","geometry":{"type":"MultiPolygon","coordinates":[[[[80.290672,9.680808],[80.256026,9.61559],[80.368663,9.530219],[80.456391,9.528713],[80.44174,9.576898],[80.290672,9.680808]]],[[[80.109793,9.209459],[80.191726,9.237214],[80.241542,9.295299],[80.399155,9.302197],[80.500647,9.345166],[80.614757,9.446194],[80.426606,9.50019],[80.286876,9.452704],[80.272227,9.504136],[80.052989,9.391547],[80.116222,9.306179],[80.109793,9.209459]]]]},"properties":{"LOCATION_TYPE":"level1","ADM0_A3":"LKA","LOCATION_ID":"LKA-42","NAME":"Kilinŏchchi","TYPE_EN":"District"}},
{"type":"Feature","geometry":{"type":"Polygon","coordinates":[[[79.912782,8.572006],[80.032459,8.527077],[80.044448,8.673192],[80.138086,8.655053],[80.235341,8.680349],[80.173846,8.74665],[80.246503,8.825947],[80.339004,8.828945],[80.397811,8.883489],[80.340037,8.95904],[80.174983,8.950255],[80.217461,9.141406],[80.191726,9.237214],[80.109793,9.209459],[80.048025,9.026272],[79.947113,8.948676],[79.926443,8.801907],[79.950531,8.739814],[79.912782,8.572006]]]},"properties":{"LOCATION_TYPE":"level1","ADM0_A3":"LKA","LOCATION_ID":"LKA-43","NAME":"Mannārama","TYPE_EN":"District"}},
{"type":"Feature","geometry":{"type":"Polygon","coordinates":[[[79.827887,7.275993],[79.941302,7.27444],[79.902131,7.599898],[80.013339,7.834742],[80.078968,7.914866],[80.145217,7.947887],[80.153175,8.067802],[80.102532,8.196193],[80.000833,8.227121],[79.966003,8.398506],[80.019953,8.447521],[80.032459,8.527077],[79.912782,8.572006],[79.87379,8.538072],[79.824474,8.266669],[79.827159,8.136542],[79.763845,7.990139],[79.72755,8.110907],[79.778575,8.259996],[79.696788,8.219062],[79.696788,8.098293],[79.760265,7.868394],[79.802013,7.659329],[79.784679,7.589789],[79.827887,7.275993]]]},"properties":{"LOCATION_TYPE":"level1","ADM0_A3":"LKA","LOCATION_ID":"LKA-62","NAME":"Puttalama","TYPE_EN":"District"}},
{"type":"Feature","geometry":{"type":"Polygon","coordinates":[[[79.849294,6.964952],[80.006001,6.941928],[80.054266,6.912007],[80.17953,6.977766],[80.185318,7.100807],[80.149661,7.153155],[80.193586,7.25718],[80.133538,7.324773],[79.941302,7.27444],[79.827887,7.275993],[79.813731,7.180732],[79.861583,7.011868],[79.849294,6.964952]]]},"properties":{"LOCATION_TYPE":"level1","ADM0_A3":"LKA","LOCATION_ID":"LKA-12","NAME":"Gampaha","TYPE_EN":"District"}},
{"type":"Feature","geometry":{"type":"Polygon","coordinates":[[[79.900357,6.712009],[80.080311,6.816794],[80.179633,6.813538],[80.210123,6.917588],[80.17953,6.977766],[80.054266,6.912007],[80.006001,6.941928],[79.849294,6.964952],[79.863048,6.807196],[79.900357,6.712009]]]},"properties":{"LOCATION_TYPE":"level1","ADM0_A3":"LKA","LOCATION_ID":"LKA-11","NAME":"Kŏḷamba","TYPE_EN":"District"}},
{"type":"Feature","geometry":{"type":"Polygon","coordinates":[[[79.982107,6.441026],[80.18015,6.356873],[80.381895,6.42581],[80.30345,6.547482],[80.298799,6.597737],[80.215083,6.692279],[80.179633,6.813538],[80.080311,6.816794],[79.900357,6.712009],[79.969574,6.535346],[79.982107,6.441026]]]},"properties":{"LOCATION_TYPE":"level1","ADM0_A3":"LKA","LOCATION_ID":"LKA-13","NAME":"Kaḷutara","TYPE_EN":"District"}},
{"type":"Feature","geometry":{"type":"Polygon","coordinates":[[[80.384991,5.963817],[80.438842,6.093634],[80.399672,6.193989],[80.495273,6.367519],[80.381895,6.42581],[80.18015,6.356873],[79.982107,6.441026],[80.031993,6.266343],[80.10377,6.127143],[80.185232,6.041164],[80.384991,5.963817]]]},"properties":{"LOCATION_TYPE":"level1","ADM0_A3":"LKA","LOCATION_ID":"LKA-31","NAME":"Gālla","TYPE_EN":"District"}},
{"type":"Feature","geometry":{"type":"Polygon","coordinates":[[[80.729699,5.975637],[80.698672,5.990229],[80.662291,6.166342],[80.611752,6.189467],[80.670043,6.305972],[80.602347,6.396923],[80.495273,6.367519],[80.399672,6.193989],[80.438842,6.093634],[80.384991,5.963817],[80.590831,5.923733],[80.729699,5.975637]]]},"properties":{"LOCATION_TYPE":"level1","ADM0_A3":"LKA","LOCATION_ID":"LKA-32","NAME":"Mātara","TYPE_EN":"District"}},
{"type":"Feature","geometry":{"type":"Polygon","coordinates":[[[81.71205,6.510272],[81.608073,6.578798],[81.480433,6.493299],[81.436818,6.417955],[81.221844,6.353204],[81.187841,6.403382],[81.070845,6.423743],[81.019582,6.350853],[80.919847,6.29574],[80.800577,6.268532],[80.670043,6.305972],[80.611752,6.189467],[80.662291,6.166342],[80.698672,5.990229],[80.729699,5.975637],[80.809093,6.035102],[81.112559,6.120307],[81.362071,6.225409],[81.681488,6.462144],[81.71205,6.510272]]]},"properties":{"LOCATION_TYPE":"level1","ADM0_A3":"LKA","LOCATION_ID":"LKA-33","NAME":"Hambantŏṭa","TYPE_EN":"District"}},
{"type":"Feature","geometry":{"type":"Polygon","coordinates":[[[81.77003,7.460842],[81.660887,7.418927],[81.649621,7.525148],[81.559601,7.504969],[81.445499,7.551322],[81.445603,7.642014],[81.383384,7.656716],[81.327057,7.726764],[81.241171,7.739114],[81.22081,7.65359],[81.063404,7.727591],[80.98899,7.720769],[80.98806,7.614936],[81.046351,7.507759],[81.157041,7.56791],[81.201483,7.558324],[81.199933,7.371643],[81.270523,7.276843],[81.375013,7.409315],[81.457798,7.456109],[81.548749,7.21912],[81.499966,7.150804],[81.524668,7.098223],[81.616755,7.059647],[81.634118,6.9457],[81.608073,6.578798],[81.71205,6.510272],[81.775645,6.610419],[81.831554,6.765367],[81.89031,7.019924],[81.875987,7.091946],[81.880707,7.327094],[81.821462,7.458726],[81.77003,7.460842]]]},"properties":{"LOCATION_TYPE":"level1","ADM0_A3":"LKA","LOCATION_ID":"LKA-52","NAME":"Ampāra","TYPE_EN":"District"}},
{"type":"Feature","geometry":{"type":"Polygon","coordinates":[[[81.416677,8.253852],[81.310314,8.257429],[81.307523,8.047597],[81.339873,7.937397],[81.243341,7.922488],[81.241171,7.739114],[81.327057,7.726764],[81.383384,7.656716],[81.445603,7.642014],[81.445499,7.551322],[81.559601,7.504969],[81.649621,7.525148],[81.660887,7.418927],[81.77003,7.460842],[81.77296,7.56802],[81.711599,7.650539],[81.696788,7.752997],[81.608246,7.831692],[81.565929,7.986802],[81.519705,7.999335],[81.448497,8.127997],[81.416677,8.253852]]]},"properties":{"LOCATION_TYPE":"level1","ADM0_A3":"LKA","LOCATION_ID":"LKA-51","NAME":"Maḍakalapuva","TYPE_EN":"District"}},
{"type":"Feature","geometry":{"type":"Polygon","coordinates":[[[80.928012,6.687525],[80.809466,6.791911],[80.642551,6.753903],[80.511396,6.77491],[80.495997,6.831676],[80.349132,6.837257],[80.210123,6.917588],[80.179633,6.813538],[80.215083,6.692279],[80.298799,6.597737],[80.30345,6.547482],[80.381895,6.42581],[80.495273,6.367519],[80.602347,6.396923],[80.670043,6.305972],[80.800577,6.268532],[80.919847,6.29574],[80.839748,6.400462],[80.82962,6.494488],[80.928012,6.687525]]]},"properties":{"LOCATION_TYPE":"level1","ADM0_A3":"LKA","LOCATION_ID":"LKA-91","NAME":"Ratnapura","TYPE_EN":"District"}},
{"type":"Feature","geometry":{"type":"Polygon","coordinates":[[[80.919847,6.29574],[81.019582,6.350853],[81.070845,6.423743],[81.187841,6.403382],[81.221844,6.353204],[81.436818,6.417955],[81.480433,6.493299],[81.608073,6.578798],[81.634118,6.9457],[81.616755,7.059647],[81.524668,7.098223],[81.499966,7.150804],[81.548749,7.21912],[81.457798,7.456109],[81.375013,7.409315],[81.270523,7.276843],[81.187427,7.178193],[81.125622,7.150339],[81.243548,7.022957],[81.215332,6.925986],[81.112083,6.871751],[81.064954,6.809455],[81.061957,6.660627],[81.086245,6.609571],[81.002426,6.570194],[80.928012,6.687525],[80.82962,6.494488],[80.839748,6.400462],[80.919847,6.29574]]]},"properties":{"LOCATION_TYPE":"level1","ADM0_A3":"LKA","LOCATION_ID":"LKA-82","NAME":"Mŏṇarāgala","TYPE_EN":"District"}},
{"type":"Feature","geometry":{"type":"Polygon","coordinates":[[[80.210123,6.917588],[80.349132,6.837257],[80.495997,6.831676],[80.445974,6.907796],[80.46344,7.028357],[80.448764,7.112073],[80.532377,7.148298],[80.521938,7.235088],[80.422099,7.357226],[80.193586,7.25718],[80.149661,7.153155],[80.185318,7.100807],[80.17953,6.977766],[80.210123,6.917588]]]},"properties":{"LOCATION_TYPE":"level1","ADM0_A3":"LKA","LOCATION_ID":"LKA-92","NAME":"Kægalla","TYPE_EN":"District"}},
{"type":"Feature","geometry":{"type":"Polygon","coordinates":[[[81.270523,7.276843],[81.199933,7.371643],[81.201483,7.558324],[81.157041,7.56791],[81.046351,7.507759],[80.98806,7.614936],[80.983305,7.486133],[81.012244,7.23036],[80.951163,7.191784],[80.961188,7.078509],[80.907341,6.985517],[80.835614,6.954356],[80.809466,6.791911],[80.928012,6.687525],[81.002426,6.570194],[81.086245,6.609571],[81.061957,6.660627],[81.064954,6.809455],[81.112083,6.871751],[81.215332,6.925986],[81.243548,7.022957],[81.125622,7.150339],[81.187427,7.178193],[81.270523,7.276843]]]},"properties":{"LOCATION_TYPE":"level1","ADM0_A3":"LKA","LOCATION_ID":"LKA-81","NAME":"Badulla","TYPE_EN":"District"}},
{"type":"Feature","geometry":{"type":"Polygon","coordinates":[[[80.756136,8.012302],[80.678001,7.958688],[80.599763,7.855697],[80.499097,7.815001],[80.573098,7.615789],[80.54974,7.540625],[80.565553,7.457555],[80.649682,7.389808],[80.836751,7.465824],[80.983305,7.486133],[80.98806,7.614936],[80.98899,7.720769],[80.88357,7.715059],[80.781664,7.678317],[80.760063,7.772575],[80.795823,7.806475],[80.823315,7.93148],[80.756136,8.012302]]]},"properties":{"LOCATION_TYPE":"level1","ADM0_A3":"LKA","LOCATION_ID":"LKA-22","NAME":"Mātale","TYPE_EN":"District"}},
{"type":"Feature","geometry":{"type":"Polygon","coordinates":[[[80.756136,8.012302],[80.823315,7.93148],[80.795823,7.806475],[80.760063,7.772575],[80.781664,7.678317],[80.88357,7.715059],[80.98899,7.720769],[81.063404,7.727591],[81.22081,7.65359],[81.241171,7.739114],[81.243341,7.922488],[81.339873,7.937397],[81.307523,8.047597],[81.310314,8.257429],[81.204997,8.21862],[81.041183,8.27673],[80.924187,8.336856],[80.899589,8.288409],[80.802851,8.273578],[80.765541,8.155472],[80.756136,8.012302]]]},"properties":{"LOCATION_TYPE":"level1","ADM0_A3":"LKA","LOCATION_ID":"LKA-72","NAME":"Pŏḷŏnnaruva","TYPE_EN":"District"}},
{"type":"Feature","geometry":{"type":"Polygon","coordinates":[[[80.422099,7.357226],[80.565553,7.457555],[80.54974,7.540625],[80.573098,7.615789],[80.499097,7.815001],[80.420239,8.040311],[80.321847,8.103666],[80.102532,8.196193],[80.153175,8.067802],[80.145217,7.947887],[80.078968,7.914866],[80.013339,7.834742],[79.902131,7.599898],[79.941302,7.27444],[80.133538,7.324773],[80.193586,7.25718],[80.422099,7.357226]]]},"properties":{"LOCATION_TYPE":"level1","ADM0_A3":"LKA","LOCATION_ID":"LKA-61","NAME":"Kuruṇægala","TYPE_EN":"District"}},
{"type":"Feature","geometry":{"type":"Polygon","coordinates":[[[80.924187,8.336856],[80.987129,8.474263],[80.896075,8.625727],[80.883983,8.786079],[80.912612,8.836799],[80.810603,8.91589],[80.753035,8.90509],[80.595835,8.869821],[80.650509,8.78949],[80.526796,8.667378],[80.429024,8.675001],[80.33797,8.546145],[80.245986,8.619707],[80.235341,8.680349],[80.138086,8.655053],[80.044448,8.673192],[80.032459,8.527077],[80.019953,8.447521],[79.966003,8.398506],[80.000833,8.227121],[80.102532,8.196193],[80.321847,8.103666],[80.420239,8.040311],[80.499097,7.815001],[80.599763,7.855697],[80.678001,7.958688],[80.756136,8.012302],[80.765541,8.155472],[80.802851,8.273578],[80.899589,8.288409],[80.924187,8.336856]]]},"properties":{"LOCATION_TYPE":"level1","ADM0_A3":"LKA","LOCATION_ID":"LKA-71","NAME":"Anurādhapura","TYPE_EN":"District"}},
{"type":"Feature","geometry":{"type":"Polygon","coordinates":[[[80.495997,6.831676],[80.511396,6.77491],[80.642551,6.753903],[80.809466,6.791911],[80.835614,6.954356],[80.907341,6.985517],[80.961188,7.078509],[80.951163,7.191784],[80.830136,7.196719],[80.788072,7.23744],[80.684099,7.095795],[80.555321,7.060965],[80.599659,6.99854],[80.56607,6.94229],[80.46344,7.028357],[80.445974,6.907796],[80.495997,6.831676]]]},"properties":{"LOCATION_TYPE":"level1","ADM0_A3":"LKA","LOCATION_ID":"LKA-23","NAME":"Nuvara Ĕliya","TYPE_EN":"District"}},
{"type":"Feature","geometry":{"type":"Polygon","coordinates":[[[80.753035,8.90509],[80.765748,8.936819],[80.784144,9.004541],[80.616609,9.125671],[80.518734,9.078593],[80.42644,9.088205],[80.414348,9.010355],[80.340037,8.95904],[80.397811,8.883489],[80.339004,8.828945],[80.246503,8.825947],[80.173846,8.74665],[80.235341,8.680349],[80.245986,8.619707],[80.33797,8.546145],[80.429024,8.675001],[80.526796,8.667378],[80.650509,8.78949],[80.595835,8.869821],[80.753035,8.90509]]]},"properties":{"LOCATION_TYPE":"level1","ADM0_A3":"LKA","LOCATION_ID":"LKA-44","NAME":"Vavuniyāva","TYPE_EN":"District"}},
{"type":"Feature","geometry":{"type":"Polygon","coordinates":[[[80.46344,7.028357],[80.56607,6.94229],[80.599659,6.99854],[80.555321,7.060965],[80.684099,7.095795],[80.788072,7.23744],[80.830136,7.196719],[80.951163,7.191784],[81.012244,7.23036],[80.983305,7.486133],[80.836751,7.465824],[80.649682,7.389808],[80.565553,7.457555],[80.422099,7.357226],[80.521938,7.235088],[80.532377,7.148298],[80.448764,7.112073],[80.46344,7.028357]]]},"properties":{"LOCATION_TYPE":"level1","ADM0_A3":"LKA","LOCATION_ID":"LKA-21","NAME":"Mahanuvara","TYPE_EN":"District"}}
]}