{"type":"FeatureCollection", "features": [
{"type":"Feature","geometry":{"type":"Polygon","coordinates":[[[29.275199,-29.528295],[29.303823,-29.466831],[29.388159,-29.437789],[29.435908,-29.342394],[29.311781,-29.089799],[29.208429,-29.068922],[29.125953,-28.992441],[28.980846,-28.909035],[28.827936,-28.759536],[28.830261,-28.858858],[28.791297,-28.889244],[28.752488,-29.071248],[28.57746,-29.197597],[28.562112,-29.258886],[28.715281,-29.230722],[28.674147,-29.310924],[28.80401,-29.352833],[28.789592,-29.490861],[29.020637,-29.491171],[29.14895,-29.574164],[29.275199,-29.528295]]]},"properties":{"LOCATION_TYPE":"level1","ADM0_A3":"LSO","LOCATION_ID":"LSO-J","NAME":"Mokhotlong","TYPE_EN":"District"}},
{"type":"Feature","geometry":{"type":"Polygon","coordinates":[[[28.827936,-28.759536],[28.699519,-28.68848],[28.66655,-28.59722],[28.403413,-28.618924],[28.317217,-28.700056],[28.218116,-28.700652],[28.266213,-28.801446],[28.333392,-28.808164],[28.488887,-28.881183],[28.482841,-29.02474],[28.62123,-29.051353],[28.696626,-29.013216],[28.791297,-28.889244],[28.830261,-28.858858],[28.827936,-28.759536]]]},"properties":{"LOCATION_TYPE":"level1","ADM0_A3":"LSO","LOCATION_ID":"LSO-B","NAME":"Butha-Buthe","TYPE_EN":"District"}},
{"type":"Feature","geometry":{"type":"Polygon","coordinates":[[[28.218116,-28.700652],[28.154953,-28.70233],[28.018734,-28.856842],[27.91166,-28.86077],[27.861327,-28.915443],[27.747432,-28.908622],[27.634479,-29.091041],[27.711156,-29.08701],[27.825051,-29.031406],[27.893316,-29.052128],[28.000234,-28.937355],[28.264508,-29.119204],[28.340524,-29.145301],[28.41747,-29.295938],[28.548935,-29.340638],[28.562112,-29.258886],[28.57746,-29.197597],[28.752488,-29.071248],[28.791297,-28.889244],[28.696626,-29.013216],[28.62123,-29.051353],[28.482841,-29.02474],[28.488887,-28.881183],[28.333392,-28.808164],[28.266213,-28.801446],[28.218116,-28.700652]]]},"properties":{"LOCATION_TYPE":"level1","ADM0_A3":"LSO","LOCATION_ID":"LSO-C","NAME":"Leribe","TYPE_EN":"District"}},
{"type":"Feature","geometry":{"type":"Polygon","coordinates":[[[28.355596,-30.17324],[28.524336,-30.116714],[28.639678,-30.131493],[28.860026,-30.066381],[29.144246,-29.919723],[29.105799,-29.825569],[29.113599,-29.752851],[29.023273,-29.738805],[28.973457,-29.849909],[28.837393,-29.817818],[28.740499,-29.850477],[28.628051,-29.78428],[28.539943,-29.776218],[28.548005,-29.918897],[28.374992,-30.027573],[28.264714,-30.001269],[28.226939,-30.138987],[28.355596,-30.17324]]]},"properties":{"LOCATION_TYPE":"level1","ADM0_A3":"LSO","LOCATION_ID":"LSO-H","NAME":"Qacha's Nek","TYPE_EN":"District"}},
{"type":"Feature","geometry":{"type":"Polygon","coordinates":[[[29.275199,-29.528295],[29.14895,-29.574164],[29.020637,-29.491171],[28.789592,-29.490861],[28.80401,-29.352833],[28.674147,-29.310924],[28.715281,-29.230722],[28.562112,-29.258886],[28.548935,-29.340638],[28.41747,-29.295938],[28.340524,-29.145301],[28.264508,-29.119204],[28.285592,-29.234288],[28.203374,-29.332214],[28.118935,-29.386423],[28.100022,-29.452155],[28.14312,-29.51024],[28.184099,-29.709504],[28.236344,-29.853681],[28.281923,-29.894402],[28.539943,-29.776218],[28.628051,-29.78428],[28.740499,-29.850477],[28.837393,-29.817818],[28.973457,-29.849909],[29.023273,-29.738805],[29.113599,-29.752851],[29.1613,-29.666922],[29.278605,-29.613592],[29.275199,-29.528295]]]},"properties":{"LOCATION_TYPE":"level1","ADM0_A3":"LSO","LOCATION_ID":"LSO-K","NAME":"Thaba-Tseka","TYPE_EN":"District"}},
{"type":"Feature","geometry":{"type":"Polygon","coordinates":[[[27.510686,-29.270753],[27.713327,-29.330044],[27.772135,-29.293871],[27.920911,-29.330406],[28.010311,-29.264828],[28.041834,-29.373401],[28.174177,-29.2917],[28.203374,-29.332214],[28.285592,-29.234288],[28.264508,-29.119204],[28.000234,-28.937355],[27.893316,-29.052128],[27.825051,-29.031406],[27.711156,-29.08701],[27.634479,-29.091041],[27.520986,-29.226122],[27.510686,-29.270753]]]},"properties":{"LOCATION_TYPE":"level1","ADM0_A3":"LSO","LOCATION_ID":"LSO-D","NAME":"Berea","TYPE_EN":"District"}},
{"type":"Feature","geometry":{"type":"Polygon","coordinates":[[[27.510686,-29.270753],[27.45329,-29.291648],[27.417634,-29.396551],[27.300307,-29.52012],[27.358155,-29.530652],[27.436496,-29.667439],[27.626872,-29.701959],[27.750069,-29.815544],[27.939721,-29.843863],[28.078111,-29.904841],[28.128857,-29.904169],[28.08979,-29.702218],[28.184099,-29.709504],[28.14312,-29.51024],[28.100022,-29.452155],[28.118935,-29.386423],[28.203374,-29.332214],[28.174177,-29.2917],[28.041834,-29.373401],[28.010311,-29.264828],[27.920911,-29.330406],[27.772135,-29.293871],[27.713327,-29.330044],[27.510686,-29.270753]]]},"properties":{"LOCATION_TYPE":"level1","ADM0_A3":"LSO","LOCATION_ID":"LSO-A","NAME":"Maseru","TYPE_EN":"District"}},
{"type":"Feature","geometry":{"type":"MultiPolygon","coordinates":[[[[27.300307,-29.52012],[27.014867,-29.625581],[27.002155,-29.666508],[27.088765,-29.750121],[27.17135,-29.921495],[27.292164,-29.865929],[27.390091,-29.863448],[27.384975,-30.002199],[27.464246,-30.03367],[27.549771,-29.9452],[27.680719,-29.975276],[27.938326,-29.913936],[28.078111,-29.904841],[27.939721,-29.843863],[27.750069,-29.815544],[27.626872,-29.701959],[27.436496,-29.667439],[27.358155,-29.530652],[27.300307,-29.52012]]],[[[28.184099,-29.709504],[28.08979,-29.702218],[28.128857,-29.904169],[28.281923,-29.894402],[28.236344,-29.853681],[28.184099,-29.709504]]]]},"properties":{"LOCATION_TYPE":"level1","ADM0_A3":"LSO","LOCATION_ID":"LSO-E","NAME":"Mafeteng","TYPE_EN":"District"}},
{"type":"Feature","geometry":{"type":"Polygon","coordinates":[[[27.17135,-29.921495],[27.265911,-30.033308],[27.343685,-30.212935],[27.366164,-30.311017],[27.459388,-30.316598],[27.533364,-30.393425],[27.62186,-30.343936],[27.689866,-30.367655],[27.902618,-30.182705],[27.944217,-30.066382],[28.057234,-30.072531],[28.140174,-30.026281],[28.264714,-30.001269],[28.374992,-30.027573],[28.548005,-29.918897],[28.539943,-29.776218],[28.281923,-29.894402],[28.128857,-29.904169],[28.078111,-29.904841],[27.938326,-29.913936],[27.680719,-29.975276],[27.549771,-29.9452],[27.464246,-30.03367],[27.384975,-30.002199],[27.390091,-29.863448],[27.292164,-29.865929],[27.17135,-29.921495]]]},"properties":{"LOCATION_TYPE":"level1","ADM0_A3":"LSO","LOCATION_ID":"LSO-F","NAME":"Mohale's Hoek","TYPE_EN":"District"}},
{"type":"Feature","geometry":{"type":"Polygon","coordinates":[[[28.355596,-30.17324],[28.226939,-30.138987],[28.264714,-30.001269],[28.140174,-30.026281],[28.057234,-30.072531],[27.944217,-30.066382],[27.902618,-30.182705],[27.689866,-30.367655],[27.62186,-30.343936],[27.533364,-30.393425],[27.598604,-30.490334],[27.743608,-30.600302],[27.869802,-30.607123],[28.054701,-30.649704],[28.141207,-30.500773],[28.133249,-30.445376],[28.218205,-30.387395],[28.216034,-30.267402],[28.355596,-30.17324]]]},"properties":{"LOCATION_TYPE":"level1","ADM0_A3":"LSO","LOCATION_ID":"LSO-G","NAME":"Quthing","TYPE_EN":"District"}}
]}