{"type":"FeatureCollection", "features": [
{"type":"Feature","geometry":{"type":"Polygon","coordinates":[[[26.739901,55.242776],[26.768629,55.300243],[26.445496,55.337502],[26.532106,55.516251],[26.595565,55.56803],[26.594531,55.666991],[26.48105,55.678308],[26.279718,55.743239],[26.178639,55.84959],[25.961251,55.958459],[25.801764,55.773934],[25.487881,55.724196],[25.378637,55.774555],[25.122116,55.691795],[25.017832,55.734531],[24.831487,55.713654],[24.717592,55.671899],[24.630518,55.522606],[24.768804,55.463023],[24.784772,55.382589],[25.055711,55.305255],[25.238801,55.201024],[25.125991,55.103459],[25.222368,55.041654],[25.34913,55.026719],[25.617124,55.070902],[25.717376,55.053823],[25.781145,55.130511],[25.645649,55.205003],[25.734275,55.327011],[26.320699,55.228929],[26.455833,55.225105],[26.633186,55.269133],[26.739901,55.242776]]]},"properties":{"LOCATION_TYPE":"level1","ADM0_A3":"LTU","LOCATION_ID":"LTU-UT","NAME":"Utenos","TYPE_EN":"County"}},
{"type":"Feature","geometry":{"type":"Polygon","coordinates":[[[26.739901,55.242776],[26.633186,55.269133],[26.455833,55.225105],[26.320699,55.228929],[25.734275,55.327011],[25.645649,55.205003],[25.781145,55.130511],[25.717376,55.053823],[25.617124,55.070902],[25.34913,55.026719],[25.222368,55.041654],[25.125991,55.103459],[25.238801,55.201024],[25.055711,55.305255],[24.784772,55.382589],[24.768804,55.463023],[24.630518,55.522606],[24.511972,55.428503],[24.415595,55.393208],[24.38862,55.31652],[24.536828,55.120357],[24.649328,55.05111],[24.548817,54.987755],[24.799965,54.890345],[24.656459,54.816706],[24.624626,54.730949],[24.482206,54.701338],[24.493678,54.63403],[24.412805,54.543854],[24.42991,54.440269],[24.642041,54.449623],[24.726119,54.406137],[24.995973,54.451302],[24.913704,54.315445],[24.769889,54.225424],[24.850984,54.144951],[25.071989,54.132201],[25.193532,54.243667],[25.369748,54.247904],[25.472068,54.297152],[25.553975,54.231265],[25.493307,54.157522],[25.631593,54.128325],[25.74001,54.146257],[25.786829,54.231781],[25.695981,54.320975],[25.529997,54.346141],[25.612576,54.421796],[25.646165,54.520394],[25.740423,54.568505],[25.709521,54.67563],[25.7243,54.78012],[25.782695,54.869675],[25.907855,54.948068],[26.138642,54.968946],[26.309484,55.144645],[26.578925,55.118549],[26.633909,55.192188],[26.739901,55.242776]]]},"properties":{"LOCATION_TYPE":"level1","ADM0_A3":"LTU","LOCATION_ID":"LTU-VL","NAME":"Vilniaus","TYPE_EN":"County"}},
{"type":"Feature","geometry":{"type":"Polygon","coordinates":[[[24.850984,54.144951],[24.769889,54.225424],[24.913704,54.315445],[24.995973,54.451302],[24.726119,54.406137],[24.642041,54.449623],[24.42991,54.440269],[24.412805,54.543854],[24.261393,54.558996],[23.987198,54.534914],[23.905394,54.470887],[23.756307,54.469802],[23.641017,54.507784],[23.542005,54.455643],[23.347392,54.303817],[23.33599,54.226294],[23.432502,54.169305],[23.496477,54.021975],[23.462888,53.972521],[23.642618,53.898985],[23.919811,53.947768],[24.045385,53.930869],[24.201137,53.95247],[24.257051,53.894024],[24.377871,53.886841],[24.528663,53.958361],[24.821358,54.019908],[24.782497,54.092875],[24.850984,54.144951]]]},"properties":{"LOCATION_TYPE":"level1","ADM0_A3":"LTU","LOCATION_ID":"LTU-AL","NAME":"Alytaus","TYPE_EN":"County"}},
{"type":"Feature","geometry":{"type":"Polygon","coordinates":[[[25.961251,55.958459],[25.708797,56.081048],[25.649679,56.143809],[25.109196,56.183083],[24.983208,56.290493],[24.892258,56.438727],[24.639147,56.359972],[24.44722,56.260521],[24.287644,56.295531],[24.140422,56.2576],[24.110084,56.1474],[24.011537,55.985214],[24.051121,55.893798],[23.950094,55.814371],[24.021304,55.762566],[23.99867,55.636811],[23.867102,55.56927],[24.050811,55.483229],[24.349501,55.442172],[24.415595,55.393208],[24.511972,55.428503],[24.630518,55.522606],[24.717592,55.671899],[24.831487,55.713654],[25.017832,55.734531],[25.122116,55.691795],[25.378637,55.774555],[25.487881,55.724196],[25.801764,55.773934],[25.961251,55.958459]]]},"properties":{"LOCATION_TYPE":"level1","ADM0_A3":"LTU","LOCATION_ID":"LTU-PN","NAME":"Panevezio","TYPE_EN":"County"}},
{"type":"Feature","geometry":{"type":"Polygon","coordinates":[[[22.578222,56.387003],[22.214902,56.390383],[22.094082,56.41741],[21.965322,56.383677],[21.902932,56.344933],[21.985304,56.224424],[21.899211,56.132776],[21.742167,56.105077],[21.583417,55.990174],[21.633388,55.750603],[21.744647,55.759775],[21.794618,55.652624],[21.877611,55.601774],[22.028299,55.609888],[22.069589,55.661719],[22.279343,55.686885],[22.457059,55.677945],[22.504963,55.804811],[22.566406,55.824371],[22.698336,55.949298],[22.60785,55.95953],[22.600409,56.044125],[22.374635,56.164117],[22.461244,56.320077],[22.578222,56.387003]]]},"properties":{"LOCATION_TYPE":"level1","ADM0_A3":"LTU","LOCATION_ID":"LTU-TE","NAME":"Telšiai","TYPE_EN":"County"}},
{"type":"Feature","geometry":{"type":"Polygon","coordinates":[[[21.965322,56.383677],[21.684495,56.310104],[21.596025,56.307882],[21.229639,56.163188],[21.190365,56.084459],[21.053396,56.072618],[21.044688,55.873725],[21.074392,55.74494],[21.140798,55.688137],[21.222911,55.520209],[21.246593,55.370185],[21.289236,55.305243],[21.405546,55.27239],[21.503938,55.19441],[21.60512,55.192498],[21.750641,55.127954],[22.09987,55.029924],[22.269884,55.069537],[22.298929,55.134619],[22.084471,55.185262],[21.910374,55.290321],[22.036671,55.411528],[21.886137,55.436358],[21.814152,55.564671],[21.877611,55.601774],[21.794618,55.652624],[21.744647,55.759775],[21.633388,55.750603],[21.583417,55.990174],[21.742167,56.105077],[21.899211,56.132776],[21.985304,56.224424],[21.902932,56.344933],[21.965322,56.383677]]]},"properties":{"LOCATION_TYPE":"level1","ADM0_A3":"LTU","LOCATION_ID":"LTU-KL","NAME":"Klaipedos","TYPE_EN":"County"}},
{"type":"Feature","geometry":{"type":"Polygon","coordinates":[[[24.140422,56.2576],[23.858109,56.334392],[23.609856,56.353822],[23.481595,56.330103],[23.288428,56.373046],[23.016714,56.32385],[22.888969,56.408444],[22.681437,56.350308],[22.578222,56.387003],[22.461244,56.320077],[22.374635,56.164117],[22.600409,56.044125],[22.60785,55.95953],[22.698336,55.949298],[22.566406,55.824371],[22.504963,55.804811],[22.457059,55.677945],[22.509148,55.598415],[22.636738,55.523175],[22.645729,55.474263],[22.808665,55.508395],[22.866543,55.480748],[23.020797,55.515501],[23.114176,55.574283],[23.324758,55.56728],[23.456171,55.517697],[23.529758,55.546532],[23.634144,55.474599],[23.867102,55.56927],[23.99867,55.636811],[24.021304,55.762566],[23.950094,55.814371],[24.051121,55.893798],[24.011537,55.985214],[24.110084,56.1474],[24.140422,56.2576]]]},"properties":{"LOCATION_TYPE":"level1","ADM0_A3":"LTU","LOCATION_ID":"LTU-SA","NAME":"Šiauliai","TYPE_EN":"County"}},
{"type":"Feature","geometry":{"type":"Polygon","coordinates":[[[22.571165,55.06399],[22.633481,54.957939],[22.808871,54.893756],[22.832849,54.778673],[22.724845,54.723379],[22.681747,54.5699],[22.680403,54.453215],[22.76722,54.35627],[22.858894,54.399213],[22.973305,54.37539],[23.117069,54.303457],[23.33599,54.226294],[23.347392,54.303817],[23.542005,54.455643],[23.641017,54.507784],[23.756307,54.469802],[23.759563,54.537369],[23.664582,54.575687],[23.665667,54.738158],[23.624222,54.874868],[23.403254,54.957964],[23.551152,55.050025],[23.412297,55.078706],[23.319797,55.071212],[23.001676,55.105371],[22.644179,55.057105],[22.571165,55.06399]]]},"properties":{"LOCATION_TYPE":"level1","ADM0_A3":"LTU","LOCATION_ID":"LTU-MR","NAME":"Marijampoles","TYPE_EN":"County"}},
{"type":"Feature","geometry":{"type":"Polygon","coordinates":[[[22.571165,55.06399],[22.644179,55.057105],[23.001676,55.105371],[23.319797,55.071212],[23.412297,55.078706],[23.477461,55.215028],[23.155466,55.277892],[23.008808,55.26102],[22.868248,55.293369],[22.803394,55.384423],[22.645729,55.474263],[22.636738,55.523175],[22.509148,55.598415],[22.457059,55.677945],[22.279343,55.686885],[22.069589,55.661719],[22.028299,55.609888],[21.877611,55.601774],[21.814152,55.564671],[21.886137,55.436358],[22.036671,55.411528],[21.910374,55.290321],[22.084471,55.185262],[22.298929,55.134619],[22.269884,55.069537],[22.571165,55.06399]]]},"properties":{"LOCATION_TYPE":"level1","ADM0_A3":"LTU","LOCATION_ID":"LTU-TA","NAME":"Taurages","TYPE_EN":"County"}},
{"type":"Feature","geometry":{"type":"Polygon","coordinates":[[[24.415595,55.393208],[24.349501,55.442172],[24.050811,55.483229],[23.867102,55.56927],[23.634144,55.474599],[23.529758,55.546532],[23.456171,55.517697],[23.324758,55.56728],[23.114176,55.574283],[23.020797,55.515501],[22.866543,55.480748],[22.808665,55.508395],[22.645729,55.474263],[22.803394,55.384423],[22.868248,55.293369],[23.008808,55.26102],[23.155466,55.277892],[23.477461,55.215028],[23.412297,55.078706],[23.551152,55.050025],[23.403254,54.957964],[23.624222,54.874868],[23.665667,54.738158],[23.664582,54.575687],[23.759563,54.537369],[23.756307,54.469802],[23.905394,54.470887],[23.987198,54.534914],[24.261393,54.558996],[24.412805,54.543854],[24.493678,54.63403],[24.482206,54.701338],[24.624626,54.730949],[24.656459,54.816706],[24.799965,54.890345],[24.548817,54.987755],[24.649328,55.05111],[24.536828,55.120357],[24.38862,55.31652],[24.415595,55.393208]]]},"properties":{"LOCATION_TYPE":"level1","ADM0_A3":"LTU","LOCATION_ID":"LTU-KU","NAME":"Kauno","TYPE_EN":"County"}}
]}