{"type":"FeatureCollection", "features": [
{"type":"Feature","geometry":{"type":"Polygon","coordinates":[[[6.295568,49.848616],[6.15397,49.951216],[6.096403,50.048626],[6.117487,50.120456],[5.96163,50.165621],[5.872437,50.096892],[5.812596,49.977571],[5.714927,49.881866],[5.738285,49.788848],[5.856403,49.705807],[5.994032,49.728851],[6.043073,49.824453],[6.184718,49.819388],[6.246317,49.790553],[6.295568,49.848616]]]},"properties":{"LOCATION_TYPE":"level1","ADM0_A3":"LUX","LOCATION_ID":"LUX-D","NAME":"Diekirch","TYPE_EN":"District"}},
{"type":"Feature","geometry":{"type":"Polygon","coordinates":[[[6.295568,49.848616],[6.246317,49.790553],[6.174642,49.689991],[6.285591,49.674333],[6.298768,49.587542],[6.240891,49.56204],[6.251117,49.48946],[6.345307,49.455349],[6.350754,49.566588],[6.491727,49.700792],[6.500099,49.794481],[6.414523,49.805488],[6.295568,49.848616]]]},"properties":{"LOCATION_TYPE":"level1","ADM0_A3":"LUX","LOCATION_ID":"LUX-G","NAME":"Grevenmacher","TYPE_EN":"District"}},
{"type":"Feature","geometry":{"type":"Polygon","coordinates":[[[5.856403,49.705807],[5.885459,49.643534],[5.8374,49.56111],[5.790685,49.537753],[5.9607,49.441324],[6.06333,49.448456],[6.13609,49.495275],[6.251117,49.48946],[6.240891,49.56204],[6.298768,49.587542],[6.285591,49.674333],[6.174642,49.689991],[6.246317,49.790553],[6.184718,49.819388],[6.043073,49.824453],[5.994032,49.728851],[5.856403,49.705807]]]},"properties":{"LOCATION_TYPE":"level1","ADM0_A3":"LUX","LOCATION_ID":"LUX-L","NAME":"Luxembourg","TYPE_EN":"District"}}
]}