{"type":"FeatureCollection", "features": [
{"type":"Feature","geometry":{"type":"Polygon","coordinates":[[[25.419731,58.00825],[25.318278,58.040619],[25.20211,57.991965],[25.094209,58.067309],[25.134406,57.930249],[25.247135,57.851965],[25.245569,57.800298],[25.45537,57.789338],[25.381783,57.883279],[25.261226,57.938077],[25.419731,58.00825]]]},"properties":{"LOCATION_TYPE":"level1","ADM0_A3":"LVA","LOCATION_ID":"LVA-084","NAME":"Rujienas","TYPE_EN":"Municipality"}},
{"type":"Feature","geometry":{"type":"Polygon","coordinates":[[[25.094209,58.067309],[24.827417,57.981877],[24.895721,57.831199],[25.017469,57.79647],[25.245569,57.800298],[25.247135,57.851965],[25.134406,57.930249],[25.094209,58.067309]]]},"properties":{"LOCATION_TYPE":"level1","ADM0_A3":"LVA","LOCATION_ID":"LVA-060","NAME":"Mazsalacas","TYPE_EN":"Municipality"}},
{"type":"Feature","geometry":{"type":"Polygon","coordinates":[[[24.827417,57.981877],[24.582445,57.946011],[24.649193,57.770695],[24.828591,57.71924],[24.881437,57.624674],[25.093745,57.653122],[25.098706,57.736011],[25.017469,57.79647],[24.895721,57.831199],[24.827417,57.981877]]]},"properties":{"LOCATION_TYPE":"level1","ADM0_A3":"LVA","LOCATION_ID":"LVA-005","NAME":"Alojas","TYPE_EN":"Municipality"}},
{"type":"Feature","geometry":{"type":"Polygon","coordinates":[[[25.7038,57.921327],[25.601517,57.912203],[25.419731,58.00825],[25.261226,57.938077],[25.381783,57.883279],[25.45537,57.789338],[25.55289,57.79239],[25.46633,57.859794],[25.7038,57.921327]]]},"properties":{"LOCATION_TYPE":"level1","ADM0_A3":"LVA","LOCATION_ID":"LVA-064","NAME":"Nauksenu","TYPE_EN":"Municipality"}},
{"type":"Feature","geometry":{"type":"Polygon","coordinates":[[[24.582445,57.946011],[24.288829,57.845282],[24.299571,57.743842],[24.357677,57.685492],[24.394893,57.400013],[24.578269,57.464745],[24.47814,57.567656],[24.418341,57.670566],[24.564362,57.673347],[24.649193,57.770695],[24.582445,57.946011]]]},"properties":{"LOCATION_TYPE":"level1","ADM0_A3":"LVA","LOCATION_ID":"LVA-085","NAME":"Salacgrivas","TYPE_EN":"Municipality"}},
{"type":"Feature","geometry":{"type":"Polygon","coordinates":[[[26.795759,57.571319],[26.700468,57.570751],[26.49955,57.515819],[26.351325,57.580203],[26.3115,57.499333],[26.320492,57.423782],[26.276154,57.331023],[26.359456,57.322548],[26.474746,57.375051],[26.594222,57.391303],[26.703475,57.423973],[26.721702,57.490047],[26.808282,57.503718],[26.795759,57.571319]]]},"properties":{"LOCATION_TYPE":"level1","ADM0_A3":"LVA","LOCATION_ID":"LVA-009","NAME":"Apes","TYPE_EN":"Municipality"}},
{"type":"Feature","geometry":{"type":"Polygon","coordinates":[[[26.351325,57.580203],[26.168511,57.70405],[26.024747,57.774356],[26.002733,57.845979],[25.792616,57.855979],[25.7038,57.921327],[25.46633,57.859794],[25.55289,57.79239],[25.688656,57.737671],[25.847416,57.752358],[25.859626,57.683984],[25.989046,57.671775],[25.901138,57.58875],[25.945092,57.530145],[26.123351,57.569215],[26.3115,57.499333],[26.351325,57.580203]]]},"properties":{"LOCATION_TYPE":"level1","ADM0_A3":"LVA","LOCATION_ID":"LVA-101","NAME":"Valkas","TYPE_EN":"Municipality"}},
{"type":"Feature","geometry":{"type":"Polygon","coordinates":[[[27.694409,57.356375],[27.511323,57.430397],[27.528169,57.528479],[27.319965,57.516129],[27.061531,57.555661],[26.946551,57.615347],[26.795759,57.571319],[26.808282,57.503718],[26.721702,57.490047],[26.703475,57.423973],[26.594222,57.391303],[26.714783,57.306477],[26.988513,57.304409],[27.156565,57.226378],[27.354899,57.284772],[27.487087,57.273869],[27.555559,57.258908],[27.694409,57.356375]]]},"properties":{"LOCATION_TYPE":"level1","ADM0_A3":"LVA","LOCATION_ID":"LVA-007","NAME":"Aluksne","TYPE_EN":"Municipality"}},
{"type":"Feature","geometry":{"type":"Polygon","coordinates":[[[27.694409,57.356375],[27.555559,57.258908],[27.487087,57.273869],[27.402946,57.159678],[27.637622,57.018417],[27.745779,57.031455],[27.700975,57.118789],[27.824327,57.15907],[27.840295,57.290639],[27.694409,57.356375]]]},"properties":{"LOCATION_TYPE":"level1","ADM0_A3":"LVA","LOCATION_ID":"LVA-108","NAME":"Vilakas","TYPE_EN":"Municipality"}},
{"type":"Feature","geometry":{"type":"Polygon","coordinates":[[[27.745779,57.031455],[27.637622,57.018417],[27.416617,56.902218],[27.446702,56.852664],[27.561605,56.870741],[27.644379,56.841772],[27.745779,57.031455]]]},"properties":{"LOCATION_TYPE":"level1","ADM0_A3":"LVA","LOCATION_ID":"LVA-014","NAME":"Baltinavas","TYPE_EN":"Municipality"}},
{"type":"Feature","geometry":{"type":"Polygon","coordinates":[[[27.644379,56.841772],[27.561605,56.870741],[27.446702,56.852664],[27.339861,56.782684],[27.455498,56.771834],[27.47205,56.66326],[27.580208,56.619438],[27.644477,56.686405],[27.820513,56.688994],[27.865461,56.742687],[27.918895,56.805888],[27.786397,56.871258],[27.644379,56.841772]]]},"properties":{"LOCATION_TYPE":"level1","ADM0_A3":"LVA","LOCATION_ID":"LVA-044","NAME":"Karsavas","TYPE_EN":"Municipality"}},
{"type":"Feature","geometry":{"type":"Polygon","coordinates":[[[27.865461,56.742687],[27.820513,56.688994],[27.644477,56.686405],[27.580208,56.619438],[27.56114,56.575927],[27.812747,56.551789],[27.918886,56.481892],[27.988783,56.523313],[28.093251,56.501591],[28.126117,56.547764],[27.997443,56.603833],[27.98101,56.687006],[27.865461,56.742687]]]},"properties":{"LOCATION_TYPE":"level1","ADM0_A3":"LVA","LOCATION_ID":"LVA-023","NAME":"Ciblas","TYPE_EN":"Municipality"}},
{"type":"Feature","geometry":{"type":"Polygon","coordinates":[[[28.093251,56.501591],[27.988783,56.523313],[27.918886,56.481892],[27.812747,56.551789],[27.56114,56.575927],[27.487087,56.499497],[27.689917,56.360617],[27.715497,56.298476],[27.667593,56.240237],[27.852853,56.181946],[28.070411,56.208507],[28.12081,56.274791],[27.955129,56.378342],[27.978428,56.432706],[28.167872,56.427125],[28.093251,56.501591]]]},"properties":{"LOCATION_TYPE":"level1","ADM0_A3":"LVA","LOCATION_ID":"LVA-058","NAME":"Ludzas","TYPE_EN":"Municipality"}},
{"type":"Feature","geometry":{"type":"Polygon","coordinates":[[[28.167872,56.427125],[27.978428,56.432706],[27.955129,56.378342],[28.12081,56.274791],[28.070411,56.208507],[28.0511,56.140666],[28.169112,56.161741],[28.214794,56.281372],[28.167872,56.427125]]]},"properties":{"LOCATION_TYPE":"level1","ADM0_A3":"LVA","LOCATION_ID":"LVA-110","NAME":"Zilupes","TYPE_EN":"Municipality"}},
{"type":"Feature","geometry":{"type":"Polygon","coordinates":[[[25.349086,56.159876],[25.403442,56.231555],[25.310476,56.287366],[25.293578,56.407901],[25.074298,56.402702],[25.013512,56.49567],[24.870967,56.442602],[25.073125,56.197811],[25.349086,56.159876]]]},"properties":{"LOCATION_TYPE":"level1","ADM0_A3":"LVA","LOCATION_ID":"LVA-065","NAME":"Neretas","TYPE_EN":"Municipality"}},
{"type":"Feature","geometry":{"type":"Polygon","coordinates":[[[25.349086,56.159876],[25.649679,56.143809],[25.693845,56.228571],[25.680488,56.29313],[25.733916,56.35101],[25.676035,56.366594],[25.594645,56.467148],[25.455584,56.413353],[25.293578,56.407901],[25.310476,56.287366],[25.403442,56.231555],[25.349086,56.159876]]]},"properties":{"LOCATION_TYPE":"level1","ADM0_A3":"LVA","LOCATION_ID":"LVA-107","NAME":"Viesites","TYPE_EN":"Municipality"}},
{"type":"Feature","geometry":{"type":"Polygon","coordinates":[[[24.870967,56.442602],[25.013512,56.49567],[24.949987,56.578568],[24.732475,56.544249],[24.599667,56.620679],[24.600907,56.70703],[24.521894,56.713645],[24.355359,56.661564],[24.309103,56.611879],[24.380617,56.529639],[24.512917,56.454549],[24.530795,56.409853],[24.468221,56.331189],[24.572772,56.309811],[24.678628,56.377283],[24.870967,56.442602]]]},"properties":{"LOCATION_TYPE":"level1","ADM0_A3":"LVA","LOCATION_ID":"LVA-105","NAME":"Vecumnieku","TYPE_EN":"Municipality"}},
{"type":"Feature","geometry":{"type":"Polygon","coordinates":[[[21.983173,56.388353],[22.094082,56.41741],[22.214902,56.390383],[22.511731,56.395964],[22.681437,56.350308],[22.859603,56.39707],[22.726551,56.424541],[22.712074,56.565373],[22.654856,56.60423],[22.549688,56.579081],[22.442234,56.771127],[22.490855,56.851517],[22.454888,56.917095],[22.341303,56.847486],[22.162658,56.795035],[22.18922,56.741756],[22.10354,56.672872],[22.126071,56.582206],[22.011401,56.55505],[21.966701,56.506629],[21.983173,56.388353]]]},"properties":{"LOCATION_TYPE":"level1","ADM0_A3":"LVA","LOCATION_ID":"LVA-088","NAME":"Saldus","TYPE_EN":"Municipality"}},
{"type":"Feature","geometry":{"type":"Polygon","coordinates":[[[21.485493,56.265792],[21.379851,56.328224],[21.226347,56.351676],[21.055787,56.168324],[20.971039,56.25967],[21.053396,56.072618],[21.190365,56.084459],[21.229639,56.163188],[21.327618,56.224373],[21.485493,56.265792]]]},"properties":{"LOCATION_TYPE":"level1","ADM0_A3":"LVA","LOCATION_ID":"LVA-081","NAME":"Rucavas","TYPE_EN":"Municipality"}},
{"type":"Feature","geometry":{"type":"Polygon","coordinates":[[[21.736514,56.323732],[21.66554,56.417768],[21.712444,56.549952],[21.571732,56.560612],[21.433152,56.545688],[21.354267,56.503048],[21.437416,56.407108],[21.379851,56.328224],[21.485493,56.265792],[21.596025,56.307882],[21.736514,56.323732]]]},"properties":{"LOCATION_TYPE":"level1","ADM0_A3":"LVA","LOCATION_ID":"LVA-074","NAME":"Priekules","TYPE_EN":"Municipality"}},
{"type":"Feature","geometry":{"type":"Polygon","coordinates":[[[21.736514,56.323732],[21.983173,56.388353],[21.966701,56.506629],[21.833066,56.523966],[21.795394,56.573343],[21.712444,56.549952],[21.66554,56.417768],[21.736514,56.323732]]]},"properties":{"LOCATION_TYPE":"level1","ADM0_A3":"LVA","LOCATION_ID":"LVA-100","NAME":"Vainodes","TYPE_EN":"Municipality"}},
{"type":"Feature","geometry":{"type":"Polygon","coordinates":[[[22.859603,56.39707],[22.956976,56.401985],[23.016714,56.32385],[23.112728,56.310879],[23.17257,56.357956],[23.148796,56.433095],[23.088009,56.545729],[22.961072,56.601152],[22.798123,56.56833],[22.712074,56.565373],[22.726551,56.424541],[22.859603,56.39707]]]},"properties":{"LOCATION_TYPE":"level1","ADM0_A3":"LVA","LOCATION_ID":"LVA-010","NAME":"Auces","TYPE_EN":"Municipality"}},
{"type":"Feature","geometry":{"type":"Polygon","coordinates":[[[24.572772,56.309811],[24.468221,56.331189],[24.530795,56.409853],[24.512917,56.454549],[24.380617,56.529639],[24.234014,56.501033],[24.078872,56.535464],[24.017743,56.502013],[24.090987,56.383036],[23.981306,56.312404],[24.108637,56.260701],[24.287644,56.295531],[24.44722,56.260521],[24.572772,56.309811]]]},"properties":{"LOCATION_TYPE":"level1","ADM0_A3":"LVA","LOCATION_ID":"LVA-016","NAME":"Bauska","TYPE_EN":"Municipality"}},
{"type":"Feature","geometry":{"type":"Polygon","coordinates":[[[23.37804,56.35463],[23.462062,56.407152],[23.415088,56.493296],[23.148796,56.433095],[23.17257,56.357956],[23.37804,56.35463]]]},"properties":{"LOCATION_TYPE":"level1","ADM0_A3":"LVA","LOCATION_ID":"LVA-098","NAME":"Tervetes","TYPE_EN":"Municipality"}},
{"type":"Feature","geometry":{"type":"Polygon","coordinates":[[[23.37804,56.35463],[23.517561,56.328656],[23.609856,56.353822],[23.724991,56.328811],[23.871107,56.332072],[23.840695,56.434178],[23.992314,56.502546],[23.912203,56.608304],[23.791942,56.646881],[23.707587,56.591887],[23.617951,56.669544],[23.73121,56.690499],[23.756307,56.744134],[23.76964,56.800048],[23.626238,56.889241],[23.506762,56.894615],[23.486608,56.815912],[23.525262,56.763667],[23.417413,56.706823],[23.485368,56.660289],[23.405941,56.606442],[23.458651,56.544818],[23.415088,56.493296],[23.462062,56.407152],[23.37804,56.35463]]]},"properties":{"LOCATION_TYPE":"level1","ADM0_A3":"LVA","LOCATION_ID":"LVA-JEL","NAME":"Jelgava","TYPE_EN":"Municipality"}},
{"type":"Feature","geometry":{"type":"Polygon","coordinates":[[[23.981306,56.312404],[24.090987,56.383036],[24.017743,56.502013],[23.992314,56.502546],[23.840695,56.434178],[23.871107,56.332072],[23.981306,56.312404]]]},"properties":{"LOCATION_TYPE":"level1","ADM0_A3":"LVA","LOCATION_ID":"LVA-083","NAME":"Rundales","TYPE_EN":"Municipality"}},
{"type":"Feature","geometry":{"type":"Polygon","coordinates":[[[25.795496,56.04013],[25.859797,56.081848],[26.025523,56.07942],[25.876391,56.221892],[25.693845,56.228571],[25.649679,56.143809],[25.795496,56.04013]]]},"properties":{"LOCATION_TYPE":"level1","ADM0_A3":"LVA","LOCATION_ID":"LVA-004","NAME":"Aknistes","TYPE_EN":"Municipality"}},
{"type":"Feature","geometry":{"type":"Polygon","coordinates":[[[25.795496,56.04013],[26.178639,55.84959],[26.226905,55.796931],[26.349418,55.809887],[26.27662,55.88103],[26.291511,55.940591],[26.392967,55.977725],[26.345348,56.09345],[26.313051,56.150371],[26.205822,56.163601],[26.025523,56.07942],[25.859797,56.081848],[25.795496,56.04013]]]},"properties":{"LOCATION_TYPE":"level1","ADM0_A3":"LVA","LOCATION_ID":"LVA-036","NAME":"Ilukstes","TYPE_EN":"Municipality"}},
{"type":"Feature","geometry":{"type":"Polygon","coordinates":[[[26.226905,55.796931],[26.279718,55.743239],[26.48105,55.678308],[26.594531,55.666991],[26.822838,55.70611],[26.979426,55.826291],[26.934201,55.873902],[26.967739,56.007848],[26.888468,56.128874],[26.718504,56.111252],[26.647914,56.135282],[26.38085,56.196906],[26.335426,56.189749],[26.300803,56.183341],[26.345348,56.09345],[26.392967,55.977725],[26.291511,55.940591],[26.27662,55.88103],[26.349418,55.809887],[26.226905,55.796931]],[[26.518411,55.826556],[26.471864,55.93323],[26.631928,55.897406],[26.518411,55.826556]]]},"properties":{"LOCATION_TYPE":"level1","ADM0_A3":"LVA","LOCATION_ID":"LVA-DGV","NAME":"Daugavpils","TYPE_EN":"Municipality"}},
{"type":"Feature","geometry":{"type":"Polygon","coordinates":[[[28.0511,56.140666],[28.070411,56.208507],[27.852853,56.181946],[27.667593,56.240237],[27.523571,56.248247],[27.447865,56.209386],[27.295936,56.20303],[27.339003,56.140176],[27.263929,56.072868],[27.370069,56.080634],[27.571992,55.997794],[27.641889,56.015915],[27.760064,55.975416],[27.911453,56.100246],[28.0511,56.140666]]]},"properties":{"LOCATION_TYPE":"level1","ADM0_A3":"LVA","LOCATION_ID":"LVA-024","NAME":"Dagdas","TYPE_EN":"Municipality"}},
{"type":"Feature","geometry":{"type":"Polygon","coordinates":[[[27.760064,55.975416],[27.641889,56.015915],[27.571992,55.997794],[27.370069,56.080634],[27.263929,56.072868],[27.188855,56.054747],[27.147435,55.98485],[26.967739,56.007848],[26.934201,55.873902],[26.979426,55.826291],[27.110779,55.836283],[27.282448,55.791867],[27.349627,55.831219],[27.438821,55.79874],[27.592713,55.794244],[27.64501,55.922841],[27.760064,55.975416]]]},"properties":{"LOCATION_TYPE":"level1","ADM0_A3":"LVA","LOCATION_ID":"LVA-047","NAME":"Kraslavas","TYPE_EN":"Municipality"}},
{"type":"Feature","geometry":{"type":"Polygon","coordinates":[[[20.971039,56.25967],[21.055787,56.168324],[21.226347,56.351676],[21.063243,56.493964],[21.035818,56.473944],[21.005382,56.445868],[20.970551,56.388983],[20.971039,56.25967]]]},"properties":{"LOCATION_TYPE":"level1","ADM0_A3":"LVA","LOCATION_ID":"LVA-066","NAME":"Nicas","TYPE_EN":"Municipality"}},
{"type":"Feature","geometry":{"type":"Polygon","coordinates":[[[21.052908,56.511054],[21.10322,56.532771],[21.020642,56.615046],[21.052908,56.511054]]]},"properties":{"LOCATION_TYPE":"level1","ADM0_A3":"LVA","LOCATION_ID":"LVA-LPX","NAME":"Liepāja","TYPE_EN":"Republican City"}},
{"type":"Feature","geometry":{"type":"Polygon","coordinates":[[[21.063243,56.493964],[21.226347,56.351676],[21.379851,56.328224],[21.437416,56.407108],[21.354267,56.503048],[21.256195,56.530764],[21.258327,56.656553],[21.121879,56.635233],[21.046153,56.656195],[21.020642,56.615046],[21.10322,56.532771],[21.052908,56.511054],[21.063243,56.493964]]]},"properties":{"LOCATION_TYPE":"level1","ADM0_A3":"LVA","LOCATION_ID":"LVA-032","NAME":"Grobinas","TYPE_EN":"Municipality"}},
{"type":"Feature","geometry":{"type":"Polygon","coordinates":[[[21.046153,56.656195],[21.121879,56.635233],[21.258327,56.656553],[21.315891,56.739701],[21.320155,56.807925],[21.436449,56.867589],[21.493396,56.903814],[21.395831,56.942416],[21.328187,56.973629],[21.222911,56.907701],[21.065196,56.84634],[21.046153,56.656195]]]},"properties":{"LOCATION_TYPE":"level1","ADM0_A3":"LVA","LOCATION_ID":"LVA-071","NAME":"Pavilostas","TYPE_EN":"Municipality"}},
{"type":"Feature","geometry":{"type":"Polygon","coordinates":[[[21.328187,56.973629],[21.395831,56.942416],[21.472002,56.971355],[21.506161,57.075612],[21.573805,57.085611],[21.711574,57.11685],[21.936574,57.097239],[22.192475,57.124576],[22.206428,57.177854],[22.194026,57.212374],[22.308851,57.288855],[22.259573,57.397946],[22.151651,57.40461],[22.174492,57.471893],[22.271902,57.507239],[22.194509,57.65762],[21.955903,57.592963],[21.771658,57.586127],[21.62167,57.473236],[21.674789,57.400881],[21.511534,57.378658],[21.421397,57.288723],[21.413585,57.073188],[21.328187,56.973629]]]},"properties":{"LOCATION_TYPE":"level1","ADM0_A3":"LVA","LOCATION_ID":"LVA-VEN","NAME":"Ventspils","TYPE_EN":"Municipality"}},
{"type":"Feature","geometry":{"type":"Polygon","coordinates":[[[21.511534,57.378658],[21.674789,57.400881],[21.62167,57.473236],[21.511534,57.378658]]]},"properties":{"LOCATION_TYPE":"level1","ADM0_A3":"LVA","LOCATION_ID":"LVA-VEN","NAME":"Ventspils","TYPE_EN":"Republican City"}},
{"type":"Feature","geometry":{"type":"Polygon","coordinates":[[[22.194509,57.65762],[22.271902,57.507239],[22.174492,57.471893],[22.151651,57.40461],[22.259573,57.397946],[22.476528,57.413566],[22.547402,57.498157],[22.625135,57.50273],[22.570265,57.617042],[22.587169,57.664984],[22.600271,57.743842],[22.483735,57.742499],[22.194509,57.65762]]]},"properties":{"LOCATION_TYPE":"level1","ADM0_A3":"LVA","LOCATION_ID":"LVA-027","NAME":"Dundagas","TYPE_EN":"Municipality"}},
{"type":"Feature","geometry":{"type":"Polygon","coordinates":[[[22.587169,57.664984],[22.570265,57.617042],[22.625135,57.50273],[22.846902,57.388417],[22.994594,57.411893],[22.656098,57.585761],[22.587169,57.664984]]]},"properties":{"LOCATION_TYPE":"level1","ADM0_A3":"LVA","LOCATION_ID":"LVA-079","NAME":"Rojas","TYPE_EN":"Municipality"}},
{"type":"Feature","geometry":{"type":"Polygon","coordinates":[[[22.994594,57.411893],[22.846902,57.388417],[22.625135,57.50273],[22.547402,57.498157],[22.476528,57.413566],[22.259573,57.397946],[22.308851,57.288855],[22.194026,57.212374],[22.206428,57.177854],[22.3489,57.110106],[22.382386,57.019672],[22.508218,57.013833],[22.635807,57.015848],[22.641543,57.094732],[22.930931,57.144574],[23.08038,57.23847],[23.054951,57.283249],[22.920062,57.333547],[23.031423,57.394477],[22.994594,57.411893]]]},"properties":{"LOCATION_TYPE":"level1","ADM0_A3":"LVA","LOCATION_ID":"LVA-097","NAME":"Talsi","TYPE_EN":"Municipality"}},
{"type":"Feature","geometry":{"type":"Polygon","coordinates":[[[23.031423,57.394477],[22.920062,57.333547],[23.054951,57.283249],[23.08038,57.23847],[23.112781,57.26529],[23.160151,57.318607],[23.031423,57.394477]]]},"properties":{"LOCATION_TYPE":"level1","ADM0_A3":"LVA","LOCATION_ID":"LVA-063","NAME":"Mersraga","TYPE_EN":"Municipality"}},
{"type":"Feature","geometry":{"type":"Polygon","coordinates":[[[23.160151,57.318607],[23.112781,57.26529],[23.113039,57.137504],[23.231036,57.06599],[23.141644,56.935478],[23.372275,56.910448],[23.477151,56.936473],[23.578603,56.982092],[23.508556,57.031236],[23.340099,57.05858],[23.250499,57.114447],[23.160151,57.318607]]]},"properties":{"LOCATION_TYPE":"level1","ADM0_A3":"LVA","LOCATION_ID":"LVA-029","NAME":"Engures","TYPE_EN":"Municipality"}},
{"type":"Feature","geometry":{"type":"Polygon","coordinates":[[[23.578603,56.982092],[23.477151,56.936473],[23.492034,56.934639],[23.590392,56.922963],[23.863931,56.955144],[23.95445,56.991384],[23.926931,57.006334],[23.69516,56.967271],[23.578603,56.982092]]]},"properties":{"LOCATION_TYPE":"level1","ADM0_A3":"LVA","LOCATION_ID":"LVA-JUR","NAME":"Jurmala","TYPE_EN":"Republican City"}},
{"type":"Feature","geometry":{"type":"Polygon","coordinates":[[[23.926931,57.006334],[23.95445,56.991384],[23.942653,56.93867],[24.066253,56.886116],[24.088146,56.876134],[24.197004,56.882058],[24.234676,56.930401],[24.320201,56.969029],[24.162383,57.052824],[24.113026,57.088723],[23.926931,57.006334]]]},"properties":{"LOCATION_TYPE":"level1","ADM0_A3":"LVA","LOCATION_ID":"LVA-RIX","NAME":"Riga","TYPE_EN":"Republican City"}},
{"type":"Feature","geometry":{"type":"Polygon","coordinates":[[[24.113026,57.088723],[24.162383,57.052824],[24.247287,57.060057],[24.337681,57.128201],[24.348807,57.183828],[24.330845,57.199755],[24.113026,57.088723]]]},"properties":{"LOCATION_TYPE":"level1","ADM0_A3":"LVA","LOCATION_ID":"LVA-020","NAME":"Carnikavas","TYPE_EN":"Municipality"}},
{"type":"Feature","geometry":{"type":"Polygon","coordinates":[[[24.330845,57.199755],[24.348807,57.183828],[24.372448,57.182437],[24.461287,57.294766],[24.404837,57.348079],[24.400645,57.258124],[24.330845,57.199755]]]},"properties":{"LOCATION_TYPE":"level1","ADM0_A3":"LVA","LOCATION_ID":"LVA-089","NAME":"Saulkrastu","TYPE_EN":"Municipality"}},
{"type":"Feature","geometry":{"type":"Polygon","coordinates":[[[24.404837,57.348079],[24.461287,57.294766],[24.550006,57.316347],[24.681574,57.223071],[24.688133,57.389649],[24.831642,57.395515],[25.079586,57.500211],[25.022328,57.555299],[24.916185,57.555789],[24.881437,57.624674],[24.828591,57.71924],[24.649193,57.770695],[24.564362,57.673347],[24.418341,57.670566],[24.47814,57.567656],[24.578269,57.464745],[24.394893,57.400013],[24.404837,57.348079]]]},"properties":{"LOCATION_TYPE":"level1","ADM0_A3":"LVA","LOCATION_ID":"LVA-054","NAME":"Limbaži","TYPE_EN":"Municipality"}},
{"type":"Feature","geometry":{"type":"Polygon","coordinates":[[[26.3115,57.499333],[26.123351,57.569215],[25.945092,57.530145],[25.935325,57.476423],[25.776334,57.499688],[25.657948,57.464606],[25.751638,57.337689],[25.745127,57.275109],[25.769871,57.278712],[25.991727,57.290018],[26.058596,57.26529],[26.261994,57.28193],[26.276154,57.331023],[26.320492,57.423782],[26.3115,57.499333]]]},"properties":{"LOCATION_TYPE":"level1","ADM0_A3":"LVA","LOCATION_ID":"LVA-094","NAME":"Smiltenes","TYPE_EN":"Municipality"}},
{"type":"Feature","geometry":{"type":"Polygon","coordinates":[[[27.487087,57.273869],[27.354899,57.284772],[27.156565,57.226378],[27.008104,57.114504],[27.32548,57.061707],[27.332316,56.936394],[27.200168,56.861207],[26.985103,56.878234],[26.953324,56.846677],[26.928465,56.831105],[27.057915,56.800358],[27.339861,56.782684],[27.446702,56.852664],[27.416617,56.902218],[27.637622,57.018417],[27.402946,57.159678],[27.487087,57.273869]]]},"properties":{"LOCATION_TYPE":"level1","ADM0_A3":"LVA","LOCATION_ID":"LVA-015","NAME":"Balvu","TYPE_EN":"Municipality"}},
{"type":"Feature","geometry":{"type":"Polygon","coordinates":[[[25.591234,57.614106],[25.694919,57.615548],[25.821739,57.524739],[25.776334,57.499688],[25.935325,57.476423],[25.945092,57.530145],[25.901138,57.58875],[25.989046,57.671775],[25.859626,57.683984],[25.847416,57.752358],[25.688656,57.737671],[25.621332,57.718883],[25.591234,57.614106]]]},"properties":{"LOCATION_TYPE":"level1","ADM0_A3":"LVA","LOCATION_ID":"LVA-096","NAME":"Strencu","TYPE_EN":"Municipality"}},
{"type":"Feature","geometry":{"type":"Polygon","coordinates":[[[25.776334,57.499688],[25.821739,57.524739],[25.694919,57.615548],[25.591234,57.614106],[25.456936,57.537264],[25.377086,57.509082],[25.398791,57.441249],[25.657948,57.464606],[25.776334,57.499688]]]},"properties":{"LOCATION_TYPE":"level1","ADM0_A3":"LVA","LOCATION_ID":"LVA-017","NAME":"Beverinas","TYPE_EN":"Municipality"}},
{"type":"Feature","geometry":{"type":"Polygon","coordinates":[[[25.55289,57.79239],[25.45537,57.789338],[25.245569,57.800298],[25.017469,57.79647],[25.098706,57.736011],[25.093745,57.653122],[25.198599,57.65469],[25.378652,57.549789],[25.456936,57.537264],[25.591234,57.614106],[25.621332,57.718883],[25.688656,57.737671],[25.55289,57.79239]]]},"properties":{"LOCATION_TYPE":"level1","ADM0_A3":"LVA","LOCATION_ID":"LVA-019","NAME":"Burtnieku","TYPE_EN":"Municipality"}},
{"type":"Feature","geometry":{"type":"Polygon","coordinates":[[[24.881437,57.624674],[24.916185,57.555789],[25.022328,57.555299],[25.079586,57.500211],[25.196891,57.421844],[25.386854,57.386058],[25.398791,57.441249],[25.377086,57.509082],[25.378652,57.549789],[25.198599,57.65469],[25.093745,57.653122],[24.881437,57.624674]]]},"properties":{"LOCATION_TYPE":"level1","ADM0_A3":"LVA","LOCATION_ID":"LVA-045","NAME":"Kocenu","TYPE_EN":"Municipality"}},
{"type":"Feature","geometry":{"type":"Polygon","coordinates":[[[26.928465,56.831105],[26.772557,56.681011],[26.981754,56.593209],[27.041296,56.46636],[26.925365,56.447614],[26.897614,56.411312],[27.038019,56.180111],[27.150829,56.20843],[27.295936,56.20303],[27.447865,56.209386],[27.523571,56.248247],[27.667593,56.240237],[27.715497,56.298476],[27.689917,56.360617],[27.487087,56.499497],[27.56114,56.575927],[27.580208,56.619438],[27.47205,56.66326],[27.455498,56.771834],[27.339861,56.782684],[27.057915,56.800358],[26.928465,56.831105]],[[27.339069,56.474906],[27.274284,56.515546],[27.363711,56.555221],[27.339069,56.474906]]]},"properties":{"LOCATION_TYPE":"level1","ADM0_A3":"LVA","LOCATION_ID":"LVA-REZ","NAME":"Rezeknes","TYPE_EN":"Municipality"}},
{"type":"Feature","geometry":{"type":"Polygon","coordinates":[[[25.745127,57.275109],[25.600978,57.264836],[25.560271,57.222563],[25.563402,57.14741],[25.616635,57.065995],[25.503995,56.99482],[25.727143,56.998692],[25.886358,56.964224],[25.9231,57.097445],[25.774768,57.153673],[25.771637,57.199078],[25.769871,57.278712],[25.745127,57.275109]]]},"properties":{"LOCATION_TYPE":"level1","ADM0_A3":"LVA","LOCATION_ID":"LVA-104","NAME":"Vecpiebalgas","TYPE_EN":"Municipality"}},
{"type":"Feature","geometry":{"type":"MultiPolygon","coordinates":[[[[25.657948,57.464606],[25.602544,57.377565],[25.511735,57.360342],[25.600978,57.264836],[25.745127,57.275109],[25.751638,57.337689],[25.657948,57.464606]]],[[[26.058596,57.26529],[25.991727,57.290018],[25.769871,57.278712],[25.771637,57.199078],[25.945427,57.191249],[26.013431,57.221055],[26.058596,57.26529]]]]},"properties":{"LOCATION_TYPE":"level1","ADM0_A3":"LVA","LOCATION_ID":"LVA-076","NAME":"Raunas","TYPE_EN":"Municipality"}},
{"type":"Feature","geometry":{"type":"Polygon","coordinates":[[[25.657948,57.464606],[25.398791,57.441249],[25.386854,57.386058],[25.231478,57.330595],[25.394309,57.302412],[25.560271,57.222563],[25.600978,57.264836],[25.511735,57.360342],[25.602544,57.377565],[25.657948,57.464606]]]},"properties":{"LOCATION_TYPE":"level1","ADM0_A3":"LVA","LOCATION_ID":"LVA-075","NAME":"Priekulu","TYPE_EN":"Municipality"}},
{"type":"Feature","geometry":{"type":"Polygon","coordinates":[[[25.079586,57.500211],[24.831642,57.395515],[24.933135,57.246222],[25.090567,57.247614],[25.231478,57.29615],[25.231478,57.330595],[25.386854,57.386058],[25.196891,57.421844],[25.079586,57.500211]]]},"properties":{"LOCATION_TYPE":"level1","ADM0_A3":"LVA","LOCATION_ID":"LVA-070","NAME":"Pargaujas","TYPE_EN":"Municipality"}},
{"type":"Feature","geometry":{"type":"Polygon","coordinates":[[[24.831642,57.395515],[24.688133,57.389649],[24.681574,57.223071],[24.665882,57.125419],[24.779917,57.135154],[24.900372,57.218678],[24.933135,57.246222],[24.831642,57.395515]]]},"properties":{"LOCATION_TYPE":"level1","ADM0_A3":"LVA","LOCATION_ID":"LVA-048","NAME":"Krimuldas","TYPE_EN":"Municipality"}},
{"type":"Feature","geometry":{"type":"Polygon","coordinates":[[[26.276154,57.331023],[26.261994,57.28193],[26.058596,57.26529],[26.013431,57.221055],[26.16815,57.143437],[26.116783,57.078067],[26.183188,57.082614],[26.369378,57.044632],[26.532934,57.025253],[26.568177,56.948411],[26.757623,56.992956],[26.860046,56.983008],[26.860511,57.018019],[27.008104,57.114504],[27.156565,57.226378],[26.988513,57.304409],[26.714783,57.306477],[26.594222,57.391303],[26.474746,57.375051],[26.359456,57.322548],[26.276154,57.331023]]]},"properties":{"LOCATION_TYPE":"level1","ADM0_A3":"LVA","LOCATION_ID":"LVA-033","NAME":"Gulbene","TYPE_EN":"Municipality"}},
{"type":"Feature","geometry":{"type":"Polygon","coordinates":[[[26.860046,56.983008],[26.985103,56.878234],[27.200168,56.861207],[27.332316,56.936394],[27.32548,57.061707],[27.008104,57.114504],[26.860511,57.018019],[26.860046,56.983008]]]},"properties":{"LOCATION_TYPE":"level1","ADM0_A3":"LVA","LOCATION_ID":"LVA-082","NAME":"Rugaju","TYPE_EN":"Municipality"}},
{"type":"Feature","geometry":{"type":"Polygon","coordinates":[[[26.013431,57.221055],[25.945427,57.191249],[25.771637,57.199078],[25.774768,57.153673],[25.9231,57.097445],[26.116783,57.078067],[26.16815,57.143437],[26.013431,57.221055]]]},"properties":{"LOCATION_TYPE":"level1","ADM0_A3":"LVA","LOCATION_ID":"LVA-039","NAME":"Jaunpiebalgas","TYPE_EN":"Municipality"}},
{"type":"Feature","geometry":{"type":"Polygon","coordinates":[[[27.038019,56.180111],[26.888468,56.128874],[26.967739,56.007848],[27.147435,55.98485],[27.188855,56.054747],[27.263929,56.072868],[27.339003,56.140176],[27.295936,56.20303],[27.150829,56.20843],[27.038019,56.180111]]]},"properties":{"LOCATION_TYPE":"level1","ADM0_A3":"LVA","LOCATION_ID":"LVA-001","NAME":"Aglonas","TYPE_EN":"Municipality"}},
{"type":"Feature","geometry":{"type":"Polygon","coordinates":[[[26.925365,56.447614],[26.74367,56.558848],[26.62776,56.543732],[26.54053,56.489679],[26.576397,56.433271],[26.733548,56.396051],[26.650837,56.336085],[26.783175,56.282322],[26.888468,56.128874],[27.038019,56.180111],[26.897614,56.411312],[26.925365,56.447614]]]},"properties":{"LOCATION_TYPE":"level1","ADM0_A3":"LVA","LOCATION_ID":"LVA-078","NAME":"Riebinu","TYPE_EN":"Municipality"}},
{"type":"Feature","geometry":{"type":"Polygon","coordinates":[[[26.74367,56.558848],[26.925365,56.447614],[27.041296,56.46636],[26.981754,56.593209],[26.772557,56.681011],[26.74367,56.558848]]]},"properties":{"LOCATION_TYPE":"level1","ADM0_A3":"LVA","LOCATION_ID":"LVA-109","NAME":"Vilanu","TYPE_EN":"Municipality"}},
{"type":"Feature","geometry":{"type":"Polygon","coordinates":[[[23.95445,56.991384],[23.863931,56.955144],[23.590392,56.922963],[23.492034,56.934639],[23.506762,56.894615],[23.626238,56.889241],[23.76964,56.800048],[23.854992,56.82642],[23.822811,56.883631],[23.942653,56.93867],[23.95445,56.991384]]]},"properties":{"LOCATION_TYPE":"level1","ADM0_A3":"LVA","LOCATION_ID":"LVA-012","NAME":"Babites","TYPE_EN":"Municipality"}},
{"type":"Feature","geometry":{"type":"Polygon","coordinates":[[[24.320201,56.969029],[24.371677,56.944417],[24.401279,56.994874],[24.531791,57.002025],[24.56553,57.060001],[24.508735,57.10595],[24.320993,57.028072],[24.247287,57.060057],[24.162383,57.052824],[24.320201,56.969029]]]},"properties":{"LOCATION_TYPE":"level1","ADM0_A3":"LVA","LOCATION_ID":"LVA-031","NAME":"Garkalnes","TYPE_EN":"Municipality"}},
{"type":"Feature","geometry":{"type":"Polygon","coordinates":[[[24.197004,56.882058],[24.088146,56.876134],[24.123168,56.821057],[23.996344,56.730491],[24.008127,56.709975],[24.188165,56.717943],[24.346648,56.787088],[24.525459,56.752402],[24.512695,56.817101],[24.444017,56.837668],[24.217923,56.828208],[24.197004,56.882058]]]},"properties":{"LOCATION_TYPE":"level1","ADM0_A3":"LVA","LOCATION_ID":"LVA-052","NAME":"Kekavas","TYPE_EN":"Municipality"}},
{"type":"Feature","geometry":{"type":"Polygon","coordinates":[[[23.942653,56.93867],[23.822811,56.883631],[23.854992,56.82642],[24.066253,56.886116],[23.942653,56.93867]]]},"properties":{"LOCATION_TYPE":"level1","ADM0_A3":"LVA","LOCATION_ID":"LVA-062","NAME":"Marupes","TYPE_EN":"Municipality"}},
{"type":"Feature","geometry":{"type":"MultiPolygon","coordinates":[[[[24.066253,56.886116],[23.854992,56.82642],[23.76964,56.800048],[23.756307,56.744134],[23.996344,56.730491],[24.123168,56.821057],[24.088146,56.876134],[24.066253,56.886116]]],[[[24.230455,56.699423],[24.188165,56.717943],[24.008127,56.709975],[24.033913,56.68822],[24.16021,56.670107],[24.230455,56.699423]]]]},"properties":{"LOCATION_TYPE":"level1","ADM0_A3":"LVA","LOCATION_ID":"LVA-068","NAME":"Olaines","TYPE_EN":"Municipality"}},
{"type":"Feature","geometry":{"type":"Polygon","coordinates":[[[24.234676,56.930401],[24.197004,56.882058],[24.217923,56.828208],[24.444017,56.837668],[24.45735,56.886838],[24.405646,56.926539],[24.234676,56.930401]]]},"properties":{"LOCATION_TYPE":"level1","ADM0_A3":"LVA","LOCATION_ID":"LVA-087","NAME":"Salaspils","TYPE_EN":"Municipality"}},
{"type":"Feature","geometry":{"type":"Polygon","coordinates":[[[24.234676,56.930401],[24.405646,56.926539],[24.371677,56.944417],[24.320201,56.969029],[24.234676,56.930401]]]},"properties":{"LOCATION_TYPE":"level1","ADM0_A3":"LVA","LOCATION_ID":"LVA-095","NAME":"Stopinu","TYPE_EN":"Municipality"}},
{"type":"Feature","geometry":{"type":"Polygon","coordinates":[[[24.681574,57.223071],[24.550006,57.316347],[24.461287,57.294766],[24.372448,57.182437],[24.467014,57.182437],[24.508735,57.10595],[24.665882,57.125419],[24.681574,57.223071]]]},"properties":{"LOCATION_TYPE":"level1","ADM0_A3":"LVA","LOCATION_ID":"LVA-090","NAME":"Sejas","TYPE_EN":"Municipality"}},
{"type":"Feature","geometry":{"type":"Polygon","coordinates":[[[25.14754,56.98939],[24.989307,57.0606],[24.817845,56.989511],[24.807406,56.933889],[24.89045,56.922676],[25.142579,56.950788],[25.14754,56.98939]]]},"properties":{"LOCATION_TYPE":"level1","ADM0_A3":"LVA","LOCATION_ID":"LVA-061","NAME":"Malpils","TYPE_EN":"Municipality"}},
{"type":"Feature","geometry":{"type":"Polygon","coordinates":[[[25.14754,56.98939],[25.168851,57.067561],[25.112487,57.109834],[24.987447,57.124679],[24.900372,57.218678],[24.779917,57.135154],[24.759057,57.078136],[24.630122,57.061024],[24.726666,56.989511],[24.817845,56.989511],[24.989307,57.0606],[25.14754,56.98939]]]},"properties":{"LOCATION_TYPE":"level1","ADM0_A3":"LVA","LOCATION_ID":"LVA-091","NAME":"Siguldas","TYPE_EN":"Municipality"}},
{"type":"Feature","geometry":{"type":"Polygon","coordinates":[[[26.953324,56.846677],[26.861349,56.900033],[26.67973,56.884376],[26.577961,56.804527],[26.473061,56.854629],[26.568177,56.948411],[26.532934,57.025253],[26.369378,57.044632],[26.393211,56.970489],[26.222552,56.928215],[26.183188,57.082614],[26.116783,57.078067],[25.9231,57.097445],[25.886358,56.964224],[25.953256,56.925084],[25.774768,56.890639],[25.765487,56.828185],[25.842743,56.789247],[25.834372,56.712275],[25.932092,56.637835],[26.131046,56.653907],[26.224632,56.609878],[26.375579,56.635923],[26.388514,56.677707],[26.535688,56.677707],[26.648416,56.716849],[26.772557,56.681011],[26.928465,56.831105],[26.953324,56.846677]]]},"properties":{"LOCATION_TYPE":"level1","ADM0_A3":"LVA","LOCATION_ID":"LVA-059","NAME":"Madona","TYPE_EN":"Municipality"}},
{"type":"Feature","geometry":{"type":"Polygon","coordinates":[[[26.985103,56.878234],[26.860046,56.983008],[26.757623,56.992956],[26.568177,56.948411],[26.473061,56.854629],[26.577961,56.804527],[26.67973,56.884376],[26.861349,56.900033],[26.953324,56.846677],[26.985103,56.878234]]]},"properties":{"LOCATION_TYPE":"level1","ADM0_A3":"LVA","LOCATION_ID":"LVA-057","NAME":"Lubanas","TYPE_EN":"Municipality"}},
{"type":"Feature","geometry":{"type":"Polygon","coordinates":[[[26.772557,56.681011],[26.648416,56.716849],[26.535688,56.677707],[26.388514,56.677707],[26.375579,56.635923],[26.593757,56.59515],[26.62776,56.543732],[26.74367,56.558848],[26.772557,56.681011]]]},"properties":{"LOCATION_TYPE":"level1","ADM0_A3":"LVA","LOCATION_ID":"LVA-102","NAME":"Varaklanu","TYPE_EN":"Municipality"}},
{"type":"Feature","geometry":{"type":"Polygon","coordinates":[[[25.488191,56.994454],[25.503995,56.99482],[25.616635,57.065995],[25.563402,57.14741],[25.380218,57.188118],[25.359864,57.231957],[25.231478,57.29615],[25.090567,57.247614],[25.189205,57.163067],[25.112487,57.109834],[25.168851,57.067561],[25.14754,56.98939],[25.142579,56.950788],[25.233995,56.934303],[25.488191,56.994454]]]},"properties":{"LOCATION_TYPE":"level1","ADM0_A3":"LVA","LOCATION_ID":"LVA-008","NAME":"Amatas","TYPE_EN":"Municipality"}},
{"type":"Feature","geometry":{"type":"Polygon","coordinates":[[[25.488191,56.994454],[25.5316,56.932649],[25.5054,56.813096],[25.69221,56.770489],[25.765487,56.828185],[25.774768,56.890639],[25.953256,56.925084],[25.886358,56.964224],[25.727143,56.998692],[25.503995,56.99482],[25.488191,56.994454]]]},"properties":{"LOCATION_TYPE":"level1","ADM0_A3":"LVA","LOCATION_ID":"LVA-030","NAME":"Erglu","TYPE_EN":"Municipality"}},
{"type":"Feature","geometry":{"type":"Polygon","coordinates":[[[26.369378,57.044632],[26.183188,57.082614],[26.222552,56.928215],[26.393211,56.970489],[26.369378,57.044632]]]},"properties":{"LOCATION_TYPE":"level1","ADM0_A3":"LVA","LOCATION_ID":"LVA-021","NAME":"Cesvaines","TYPE_EN":"Municipality"}},
{"type":"Feature","geometry":{"type":"Polygon","coordinates":[[[25.488191,56.994454],[25.233995,56.934303],[25.142579,56.950788],[24.89045,56.922676],[24.807406,56.933889],[24.693273,56.895472],[24.587657,56.812201],[24.724864,56.736436],[24.816731,56.834091],[24.923587,56.800698],[25.041575,56.789567],[25.097466,56.737157],[25.176299,56.703334],[25.278385,56.69685],[25.5054,56.813096],[25.5316,56.932649],[25.488191,56.994454]]]},"properties":{"LOCATION_TYPE":"level1","ADM0_A3":"LVA","LOCATION_ID":"LVA-067","NAME":"Ogre","TYPE_EN":"Municipality"}},
{"type":"Feature","geometry":{"type":"Polygon","coordinates":[[[24.807406,56.933889],[24.817845,56.989511],[24.726666,56.989511],[24.630122,57.061024],[24.56553,57.060001],[24.531791,57.002025],[24.401279,56.994874],[24.371677,56.944417],[24.405646,56.926539],[24.45735,56.886838],[24.693273,56.895472],[24.807406,56.933889]]]},"properties":{"LOCATION_TYPE":"level1","ADM0_A3":"LVA","LOCATION_ID":"LVA-080","NAME":"Ropazu","TYPE_EN":"Municipality"}},
{"type":"Feature","geometry":{"type":"Polygon","coordinates":[[[24.512695,56.817101],[24.587657,56.812201],[24.693273,56.895472],[24.45735,56.886838],[24.444017,56.837668],[24.512695,56.817101]]]},"properties":{"LOCATION_TYPE":"level1","ADM0_A3":"LVA","LOCATION_ID":"LVA-035","NAME":"Ikskiles","TYPE_EN":"Municipality"}},
{"type":"Feature","geometry":{"type":"Polygon","coordinates":[[[24.525459,56.752402],[24.346648,56.787088],[24.188165,56.717943],[24.230455,56.699423],[24.355359,56.661564],[24.521894,56.713645],[24.525459,56.752402]]]},"properties":{"LOCATION_TYPE":"level1","ADM0_A3":"LVA","LOCATION_ID":"LVA-013","NAME":"Baldones","TYPE_EN":"Municipality"}},
{"type":"Feature","geometry":{"type":"Polygon","coordinates":[[[24.521894,56.713645],[24.600907,56.70703],[24.599667,56.620679],[24.732475,56.544249],[24.949987,56.578568],[25.04951,56.611997],[25.024344,56.624554],[24.905203,56.64765],[24.799755,56.715212],[24.923587,56.800698],[24.816731,56.834091],[24.724864,56.736436],[24.587657,56.812201],[24.512695,56.817101],[24.525459,56.752402],[24.521894,56.713645]]]},"properties":{"LOCATION_TYPE":"level1","ADM0_A3":"LVA","LOCATION_ID":"LVA-051","NAME":"Keguma","TYPE_EN":"Municipality"}},
{"type":"Feature","geometry":{"type":"Polygon","coordinates":[[[24.355359,56.661564],[24.230455,56.699423],[24.16021,56.670107],[24.033913,56.68822],[24.078872,56.535464],[24.234014,56.501033],[24.380617,56.529639],[24.309103,56.611879],[24.355359,56.661564]]]},"properties":{"LOCATION_TYPE":"level1","ADM0_A3":"LVA","LOCATION_ID":"LVA-034","NAME":"Iecavas","TYPE_EN":"Municipality"}},
{"type":"Feature","geometry":{"type":"Polygon","coordinates":[[[25.765487,56.828185],[25.69221,56.770489],[25.495535,56.611843],[25.569788,56.576702],[25.756909,56.612255],[25.932092,56.637835],[25.834372,56.712275],[25.842743,56.789247],[25.765487,56.828185]]]},"properties":{"LOCATION_TYPE":"level1","ADM0_A3":"LVA","LOCATION_ID":"LVA-072","NAME":"Plavinu","TYPE_EN":"Municipality"}},
{"type":"Feature","geometry":{"type":"Polygon","coordinates":[[[25.5054,56.813096],[25.278385,56.69685],[25.293374,56.591109],[25.398448,56.630723],[25.495535,56.611843],[25.69221,56.770489],[25.5054,56.813096]]]},"properties":{"LOCATION_TYPE":"level1","ADM0_A3":"LVA","LOCATION_ID":"LVA-046","NAME":"Kokneses","TYPE_EN":"Municipality"}},
{"type":"Feature","geometry":{"type":"Polygon","coordinates":[[[25.278385,56.69685],[25.176299,56.703334],[25.138601,56.619147],[25.293374,56.591109],[25.278385,56.69685]]]},"properties":{"LOCATION_TYPE":"level1","ADM0_A3":"LVA","LOCATION_ID":"LVA-002","NAME":"Aizkraukles","TYPE_EN":"Municipality"}},
{"type":"Feature","geometry":{"type":"Polygon","coordinates":[[[25.097466,56.737157],[25.016902,56.681502],[25.024344,56.624554],[25.04951,56.611997],[25.138601,56.619147],[25.176299,56.703334],[25.097466,56.737157]]]},"properties":{"LOCATION_TYPE":"level1","ADM0_A3":"LVA","LOCATION_ID":"LVA-092","NAME":"Skriveru","TYPE_EN":"Municipality"}},
{"type":"Feature","geometry":{"type":"Polygon","coordinates":[[[25.097466,56.737157],[25.041575,56.789567],[24.923587,56.800698],[24.799755,56.715212],[24.905203,56.64765],[25.024344,56.624554],[25.016902,56.681502],[25.097466,56.737157]]]},"properties":{"LOCATION_TYPE":"level1","ADM0_A3":"LVA","LOCATION_ID":"LVA-053","NAME":"Lielvardes","TYPE_EN":"Municipality"}},
{"type":"Feature","geometry":{"type":"Polygon","coordinates":[[[24.949987,56.578568],[25.013512,56.49567],[25.074298,56.402702],[25.293578,56.407901],[25.455584,56.413353],[25.594645,56.467148],[25.569788,56.576702],[25.495535,56.611843],[25.398448,56.630723],[25.293374,56.591109],[25.138601,56.619147],[25.04951,56.611997],[24.949987,56.578568]]]},"properties":{"LOCATION_TYPE":"level1","ADM0_A3":"LVA","LOCATION_ID":"LVA-038","NAME":"Jaunjelgavas","TYPE_EN":"Municipality"}},
{"type":"Feature","geometry":{"type":"Polygon","coordinates":[[[26.647914,56.135282],[26.718504,56.111252],[26.888468,56.128874],[26.783175,56.282322],[26.650837,56.336085],[26.733548,56.396051],[26.576397,56.433271],[26.541244,56.375373],[26.60121,56.282322],[26.659108,56.259577],[26.647914,56.135282]]]},"properties":{"LOCATION_TYPE":"level1","ADM0_A3":"LVA","LOCATION_ID":"LVA-073","NAME":"Preilu","TYPE_EN":"Municipality"}},
{"type":"Feature","geometry":{"type":"Polygon","coordinates":[[[26.335426,56.189749],[26.29311,56.28439],[26.441991,56.26578],[26.60121,56.282322],[26.541244,56.375373],[26.576397,56.433271],[26.54053,56.489679],[26.362557,56.450844],[26.257188,56.512003],[26.088516,56.406428],[26.156988,56.380332],[26.193523,56.226077],[26.300803,56.183341],[26.335426,56.189749]]]},"properties":{"LOCATION_TYPE":"level1","ADM0_A3":"LVA","LOCATION_ID":"LVA-056","NAME":"Livanu","TYPE_EN":"Municipality"}},
{"type":"Feature","geometry":{"type":"Polygon","coordinates":[[[26.335426,56.189749],[26.38085,56.196906],[26.647914,56.135282],[26.659108,56.259577],[26.60121,56.282322],[26.441991,56.26578],[26.29311,56.28439],[26.335426,56.189749]]]},"properties":{"LOCATION_TYPE":"level1","ADM0_A3":"LVA","LOCATION_ID":"LVA-103","NAME":"Varkavas","TYPE_EN":"Municipality"}},
{"type":"Feature","geometry":{"type":"Polygon","coordinates":[[[26.088516,56.406428],[26.055268,56.451361],[25.876557,56.495307],[25.820737,56.486807],[25.842999,56.413343],[25.733916,56.35101],[25.680488,56.29313],[25.693845,56.228571],[25.876391,56.221892],[26.025523,56.07942],[26.205822,56.163601],[26.313051,56.150371],[26.345348,56.09345],[26.300803,56.183341],[26.193523,56.226077],[26.156988,56.380332],[26.088516,56.406428]]]},"properties":{"LOCATION_TYPE":"level1","ADM0_A3":"LVA","LOCATION_ID":"LVA-JKB","NAME":"Jekabpils","TYPE_EN":"Municipality"}},
{"type":"Feature","geometry":{"type":"Polygon","coordinates":[[[26.088516,56.406428],[26.257188,56.512003],[26.362557,56.450844],[26.54053,56.489679],[26.62776,56.543732],[26.593757,56.59515],[26.375579,56.635923],[26.224632,56.609878],[26.131046,56.653907],[25.932092,56.637835],[25.756909,56.612255],[25.826427,56.527167],[25.876557,56.495307],[26.055268,56.451361],[26.088516,56.406428]]]},"properties":{"LOCATION_TYPE":"level1","ADM0_A3":"LVA","LOCATION_ID":"LVA-049","NAME":"Krustpils","TYPE_EN":"Municipality"}},
{"type":"Feature","geometry":{"type":"Polygon","coordinates":[[[25.756909,56.612255],[25.569788,56.576702],[25.594645,56.467148],[25.676035,56.366594],[25.733916,56.35101],[25.842999,56.413343],[25.820737,56.486807],[25.826427,56.527167],[25.756909,56.612255]]]},"properties":{"LOCATION_TYPE":"level1","ADM0_A3":"LVA","LOCATION_ID":"LVA-086","NAME":"Salas","TYPE_EN":"Municipality"}},
{"type":"Feature","geometry":{"type":"Polygon","coordinates":[[[21.436449,56.867589],[21.320155,56.807925],[21.315891,56.739701],[21.45234,56.645893],[21.571732,56.658685],[21.571732,56.560612],[21.712444,56.549952],[21.795394,56.573343],[21.822989,56.687858],[21.738446,56.764132],[21.593029,56.845135],[21.436449,56.867589]]]},"properties":{"LOCATION_TYPE":"level1","ADM0_A3":"LVA","LOCATION_ID":"LVA-003","NAME":"Aizputes","TYPE_EN":"Municipality"}},
{"type":"Feature","geometry":{"type":"Polygon","coordinates":[[[21.436449,56.867589],[21.593029,56.845135],[21.738446,56.764132],[21.822989,56.687858],[21.959834,56.732261],[21.934685,56.798562],[22.092437,56.823711],[22.162658,56.795035],[22.341303,56.847486],[22.454888,56.917095],[22.508218,57.013833],[22.382386,57.019672],[22.3489,57.110106],[22.206428,57.177854],[22.192475,57.124576],[21.936574,57.097239],[21.711574,57.11685],[21.573805,57.085611],[21.706059,56.956314],[21.493396,56.903814],[21.436449,56.867589]]]},"properties":{"LOCATION_TYPE":"level1","ADM0_A3":"LVA","LOCATION_ID":"LVA-050","NAME":"Kuldigas","TYPE_EN":"Municipality"}},
{"type":"Feature","geometry":{"type":"Polygon","coordinates":[[[21.493396,56.903814],[21.706059,56.956314],[21.573805,57.085611],[21.506161,57.075612],[21.472002,56.971355],[21.395831,56.942416],[21.493396,56.903814]]]},"properties":{"LOCATION_TYPE":"level1","ADM0_A3":"LVA","LOCATION_ID":"LVA-006","NAME":"Alsungas","TYPE_EN":"Municipality"}},
{"type":"Feature","geometry":{"type":"Polygon","coordinates":[[[21.795394,56.573343],[21.833066,56.523966],[21.966701,56.506629],[22.011401,56.55505],[22.126071,56.582206],[22.10354,56.672872],[22.18922,56.741756],[22.162658,56.795035],[22.092437,56.823711],[21.934685,56.798562],[21.959834,56.732261],[21.822989,56.687858],[21.795394,56.573343]]]},"properties":{"LOCATION_TYPE":"level1","ADM0_A3":"LVA","LOCATION_ID":"LVA-093","NAME":"Skrundas","TYPE_EN":"Municipality"}},
{"type":"Feature","geometry":{"type":"Polygon","coordinates":[[[22.454888,56.917095],[22.490855,56.851517],[22.788925,56.803872],[22.943194,56.855025],[22.916376,56.915812],[22.83056,56.949781],[22.841287,57.078505],[22.930931,57.144574],[22.641543,57.094732],[22.635807,57.015848],[22.508218,57.013833],[22.454888,56.917095]]]},"properties":{"LOCATION_TYPE":"level1","ADM0_A3":"LVA","LOCATION_ID":"LVA-043","NAME":"Kandavas","TYPE_EN":"Municipality"}},
{"type":"Feature","geometry":{"type":"Polygon","coordinates":[[[23.492034,56.934639],[23.477151,56.936473],[23.372275,56.910448],[23.141644,56.935478],[23.231036,57.06599],[23.113039,57.137504],[23.112781,57.26529],[23.08038,57.23847],[22.930931,57.144574],[22.841287,57.078505],[22.83056,56.949781],[22.916376,56.915812],[22.943194,56.855025],[23.055828,56.794239],[23.123323,56.698813],[23.299643,56.71535],[23.321967,56.782116],[23.486608,56.815912],[23.506762,56.894615],[23.492034,56.934639]]]},"properties":{"LOCATION_TYPE":"level1","ADM0_A3":"LVA","LOCATION_ID":"LVA-099","NAME":"Tukums","TYPE_EN":"Municipality"}},
{"type":"Feature","geometry":{"type":"Polygon","coordinates":[[[23.486608,56.815912],[23.321967,56.782116],[23.299643,56.71535],[23.123323,56.698813],[22.826028,56.69809],[22.859256,56.644243],[22.798123,56.56833],[22.961072,56.601152],[23.088009,56.545729],[23.148796,56.433095],[23.415088,56.493296],[23.458651,56.544818],[23.405941,56.606442],[23.485368,56.660289],[23.417413,56.706823],[23.525262,56.763667],[23.486608,56.815912]]]},"properties":{"LOCATION_TYPE":"level1","ADM0_A3":"LVA","LOCATION_ID":"LVA-026","NAME":"Dobele","TYPE_EN":"Municipality"}},
{"type":"Feature","geometry":{"type":"Polygon","coordinates":[[[22.826028,56.69809],[23.123323,56.698813],[23.055828,56.794239],[22.943194,56.855025],[22.788925,56.803872],[22.826028,56.69809]]]},"properties":{"LOCATION_TYPE":"level1","ADM0_A3":"LVA","LOCATION_ID":"LVA-040","NAME":"Jaunpils","TYPE_EN":"Municipality"}},
{"type":"Feature","geometry":{"type":"Polygon","coordinates":[[[22.788925,56.803872],[22.490855,56.851517],[22.442234,56.771127],[22.549688,56.579081],[22.654856,56.60423],[22.712074,56.565373],[22.798123,56.56833],[22.859256,56.644243],[22.826028,56.69809],[22.788925,56.803872]]]},"properties":{"LOCATION_TYPE":"level1","ADM0_A3":"LVA","LOCATION_ID":"LVA-018","NAME":"Brocenu","TYPE_EN":"Municipality"}},
{"type":"Feature","geometry":{"type":"Polygon","coordinates":[[[23.996344,56.730491],[23.756307,56.744134],[23.73121,56.690499],[23.791942,56.646881],[23.912203,56.608304],[23.992314,56.502546],[24.017743,56.502013],[24.078872,56.535464],[24.033913,56.68822],[24.008127,56.709975],[23.996344,56.730491]]]},"properties":{"LOCATION_TYPE":"level1","ADM0_A3":"LVA","LOCATION_ID":"LVA-069","NAME":"Ozolnieku","TYPE_EN":"Municipality"}},
{"type":"Feature","geometry":{"type":"Polygon","coordinates":[[[23.73121,56.690499],[23.617951,56.669544],[23.707587,56.591887],[23.791942,56.646881],[23.73121,56.690499]]]},"properties":{"LOCATION_TYPE":"level1","ADM0_A3":"LVA","LOCATION_ID":"LVA-JEL","NAME":"Jelgava","TYPE_EN":"Republican City"}},
{"type":"Feature","geometry":{"type":"Polygon","coordinates":[[[26.518411,55.826556],[26.631928,55.897406],[26.471864,55.93323],[26.518411,55.826556]]]},"properties":{"LOCATION_TYPE":"level1","ADM0_A3":"LVA","LOCATION_ID":"LVA-DGV","NAME":"Daugavpils","TYPE_EN":"Republican City"}},
{"type":"Feature","geometry":{"type":"Polygon","coordinates":[[[27.339069,56.474906],[27.363711,56.555221],[27.274284,56.515546],[27.339069,56.474906]]]},"properties":{"LOCATION_TYPE":"level1","ADM0_A3":"LVA","LOCATION_ID":"LVA-REZ","NAME":"Rezekne","TYPE_EN":"Republican City"}},
{"type":"Feature","geometry":{"type":"Polygon","coordinates":[[[21.315891,56.739701],[21.258327,56.656553],[21.256195,56.530764],[21.354267,56.503048],[21.433152,56.545688],[21.571732,56.560612],[21.571732,56.658685],[21.45234,56.645893],[21.315891,56.739701]]]},"properties":{"LOCATION_TYPE":"level1","ADM0_A3":"LVA","LOCATION_ID":"LVA-028","NAME":"Durbes","TYPE_EN":"Municipality"}},
{"type":"Feature","geometry":{"type":"Polygon","coordinates":[[[24.630122,57.061024],[24.759057,57.078136],[24.779917,57.135154],[24.665882,57.125419],[24.508735,57.10595],[24.56553,57.060001],[24.630122,57.061024]]]},"properties":{"LOCATION_TYPE":"level1","ADM0_A3":"LVA","LOCATION_ID":"LVA-037","NAME":"Incukalna","TYPE_EN":"Municipality"}},
{"type":"Feature","geometry":{"type":"Polygon","coordinates":[[[24.348807,57.183828],[24.337681,57.128201],[24.247287,57.060057],[24.320993,57.028072],[24.508735,57.10595],[24.467014,57.182437],[24.372448,57.182437],[24.348807,57.183828]]]},"properties":{"LOCATION_TYPE":"level1","ADM0_A3":"LVA","LOCATION_ID":"LVA-011","NAME":"Ādaži","TYPE_EN":"Municipality"}},
{"type":"Feature","geometry":{"type":"Polygon","coordinates":[[[25.456936,57.537264],[25.378652,57.549789],[25.377086,57.509082],[25.456936,57.537264]]]},"properties":{"LOCATION_TYPE":"level1","ADM0_A3":"LVA","LOCATION_ID":"LVA-VMR","NAME":"Valmiera","TYPE_EN":"Republican City"}},
{"type":"Feature","geometry":{"type":"Polygon","coordinates":[[[25.231478,57.29615],[25.359864,57.231957],[25.380218,57.188118],[25.563402,57.14741],[25.560271,57.222563],[25.394309,57.302412],[25.231478,57.330595],[25.231478,57.29615]]]},"properties":{"LOCATION_TYPE":"level1","ADM0_A3":"LVA","LOCATION_ID":"LVA-022","NAME":"Cesu","TYPE_EN":"Municipality"}},
{"type":"Feature","geometry":{"type":"Polygon","coordinates":[[[25.090567,57.247614],[24.933135,57.246222],[24.900372,57.218678],[24.987447,57.124679],[25.112487,57.109834],[25.189205,57.163067],[25.090567,57.247614]]]},"properties":{"LOCATION_TYPE":"level1","ADM0_A3":"LVA","LOCATION_ID":"LVA-055","NAME":"Ligatnes","TYPE_EN":"Municipality"}},
{"type":"Feature","geometry":{"type":"Polygon","coordinates":[[[25.820737,56.486807],[25.876557,56.495307],[25.826427,56.527167],[25.820737,56.486807]]]},"properties":{"LOCATION_TYPE":"level1","ADM0_A3":"LVA","LOCATION_ID":"LVA-JKB","NAME":"Jekabpils","TYPE_EN":"Republican City"}}
]}