{"type":"FeatureCollection", "features": [
{"type":"Feature","geometry":{"type":"MultiPolygon","coordinates":[[[[113.558604,22.163031],[113.534434,22.1612],[113.542328,22.140733],[113.546804,22.105373],[113.566742,22.123358],[113.558604,22.163031]]],[[[113.536469,22.217068],[113.519867,22.183702],[113.52475,22.173733],[113.551524,22.189561],[113.553803,22.211493],[113.536469,22.217068]]]]},"properties":{"LOCATION_TYPE":"level1","ADM0_A3":"MAC","LOCATION_ID":"MAC-M","NAME":"Macau","TYPE_EN":null}}
]}