{"type":"FeatureCollection", "features": [
{"type":"Feature","geometry":{"type":"Polygon","coordinates":[[[-12.056229,25.995294],[-11.717239,26.103576],[-11.63621,26.294985],[-11.3369,26.632897],[-11.391574,26.882908],[-10.921835,27.009825],[-10.550282,26.990292],[-10.250455,26.860429],[-9.734362,26.860429],[-9.412056,27.08796],[-9.000919,27.089924],[-8.752872,27.190486],[-8.817035,27.661464],[-8.682385,27.661439],[-8.682385,28.6659],[-8.383489,28.905782],[-7.619453,29.389422],[-7.34961,29.383439],[-7.146934,29.509238],[-6.783515,29.446339],[-6.34391,29.572069],[-6.539414,30.105501],[-6.52665,30.352437],[-6.715631,30.487028],[-6.910865,30.376415],[-7.177179,30.392254],[-7.324741,30.190664],[-7.627255,30.219008],[-8.019169,30.026669],[-8.644092,29.963314],[-8.694993,29.584784],[-9.188529,29.355883],[-9.786865,29.28028],[-10.097905,29.078923],[-10.399064,29.161245],[-10.573801,28.990424],[-11.047597,28.761705],[-11.485585,28.325629],[-11.782298,28.210141],[-11.543657,27.790087],[-11.813166,27.662204],[-12.03404,27.440548],[-12.31255,26.844021],[-12.486545,26.682118],[-12.573439,26.424589],[-12.445016,25.992613],[-12.056229,25.995294]]]},"properties":{"LOCATION_TYPE":"level1","ADM0_A3":"MAR","LOCATION_ID":"MAR-14","NAME":"Guelmim - Es-Semara","TYPE_EN":"Region"}},
{"type":"Feature","geometry":{"type":"Polygon","coordinates":[[[-12.056229,25.995294],[-12.445016,25.992613],[-12.573439,26.424589],[-12.486545,26.682118],[-12.31255,26.844021],[-12.03404,27.440548],[-11.813166,27.662204],[-11.543657,27.790087],[-11.782298,28.210141],[-12.061431,28.089016],[-12.968088,27.914618],[-13.171254,27.685004],[-13.619985,26.68891],[-14.410146,26.260077],[-14.519521,25.923774],[-14.782053,25.446926],[-14.836049,24.918687],[-15.012249,24.591546],[-14.591223,24.407684],[-14.059085,24.480211],[-13.643451,24.402438],[-13.31435,24.505817],[-12.94688,24.496748],[-12.430141,24.830165],[-12.310019,25.110432],[-12.056229,25.995294]]]},"properties":{"LOCATION_TYPE":"level1","ADM0_A3":"MAR","LOCATION_ID":"MAR-15","NAME":"Laâyoune - Boujdour - Sakia El Hamra","TYPE_EN":"Region"}},
{"type":"Feature","geometry":{"type":"Polygon","coordinates":[[[-12.94688,24.496748],[-13.31435,24.505817],[-13.643451,24.402438],[-14.059085,24.480211],[-14.591223,24.407684],[-15.012249,24.591546],[-15.171864,24.494127],[-15.620107,24.026272],[-16.289622,22.899807],[-16.357289,22.583075],[-16.52184,22.314887],[-16.706776,22.275458],[-16.966908,21.781155],[-17.013743,21.419971],[-16.729956,21.469802],[-15.749964,21.490317],[-14.839813,21.450268],[-14.669875,21.599665],[-14.629852,21.860424],[-14.220187,22.309647],[-14.169906,22.759852],[-14.019992,23.410252],[-13.769982,23.790125],[-13.31001,23.980553],[-12.94688,24.496748]]]},"properties":{"LOCATION_TYPE":"level1","ADM0_A3":"MAR","LOCATION_ID":"MAR-16","NAME":"Oued el Dahab","TYPE_EN":"Region"}},
{"type":"Feature","geometry":{"type":"Polygon","coordinates":[[[-4.495432,35.180772],[-4.770497,35.241034],[-5.24942,35.584621],[-5.340728,35.847357],[-5.927235,35.780748],[-6.249209,35.001397],[-5.781709,34.930685],[-5.349513,34.714677],[-5.190169,34.716434],[-4.579534,34.963396],[-4.495432,35.180772]]]},"properties":{"LOCATION_TYPE":"level1","ADM0_A3":"MAR","LOCATION_ID":"MAR-01","NAME":"Tanger - Tétouan","TYPE_EN":"Region"}},
{"type":"Feature","geometry":{"type":"Polygon","coordinates":[[[-3.161718,31.732546],[-2.827836,31.794586],[-2.938731,32.048639],[-2.516147,32.1322],[-1.249557,32.08166],[-1.217983,32.392623],[-1.047502,32.517009],[-1.423345,32.742395],[-1.499516,33.060205],[-1.674234,33.237972],[-1.612739,33.521469],[-1.718728,33.898087],[-1.674751,34.105956],[-1.871121,34.596649],[-1.787716,34.756691],[-2.416737,35.149156],[-2.905141,35.17357],[-2.96692,35.313866],[-3.412913,35.197943],[-3.821929,35.206773],[-3.81064,34.930943],[-3.611376,34.840845],[-3.511382,34.593548],[-3.27212,34.773278],[-2.9856,34.706693],[-3.196078,34.363743],[-3.069549,34.14572],[-3.194606,33.94599],[-3.102441,33.785096],[-3.214398,33.512606],[-2.982965,33.341996],[-3.033763,33.148623],[-3.59825,33.087231],[-3.999182,32.617338],[-3.657523,32.141191],[-3.26933,32.164135],[-3.161718,31.732546]]]},"properties":{"LOCATION_TYPE":"level1","ADM0_A3":"MAR","LOCATION_ID":"MAR-04","NAME":"Oriental","TYPE_EN":"Region"}},
{"type":"Feature","geometry":{"type":"Polygon","coordinates":[[[-3.161718,31.732546],[-3.26933,32.164135],[-3.657523,32.141191],[-3.999182,32.617338],[-4.279346,32.65271],[-4.493493,32.884479],[-4.719422,32.925484],[-4.994134,33.416901],[-4.897913,33.540692],[-5.247659,34.108874],[-5.420516,34.280647],[-5.468653,34.165357],[-5.885062,34.116729],[-5.724529,33.787964],[-5.835426,33.327682],[-6.197523,33.365871],[-6.419783,33.238307],[-6.132721,33.011835],[-6.041667,32.793063],[-5.437311,32.507939],[-5.46842,32.262088],[-5.82106,32.102098],[-5.805919,31.930248],[-5.571851,31.874799],[-5.735639,31.638431],[-5.454106,31.608872],[-5.213785,31.412398],[-5.360959,30.824165],[-5.219133,30.49788],[-4.770731,30.229088],[-4.372368,30.508641],[-3.645529,30.711317],[-3.554674,30.955927],[-3.814982,31.220524],[-3.673484,31.389234],[-3.659507,31.647821],[-3.161718,31.732546]]]},"properties":{"LOCATION_TYPE":"level1","ADM0_A3":"MAR","LOCATION_ID":"MAR-06","NAME":"Meknès - Tafilalet","TYPE_EN":"Region"}},
{"type":"Feature","geometry":{"type":"Polygon","coordinates":[[[-4.770731,30.229088],[-5.219133,30.49788],[-5.360959,30.824165],[-5.213785,31.412398],[-5.454106,31.608872],[-5.735639,31.638431],[-5.571851,31.874799],[-5.805919,31.930248],[-6.056291,31.752791],[-6.983677,31.373098],[-7.186455,31.447176],[-7.825098,31.140141],[-8.033819,30.946406],[-9.04846,30.855404],[-9.54768,30.88194],[-9.823609,30.959954],[-9.886708,30.686672],[-9.611643,30.404364],[-9.655141,30.126899],[-9.820221,29.838935],[-10.399064,29.161245],[-10.097905,29.078923],[-9.786865,29.28028],[-9.188529,29.355883],[-8.694993,29.584784],[-8.644092,29.963314],[-8.019169,30.026669],[-7.627255,30.219008],[-7.324741,30.190664],[-7.177179,30.392254],[-6.910865,30.376415],[-6.715631,30.487028],[-6.52665,30.352437],[-6.539414,30.105501],[-6.34391,29.572069],[-5.756156,29.614071],[-5.539503,29.523216],[-5.176083,29.97749],[-4.770731,30.229088]]]},"properties":{"LOCATION_TYPE":"level1","ADM0_A3":"MAR","LOCATION_ID":"MAR-13","NAME":"Souss - Massa - Draâ","TYPE_EN":"Region"}},
{"type":"Feature","geometry":{"type":"Polygon","coordinates":[[[-4.495432,35.180772],[-4.579534,34.963396],[-5.190169,34.716434],[-5.420516,34.280647],[-4.973929,34.291344],[-4.476569,33.903796],[-4.186586,33.870284],[-3.974093,33.536429],[-3.498902,33.907543],[-3.102441,33.785096],[-3.194606,33.94599],[-3.069549,34.14572],[-3.196078,34.363743],[-2.9856,34.706693],[-3.27212,34.773278],[-3.511382,34.593548],[-3.611376,34.840845],[-3.81064,34.930943],[-3.821929,35.206773],[-3.961293,35.250434],[-4.495432,35.180772]]]},"properties":{"LOCATION_TYPE":"level1","ADM0_A3":"MAR","LOCATION_ID":"MAR-03","NAME":"Taza - Al Hoceima - Taounate","TYPE_EN":"Region"}},
{"type":"Feature","geometry":{"type":"Polygon","coordinates":[[[-6.722646,34.182442],[-5.885062,34.116729],[-5.468653,34.165357],[-5.420516,34.280647],[-5.190169,34.716434],[-5.349513,34.714677],[-5.781709,34.930685],[-6.249209,35.001397],[-6.722646,34.182442]]]},"properties":{"LOCATION_TYPE":"level1","ADM0_A3":"MAR","LOCATION_ID":"MAR-02","NAME":"Gharb - Chrarda - Béni Hssen","TYPE_EN":"Region"}},
{"type":"Feature","geometry":{"type":"Polygon","coordinates":[[[-7.117014,33.834866],[-6.97869,33.614124],[-6.788081,33.552474],[-6.820379,33.330085],[-6.419783,33.238307],[-6.197523,33.365871],[-5.835426,33.327682],[-5.724529,33.787964],[-5.885062,34.116729],[-6.722646,34.182442],[-7.117014,33.834866]]]},"properties":{"LOCATION_TYPE":"level1","ADM0_A3":"MAR","LOCATION_ID":"MAR-07","NAME":"Rabat - Salé - Zemmour - Zaer","TYPE_EN":"Region"}},
{"type":"Feature","geometry":{"type":"Polygon","coordinates":[[[-7.341135,33.731106],[-7.426311,33.472298],[-7.60382,33.368765],[-7.886019,33.509148],[-8.011572,33.466433],[-8.117923,33.167769],[-7.990204,32.834043],[-7.645807,32.504528],[-7.126665,32.346605],[-6.857612,32.690589],[-6.292091,32.701803],[-6.041667,32.793063],[-6.132721,33.011835],[-6.419783,33.238307],[-6.820379,33.330085],[-6.788081,33.552474],[-6.97869,33.614124],[-7.117014,33.834866],[-7.341135,33.731106]]]},"properties":{"LOCATION_TYPE":"level1","ADM0_A3":"MAR","LOCATION_ID":"MAR-09","NAME":"Chaouia - Ouardigha","TYPE_EN":"Region"}},
{"type":"Feature","geometry":{"type":"Polygon","coordinates":[[[-7.886019,33.509148],[-7.60382,33.368765],[-7.426311,33.472298],[-7.341135,33.731106],[-7.886019,33.509148]]]},"properties":{"LOCATION_TYPE":"level1","ADM0_A3":"MAR","LOCATION_ID":"MAR-08","NAME":"Grand Casablanca","TYPE_EN":"Region"}},
{"type":"Feature","geometry":{"type":"Polygon","coordinates":[[[-9.458767,31.944621],[-9.055617,31.908931],[-8.969034,31.798266],[-8.44953,31.773591],[-8.278042,32.142948],[-8.450461,32.335003],[-8.091464,32.582611],[-7.990204,32.834043],[-8.117923,33.167769],[-8.011572,33.466433],[-8.243153,33.404527],[-8.62914,33.127631],[-9.259918,32.57689],[-9.270009,32.227484],[-9.458767,31.944621]]]},"properties":{"LOCATION_TYPE":"level1","ADM0_A3":"MAR","LOCATION_ID":"MAR-10","NAME":"Doukkala - Abda","TYPE_EN":"Region"}},
{"type":"Feature","geometry":{"type":"Polygon","coordinates":[[[-9.823609,30.959954],[-9.54768,30.88194],[-9.04846,30.855404],[-8.033819,30.946406],[-7.825098,31.140141],[-7.186455,31.447176],[-7.284434,31.696929],[-7.027602,31.881853],[-7.126665,32.346605],[-7.645807,32.504528],[-7.990204,32.834043],[-8.091464,32.582611],[-8.450461,32.335003],[-8.278042,32.142948],[-8.44953,31.773591],[-8.969034,31.798266],[-9.055617,31.908931],[-9.458767,31.944621],[-9.847524,31.402411],[-9.823609,30.959954]]]},"properties":{"LOCATION_TYPE":"level1","ADM0_A3":"MAR","LOCATION_ID":"MAR-11","NAME":"Marrakech - Tensift - Al Haouz","TYPE_EN":"Region"}},
{"type":"Feature","geometry":{"type":"Polygon","coordinates":[[[-3.102441,33.785096],[-3.498902,33.907543],[-3.974093,33.536429],[-4.186586,33.870284],[-4.476569,33.903796],[-4.973929,34.291344],[-5.420516,34.280647],[-5.247659,34.108874],[-4.897913,33.540692],[-4.994134,33.416901],[-4.719422,32.925484],[-4.493493,32.884479],[-4.279346,32.65271],[-3.999182,32.617338],[-3.59825,33.087231],[-3.033763,33.148623],[-2.982965,33.341996],[-3.214398,33.512606],[-3.102441,33.785096]]]},"properties":{"LOCATION_TYPE":"level1","ADM0_A3":"MAR","LOCATION_ID":"MAR-05","NAME":"Fès - Boulemane","TYPE_EN":"Region"}},
{"type":"Feature","geometry":{"type":"Polygon","coordinates":[[[-6.041667,32.793063],[-6.292091,32.701803],[-6.857612,32.690589],[-7.126665,32.346605],[-7.027602,31.881853],[-7.284434,31.696929],[-7.186455,31.447176],[-6.983677,31.373098],[-6.056291,31.752791],[-5.805919,31.930248],[-5.82106,32.102098],[-5.46842,32.262088],[-5.437311,32.507939],[-6.041667,32.793063]]]},"properties":{"LOCATION_TYPE":"level1","ADM0_A3":"MAR","LOCATION_ID":"MAR-12","NAME":"Tadla - Azilal","TYPE_EN":"Region"}}
]}