{"type":"FeatureCollection", "features": [
{"type":"Feature","geometry":{"type":"Polygon","coordinates":[[[27.25193,48.37831],[27.175788,48.361804],[27.02634,48.397099],[26.943244,48.351262],[26.842785,48.39374],[26.636079,48.294883],[26.804906,48.25827],[26.938128,48.204811],[27.047955,48.121409],[27.116051,48.180935],[27.301104,48.249226],[27.311543,48.302892],[27.25193,48.37831]]]},"properties":{"LOCATION_TYPE":"level1","ADM0_A3":"MDA","LOCATION_ID":"MDA-BR","NAME":"Briceni","TYPE_EN":"District"}},
{"type":"Feature","geometry":{"type":"Polygon","coordinates":[[[27.047955,48.121409],[27.178268,47.942096],[27.277953,48.003117],[27.437943,48.01154],[27.557264,48.060684],[27.546154,48.120422],[27.509928,48.237289],[27.403372,48.247469],[27.311543,48.302892],[27.301104,48.249226],[27.116051,48.180935],[27.047955,48.121409]]]},"properties":{"LOCATION_TYPE":"level1","ADM0_A3":"MDA","LOCATION_ID":"MDA-ED","NAME":"Edineţ","TYPE_EN":"District"}},
{"type":"Feature","geometry":{"type":"Polygon","coordinates":[[[27.288114,47.75068],[27.381202,47.837959],[27.483522,47.864521],[27.664803,47.824058],[27.762678,47.836357],[27.848409,47.784577],[27.952795,47.816203],[27.950987,47.848036],[27.825361,47.963403],[27.684698,47.952706],[27.688264,48.054638],[27.546154,48.120422],[27.557264,48.060684],[27.437943,48.01154],[27.277953,48.003117],[27.178268,47.942096],[27.219196,47.813775],[27.288114,47.75068]]]},"properties":{"LOCATION_TYPE":"level1","ADM0_A3":"MDA","LOCATION_ID":"MDA-RI","NAME":"Rîşcani","TYPE_EN":"District"}},
{"type":"Feature","geometry":{"type":"Polygon","coordinates":[[[27.429404,47.57813],[27.637673,47.644896],[27.795596,47.770211],[27.86014,47.750729],[27.848409,47.784577],[27.762678,47.836357],[27.664803,47.824058],[27.483522,47.864521],[27.381202,47.837959],[27.288114,47.75068],[27.272009,47.71497],[27.429404,47.57813]]]},"properties":{"LOCATION_TYPE":"level1","ADM0_A3":"MDA","LOCATION_ID":"MDA-GL","NAME":"Glodeni","TYPE_EN":"District"}},
{"type":"Feature","geometry":{"type":"Polygon","coordinates":[[[27.429404,47.57813],[27.473134,47.491779],[27.563154,47.468344],[27.588724,47.367389],[27.700201,47.419793],[27.902618,47.432144],[27.975843,47.463046],[27.93104,47.554307],[28.017081,47.619316],[27.964578,47.736234],[27.86014,47.750729],[27.795596,47.770211],[27.637673,47.644896],[27.429404,47.57813]]]},"properties":{"LOCATION_TYPE":"level1","ADM0_A3":"MDA","LOCATION_ID":"MDA-FA","NAME":"Făleşti","TYPE_EN":"District"}},
{"type":"Feature","geometry":{"type":"Polygon","coordinates":[[[27.588724,47.367389],[27.722835,47.283317],[27.80655,47.144617],[28.038146,47.015483],[27.969177,47.139345],[28.000441,47.236833],[28.09103,47.250915],[28.086689,47.327887],[28.225802,47.419354],[28.151336,47.457956],[27.975843,47.463046],[27.902618,47.432144],[27.700201,47.419793],[27.588724,47.367389]]]},"properties":{"LOCATION_TYPE":"level1","ADM0_A3":"MDA","LOCATION_ID":"MDA-UN","NAME":"Ungheni","TYPE_EN":"District"}},
{"type":"Feature","geometry":{"type":"Polygon","coordinates":[[[28.104994,46.920185],[28.223218,46.90538],[28.343314,46.993773],[28.408013,46.973671],[28.48682,47.049066],[28.504596,47.063691],[28.348999,47.079142],[28.326933,47.157174],[28.149011,47.2073],[28.09103,47.250915],[28.000441,47.236833],[27.969177,47.139345],[28.038146,47.015483],[28.104994,46.920185]]]},"properties":{"LOCATION_TYPE":"level1","ADM0_A3":"MDA","LOCATION_ID":"MDA-NI","NAME":"Nisporeni","TYPE_EN":"District"}},
{"type":"Feature","geometry":{"type":"Polygon","coordinates":[[[28.104994,46.920185],[28.121518,46.8343],[28.245085,46.631451],[28.376594,46.621082],[28.398505,46.723505],[28.583713,46.668521],[28.621333,46.743814],[28.73559,46.823292],[28.723963,46.864969],[28.542269,46.977081],[28.48682,47.049066],[28.408013,46.973671],[28.343314,46.993773],[28.223218,46.90538],[28.104994,46.920185]]]},"properties":{"LOCATION_TYPE":"level1","ADM0_A3":"MDA","LOCATION_ID":"MDA-HI","NAME":"Hîncesti","TYPE_EN":"District"}},
{"type":"Feature","geometry":{"type":"Polygon","coordinates":[[[28.245085,46.631451],[28.226796,46.395548],[28.376491,46.388642],[28.472144,46.426365],[28.585625,46.502588],[28.583713,46.668521],[28.398505,46.723505],[28.376594,46.621082],[28.245085,46.631451]]]},"properties":{"LOCATION_TYPE":"level1","ADM0_A3":"MDA","LOCATION_ID":"MDA-LE","NAME":"Leova","TYPE_EN":"District"}},
{"type":"Feature","geometry":{"type":"Polygon","coordinates":[[[28.110506,46.101491],[28.239858,46.07618],[28.440569,46.096877],[28.498189,46.208136],[28.510488,46.347921],[28.472144,46.426365],[28.376491,46.388642],[28.226796,46.395548],[28.177794,46.287047],[28.110976,46.225603],[28.110506,46.101491]]]},"properties":{"LOCATION_TYPE":"level1","ADM0_A3":"MDA","LOCATION_ID":"MDA-CT","NAME":"Cantemir","TYPE_EN":"District"}},
{"type":"Feature","geometry":{"type":"Polygon","coordinates":[[[28.110506,46.101491],[28.08612,46.000552],[28.124981,45.918387],[28.113302,45.825369],[28.154953,45.761807],[28.165908,45.494589],[28.270423,45.521471],[28.280476,45.58528],[28.503743,45.566102],[28.474003,45.657938],[28.563525,45.735494],[28.514932,45.802683],[28.487595,45.721938],[28.400882,45.662226],[28.29665,45.710078],[28.391683,45.865521],[28.456641,45.907741],[28.458656,46.087937],[28.440569,46.096877],[28.239858,46.07618],[28.110506,46.101491]]]},"properties":{"LOCATION_TYPE":"level1","ADM0_A3":"MDA","LOCATION_ID":"MDA-CA","NAME":"Cahul","TYPE_EN":"District"}},
{"type":"Feature","geometry":{"type":"Polygon","coordinates":[[[27.885371,48.378444],[27.751773,48.451979],[27.50383,48.472365],[27.420217,48.417149],[27.342186,48.436114],[27.25193,48.37831],[27.311543,48.302892],[27.403372,48.247469],[27.509928,48.237289],[27.591629,48.356687],[27.808463,48.350227],[27.885371,48.378444]]]},"properties":{"LOCATION_TYPE":"level1","ADM0_A3":"MDA","LOCATION_ID":"MDA-OC","NAME":"Ocniţa","TYPE_EN":"District"}},
{"type":"Feature","geometry":{"type":"Polygon","coordinates":[[[27.885371,48.378444],[27.808463,48.350227],[27.591629,48.356687],[27.509928,48.237289],[27.546154,48.120422],[27.688264,48.054638],[27.775597,48.125745],[27.889854,48.131481],[27.95202,48.195508],[28.016099,48.24057],[28.003177,48.325883],[27.885371,48.378444]]]},"properties":{"LOCATION_TYPE":"level1","ADM0_A3":"MDA","LOCATION_ID":"MDA-DO","NAME":"Donduseni","TYPE_EN":"District"}},
{"type":"Feature","geometry":{"type":"Polygon","coordinates":[[[28.003177,48.325883],[28.016099,48.24057],[27.95202,48.195508],[28.061161,48.147087],[28.110977,48.073345],[28.068861,47.985082],[28.466614,47.997174],[28.49979,48.108914],[28.294479,48.236488],[28.199911,48.211735],[28.003177,48.325883]]]},"properties":{"LOCATION_TYPE":"level1","ADM0_A3":"MDA","LOCATION_ID":"MDA-SO","NAME":"Soroca","TYPE_EN":"District"}},
{"type":"Feature","geometry":{"type":"Polygon","coordinates":[[[28.936087,47.942164],[28.832534,48.024822],[28.799255,48.111793],[28.573635,48.154969],[28.49979,48.108914],[28.466614,47.997174],[28.477983,47.88855],[28.569192,47.887103],[28.784786,47.982808],[28.860957,47.899712],[28.942141,47.883227],[28.936087,47.942164]]]},"properties":{"LOCATION_TYPE":"level1","ADM0_A3":"MDA","LOCATION_ID":"MDA-CAM","NAME":"Camenca","TYPE_EN":"District"}},
{"type":"Feature","geometry":{"type":"Polygon","coordinates":[[[28.936087,47.942164],[28.942141,47.883227],[29.018105,47.853539],[28.980278,47.765612],[28.986479,47.622261],[29.026735,47.529476],[29.10797,47.469428],[29.137189,47.484008],[29.117426,47.533327],[29.182074,47.613219],[29.238608,47.756001],[29.123989,47.975987],[29.017226,47.931081],[28.936087,47.942164]]]},"properties":{"LOCATION_TYPE":"level1","ADM0_A3":"MDA","LOCATION_ID":"MDA-RE","NAME":"Rezina","TYPE_EN":"District"}},
{"type":"Feature","geometry":{"type":"Polygon","coordinates":[[[29.137189,47.484008],[29.10797,47.469428],[29.021671,47.333132],[29.073657,47.246315],[29.150965,47.244817],[29.125179,47.274247],[29.174478,47.290292],[29.189567,47.26249],[29.163264,47.230812],[29.178922,47.156114],[29.292249,47.13578],[29.276591,47.196396],[29.370882,47.304434],[29.35891,47.352718],[29.232613,47.44633],[29.137189,47.484008]]]},"properties":{"LOCATION_TYPE":"level1","ADM0_A3":"MDA","LOCATION_ID":"MDA-SN","NAME":"Stîngă Nistrului","TYPE_EN":"District"}},
{"type":"Feature","geometry":{"type":"Polygon","coordinates":[[[29.370882,47.304434],[29.276591,47.196396],[29.292249,47.13578],[29.377515,47.070771],[29.375654,46.935172],[29.461696,46.951036],[29.560626,46.961256],[29.60303,47.04576],[29.530373,47.123688],[29.556573,47.324038],[29.370882,47.304434]]]},"properties":{"LOCATION_TYPE":"level1","ADM0_A3":"MDA","LOCATION_ID":"MDA-GRI","NAME":"Grigoriopol","TYPE_EN":"Territorial Unit"}},
{"type":"Feature","geometry":{"type":"Polygon","coordinates":[[[29.560626,46.961256],[29.461696,46.951036],[29.45043,46.824171],[29.570113,46.723815],[29.758318,46.658832],[29.898826,46.553129],[29.952621,46.724694],[29.930658,46.803087],[29.843635,46.854144],[29.754132,46.85802],[29.560626,46.961256]]]},"properties":{"LOCATION_TYPE":"level1","ADM0_A3":"MDA","LOCATION_ID":"MDA-BD","NAME":"Bender","TYPE_EN":"City"}},
{"type":"Feature","geometry":{"type":"Polygon","coordinates":[[[29.898826,46.553129],[29.758318,46.658832],[29.570113,46.723815],[29.573317,46.666299],[29.429863,46.605838],[29.456724,46.484366],[29.475079,46.432257],[29.598586,46.363063],[29.72695,46.455796],[29.847769,46.341462],[29.918669,46.373656],[30.08114,46.374199],[30.060005,46.436805],[29.898826,46.553129]]]},"properties":{"LOCATION_TYPE":"level1","ADM0_A3":"MDA","LOCATION_ID":"MDA-SV","NAME":"Ștefan Vodă","TYPE_EN":"District"}},
{"type":"Feature","geometry":{"type":"Polygon","coordinates":[[[29.183059,46.538042],[29.200677,46.35712],[29.374723,46.416186],[29.456724,46.484366],[29.429863,46.605838],[29.573317,46.666299],[29.570113,46.723815],[29.45043,46.824171],[29.355966,46.817401],[29.290853,46.763244],[29.105025,46.81151],[29.088023,46.851973],[28.971235,46.803603],[29.072637,46.636943],[29.167502,46.598138],[29.183059,46.538042]]]},"properties":{"LOCATION_TYPE":"level1","ADM0_A3":"MDA","LOCATION_ID":"MDA-CS","NAME":"Causeni","TYPE_EN":"District"}},
{"type":"Feature","geometry":{"type":"Polygon","coordinates":[[[29.183059,46.538042],[29.167502,46.598138],[29.072637,46.636943],[28.971235,46.803603],[28.780135,46.7958],[28.73559,46.823292],[28.621333,46.743814],[28.583713,46.668521],[28.585625,46.502588],[28.763392,46.4174],[28.931495,46.545893],[29.055915,46.49874],[29.183059,46.538042]]]},"properties":{"LOCATION_TYPE":"level1","ADM0_A3":"MDA","LOCATION_ID":"MDA-CM","NAME":"Cimişlia","TYPE_EN":"District"}},
{"type":"Feature","geometry":{"type":"Polygon","coordinates":[[[29.055915,46.49874],[28.931495,46.545893],[28.763392,46.4174],[28.743703,46.345053],[28.809177,46.24896],[28.914804,46.218316],[28.916199,46.16664],[28.984102,46.22121],[28.919247,46.404662],[28.945809,46.454788],[29.055915,46.49874]]]},"properties":{"LOCATION_TYPE":"level1","ADM0_A3":"MDA","LOCATION_ID":"MDA-BS","NAME":"Basarabeasca","TYPE_EN":"District"}},
{"type":"Feature","geometry":{"type":"Polygon","coordinates":[[[28.984102,46.22121],[28.916199,46.16664],[28.828298,46.009647],[28.622212,45.966652],[28.534517,46.081477],[28.458656,46.087937],[28.456641,45.907741],[28.391683,45.865521],[28.514932,45.802683],[28.563525,45.735494],[28.738276,45.837565],[28.757603,45.961175],[28.93196,45.993163],[28.946429,46.105094],[29.015365,46.182609],[28.984102,46.22121]]]},"properties":{"LOCATION_TYPE":"level1","ADM0_A3":"MDA","LOCATION_ID":"MDA-TA","NAME":"Taraclia","TYPE_EN":"District"}},
{"type":"Feature","geometry":{"type":"MultiPolygon","coordinates":[[[[28.503743,45.566102],[28.280476,45.58528],[28.270423,45.521471],[28.480928,45.501978],[28.503743,45.566102]]],[[[28.585625,46.502588],[28.472144,46.426365],[28.510488,46.347921],[28.498189,46.208136],[28.440569,46.096877],[28.458656,46.087937],[28.534517,46.081477],[28.622212,45.966652],[28.828298,46.009647],[28.916199,46.16664],[28.914804,46.218316],[28.809177,46.24896],[28.743703,46.345053],[28.763392,46.4174],[28.585625,46.502588]]],[[[28.391683,45.865521],[28.29665,45.710078],[28.400882,45.662226],[28.487595,45.721938],[28.514932,45.802683],[28.391683,45.865521]]]]},"properties":{"LOCATION_TYPE":"level1","ADM0_A3":"MDA","LOCATION_ID":"MDA-GA","NAME":"Comrat","TYPE_EN":"Autonomous Territory"}},
{"type":"Feature","geometry":{"type":"Polygon","coordinates":[[[28.842509,47.095291],[28.974439,47.010361],[29.115205,46.9869],[29.254473,46.994755],[29.292249,47.13578],[29.178922,47.156114],[29.163264,47.230812],[29.150965,47.244817],[29.073657,47.246315],[29.021671,47.333132],[28.789902,47.202545],[28.842509,47.095291]]]},"properties":{"LOCATION_TYPE":"level1","ADM0_A3":"MDA","LOCATION_ID":"MDA-CR","NAME":"Criuleni","TYPE_EN":"District"}},
{"type":"Feature","geometry":{"type":"Polygon","coordinates":[[[28.789902,47.202545],[28.70753,47.24138],[28.65513,47.331168],[28.579579,47.331892],[28.455555,47.281559],[28.485114,47.229676],[28.326933,47.157174],[28.348999,47.079142],[28.504596,47.063691],[28.749646,47.01651],[28.771815,47.053201],[28.842509,47.095291],[28.789902,47.202545]]]},"properties":{"LOCATION_TYPE":"level1","ADM0_A3":"MDA","LOCATION_ID":"MDA-ST","NAME":"Străşeni","TYPE_EN":"District"}},
{"type":"Feature","geometry":{"type":"Polygon","coordinates":[[[29.292249,47.13578],[29.254473,46.994755],[29.115205,46.9869],[28.974439,47.010361],[28.908138,46.961113],[29.06172,46.914553],[29.088023,46.851973],[29.105025,46.81151],[29.290853,46.763244],[29.355966,46.817401],[29.45043,46.824171],[29.461696,46.951036],[29.375654,46.935172],[29.377515,47.070771],[29.292249,47.13578]]]},"properties":{"LOCATION_TYPE":"level1","ADM0_A3":"MDA","LOCATION_ID":"MDA-AN","NAME":"Anenii Noi","TYPE_EN":"District"}},
{"type":"Feature","geometry":{"type":"Polygon","coordinates":[[[29.021671,47.333132],[29.10797,47.469428],[29.026735,47.529476],[28.904882,47.599059],[28.793003,47.533016],[28.709287,47.554617],[28.582421,47.494052],[28.520719,47.417597],[28.579579,47.331892],[28.65513,47.331168],[28.70753,47.24138],[28.789902,47.202545],[29.021671,47.333132]]]},"properties":{"LOCATION_TYPE":"level1","ADM0_A3":"MDA","LOCATION_ID":"MDA-OR","NAME":"Orhei","TYPE_EN":"District"}},
{"type":"Feature","geometry":{"type":"Polygon","coordinates":[[[29.163264,47.230812],[29.189567,47.26249],[29.174478,47.290292],[29.125179,47.274247],[29.150965,47.244817],[29.163264,47.230812]]]},"properties":{"LOCATION_TYPE":"level1","ADM0_A3":"MDA","LOCATION_ID":"MDA-SN","NAME":"Transnistria","TYPE_EN":"District"}},
{"type":"Feature","geometry":{"type":"Polygon","coordinates":[[[28.842509,47.095291],[28.771815,47.053201],[28.777603,46.988114],[28.908138,46.961113],[28.974439,47.010361],[28.842509,47.095291]]]},"properties":{"LOCATION_TYPE":"level1","ADM0_A3":"MDA","LOCATION_ID":"MDA-CU","NAME":"Chişinău","TYPE_EN":"City"}},
{"type":"Feature","geometry":{"type":"Polygon","coordinates":[[[28.534104,47.755587],[28.405326,47.687942],[28.416695,47.629496],[28.320525,47.563609],[28.170922,47.55379],[28.151336,47.457956],[28.225802,47.419354],[28.520719,47.417597],[28.582421,47.494052],[28.709287,47.554617],[28.718485,47.604588],[28.611205,47.6666],[28.637043,47.717036],[28.534104,47.755587]]]},"properties":{"LOCATION_TYPE":"level1","ADM0_A3":"MDA","LOCATION_ID":"MDA-TE","NAME":"Teleneşti","TYPE_EN":"District"}},
{"type":"Feature","geometry":{"type":"Polygon","coordinates":[[[28.637043,47.717036],[28.766389,47.735536],[28.841475,47.832068],[28.942141,47.883227],[28.860957,47.899712],[28.784786,47.982808],[28.569192,47.887103],[28.477983,47.88855],[28.427443,47.84615],[28.534104,47.755587],[28.637043,47.717036]]]},"properties":{"LOCATION_TYPE":"level1","ADM0_A3":"MDA","LOCATION_ID":"MDA-SD","NAME":"Şoldăneşti","TYPE_EN":"District"}},
{"type":"Feature","geometry":{"type":"Polygon","coordinates":[[[28.477983,47.88855],[28.466614,47.997174],[28.068861,47.985082],[28.068396,47.901107],[28.275153,47.732797],[28.405326,47.687942],[28.534104,47.755587],[28.427443,47.84615],[28.477983,47.88855]]]},"properties":{"LOCATION_TYPE":"level1","ADM0_A3":"MDA","LOCATION_ID":"MDA-FL","NAME":"Floreşti","TYPE_EN":"District"}},
{"type":"Feature","geometry":{"type":"Polygon","coordinates":[[[28.709287,47.554617],[28.793003,47.533016],[28.904882,47.599059],[29.026735,47.529476],[28.986479,47.622261],[28.980278,47.765612],[29.018105,47.853539],[28.942141,47.883227],[28.841475,47.832068],[28.766389,47.735536],[28.637043,47.717036],[28.611205,47.6666],[28.718485,47.604588],[28.709287,47.554617]]]},"properties":{"LOCATION_TYPE":"level1","ADM0_A3":"MDA","LOCATION_ID":"MDA-RE","NAME":"Rezina","TYPE_EN":"District"}},
{"type":"Feature","geometry":{"type":"Polygon","coordinates":[[[28.48682,47.049066],[28.542269,46.977081],[28.723963,46.864969],[28.73559,46.823292],[28.780135,46.7958],[28.971235,46.803603],[29.088023,46.851973],[29.06172,46.914553],[28.908138,46.961113],[28.777603,46.988114],[28.771815,47.053201],[28.749646,47.01651],[28.504596,47.063691],[28.48682,47.049066]]]},"properties":{"LOCATION_TYPE":"level1","ADM0_A3":"MDA","LOCATION_ID":"MDA-IA","NAME":"Ialoveni","TYPE_EN":"District"}},
{"type":"Feature","geometry":{"type":"Polygon","coordinates":[[[28.579579,47.331892],[28.520719,47.417597],[28.225802,47.419354],[28.086689,47.327887],[28.09103,47.250915],[28.149011,47.2073],[28.326933,47.157174],[28.485114,47.229676],[28.455555,47.281559],[28.579579,47.331892]]]},"properties":{"LOCATION_TYPE":"level1","ADM0_A3":"MDA","LOCATION_ID":"MDA-CL","NAME":"Călărași","TYPE_EN":"District"}},
{"type":"Feature","geometry":{"type":"Polygon","coordinates":[[[28.068396,47.901107],[28.068861,47.985082],[28.110977,48.073345],[28.061161,48.147087],[27.95202,48.195508],[27.889854,48.131481],[27.775597,48.125745],[27.688264,48.054638],[27.684698,47.952706],[27.825361,47.963403],[27.950987,47.848036],[28.068396,47.901107]]]},"properties":{"LOCATION_TYPE":"level1","ADM0_A3":"MDA","LOCATION_ID":"MDA-DR","NAME":"Drochia","TYPE_EN":"District"}},
{"type":"Feature","geometry":{"type":"Polygon","coordinates":[[[27.950987,47.848036],[27.952795,47.816203],[27.964578,47.736234],[28.017081,47.619316],[27.93104,47.554307],[27.975843,47.463046],[28.151336,47.457956],[28.170922,47.55379],[28.320525,47.563609],[28.416695,47.629496],[28.405326,47.687942],[28.275153,47.732797],[28.068396,47.901107],[27.950987,47.848036]]]},"properties":{"LOCATION_TYPE":"level1","ADM0_A3":"MDA","LOCATION_ID":"MDA-SI","NAME":"Sîngerei","TYPE_EN":"District"}},
{"type":"Feature","geometry":{"type":"Polygon","coordinates":[[[27.952795,47.816203],[27.848409,47.784577],[27.86014,47.750729],[27.964578,47.736234],[27.952795,47.816203]]]},"properties":{"LOCATION_TYPE":"level1","ADM0_A3":"MDA","LOCATION_ID":"MDA-BA","NAME":"Bălţi","TYPE_EN":"City"}}
]}