{"type":"FeatureCollection", "features": [
{"type":"Feature","geometry":{"type":"Polygon","coordinates":[[[44.877778,-16.209161],[44.946109,-16.286913],[45.021275,-16.524936],[45.24677,-16.675266],[45.34699,-16.863179],[45.49732,-16.975926],[45.685233,-16.938344],[45.79798,-16.988454],[46.010948,-16.988454],[46.123695,-17.151311],[46.236443,-17.239004],[46.474466,-16.975926],[46.587213,-16.950871],[46.704519,-16.609389],[47.113369,-16.587573],[47.313809,-16.675266],[47.301281,-16.549991],[47.188534,-16.462298],[47.338864,-16.299441],[47.326336,-16.211748],[47.188534,-16.011308],[47.113369,-15.635483],[47.147634,-15.446466],[46.971446,-15.198419],[46.879405,-15.22503],[46.332693,-15.630141],[46.383149,-15.834893],[46.292979,-15.940688],[46.144216,-15.703709],[46.015798,-15.79225],[45.824474,-15.813409],[45.693858,-15.783136],[45.638357,-15.943048],[45.379405,-15.97381],[45.266368,-15.923923],[45.138682,-15.990899],[45.040212,-16.118097],[44.877778,-16.209161]]]},"properties":{"LOCATION_TYPE":"level1","ADM0_A3":"MDG","LOCATION_ID":"MDG-M","NAME":"Boeny","TYPE_EN":"Autonomous Province"}},
{"type":"Feature","geometry":{"type":"Polygon","coordinates":[[[47.147634,-15.446466],[47.113369,-15.635483],[47.188534,-16.011308],[47.326336,-16.211748],[47.338864,-16.299441],[47.514249,-16.399661],[47.626997,-16.399661],[47.916797,-16.514909],[47.980875,-16.251669],[48.298944,-16.245778],[48.627761,-16.470622],[48.635357,-16.670042],[48.721037,-16.755153],[48.916839,-16.678723],[48.983915,-16.649164],[49.039312,-16.471501],[49.107422,-16.441322],[49.219146,-16.243866],[49.207364,-16.185368],[49.013835,-16.123202],[49.106026,-15.885387],[49.056985,-15.753663],[49.118429,-15.45239],[49.114088,-15.339839],[49.380531,-15.202741],[49.507604,-14.981618],[49.585945,-14.941103],[49.481352,-14.805298],[49.393864,-14.493275],[49.164214,-14.296801],[49.09688,-14.195516],[48.970841,-14.143426],[48.82687,-14.245435],[48.522238,-14.073508],[48.398266,-14.124564],[48.18908,-13.957701],[48.084331,-13.953101],[48.031079,-14.063598],[48.04477,-14.151625],[47.926768,-14.24627],[47.814464,-14.215997],[47.709483,-14.369561],[47.75294,-14.600518],[47.482432,-15.080255],[47.420665,-14.96559],[47.503429,-14.846938],[47.444835,-14.671563],[47.289887,-14.846938],[47.291759,-14.923435],[47.057872,-15.216241],[47.232107,-15.433282],[47.147634,-15.446466]]]},"properties":{"LOCATION_TYPE":"level1","ADM0_A3":"MDG","LOCATION_ID":"MDG-M","NAME":"Sofia","TYPE_EN":"Autonomous Province"}},
{"type":"Feature","geometry":{"type":"MultiPolygon","coordinates":[[[[48.031079,-14.063598],[48.084331,-13.953101],[48.18908,-13.957701],[48.398266,-14.124564],[48.522238,-14.073508],[48.82687,-14.245435],[48.970841,-14.143426],[49.09688,-14.195516],[49.180408,-14.107126],[49.230518,-13.944269],[49.330738,-13.919214],[49.418431,-13.555916],[49.355793,-13.355476],[49.418431,-13.292838],[49.481068,-13.02976],[49.456013,-12.854375],[49.635509,-12.674574],[49.563243,-12.616795],[49.586436,-12.482029],[49.539399,-12.378188],[49.349376,-12.298517],[49.322602,-12.000095],[49.201996,-12.04811],[49.201508,-12.146661],[48.98463,-12.333429],[48.866222,-12.63714],[48.955333,-12.8117],[48.941661,-12.928399],[48.843516,-13.080824],[48.839203,-13.260431],[48.747406,-13.411554],[48.427582,-13.524184],[48.332042,-13.661391],[48.327403,-13.779962],[48.181326,-13.746759],[48.142426,-13.595392],[48.031261,-13.517185],[47.904307,-13.603204],[47.875824,-13.784275],[47.941091,-14.004083],[48.031079,-14.063598]]],[[[48.332042,-13.360447],[48.314952,-13.246759],[48.198904,-13.251072],[48.206309,-13.382582],[48.332042,-13.360447]]]]},"properties":{"LOCATION_TYPE":"level1","ADM0_A3":"MDG","LOCATION_ID":"MDG-D","NAME":"Diana","TYPE_EN":"Autonomous Province"}},
{"type":"Feature","geometry":{"type":"Polygon","coordinates":[[[49.635509,-12.674574],[49.456013,-12.854375],[49.481068,-13.02976],[49.418431,-13.292838],[49.355793,-13.355476],[49.418431,-13.555916],[49.330738,-13.919214],[49.230518,-13.944269],[49.180408,-14.107126],[49.09688,-14.195516],[49.164214,-14.296801],[49.393864,-14.493275],[49.481352,-14.805298],[49.585945,-14.941103],[49.723611,-15.075772],[49.931247,-15.0381],[50.038269,-15.172872],[50.004473,-15.371103],[50.01858,-15.601683],[50.13087,-15.919366],[50.241547,-15.958266],[50.429861,-15.600274],[50.503917,-15.316176],[50.476573,-15.195082],[50.283702,-14.879164],[50.190929,-14.456638],[50.212901,-14.287205],[50.161876,-14.202325],[50.142914,-13.783136],[49.972667,-13.331313],[49.942149,-13.033868],[49.864268,-12.880466],[49.635509,-12.674574]]]},"properties":{"LOCATION_TYPE":"level1","ADM0_A3":"MDG","LOCATION_ID":"MDG-D","NAME":"Sava","TYPE_EN":"Autonomous Province"}},
{"type":"Feature","geometry":{"type":"Polygon","coordinates":[[[50.13087,-15.919366],[50.01858,-15.601683],[50.004473,-15.371103],[50.038269,-15.172872],[49.931247,-15.0381],[49.723611,-15.075772],[49.585945,-14.941103],[49.507604,-14.981618],[49.380531,-15.202741],[49.114088,-15.339839],[49.118429,-15.45239],[49.056985,-15.753663],[49.106026,-15.885387],[49.013835,-16.123202],[49.207364,-16.185368],[49.219146,-16.243866],[49.107422,-16.441322],[49.039312,-16.471501],[48.983915,-16.649164],[48.916839,-16.678723],[48.892275,-16.875706],[48.829638,-17.026036],[48.854693,-17.188894],[48.804583,-17.301641],[48.869884,-17.3742],[48.729418,-17.564719],[48.879748,-17.752632],[49.293155,-17.677467],[49.330738,-17.527137],[49.475014,-17.513685],[49.421397,-17.355157],[49.528982,-17.041681],[49.624522,-16.885675],[49.778331,-16.855564],[49.723155,-16.708103],[49.849457,-16.552423],[49.845714,-16.212091],[49.702647,-16.115004],[49.733735,-15.905694],[49.638438,-15.54461],[49.750336,-15.435968],[49.901134,-15.422296],[49.90561,-15.561619],[49.975841,-15.626642],[50.03891,-15.85947],[50.13087,-15.919366]]]},"properties":{"LOCATION_TYPE":"level1","ADM0_A3":"MDG","LOCATION_ID":"MDG-A","NAME":"Analanjirofo","TYPE_EN":"Autonomous Province"}},
{"type":"Feature","geometry":{"type":"Polygon","coordinates":[[[49.475014,-17.513685],[49.330738,-17.527137],[49.293155,-17.677467],[48.879748,-17.752632],[48.842165,-17.852852],[48.654252,-17.877907],[48.804583,-18.053292],[48.81711,-18.153512],[48.56656,-18.253732],[48.528977,-18.591975],[48.66678,-18.9678],[48.66678,-19.155713],[48.579087,-19.180768],[48.56656,-19.331098],[48.391175,-19.381208],[48.428757,-19.569121],[48.341065,-19.569121],[48.303482,-19.794616],[48.140625,-19.782088],[48.065459,-19.719451],[47.849876,-19.795587],[47.772309,-19.884367],[47.717842,-20.075208],[47.679033,-20.271889],[47.781146,-20.450948],[48.083091,-20.384285],[48.174972,-20.221556],[48.388034,-20.372813],[48.616222,-20.419773],[48.823741,-19.902765],[48.85963,-19.684666],[48.98585,-19.378839],[49.076915,-19.065606],[49.191173,-18.842543],[49.243175,-18.656834],[49.359223,-18.424005],[49.41391,-18.067071],[49.509613,-17.727716],[49.475014,-17.513685]]]},"properties":{"LOCATION_TYPE":"level1","ADM0_A3":"MDG","LOCATION_ID":"MDG-A","NAME":"Atsinanana","TYPE_EN":"Autonomous Province"}},
{"type":"Feature","geometry":{"type":"Polygon","coordinates":[[[48.616222,-20.419773],[48.388034,-20.372813],[48.174972,-20.221556],[48.083091,-20.384285],[47.781146,-20.450948],[47.614469,-20.558794],[47.589414,-20.759234],[47.464139,-20.821872],[47.451611,-20.984729],[47.363919,-21.28539],[47.426556,-21.448247],[47.326336,-21.88671],[47.326336,-22.03704],[47.063259,-22.174843],[47.276226,-22.325173],[47.401501,-22.300118],[47.526777,-22.462976],[47.777327,-22.513086],[47.882499,-22.595605],[47.947439,-22.34824],[48.201834,-21.796157],[48.455577,-21.014093],[48.462413,-20.932224],[48.616222,-20.419773]]]},"properties":{"LOCATION_TYPE":"level1","ADM0_A3":"MDG","LOCATION_ID":"MDG-F","NAME":"Vatovavy-Fitovinany","TYPE_EN":"Autonomous Province"}},
{"type":"Feature","geometry":{"type":"Polygon","coordinates":[[[47.882499,-22.595605],[47.777327,-22.513086],[47.526777,-22.462976],[47.401501,-22.300118],[47.276226,-22.325173],[47.063259,-22.174843],[46.988094,-22.275063],[47.100841,-22.588251],[47.188534,-22.751108],[47.201061,-23.101879],[46.912929,-22.989131],[46.812708,-23.064296],[46.862819,-23.427594],[46.837763,-23.615506],[46.674906,-23.703199],[46.485928,-23.654783],[46.411927,-23.800976],[46.521636,-23.91363],[46.709377,-23.98298],[46.74276,-24.0853],[46.869367,-24.125969],[46.913292,-24.287613],[47.045325,-24.196972],[47.016593,-24.078737],[47.208106,-23.999413],[47.428062,-24.124792],[47.568696,-23.852634],[47.619477,-23.59059],[47.738048,-23.255466],[47.833832,-22.900974],[47.882499,-22.595605]]]},"properties":{"LOCATION_TYPE":"level1","ADM0_A3":"MDG","LOCATION_ID":"MDG-F","NAME":"Atsimo-Atsinanana","TYPE_EN":"Autonomous Province"}},
{"type":"Feature","geometry":{"type":"Polygon","coordinates":[[[47.428062,-24.124792],[47.208106,-23.999413],[47.016593,-24.078737],[47.045325,-24.196972],[46.913292,-24.287613],[46.869367,-24.125969],[46.74276,-24.0853],[46.709377,-23.98298],[46.521636,-23.91363],[46.411927,-23.800976],[46.485928,-23.654783],[46.416733,-23.437794],[46.474301,-23.352269],[46.467944,-23.184373],[46.380094,-23.133936],[46.202586,-22.801605],[45.995518,-22.683783],[45.802094,-22.683473],[45.415244,-22.860103],[45.358689,-23.11534],[45.395979,-23.293231],[45.275374,-23.475604],[45.278088,-23.596335],[45.466001,-23.583807],[45.528639,-23.709082],[45.478529,-23.884468],[45.518161,-24.009176],[45.772925,-24.041442],[45.84809,-24.104079],[45.79798,-24.254409],[45.960838,-24.45485],[45.923255,-24.7054],[45.94831,-24.95595],[46.14875,-25.05617],[46.237641,-25.198175],[46.386567,-25.164809],[46.653656,-25.183852],[46.964692,-25.065688],[47.137462,-24.909275],[47.312266,-24.485935],[47.33839,-24.324314],[47.428062,-24.124792]]]},"properties":{"LOCATION_TYPE":"level1","ADM0_A3":"MDG","LOCATION_ID":"MDG-U","NAME":"Anosy","TYPE_EN":"Autonomous Province"}},
{"type":"Feature","geometry":{"type":"Polygon","coordinates":[[[46.237641,-25.198175],[46.14875,-25.05617],[45.94831,-24.95595],[45.923255,-24.7054],[45.960838,-24.45485],[45.79798,-24.254409],[45.84809,-24.104079],[45.772925,-24.041442],[45.518161,-24.009176],[45.478529,-23.884468],[45.290616,-23.92205],[45.177868,-24.135018],[45.102703,-24.435678],[45.127758,-24.736338],[45.090176,-24.886668],[44.776988,-25.149746],[44.727794,-25.303643],[44.834727,-25.344008],[45.136078,-25.584161],[45.492198,-25.573663],[45.774181,-25.408136],[46.237641,-25.198175]]]},"properties":{"LOCATION_TYPE":"level1","ADM0_A3":"MDG","LOCATION_ID":"MDG-U","NAME":"Androy","TYPE_EN":"Autonomous Province"}},
{"type":"Feature","geometry":{"type":"Polygon","coordinates":[[[44.727794,-25.303643],[44.776988,-25.149746],[45.090176,-24.886668],[45.127758,-24.736338],[45.102703,-24.435678],[45.177868,-24.135018],[45.290616,-23.92205],[45.478529,-23.884468],[45.528639,-23.709082],[45.466001,-23.583807],[45.278088,-23.596335],[45.275374,-23.475604],[45.395979,-23.293231],[45.358689,-23.11534],[45.088752,-23.04433],[45.006225,-22.872402],[45.045602,-22.66797],[45.163993,-22.432946],[45.258819,-22.343959],[45.317782,-22.146141],[45.249052,-21.891015],[45.414779,-21.822285],[45.515031,-21.666791],[45.568878,-21.579819],[45.553788,-21.418382],[45.751657,-21.244026],[45.777702,-21.035098],[45.790466,-20.92911],[45.572485,-20.972202],[45.44721,-21.097477],[45.234242,-21.172642],[45.058857,-21.360555],[44.745669,-21.272862],[44.695559,-21.38561],[44.695559,-21.63616],[44.602631,-21.770929],[44.273367,-21.853041],[44.215017,-21.805352],[43.99586,-21.902683],[43.894786,-21.861017],[43.741222,-21.553562],[43.542247,-21.309503],[43.472667,-21.405206],[43.472667,-21.672052],[43.336192,-21.768813],[43.246837,-22.035089],[43.295177,-22.166111],[43.222911,-22.254815],[43.284923,-22.587498],[43.3567,-22.829685],[43.583181,-23.07586],[43.628591,-23.339288],[43.757986,-23.454034],[43.748302,-23.570082],[43.641612,-23.63893],[43.664073,-23.86712],[43.656261,-24.185317],[43.706716,-24.406183],[43.839854,-24.505792],[43.927989,-24.652439],[43.928477,-24.774591],[44.028819,-24.998956],[44.187185,-25.06699],[44.369477,-25.256768],[44.727794,-25.303643]]]},"properties":{"LOCATION_TYPE":"level1","ADM0_A3":"MDG","LOCATION_ID":"MDG-U","NAME":"Atsimo-Andrefana","TYPE_EN":"Autonomous Province"}},
{"type":"Feature","geometry":{"type":"Polygon","coordinates":[[[43.542247,-21.309503],[43.741222,-21.553562],[43.894786,-21.861017],[43.99586,-21.902683],[44.215017,-21.805352],[44.273367,-21.853041],[44.602631,-21.770929],[44.695559,-21.63616],[44.695559,-21.38561],[44.745669,-21.272862],[45.058857,-21.360555],[45.234242,-21.172642],[45.44721,-21.097477],[45.572485,-20.972202],[45.790466,-20.92911],[45.844003,-20.660031],[45.843848,-20.367955],[45.784834,-20.114534],[45.783903,-19.882714],[45.85532,-19.767889],[45.80752,-19.452197],[45.839507,-19.338664],[45.738635,-19.24606],[45.501853,-18.917708],[45.500407,-18.719994],[45.62226,-18.594007],[45.574769,-18.287721],[45.403307,-18.29971],[45.198151,-18.214754],[45.037231,-18.190414],[44.817192,-18.372987],[44.906128,-18.536284],[45.013356,-18.841485],[45.057591,-19.069172],[44.874915,-19.299132],[44.54863,-19.249057],[44.464346,-19.164566],[44.271798,-19.146051],[44.459646,-19.417657],[44.483735,-19.523207],[44.404959,-19.610121],[44.37086,-19.774021],[44.47934,-19.912774],[44.254731,-20.376072],[44.125824,-20.498305],[44.036388,-20.725518],[43.901541,-20.882908],[43.812755,-21.224298],[43.73463,-21.281671],[43.542247,-21.309503]]]},"properties":{"LOCATION_TYPE":"level1","ADM0_A3":"MDG","LOCATION_ID":"MDG-U","NAME":"Menabe","TYPE_EN":"Autonomous Province"}},
{"type":"Feature","geometry":{"type":"Polygon","coordinates":[[[44.271798,-19.146051],[44.464346,-19.164566],[44.54863,-19.249057],[44.874915,-19.299132],[45.057591,-19.069172],[45.013356,-18.841485],[44.906128,-18.536284],[44.817192,-18.372987],[45.037231,-18.190414],[45.198151,-18.214754],[45.403307,-18.29971],[45.574769,-18.287721],[45.634197,-18.225554],[45.770261,-18.259454],[45.9225,-17.970376],[45.96999,-17.810644],[45.84809,-17.627357],[45.873145,-17.426916],[45.585012,-17.426916],[45.484792,-17.076146],[45.49732,-16.975926],[45.34699,-16.863179],[45.24677,-16.675266],[45.021275,-16.524936],[44.946109,-16.286913],[44.877778,-16.209161],[44.45281,-16.1867],[44.400645,-16.372817],[44.430675,-16.700372],[44.238048,-16.970961],[44.179698,-17.095147],[43.943126,-17.455743],[43.92921,-17.601658],[44.035655,-17.769464],[44.000987,-17.937921],[44.049653,-18.426528],[44.185883,-18.610772],[44.257335,-18.803888],[44.22755,-19.05462],[44.271798,-19.146051]]]},"properties":{"LOCATION_TYPE":"level1","ADM0_A3":"MDG","LOCATION_ID":"MDG-M","NAME":"Melaky","TYPE_EN":"Autonomous Province"}},
{"type":"Feature","geometry":{"type":"Polygon","coordinates":[[[47.902792,-17.900251],[47.674072,-17.948051],[47.448763,-17.891259],[47.269704,-17.749304],[47.054627,-17.849039],[46.921508,-17.819377],[46.891071,-17.722484],[46.590831,-17.744756],[46.710218,-18.134224],[46.944021,-18.401707],[46.975027,-18.540948],[47.130626,-18.736668],[47.306244,-18.792169],[47.426556,-18.992855],[47.476667,-19.155713],[47.589414,-19.155713],[47.564359,-19.418791],[47.875352,-19.594308],[47.952918,-19.329052],[47.907443,-19.08948],[47.947337,-18.985301],[47.940206,-18.736065],[47.986301,-18.578401],[48.002579,-18.100497],[47.902792,-17.900251]]]},"properties":{"LOCATION_TYPE":"level1","ADM0_A3":"MDG","LOCATION_ID":"MDG-T","NAME":"Analamanga","TYPE_EN":"Autonomous Province"}},
{"type":"Feature","geometry":{"type":"Polygon","coordinates":[[[46.590831,-17.744756],[46.891071,-17.722484],[46.921508,-17.819377],[47.054627,-17.849039],[47.269704,-17.749304],[47.448763,-17.891259],[47.674072,-17.948051],[47.902792,-17.900251],[47.990332,-17.69401],[48.057046,-17.648483],[48.086399,-17.433303],[48.204169,-17.163655],[48.081541,-17.001856],[48.07782,-16.899537],[47.952763,-16.746058],[47.916797,-16.514909],[47.626997,-16.399661],[47.514249,-16.399661],[47.338864,-16.299441],[47.188534,-16.462298],[47.301281,-16.549991],[47.313809,-16.675266],[47.113369,-16.587573],[46.704519,-16.609389],[46.587213,-16.950871],[46.474466,-16.975926],[46.236443,-17.239004],[46.123695,-17.151311],[46.010948,-16.988454],[45.79798,-16.988454],[45.685233,-16.938344],[45.49732,-16.975926],[45.484792,-17.076146],[45.585012,-17.426916],[45.873145,-17.426916],[45.84809,-17.627357],[45.96999,-17.810644],[46.175921,-17.881906],[46.590831,-17.744756]]]},"properties":{"LOCATION_TYPE":"level1","ADM0_A3":"MDG","LOCATION_ID":"MDG-M","NAME":"Betsiboka","TYPE_EN":"Autonomous Province"}},
{"type":"Feature","geometry":{"type":"Polygon","coordinates":[[[46.590831,-17.744756],[46.175921,-17.881906],[45.96999,-17.810644],[45.9225,-17.970376],[45.770261,-18.259454],[45.634197,-18.225554],[45.574769,-18.287721],[45.62226,-18.594007],[45.500407,-18.719994],[45.501853,-18.917708],[45.738635,-19.24606],[45.839507,-19.338664],[45.80752,-19.452197],[46.161278,-19.443846],[46.512048,-18.980328],[46.562158,-18.804943],[46.762598,-18.704722],[47.130626,-18.736668],[46.975027,-18.540948],[46.944021,-18.401707],[46.710218,-18.134224],[46.590831,-17.744756]]]},"properties":{"LOCATION_TYPE":"level1","ADM0_A3":"MDG","LOCATION_ID":"MDG-T","NAME":"Bongolava","TYPE_EN":"Autonomous Province"}},
{"type":"Feature","geometry":{"type":"Polygon","coordinates":[[[45.783903,-19.882714],[46.022752,-19.938421],[46.10838,-20.02441],[46.289609,-20.047665],[46.303923,-20.20595],[46.567318,-20.271476],[46.799397,-20.279899],[46.956235,-20.173135],[47.194308,-20.145127],[47.351663,-20.040895],[47.717842,-20.075208],[47.772309,-19.884367],[47.849876,-19.795587],[47.875352,-19.594308],[47.564359,-19.418791],[47.589414,-19.155713],[47.476667,-19.155713],[47.338864,-19.31857],[47.063259,-19.293515],[47.025676,-19.243405],[46.787653,-19.255933],[46.574686,-19.418791],[46.399301,-19.406263],[46.161278,-19.443846],[45.80752,-19.452197],[45.85532,-19.767889],[45.783903,-19.882714]]]},"properties":{"LOCATION_TYPE":"level1","ADM0_A3":"MDG","LOCATION_ID":"MDG-T","NAME":"Vakinankaratra","TYPE_EN":"Autonomous Province"}},
{"type":"Feature","geometry":{"type":"Polygon","coordinates":[[[45.783903,-19.882714],[45.784834,-20.114534],[45.843848,-20.367955],[45.844003,-20.660031],[45.790466,-20.92911],[45.777702,-21.035098],[45.910728,-21.034839],[46.173805,-20.934619],[46.336663,-20.784289],[46.587213,-20.746707],[46.712488,-20.959674],[46.850291,-21.047367],[46.975566,-21.047367],[47.050731,-20.947147],[47.213589,-20.884509],[47.326336,-20.972202],[47.451611,-20.984729],[47.464139,-20.821872],[47.589414,-20.759234],[47.614469,-20.558794],[47.781146,-20.450948],[47.679033,-20.271889],[47.717842,-20.075208],[47.351663,-20.040895],[47.194308,-20.145127],[46.956235,-20.173135],[46.799397,-20.279899],[46.567318,-20.271476],[46.303923,-20.20595],[46.289609,-20.047665],[46.10838,-20.02441],[46.022752,-19.938421],[45.783903,-19.882714]]]},"properties":{"LOCATION_TYPE":"level1","ADM0_A3":"MDG","LOCATION_ID":"MDG-F","NAME":"Amoron'i Mania","TYPE_EN":"Autonomous Province"}},
{"type":"Feature","geometry":{"type":"Polygon","coordinates":[[[47.875352,-19.594308],[47.849876,-19.795587],[48.065459,-19.719451],[48.140625,-19.782088],[48.303482,-19.794616],[48.341065,-19.569121],[48.428757,-19.569121],[48.391175,-19.381208],[48.56656,-19.331098],[48.579087,-19.180768],[48.66678,-19.155713],[48.66678,-18.9678],[48.528977,-18.591975],[48.56656,-18.253732],[48.81711,-18.153512],[48.804583,-18.053292],[48.654252,-17.877907],[48.842165,-17.852852],[48.879748,-17.752632],[48.729418,-17.564719],[48.869884,-17.3742],[48.804583,-17.301641],[48.854693,-17.188894],[48.829638,-17.026036],[48.892275,-16.875706],[48.916839,-16.678723],[48.721037,-16.755153],[48.635357,-16.670042],[48.627761,-16.470622],[48.298944,-16.245778],[47.980875,-16.251669],[47.916797,-16.514909],[47.952763,-16.746058],[48.07782,-16.899537],[48.081541,-17.001856],[48.204169,-17.163655],[48.086399,-17.433303],[48.057046,-17.648483],[47.990332,-17.69401],[47.902792,-17.900251],[48.002579,-18.100497],[47.986301,-18.578401],[47.940206,-18.736065],[47.947337,-18.985301],[47.907443,-19.08948],[47.952918,-19.329052],[47.875352,-19.594308]]]},"properties":{"LOCATION_TYPE":"level1","ADM0_A3":"MDG","LOCATION_ID":"MDG-A","NAME":"Alaotra-Mangoro","TYPE_EN":"Autonomous Province"}},
{"type":"Feature","geometry":{"type":"Polygon","coordinates":[[[46.988094,-22.275063],[46.862819,-22.224953],[46.537103,-22.212425],[46.461938,-22.124733],[46.399301,-21.911765],[46.036003,-21.773962],[45.672705,-21.761435],[45.515031,-21.666791],[45.414779,-21.822285],[45.249052,-21.891015],[45.317782,-22.146141],[45.258819,-22.343959],[45.163993,-22.432946],[45.045602,-22.66797],[45.006225,-22.872402],[45.088752,-23.04433],[45.358689,-23.11534],[45.415244,-22.860103],[45.802094,-22.683473],[45.995518,-22.683783],[46.202586,-22.801605],[46.380094,-23.133936],[46.467944,-23.184373],[46.474301,-23.352269],[46.416733,-23.437794],[46.485928,-23.654783],[46.674906,-23.703199],[46.837763,-23.615506],[46.862819,-23.427594],[46.812708,-23.064296],[46.912929,-22.989131],[47.201061,-23.101879],[47.188534,-22.751108],[47.100841,-22.588251],[46.988094,-22.275063]]]},"properties":{"LOCATION_TYPE":"level1","ADM0_A3":"MDG","LOCATION_ID":"MDG-F","NAME":"Ihorombe","TYPE_EN":"Autonomous Province"}},
{"type":"Feature","geometry":{"type":"Polygon","coordinates":[[[45.515031,-21.666791],[45.672705,-21.761435],[46.036003,-21.773962],[46.399301,-21.911765],[46.461938,-22.124733],[46.537103,-22.212425],[46.862819,-22.224953],[46.988094,-22.275063],[47.063259,-22.174843],[47.326336,-22.03704],[47.326336,-21.88671],[47.426556,-21.448247],[47.363919,-21.28539],[47.451611,-20.984729],[47.326336,-20.972202],[47.213589,-20.884509],[47.050731,-20.947147],[46.975566,-21.047367],[46.850291,-21.047367],[46.712488,-20.959674],[46.587213,-20.746707],[46.336663,-20.784289],[46.173805,-20.934619],[45.910728,-21.034839],[45.777702,-21.035098],[45.751657,-21.244026],[45.553788,-21.418382],[45.568878,-21.579819],[45.515031,-21.666791]]]},"properties":{"LOCATION_TYPE":"level1","ADM0_A3":"MDG","LOCATION_ID":"MDG-F","NAME":"Haute Matsiatra","TYPE_EN":"Autonomous Province"}},
{"type":"Feature","geometry":{"type":"Polygon","coordinates":[[[47.130626,-18.736668],[46.762598,-18.704722],[46.562158,-18.804943],[46.512048,-18.980328],[46.161278,-19.443846],[46.399301,-19.406263],[46.574686,-19.418791],[46.787653,-19.255933],[47.025676,-19.243405],[47.063259,-19.293515],[47.338864,-19.31857],[47.476667,-19.155713],[47.426556,-18.992855],[47.306244,-18.792169],[47.130626,-18.736668]]]},"properties":{"LOCATION_TYPE":"level1","ADM0_A3":"MDG","LOCATION_ID":"MDG-T","NAME":"Itasy","TYPE_EN":"Autonomous Province"}}
]}