{"type":"FeatureCollection", "features": [
{"type":"Feature","geometry":{"type":"MultiPolygon","coordinates":[[[[73.204112,-0.671157],[73.19516,-0.674493],[73.196462,-0.681329],[73.204112,-0.671157]]],[[[73.240001,-0.625584],[73.234874,-0.619399],[73.229991,-0.623305],[73.226817,-0.632582],[73.227306,-0.642836],[73.240001,-0.625584]]],[[[73.246755,-0.588637],[73.247325,-0.577895],[73.239024,-0.584405],[73.236339,-0.59238],[73.238292,-0.600356],[73.24464,-0.607192],[73.246755,-0.588637]]],[[[73.097504,-0.599705],[73.098806,-0.587172],[73.104991,-0.586602],[73.104991,-0.579197],[73.091156,-0.586033],[73.0949,-0.604669],[73.111176,-0.64129],[73.118663,-0.64129],[73.116384,-0.629571],[73.111583,-0.61712],[73.104991,-0.606541],[73.097504,-0.599705]]]]},"properties":{"LOCATION_TYPE":"level1","ADM0_A3":"MDV","LOCATION_ID":"MDV-01","NAME":"Addu","TYPE_EN":"City"}},
{"type":"Feature","geometry":{"type":"Polygon","coordinates":[[[73.435069,-0.283624],[73.435232,-0.293634],[73.444509,-0.304295],[73.443044,-0.292739],[73.435069,-0.283624]]]},"properties":{"LOCATION_TYPE":"level1","ADM0_A3":"MDV","LOCATION_ID":"MDV-29","NAME":"Gnaviyani","TYPE_EN":"Atoll"}},
{"type":"Feature","geometry":{"type":"MultiPolygon","coordinates":[[[[73.09547,0.228013],[73.098888,0.216376],[73.10434,0.219631],[73.09547,0.228013]]],[[[73.208995,0.239976],[73.210948,0.232164],[73.217377,0.237698],[73.208995,0.239976]]]]},"properties":{"LOCATION_TYPE":"level1","ADM0_A3":"MDV","LOCATION_ID":"MDV-28","NAME":"Gaafu Dhaalu","TYPE_EN":"Atoll"}},
{"type":"Feature","geometry":{"type":"Polygon","coordinates":[[[73.513438,0.387763],[73.506602,0.387763],[73.508556,0.380561],[73.513438,0.387763]]]},"properties":{"LOCATION_TYPE":"level1","ADM0_A3":"MDV","LOCATION_ID":"MDV-27","NAME":"Gaafu Alifu","TYPE_EN":"Atoll"}},
{"type":"Feature","geometry":{"type":"MultiPolygon","coordinates":[[[[72.928396,3.551907],[72.919932,3.552151],[72.915701,3.548977],[72.911794,3.541734],[72.928396,3.551907]]],[[[72.692556,3.726955],[72.689708,3.717963],[72.697358,3.718817],[72.692556,3.726955]]]]},"properties":{"LOCATION_TYPE":"level1","ADM0_A3":"MDV","LOCATION_ID":"MDV-00","NAME":"Alifu Dhaalu","TYPE_EN":"Atoll"}},
{"type":"Feature","geometry":{"type":"MultiPolygon","coordinates":[[[[73.477306,3.942125],[73.469249,3.936957],[73.469981,3.935126],[73.477306,3.942125]]],[[[73.508149,4.103583],[73.502452,4.098538],[73.508311,4.093329],[73.508149,4.103583]]]]},"properties":{"LOCATION_TYPE":"level1","ADM0_A3":"MDV","LOCATION_ID":"MDV-26","NAME":"Kaafu","TYPE_EN":"Atoll"}},
{"type":"Feature","geometry":{"type":"Polygon","coordinates":[[[72.957042,4.4383],[72.94337,4.431586],[72.947113,4.423082],[72.956065,4.422105],[72.957042,4.4383]]]},"properties":{"LOCATION_TYPE":"level1","ADM0_A3":"MDV","LOCATION_ID":"MDV-02","NAME":"Alifu Alifu","TYPE_EN":"Atoll"}},
{"type":"Feature","geometry":{"type":"Polygon","coordinates":[[[72.97934,4.895453],[72.972667,4.894355],[72.970063,4.890367],[72.969656,4.880723],[72.97934,4.895453]]]},"properties":{"LOCATION_TYPE":"level1","ADM0_A3":"MDV","LOCATION_ID":"MDV-20","NAME":"Baa","TYPE_EN":"Atoll"}},
{"type":"Feature","geometry":{"type":"MultiPolygon","coordinates":[[[[73.593598,5.282701],[73.582042,5.281806],[73.582856,5.27558],[73.593598,5.282701]]],[[[73.629568,5.418524],[73.627778,5.413275],[73.632498,5.386257],[73.635916,5.394477],[73.636729,5.402899],[73.634532,5.410956],[73.629568,5.418524]]]]},"properties":{"LOCATION_TYPE":"level1","ADM0_A3":"MDV","LOCATION_ID":"MDV-03","NAME":"Lhaviyani","TYPE_EN":"Atoll"}},
{"type":"Feature","geometry":{"type":"Polygon","coordinates":[[[72.931651,5.969062],[72.925792,5.963284],[72.930186,5.956936],[72.931651,5.969062]]]},"properties":{"LOCATION_TYPE":"level1","ADM0_A3":"MDV","LOCATION_ID":"MDV-13","NAME":"Raa","TYPE_EN":"Atoll"}},
{"type":"Feature","geometry":{"type":"Polygon","coordinates":[[[73.24171,6.239691],[73.236339,6.232123],[73.243907,6.231635],[73.24171,6.239691]]]},"properties":{"LOCATION_TYPE":"level1","ADM0_A3":"MDV","LOCATION_ID":"MDV-24","NAME":"Shaviyani","TYPE_EN":"Atoll"}},
{"type":"Feature","geometry":{"type":"MultiPolygon","coordinates":[[[[73.365001,1.791083],[73.368175,1.782945],[73.375824,1.78856],[73.365001,1.791083]]],[[[73.400238,1.806342],[73.394786,1.798774],[73.40211,1.7956],[73.400238,1.806342]]],[[[73.452647,1.826809],[73.456716,1.82038],[73.463634,1.826321],[73.452647,1.826809]]],[[[73.518077,1.842719],[73.502289,1.834906],[73.499197,1.827786],[73.518077,1.842719]]],[[[73.553071,1.93244],[73.549815,1.924994],[73.540863,1.892401],[73.545665,1.901557],[73.548839,1.911363],[73.553071,1.93244]]],[[[73.567638,2.109931],[73.562999,2.102362],[73.561778,2.094713],[73.58546,2.109605],[73.567638,2.109931]]]]},"properties":{"LOCATION_TYPE":"level1","ADM0_A3":"MDV","LOCATION_ID":"MDV-05","NAME":"Laamu","TYPE_EN":"Atoll"}},
{"type":"Feature","geometry":{"type":"Polygon","coordinates":[[[73.354259,2.437201],[73.353852,2.429023],[73.362559,2.384914],[73.367035,2.398017],[73.366222,2.411526],[73.361339,2.424709],[73.354259,2.437201]]]},"properties":{"LOCATION_TYPE":"level1","ADM0_A3":"MDV","LOCATION_ID":"MDV-08","NAME":"Thaa","TYPE_EN":"Atoll"}},
{"type":"Feature","geometry":{"type":"MultiPolygon","coordinates":[[[[72.872569,2.694159],[72.866954,2.688951],[72.873709,2.68358],[72.872569,2.694159]]],[[[73.022309,2.741685],[73.028005,2.738227],[73.032237,2.745103],[73.022309,2.741685]]]]},"properties":{"LOCATION_TYPE":"level1","ADM0_A3":"MDV","LOCATION_ID":"MDV-17","NAME":"Dhaalu","TYPE_EN":"Atoll"}},
{"type":"Feature","geometry":{"type":"Polygon","coordinates":[[[73.399262,2.785712],[73.394379,2.784329],[73.391856,2.78148],[73.390636,2.775377],[73.399262,2.785712]]]},"properties":{"LOCATION_TYPE":"level1","ADM0_A3":"MDV","LOCATION_ID":"MDV-12","NAME":"Meemu","TYPE_EN":"Atoll"}},
{"type":"Feature","geometry":{"type":"Polygon","coordinates":[[[73.031749,3.252997],[73.028982,3.246894],[73.035655,3.247789],[73.031749,3.252997]]]},"properties":{"LOCATION_TYPE":"level1","ADM0_A3":"MDV","LOCATION_ID":"MDV-14","NAME":"Faafu","TYPE_EN":"Atoll"}},
{"type":"Feature","geometry":{"type":"Polygon","coordinates":[[[73.747569,3.451117],[73.748546,3.448188],[73.753103,3.446438],[73.747569,3.451117]]]},"properties":{"LOCATION_TYPE":"level1","ADM0_A3":"MDV","LOCATION_ID":"MDV-04","NAME":"Vaavu","TYPE_EN":"Atoll"}},
{"type":"Feature","geometry":{"type":"Polygon","coordinates":[[[73.546197,4.243039],[73.533271,4.231004],[73.520533,4.191123],[73.512015,4.186301],[73.432093,4.189998],[73.431201,4.184649],[73.476665,4.168603],[73.486916,4.164146],[73.510891,4.162087],[73.526585,4.171278],[73.538174,4.183312],[73.549317,4.212284],[73.552883,4.236799],[73.546197,4.243039]]]},"properties":{"LOCATION_TYPE":"level1","ADM0_A3":"MDV","LOCATION_ID":"MDV-12","NAME":"Malé","TYPE_EN":"Capital"}},
{"type":"Feature","geometry":{"type":"MultiPolygon","coordinates":[[[[73.392833,5.737698],[73.382579,5.722113],[73.380707,5.714586],[73.392833,5.737698]]],[[[73.382335,5.794989],[73.376801,5.78734],[73.384532,5.786933],[73.382335,5.794989]]],[[[73.389822,5.970282],[73.384532,5.964748],[73.395333,5.957802],[73.389822,5.970282]]]]},"properties":{"LOCATION_TYPE":"level1","ADM0_A3":"MDV","LOCATION_ID":"MDV-25","NAME":"Noonu","TYPE_EN":"Atoll"}},
{"type":"Feature","geometry":{"type":"MultiPolygon","coordinates":[[[[73.105968,6.709906],[73.09669,6.706122],[73.100434,6.699774],[73.105968,6.709906]]],[[[73.159516,6.786526],[73.152517,6.768215],[73.135997,6.741197],[73.131684,6.725043],[73.144786,6.735541],[73.152843,6.749213],[73.166515,6.780341],[73.164236,6.787055],[73.159516,6.786526]]]]},"properties":{"LOCATION_TYPE":"level1","ADM0_A3":"MDV","LOCATION_ID":"MDV-23","NAME":"Haa Dhaalu","TYPE_EN":"Atoll"}},
{"type":"Feature","geometry":{"type":"MultiPolygon","coordinates":[[[[73.181651,6.830512],[73.180837,6.823432],[73.189464,6.822821],[73.197276,6.828111],[73.181651,6.830512]]],[[[73.214041,6.918606],[73.209158,6.91828],[73.204926,6.91177],[73.201915,6.902248],[73.20102,6.893134],[73.203949,6.884955],[73.208751,6.891099],[73.213064,6.904608],[73.214041,6.918606]]],[[[73.198497,6.97134],[73.194102,6.970893],[73.191173,6.96133],[73.191905,6.951646],[73.194672,6.951239],[73.198497,6.97134]]],[[[72.912852,7.092719],[72.906423,7.089016],[72.911876,7.083197],[72.912852,7.092719]]]]},"properties":{"LOCATION_TYPE":"level1","ADM0_A3":"MDV","LOCATION_ID":"MDV-07","NAME":"Haa Alifu","TYPE_EN":"Atoll"}}
]}