{"type":"FeatureCollection", "features": [
{"type":"Feature","geometry":{"type":"MultiPolygon","coordinates":[[[[-114.819373,32.499363],[-114.905952,32.491712],[-115.039743,32.277177],[-114.955923,32.141553],[-114.933631,31.908763],[-114.677235,31.764065],[-114.584712,31.760755],[-114.494263,31.677366],[-114.159013,31.494509],[-114.028942,31.491539],[-113.875722,31.596747],[-113.659577,31.49754],[-113.609306,31.352915],[-113.548948,31.2957],[-113.116869,31.217645],[-113.048723,31.156692],[-113.055898,31.030707],[-113.099921,30.979241],[-113.128841,30.81244],[-113.079895,30.670441],[-112.986543,30.532352],[-112.870676,30.428534],[-112.848594,30.28853],[-112.753236,30.185883],[-112.751472,29.924264],[-112.68635,29.907782],[-112.505972,29.616919],[-112.377754,29.485729],[-112.419822,29.37591],[-112.35676,29.318793],[-112.263474,29.32998],[-112.150725,28.962978],[-111.894358,28.780666],[-111.9204,28.720038],[-111.76061,28.58397],[-111.708354,28.460141],[-111.4735,28.381049],[-111.438832,28.308498],[-111.250662,28.052013],[-111.059146,27.937017],[-110.999257,27.964057],[-110.862782,27.876288],[-110.808176,27.927802],[-110.670969,27.898383],[-110.586578,27.837063],[-110.626708,27.608537],[-110.554758,27.384752],[-110.499664,27.393378],[-110.403718,27.245371],[-110.287622,27.148394],[-110.090783,27.102709],[-109.982167,27.115139],[-109.917037,27.060074],[-109.911244,26.951972],[-109.856313,26.800971],[-109.768372,26.706512],[-109.694428,26.678155],[-109.549896,26.727956],[-109.428522,26.671851],[-109.255727,26.497992],[-109.253,26.349066],[-109.139251,26.331772],[-108.507376,26.801569],[-108.466461,26.97987],[-108.573832,27.043285],[-108.677495,27.183406],[-108.63742,27.313837],[-108.669976,27.53788],[-108.7786,27.621984],[-108.762529,27.674952],[-108.871308,27.757014],[-108.906293,27.836157],[-109.020704,27.907108],[-109.145606,28.177505],[-109.069228,28.276362],[-108.879938,28.289075],[-108.657316,28.24006],[-108.540243,28.320055],[-108.645688,28.60766],[-108.623959,28.771061],[-108.707829,29.40079],[-108.613287,29.407611],[-108.555487,29.998479],[-108.536755,30.038632],[-108.58347,30.506614],[-108.694729,30.6002],[-108.799684,30.636244],[-109.043235,30.82848],[-108.968282,31.327391],[-109.581808,31.32734],[-110.521595,31.327236],[-111.067118,31.333644],[-112.324715,31.727987],[-113.143218,31.981046],[-113.961696,32.234132],[-114.819373,32.499363]]],[[[-112.274657,28.768388],[-112.195606,29.02133],[-112.272747,29.137675],[-112.281569,29.225471],[-112.43871,29.202094],[-112.500356,29.075629],[-112.485911,28.971625],[-112.583033,28.875363],[-112.382004,28.773822],[-112.274657,28.768388]]]]},"properties":{"LOCATION_TYPE":"level1","ADM0_A3":"MEX","LOCATION_ID":"MEX-SON","NAME":"Sonora","TYPE_EN":"State"}},
{"type":"Feature","geometry":{"type":"MultiPolygon","coordinates":[[[[-114.819373,32.499363],[-114.802678,32.594497],[-114.724285,32.712836],[-115.794064,32.631963],[-116.529472,32.576333],[-117.125121,32.531669],[-117.118398,32.454535],[-117.024973,32.276923],[-116.948313,32.247016],[-116.842275,31.986518],[-116.754768,31.909641],[-116.6197,31.857571],[-116.619627,31.771738],[-116.675608,31.552639],[-116.5301,31.440334],[-116.341542,31.21955],[-116.309438,31.148505],[-116.335446,30.95634],[-116.249745,30.956773],[-116.175774,30.860147],[-116.068023,30.813178],[-116.031117,30.627143],[-116.049254,30.479593],[-116.004549,30.359165],[-115.932932,30.400214],[-115.837303,30.346467],[-115.783272,30.092638],[-115.811187,29.968004],[-115.728912,29.935126],[-115.697564,29.755826],[-115.498583,29.611401],[-115.285722,29.529885],[-115.187123,29.428616],[-114.972035,29.377753],[-114.72201,29.117505],[-114.631418,29.094468],[-114.529937,28.925523],[-114.402317,28.860249],[-114.271751,28.658801],[-114.165842,28.646959],[-114.042592,28.458441],[-114.124883,28.255725],[-114.057485,28.206285],[-114.113121,28.120413],[-114.062833,28.000488],[-112.763566,27.999424],[-112.811771,28.12054],[-112.793809,28.190266],[-112.872126,28.28374],[-112.849532,28.382345],[-112.902362,28.475342],[-113.001639,28.455579],[-113.10297,28.504583],[-113.194241,28.74402],[-113.260386,28.840107],[-113.354476,28.800274],[-113.379121,28.900213],[-113.478693,28.946248],[-113.656557,29.21844],[-113.623076,29.252714],[-113.770866,29.407756],[-113.981287,29.567896],[-114.046276,29.596376],[-114.271215,29.772068],[-114.39224,29.783012],[-114.427719,29.907295],[-114.533132,29.967951],[-114.660302,30.183252],[-114.62952,30.424803],[-114.649646,30.554561],[-114.698474,30.637212],[-114.687242,30.744994],[-114.720259,30.941098],[-114.832387,31.006659],[-114.888678,31.162892],[-114.85231,31.38943],[-114.85291,31.526606],[-114.780629,31.655829],[-114.827992,31.789781],[-114.933631,31.908763],[-114.955923,32.141553],[-115.039743,32.277177],[-114.905952,32.491712],[-114.819373,32.499363]]],[[[-115.19498,28.341358],[-115.239756,28.233606],[-115.334004,28.124878],[-115.206299,28.03794],[-115.15549,28.170704],[-115.19498,28.341358]]],[[[-113.138173,29.064887],[-113.174315,29.129248],[-113.18276,29.289693],[-113.370287,29.310009],[-113.349779,29.384066],[-113.476789,29.532104],[-113.549117,29.533139],[-113.589104,29.409599],[-113.229488,29.059574],[-113.138173,29.064887]]],[[[-118.251478,29.089444],[-118.355518,29.067004],[-118.225804,28.915052],[-118.251478,29.089444]]]]},"properties":{"LOCATION_TYPE":"level1","ADM0_A3":"MEX","LOCATION_ID":"MEX-BCN","NAME":"Baja California","TYPE_EN":"State"}},
{"type":"Feature","geometry":{"type":"Polygon","coordinates":[[[-103.311514,29.026043],[-103.372083,29.023733],[-103.541711,29.148816],[-103.673125,29.173569],[-103.794177,29.277594],[-104.057313,29.339037],[-104.267171,29.526571],[-104.349026,29.537578],[-104.530824,29.667906],[-104.570279,29.787511],[-104.680479,29.942308],[-104.699108,30.03145],[-104.681564,30.192939],[-104.74939,30.264459],[-104.852432,30.438867],[-104.886591,30.551883],[-105.008495,30.676992],[-105.229257,30.810214],[-105.363771,30.850366],[-105.555955,31.002605],[-105.59094,31.071438],[-105.76819,31.18001],[-105.861983,31.288376],[-106.004739,31.396948],[-106.164316,31.447797],[-106.286298,31.580141],[-106.35849,31.717548],[-106.517189,31.773824],[-107.283524,31.775529],[-108.215121,31.777751],[-108.214811,31.327443],[-108.968282,31.327391],[-109.043235,30.82848],[-108.799684,30.636244],[-108.694729,30.6002],[-108.58347,30.506614],[-108.536755,30.038632],[-108.555487,29.998479],[-108.613287,29.407611],[-108.707829,29.40079],[-108.623959,28.771061],[-108.645688,28.60766],[-108.540243,28.320055],[-108.657316,28.24006],[-108.879938,28.289075],[-109.069228,28.276362],[-109.145606,28.177505],[-109.020704,27.907108],[-108.906293,27.836157],[-108.871308,27.757014],[-108.762529,27.674952],[-108.7786,27.621984],[-108.669976,27.53788],[-108.63742,27.313837],[-108.677495,27.183406],[-108.573832,27.043285],[-108.466461,26.97987],[-108.374335,27.077443],[-108.25411,27.041037],[-108.197318,26.970835],[-108.045053,26.93094],[-107.999578,26.814565],[-107.835144,26.599591],[-107.785379,26.215558],[-107.758869,26.194965],[-107.414084,26.129801],[-107.343778,26.083835],[-107.259365,25.869274],[-107.126711,25.793103],[-107.075836,25.729386],[-106.93693,25.641588],[-106.720896,25.633216],[-106.544499,25.779925],[-106.524862,25.992781],[-106.426496,26.039109],[-106.378307,26.131506],[-106.427297,26.301341],[-106.40151,26.381026],[-106.227231,26.42924],[-106.224828,26.559671],[-106.169793,26.612614],[-106.157882,26.742063],[-106.091994,26.734932],[-106.027528,26.838595],[-105.808497,26.693255],[-105.680417,26.698939],[-105.555929,26.572823],[-105.327467,26.459471],[-105.116834,26.552411],[-105.043505,26.46823],[-104.988031,26.503576],[-104.833337,26.486782],[-104.59777,26.351002],[-104.51979,26.371543],[-104.234588,26.723227],[-104.115577,26.773095],[-103.941531,26.760408],[-103.627261,26.64393],[-103.892206,27.640096],[-103.963468,27.91889],[-103.639818,28.465214],[-103.311514,29.026043]]]},"properties":{"LOCATION_TYPE":"level1","ADM0_A3":"MEX","LOCATION_ID":"MEX-CHH","NAME":"Chihuahua","TYPE_EN":"State"}},
{"type":"Feature","geometry":{"type":"Polygon","coordinates":[[[-99.806963,27.771423],[-99.863357,27.804661],[-99.878808,27.901838],[-100.000584,28.02041],[-100.074895,28.154407],[-100.197626,28.207168],[-100.284339,28.296517],[-100.397097,28.592726],[-100.493939,28.708378],[-100.519054,28.804961],[-100.624318,28.924721],[-100.668967,29.116208],[-100.762501,29.173776],[-100.81609,29.270773],[-101.016232,29.390068],[-101.037782,29.460063],[-101.163562,29.501301],[-101.219011,29.610287],[-101.364351,29.676665],[-101.409309,29.765781],[-101.553977,29.796684],[-101.632216,29.775651],[-101.972246,29.818181],[-102.109344,29.80211],[-102.302175,29.889391],[-102.406096,29.777279],[-102.515288,29.784721],[-102.683469,29.743715],[-102.779665,29.592303],[-102.883069,29.343766],[-102.896893,29.220285],[-102.988386,29.177135],[-103.147989,28.985105],[-103.311514,29.026043],[-103.639818,28.465214],[-103.963468,27.91889],[-103.892206,27.640096],[-103.627261,26.64393],[-103.325703,26.408673],[-103.281339,26.262402],[-103.34534,26.123858],[-103.320174,25.698716],[-103.487786,25.540948],[-103.42487,25.427492],[-103.509206,25.29781],[-103.387973,25.14061],[-103.275319,25.072139],[-103.25147,24.922975],[-103.139539,24.847838],[-102.971875,24.806652],[-102.843097,24.728284],[-102.815786,24.904372],[-102.668172,25.078935],[-102.582389,25.125133],[-102.17337,25.162961],[-101.860728,25.07555],[-101.767762,24.938065],[-101.59077,24.882435],[-101.574389,24.80691],[-101.461734,24.749342],[-101.341586,24.811871],[-101.196944,24.796549],[-101.09664,24.641003],[-100.925178,24.611676],[-100.82844,24.564961],[-100.772267,24.750092],[-100.796193,24.893468],[-100.731598,24.96243],[-100.835467,25.041314],[-100.770614,25.147251],[-100.657287,25.211769],[-100.52882,25.229416],[-100.380301,25.192855],[-100.259585,25.209133],[-100.211785,25.291583],[-100.303459,25.344862],[-100.451822,25.341296],[-100.572331,25.413875],[-100.84632,25.785326],[-100.847715,25.956866],[-100.923317,26.000119],[-100.934686,26.081664],[-101.038866,26.156957],[-101.108732,26.283409],[-101.215651,26.372964],[-100.752578,26.731857],[-100.711496,26.617316],[-100.587007,26.764594],[-100.555846,26.867533],[-100.553366,27.032588],[-100.671653,27.098114],[-100.715165,27.019566],[-100.799552,27.059718],[-100.801981,27.211931],[-100.627522,27.327893],[-100.435182,27.379699],[-100.384746,27.602269],[-100.331002,27.700635],[-100.181864,27.793549],[-99.9672,27.640174],[-99.806963,27.771423]]]},"properties":{"LOCATION_TYPE":"level1","ADM0_A3":"MEX","LOCATION_ID":"MEX-COA","NAME":"Coahuila","TYPE_EN":"State"}},
{"type":"Feature","geometry":{"type":"Polygon","coordinates":[[[-99.710674,27.670116],[-99.909943,27.572167],[-99.903638,27.499769],[-99.777909,27.481889],[-99.680034,27.135243],[-99.728042,26.993056],[-99.700446,26.896266],[-99.562574,26.834977],[-99.609703,26.732167],[-99.571049,26.686485],[-99.413177,26.624137],[-99.383825,26.569025],[-99.41974,26.399242],[-99.346876,26.393428],[-99.254479,26.294829],[-99.173243,26.279301],[-99.152159,26.084015],[-99.019868,26.092904],[-98.888816,25.970818],[-98.810113,26.060089],[-98.568939,25.997432],[-98.55571,25.971283],[-98.561033,25.502578],[-98.445691,25.424572],[-98.868714,25.098753],[-98.955634,25.069736],[-99.03382,25.119552],[-99.142548,25.013021],[-99.192984,24.878017],[-99.478548,24.739834],[-99.547277,24.645809],[-99.650579,24.639091],[-99.736827,24.569663],[-99.709955,24.472486],[-99.606292,24.512509],[-99.575131,24.34469],[-99.616524,24.1377],[-99.592753,24.065069],[-99.463665,23.957401],[-99.599729,23.766844],[-99.840076,23.740799],[-99.952111,23.527711],[-99.906015,23.375111],[-100.042854,23.415264],[-100.057272,23.241062],[-99.988697,23.092183],[-99.914697,23.017768],[-99.915834,22.95741],[-100.039754,22.868269],[-99.987406,22.777266],[-99.55446,22.620997],[-99.379174,22.683422],[-99.248433,22.458888],[-98.939356,22.37233],[-98.812439,22.362511],[-98.76531,22.405661],[-98.616171,22.41858],[-98.439231,22.43274],[-98.297741,22.406643],[-98.197696,22.48054],[-98.092793,22.37264],[-97.895182,22.307579],[-97.862781,22.219781],[-97.781858,22.273336],[-97.889394,22.625434],[-97.794789,22.808336],[-97.74234,22.972073],[-97.768544,23.260077],[-97.722239,23.739325],[-97.716664,24.008124],[-97.651438,24.515855],[-97.458974,25.179389],[-97.319447,25.38996],[-97.165151,25.723334],[-97.139272,25.965806],[-97.253051,25.963481],[-97.425418,25.854857],[-97.679614,26.034639],[-97.80201,26.063733],[-97.941666,26.056809],[-98.222656,26.075412],[-98.36934,26.19401],[-98.581627,26.262274],[-98.640564,26.24181],[-98.795851,26.368314],[-99.085498,26.40764],[-99.115108,26.525617],[-99.164873,26.540448],[-99.248278,26.827097],[-99.461728,27.056954],[-99.431988,27.207591],[-99.497591,27.338798],[-99.472916,27.426647],[-99.507203,27.57377],[-99.600169,27.646427],[-99.710674,27.670116]]]},"properties":{"LOCATION_TYPE":"level1","ADM0_A3":"MEX","LOCATION_ID":"MEX-TAM","NAME":"Tamaulipas","TYPE_EN":"State"}},
{"type":"Feature","geometry":{"type":"Polygon","coordinates":[[[-99.806963,27.771423],[-99.9672,27.640174],[-100.181864,27.793549],[-100.331002,27.700635],[-100.384746,27.602269],[-100.435182,27.379699],[-100.627522,27.327893],[-100.801981,27.211931],[-100.799552,27.059718],[-100.715165,27.019566],[-100.671653,27.098114],[-100.553366,27.032588],[-100.555846,26.867533],[-100.587007,26.764594],[-100.711496,26.617316],[-100.752578,26.731857],[-101.215651,26.372964],[-101.108732,26.283409],[-101.038866,26.156957],[-100.934686,26.081664],[-100.923317,26.000119],[-100.847715,25.956866],[-100.84632,25.785326],[-100.572331,25.413875],[-100.451822,25.341296],[-100.303459,25.344862],[-100.211785,25.291583],[-100.259585,25.209133],[-100.380301,25.192855],[-100.52882,25.229416],[-100.657287,25.211769],[-100.770614,25.147251],[-100.835467,25.041314],[-100.731598,24.96243],[-100.796193,24.893468],[-100.772267,24.750092],[-100.82844,24.564961],[-100.610313,24.283324],[-100.603854,24.026157],[-100.579824,23.930503],[-100.487582,23.821492],[-100.4943,23.661579],[-100.454767,23.513397],[-100.47089,23.417847],[-100.439316,23.229022],[-100.326816,23.254136],[-100.057272,23.241062],[-100.042854,23.415264],[-99.906015,23.375111],[-99.952111,23.527711],[-99.840076,23.740799],[-99.599729,23.766844],[-99.463665,23.957401],[-99.592753,24.065069],[-99.616524,24.1377],[-99.575131,24.34469],[-99.606292,24.512509],[-99.709955,24.472486],[-99.736827,24.569663],[-99.650579,24.639091],[-99.547277,24.645809],[-99.478548,24.739834],[-99.192984,24.878017],[-99.142548,25.013021],[-99.03382,25.119552],[-98.955634,25.069736],[-98.868714,25.098753],[-98.445691,25.424572],[-98.561033,25.502578],[-98.55571,25.971283],[-98.568939,25.997432],[-98.810113,26.060089],[-98.888816,25.970818],[-99.019868,26.092904],[-99.152159,26.084015],[-99.173243,26.279301],[-99.254479,26.294829],[-99.346876,26.393428],[-99.41974,26.399242],[-99.383825,26.569025],[-99.413177,26.624137],[-99.571049,26.686485],[-99.609703,26.732167],[-99.562574,26.834977],[-99.700446,26.896266],[-99.728042,26.993056],[-99.680034,27.135243],[-99.777909,27.481889],[-99.903638,27.499769],[-99.909943,27.572167],[-99.710674,27.670116],[-99.806963,27.771423]]]},"properties":{"LOCATION_TYPE":"level1","ADM0_A3":"MEX","LOCATION_ID":"MEX-NLE","NAME":"Nuevo León","TYPE_EN":"State"}},
{"type":"Feature","geometry":{"type":"MultiPolygon","coordinates":[[[[-89.146337,17.951456],[-89.049444,17.999213],[-88.880332,17.88847],[-88.736388,18.051923],[-88.696623,18.178065],[-88.616989,18.235426],[-88.489245,18.484506],[-88.283315,18.491441],[-88.103912,18.80272],[-88.036285,18.874986],[-88.002187,18.690131],[-88.077789,18.498603],[-87.93517,18.443101],[-87.844553,18.262152],[-87.77123,18.406399],[-87.723378,18.68122],[-87.662017,18.766832],[-87.606191,19.020413],[-87.548899,19.133043],[-87.495717,19.327582],[-87.567128,19.317206],[-87.638987,19.220933],[-87.687856,19.242133],[-87.65567,19.373236],[-87.526112,19.406399],[-87.433013,19.492011],[-87.423207,19.55801],[-87.666371,19.552476],[-87.731516,19.600531],[-87.73469,19.683783],[-87.628733,19.708564],[-87.600413,19.771389],[-87.471547,19.884711],[-87.471303,20.069037],[-87.444,20.191148],[-87.234975,20.49258],[-87.067454,20.619208],[-86.875315,20.855048],[-86.823476,21.020168],[-86.741567,21.16413],[-86.815053,21.204779],[-86.827952,21.433295],[-86.924794,21.446112],[-86.997914,21.565904],[-87.134185,21.619452],[-87.129994,21.519436],[-87.238189,21.44302],[-87.47411,21.467108],[-87.539784,21.499335],[-87.525091,21.298778],[-87.585036,21.111063],[-87.53398,20.955698],[-87.674875,20.647887],[-87.904345,20.486321],[-88.013899,20.43467],[-88.218434,20.432552],[-88.272436,20.34341],[-88.373773,20.300596],[-88.445268,20.183652],[-88.707448,20.080842],[-88.911157,19.948705],[-89.055747,19.931755],[-89.202043,19.841735],[-89.368829,19.820134],[-89.415364,19.651049],[-89.373867,19.593947],[-89.13458,19.405225],[-89.037247,19.289159],[-89.013502,19.217846],[-89.020736,19.033464],[-89.082361,18.961402],[-89.108845,18.690772],[-89.044533,18.492205],[-89.060967,18.425104],[-89.035671,18.202714],[-89.154088,18.031407],[-89.146337,17.951456]]],[[[-86.749013,20.592231],[-86.936757,20.547187],[-87.007883,20.436225],[-87.01887,20.332465],[-86.926503,20.313707],[-86.797109,20.477484],[-86.749013,20.592231]]]]},"properties":{"LOCATION_TYPE":"level1","ADM0_A3":"MEX","LOCATION_ID":"MEX-ROO","NAME":"Quintana Roo","TYPE_EN":"State"}},
{"type":"Feature","geometry":{"type":"Polygon","coordinates":[[[-89.146337,17.951456],[-89.154088,18.031407],[-89.035671,18.202714],[-89.060967,18.425104],[-89.044533,18.492205],[-89.108845,18.690772],[-89.082361,18.961402],[-89.020736,19.033464],[-89.013502,19.217846],[-89.037247,19.289159],[-89.13458,19.405225],[-89.373867,19.593947],[-89.415364,19.651049],[-89.454741,19.77701],[-89.557835,19.890078],[-89.629976,20.019088],[-89.81074,20.137427],[-89.869832,20.268608],[-89.943755,20.323178],[-90.018402,20.467537],[-90.063799,20.412527],[-90.169219,20.424697],[-90.236347,20.509989],[-90.391996,20.547222],[-90.381143,20.824027],[-90.449127,20.742133],[-90.489898,20.534125],[-90.474477,20.408515],[-90.497385,20.067369],[-90.477823,19.922101],[-90.66454,19.781928],[-90.709462,19.687486],[-90.730092,19.375922],[-90.935536,19.163072],[-91.079579,19.087348],[-91.16161,19.016262],[-91.431188,18.880117],[-91.367014,18.771226],[-91.265533,18.735663],[-91.332834,18.573432],[-91.504058,18.511949],[-91.544423,18.449164],[-91.829091,18.477281],[-91.878163,18.537991],[-91.990712,18.539252],[-91.94806,18.691225],[-92.060133,18.701617],[-92.40514,18.671063],[-92.486144,18.648483],[-92.416498,18.503315],[-92.357587,18.457013],[-92.149073,18.461871],[-92.155636,18.168814],[-91.890949,17.966656],[-91.633083,17.950894],[-91.568746,18.10365],[-91.315997,18.058433],[-91.109446,17.972805],[-90.991676,17.968206],[-90.990901,17.801964],[-90.962221,17.81602],[-90.259654,17.815348],[-89.160496,17.814314],[-89.146337,17.951456]]]},"properties":{"LOCATION_TYPE":"level1","ADM0_A3":"MEX","LOCATION_ID":"MEX-CAM","NAME":"Campeche","TYPE_EN":"State"}},
{"type":"Feature","geometry":{"type":"Polygon","coordinates":[[[-90.990901,17.801964],[-90.991676,17.968206],[-91.109446,17.972805],[-91.315997,18.058433],[-91.568746,18.10365],[-91.633083,17.950894],[-91.890949,17.966656],[-92.155636,18.168814],[-92.149073,18.461871],[-92.357587,18.457013],[-92.416498,18.503315],[-92.486144,18.648483],[-92.68102,18.62287],[-92.855731,18.466047],[-92.93977,18.445741],[-93.444692,18.441799],[-93.580312,18.416327],[-93.592844,18.344957],[-93.683949,18.354926],[-93.86148,18.306545],[-94.137073,18.207436],[-94.096034,18.15822],[-94.050765,17.993682],[-94.076707,17.88201],[-93.97046,17.832297],[-93.93687,17.758555],[-93.733782,17.67148],[-93.614823,17.546526],[-93.6434,17.420797],[-93.589502,17.375529],[-93.505837,17.552986],[-93.414422,17.637683],[-93.313446,17.963865],[-93.195882,17.978955],[-93.087568,17.900303],[-92.994602,17.90945],[-93.011139,17.748839],[-92.989745,17.561254],[-92.910215,17.525804],[-92.842157,17.416612],[-92.755237,17.364263],[-92.695448,17.383539],[-92.439494,17.607349],[-92.368077,17.696853],[-92.241677,17.739279],[-92.077811,17.832762],[-91.995594,17.904747],[-91.785271,17.84656],[-91.78155,17.720882],[-91.698144,17.713596],[-91.627864,17.513557],[-91.49273,17.457074],[-91.431442,17.389378],[-91.433267,17.254538],[-90.991986,17.25192],[-90.990901,17.801964]]]},"properties":{"LOCATION_TYPE":"level1","ADM0_A3":"MEX","LOCATION_ID":"MEX-TAB","NAME":"Tabasco","TYPE_EN":"State"}},
{"type":"Feature","geometry":{"type":"Polygon","coordinates":[[[-91.433267,17.254538],[-91.431442,17.389378],[-91.49273,17.457074],[-91.627864,17.513557],[-91.698144,17.713596],[-91.78155,17.720882],[-91.785271,17.84656],[-91.995594,17.904747],[-92.077811,17.832762],[-92.241677,17.739279],[-92.368077,17.696853],[-92.439494,17.607349],[-92.695448,17.383539],[-92.755237,17.364263],[-92.842157,17.416612],[-92.910215,17.525804],[-92.989745,17.561254],[-93.011139,17.748839],[-92.994602,17.90945],[-93.087568,17.900303],[-93.195882,17.978955],[-93.313446,17.963865],[-93.414422,17.637683],[-93.505837,17.552986],[-93.589502,17.375529],[-93.63663,17.299978],[-93.873412,17.15022],[-93.868089,17.012192],[-93.911291,16.880675],[-94.02901,16.813186],[-94.035366,16.662601],[-94.125076,16.508812],[-94.036864,16.273271],[-94.083619,16.148857],[-93.898101,16.088935],[-93.943389,16.010565],[-93.656036,15.83926],[-93.228627,15.501858],[-92.983144,15.26557],[-92.824005,15.172797],[-92.824859,15.135647],[-92.699859,14.999091],[-92.305938,14.615058],[-92.208062,14.570507],[-92.161734,14.702334],[-92.190828,14.814239],[-92.154215,14.995933],[-92.073807,15.073706],[-92.20336,15.237159],[-92.204651,15.289507],[-91.751888,16.046308],[-91.723776,16.068788],[-90.485738,16.0707],[-90.432718,16.173226],[-90.459435,16.25906],[-90.398793,16.347582],[-90.475842,16.430729],[-90.648183,16.529586],[-90.633765,16.592167],[-90.73531,16.746576],[-91.066866,16.918193],[-91.290418,17.189081],[-91.364884,17.189753],[-91.433267,17.254538]]]},"properties":{"LOCATION_TYPE":"level1","ADM0_A3":"MEX","LOCATION_ID":"MEX-CHP","NAME":"Chiapas","TYPE_EN":"State"}},
{"type":"Feature","geometry":{"type":"MultiPolygon","coordinates":[[[[-110.945912,18.799994],[-111.000559,18.868232],[-111.06725,18.768744],[-110.979482,18.716783],[-110.945912,18.799994]]],[[[-103.742025,18.690412],[-103.585971,18.882052],[-103.477813,18.96644],[-103.525226,19.09253],[-103.49652,19.316082],[-103.600648,19.407756],[-103.635322,19.48708],[-103.833476,19.397576],[-104.024885,19.487235],[-104.122218,19.472558],[-104.214512,19.320371],[-104.536379,19.248851],[-104.592559,19.149604],[-104.451577,19.104426],[-104.354332,19.111913],[-104.331668,19.022256],[-104.180606,18.971381],[-103.979977,18.874938],[-103.742025,18.690412]]]]},"properties":{"LOCATION_TYPE":"level1","ADM0_A3":"MEX","LOCATION_ID":"MEX-COL","NAME":"Colima","TYPE_EN":"State"}},
{"type":"Feature","geometry":{"type":"Polygon","coordinates":[[[-105.290781,20.68515],[-105.094562,20.918103],[-104.924339,20.931177],[-104.797293,21.017632],[-104.727891,21.009726],[-104.620973,20.923116],[-104.522917,20.906579],[-104.477984,20.844154],[-104.285619,20.708039],[-104.271072,20.861518],[-104.212884,20.972519],[-104.224124,21.169251],[-104.082375,21.205063],[-103.982562,21.270537],[-103.944683,21.375181],[-104.2103,21.519152],[-104.158133,21.59677],[-104.098421,21.784459],[-104.215985,21.916337],[-104.398661,22.085422],[-104.32975,22.264378],[-104.311431,22.319103],[-104.334634,22.474856],[-104.477157,22.416772],[-104.587435,22.45956],[-104.667921,22.625648],[-104.774349,22.676239],[-104.970719,22.541725],[-104.994206,22.67505],[-104.888579,22.790289],[-104.945475,22.915604],[-105.131484,23.017045],[-105.388626,23.033323],[-105.472032,22.973585],[-105.452266,22.90129],[-105.571664,22.790651],[-105.486527,22.684145],[-105.441956,22.550045],[-105.466038,22.494855],[-105.613496,22.548495],[-105.724074,22.509504],[-105.655032,22.256298],[-105.657261,22.047253],[-105.632264,21.955737],[-105.414078,21.601113],[-105.184967,21.44302],[-105.243138,21.342064],[-105.216081,21.204379],[-105.234327,21.060966],[-105.309682,21.030666],[-105.514122,20.770333],[-105.290781,20.68515]]]},"properties":{"LOCATION_TYPE":"level1","ADM0_A3":"MEX","LOCATION_ID":"MEX-NAY","NAME":"Nayarit","TYPE_EN":"State"}},
{"type":"Feature","geometry":{"type":"MultiPolygon","coordinates":[[[[-111.753489,24.446967],[-111.864395,24.520479],[-111.971611,24.518536],[-111.710355,24.318346],[-111.753489,24.446967]]],[[[-110.710792,25.095047],[-110.654683,24.946073],[-110.593092,25.034447],[-110.710792,25.095047]]],[[[-114.0713,28.000394],[-114.098307,28.000276],[-114.1475,28.000154],[-114.207021,27.999986],[-114.134389,27.877183],[-114.173248,27.826809],[-114.104604,27.707709],[-113.993804,27.749905],[-113.953277,27.655666],[-114.15095,27.669664],[-114.282379,27.735826],[-114.325347,27.874701],[-114.499057,27.774071],[-114.604457,27.774409],[-114.923405,27.836275],[-115.052887,27.822089],[-115.001726,27.715931],[-114.886586,27.694892],[-114.734229,27.521252],[-114.596586,27.477189],[-114.506461,27.406184],[-114.487542,27.238098],[-114.290296,27.14654],[-114.114369,27.105455],[-114.005198,26.977444],[-113.959767,26.997984],[-113.816388,26.948969],[-113.725209,26.799994],[-113.637138,26.725531],[-113.542966,26.719196],[-113.503887,26.793416],[-113.363971,26.795068],[-113.285772,26.749551],[-113.212514,26.792426],[-113.143056,26.757717],[-113.057037,26.650214],[-113.060716,26.599118],[-112.728363,26.370227],[-112.49828,26.235012],[-112.442738,26.260728],[-112.343495,26.178127],[-112.292873,26.049712],[-112.198282,25.995106],[-112.075994,25.7134],[-112.063133,25.625334],[-112.077871,25.258735],[-112.142525,25.085979],[-112.103505,24.940416],[-112.124215,24.874046],[-112.088043,24.773383],[-111.966705,24.778306],[-111.848924,24.653686],[-111.812908,24.50588],[-111.67903,24.586334],[-111.619425,24.473137],[-111.444445,24.324391],[-111.227441,24.217472],[-111.039714,24.104185],[-110.815788,23.908746],[-110.577343,23.68156],[-110.404396,23.608646],[-110.307362,23.541032],[-110.16726,23.321086],[-110.09838,23.017562],[-109.954496,22.872155],[-109.895378,22.874203],[-109.731519,22.987543],[-109.713176,23.03105],[-109.531672,23.108207],[-109.425649,23.297187],[-109.426316,23.458513],[-109.476459,23.560205],[-109.679825,23.648165],[-109.698443,23.798428],[-109.839058,23.951789],[-109.828288,24.0628],[-109.987652,24.046319],[-110.018138,24.169279],[-110.17276,24.252976],[-110.232613,24.343206],[-110.33247,24.328795],[-110.300811,24.217042],[-110.402089,24.175523],[-110.562359,24.212503],[-110.681849,24.36066],[-110.6872,24.466039],[-110.738585,24.554572],[-110.723528,24.681178],[-110.656972,24.806918],[-110.757791,25.012239],[-110.904451,25.143013],[-111.026273,25.458612],[-111.191744,25.614829],[-111.225005,25.724353],[-111.307116,25.779207],[-111.36026,25.964097],[-111.318338,26.073737],[-111.397449,26.252215],[-111.393656,26.330011],[-111.46156,26.400057],[-111.442238,26.517526],[-111.56908,26.576234],[-111.560055,26.695653],[-111.647831,26.74648],[-111.818073,26.896233],[-111.851419,26.880275],[-111.794121,26.690113],[-111.676793,26.581859],[-111.73581,26.539684],[-111.905181,26.73428],[-111.870717,26.82807],[-112.017161,26.978502],[-111.970152,27.067982],[-112.011168,27.116831],[-112.154937,27.162046],[-112.287013,27.36582],[-112.373106,27.564095],[-112.598008,27.654297],[-112.703531,27.75496],[-112.773218,27.863902],[-112.763566,27.999424],[-114.062833,28.000488],[-114.0713,28.000394]]]]},"properties":{"LOCATION_TYPE":"level1","ADM0_A3":"MEX","LOCATION_ID":"MEX-BCS","NAME":"Baja California Sur","TYPE_EN":"State"}},
{"type":"Feature","geometry":{"type":"Polygon","coordinates":[[[-105.724074,22.509504],[-105.613496,22.548495],[-105.466038,22.494855],[-105.441956,22.550045],[-105.486527,22.684145],[-105.571664,22.790651],[-105.452266,22.90129],[-105.472032,22.973585],[-105.388626,23.033323],[-105.392347,23.14975],[-105.550115,23.162979],[-105.687833,23.297235],[-105.715325,23.464149],[-105.826041,23.566572],[-105.897355,23.71354],[-105.916113,23.940167],[-105.871749,24.031014],[-105.94836,24.07326],[-106.05334,24.283273],[-106.19558,24.389778],[-106.273999,24.39094],[-106.404611,24.289603],[-106.506387,24.293789],[-106.595943,24.368048],[-106.621833,24.481943],[-106.756372,24.703531],[-107.036381,24.919694],[-107.126272,25.18991],[-107.096119,25.420309],[-107.061987,25.501493],[-106.93693,25.641588],[-107.075836,25.729386],[-107.126711,25.793103],[-107.259365,25.869274],[-107.343778,26.083835],[-107.414084,26.129801],[-107.758869,26.194965],[-107.785379,26.215558],[-107.835144,26.599591],[-107.999578,26.814565],[-108.045053,26.93094],[-108.197318,26.970835],[-108.25411,27.041037],[-108.374335,27.077443],[-108.466461,26.97987],[-108.507376,26.801569],[-109.139251,26.331772],[-109.156339,26.308058],[-109.231372,26.263417],[-109.28364,26.240627],[-109.292934,26.236943],[-109.433258,26.021674],[-109.440541,25.793402],[-109.171213,25.648749],[-109.116119,25.536322],[-108.887847,25.489691],[-108.793365,25.536322],[-108.729888,25.405992],[-108.657216,25.392239],[-108.554189,25.307766],[-108.450795,25.269355],[-108.333608,25.160956],[-108.218007,25.173163],[-108.106923,25.116929],[-108.10554,25.026923],[-108.186391,24.986558],[-108.155588,24.883002],[-108.036204,24.785224],[-107.995188,24.648383],[-107.820546,24.59516],[-107.739125,24.50727],[-107.624135,24.458482],[-107.519195,24.511379],[-107.478261,24.400092],[-107.543202,24.346584],[-107.377756,24.206855],[-107.035878,23.98078],[-106.902008,23.846625],[-106.793243,23.632351],[-106.7506,23.618923],[-106.611846,23.469062],[-106.522817,23.407538],[-106.429799,23.230414],[-106.220326,23.051947],[-106.031972,22.830105],[-105.942535,22.781684],[-105.80016,22.638454],[-105.724074,22.509504]]]},"properties":{"LOCATION_TYPE":"level1","ADM0_A3":"MEX","LOCATION_ID":"MEX-SIN","NAME":"Sinaloa","TYPE_EN":"State"}},
{"type":"Feature","geometry":{"type":"Polygon","coordinates":[[[-90.381143,20.824027],[-90.391996,20.547222],[-90.236347,20.509989],[-90.169219,20.424697],[-90.063799,20.412527],[-90.018402,20.467537],[-89.943755,20.323178],[-89.869832,20.268608],[-89.81074,20.137427],[-89.629976,20.019088],[-89.557835,19.890078],[-89.454741,19.77701],[-89.415364,19.651049],[-89.368829,19.820134],[-89.202043,19.841735],[-89.055747,19.931755],[-88.911157,19.948705],[-88.707448,20.080842],[-88.445268,20.183652],[-88.373773,20.300596],[-88.272436,20.34341],[-88.218434,20.432552],[-88.013899,20.43467],[-87.904345,20.486321],[-87.674875,20.647887],[-87.53398,20.955698],[-87.585036,21.111063],[-87.525091,21.298778],[-87.539784,21.499335],[-87.962066,21.600084],[-88.129465,21.616034],[-88.282704,21.556708],[-88.447825,21.5751],[-88.605458,21.534084],[-88.702707,21.458564],[-89.123158,21.363471],[-89.785959,21.284573],[-90.099477,21.16413],[-90.332387,21.032457],[-90.381143,20.824027]]]},"properties":{"LOCATION_TYPE":"level1","ADM0_A3":"MEX","LOCATION_ID":"MEX-YUC","NAME":"Yucatán","TYPE_EN":"State"}},
{"type":"Feature","geometry":{"type":"Polygon","coordinates":[[[-97.781858,22.273336],[-97.862781,22.219781],[-97.895182,22.307579],[-98.092793,22.37264],[-98.197696,22.48054],[-98.297741,22.406643],[-98.439231,22.43274],[-98.616171,22.41858],[-98.373706,22.264946],[-98.361303,22.15255],[-98.452254,21.980416],[-98.538347,21.972251],[-98.531835,21.849364],[-98.488996,21.752729],[-98.624026,21.684878],[-98.642268,21.608862],[-98.530078,21.524836],[-98.515092,21.398849],[-98.442797,21.353684],[-98.493233,21.263354],[-98.410137,21.177571],[-98.212423,21.150596],[-98.129896,21.072151],[-98.232422,20.938309],[-98.23573,20.828961],[-98.393239,20.876969],[-98.437216,20.676774],[-98.507858,20.62453],[-98.568526,20.472291],[-98.500623,20.362427],[-98.335775,20.43498],[-98.110828,20.688402],[-98.021582,20.660806],[-98.000188,20.484486],[-97.950889,20.54996],[-97.935851,20.730466],[-97.896422,20.806379],[-97.77922,20.813769],[-97.662224,20.606908],[-97.588844,20.582207],[-97.558562,20.504227],[-97.639797,20.415757],[-97.693437,20.46578],[-97.769711,20.438701],[-97.774052,20.273233],[-97.690026,20.188174],[-97.543059,20.136704],[-97.470402,20.237525],[-97.403481,20.259591],[-97.152902,20.145799],[-97.154245,20.080325],[-97.310463,19.890156],[-97.324519,19.694457],[-97.392422,19.575808],[-97.225765,19.338717],[-96.982008,19.28797],[-97.10908,19.178675],[-97.264109,19.160433],[-97.226902,18.91342],[-97.330875,18.80986],[-97.310411,18.684545],[-97.136365,18.64987],[-97.091407,18.551064],[-96.987279,18.513547],[-96.80021,18.550548],[-96.728121,18.410246],[-96.59676,18.612353],[-96.411035,18.539282],[-96.377548,18.428023],[-96.250424,18.284207],[-96.228875,18.201008],[-96.109348,18.142821],[-95.95623,18.164318],[-95.837685,18.120393],[-95.775466,17.995439],[-95.91029,17.783566],[-95.797015,17.537483],[-95.723428,17.502343],[-95.612324,17.515417],[-95.451455,17.624403],[-95.30795,17.672668],[-95.254723,17.582648],[-95.075509,17.391135],[-94.998769,17.360388],[-94.938463,17.21652],[-94.496991,17.186135],[-93.873412,17.15022],[-93.63663,17.299978],[-93.589502,17.375529],[-93.6434,17.420797],[-93.614823,17.546526],[-93.733782,17.67148],[-93.93687,17.758555],[-93.97046,17.832297],[-94.076707,17.88201],[-94.050765,17.993682],[-94.096034,18.15822],[-94.137073,18.207436],[-94.466949,18.144232],[-94.580881,18.189846],[-94.628285,18.285346],[-94.718007,18.374823],[-94.807851,18.523627],[-95.002553,18.555406],[-95.051422,18.61225],[-95.208363,18.708645],[-95.495188,18.707343],[-95.728383,18.757229],[-95.85204,18.716783],[-95.977162,19.058254],[-96.041249,19.06566],[-96.157379,19.225165],[-96.27831,19.314602],[-96.360015,19.536851],[-96.405141,19.741848],[-96.456125,19.868801],[-96.676015,20.157864],[-97.034413,20.514553],[-97.150543,20.64704],[-97.197174,20.810207],[-97.338043,21.054999],[-97.496816,21.400621],[-97.48941,21.48078],[-97.577626,21.501044],[-97.657582,21.636542],[-97.708363,21.82746],[-97.625071,21.79442],[-97.486887,21.63642],[-97.378977,21.554348],[-97.374257,21.504299],[-97.472239,21.437812],[-97.431711,21.342271],[-97.34789,21.417914],[-97.316233,21.56094],[-97.508127,21.722805],[-97.610463,21.835761],[-97.76061,22.095852],[-97.781858,22.273336]]]},"properties":{"LOCATION_TYPE":"level1","ADM0_A3":"MEX","LOCATION_ID":"MEX-VER","NAME":"Veracruz","TYPE_EN":"State"}},
{"type":"Feature","geometry":{"type":"Polygon","coordinates":[[[-104.592559,19.149604],[-104.536379,19.248851],[-104.214512,19.320371],[-104.122218,19.472558],[-104.024885,19.487235],[-103.833476,19.397576],[-103.635322,19.48708],[-103.600648,19.407756],[-103.49652,19.316082],[-103.525226,19.09253],[-103.477813,18.96644],[-103.348105,18.977757],[-103.296299,19.047727],[-103.122253,19.006127],[-102.988334,19.058424],[-102.884438,19.202549],[-102.728039,19.257533],[-102.657501,19.231126],[-102.548645,19.386879],[-102.614222,19.490852],[-102.745713,19.475607],[-102.73747,19.582319],[-102.796536,19.688669],[-102.809843,19.820858],[-102.728582,19.838893],[-102.772636,19.957077],[-102.933867,19.990408],[-103.036418,19.970409],[-103.085744,20.08172],[-103.048226,20.120426],[-102.677758,20.218198],[-102.498312,20.314729],[-102.29729,20.36222],[-102.242772,20.340361],[-102.09968,20.386818],[-101.980617,20.555283],[-101.976897,20.62856],[-102.085107,20.729329],[-102.045626,20.872473],[-101.855044,21.148374],[-101.771948,21.230074],[-101.687509,21.236068],[-101.572683,21.347586],[-101.574647,21.424274],[-101.636866,21.516671],[-101.538267,21.636871],[-101.579711,21.778464],[-101.520542,21.840941],[-101.62312,21.930703],[-101.764196,21.962846],[-101.845432,22.017468],[-101.891734,21.955663],[-102.04914,21.865901],[-102.079888,21.767922],[-102.231248,21.677747],[-102.514176,21.706117],[-102.630319,21.773038],[-102.760492,21.748802],[-102.776176,21.607829],[-102.640525,21.568348],[-102.685665,21.40102],[-102.768605,21.338698],[-102.914927,21.282267],[-103.0559,21.265834],[-103.047529,21.073959],[-103.231678,21.079075],[-103.36384,21.150389],[-103.591449,21.19297],[-103.637105,21.254569],[-103.746504,21.297253],[-103.666277,21.487939],[-103.519283,21.600284],[-103.526828,21.817222],[-103.400737,21.928791],[-103.289013,21.98548],[-103.156075,21.998399],[-103.045669,22.25151],[-103.131761,22.338275],[-103.37278,22.516765],[-103.427092,22.417598],[-103.358647,22.348765],[-103.447556,22.241847],[-103.488639,22.134928],[-103.678266,22.136892],[-103.683046,22.321997],[-103.60796,22.524414],[-103.656897,22.591335],[-103.761077,22.559605],[-103.848178,22.197302],[-103.889028,22.344528],[-103.85133,22.568545],[-103.794951,22.623994],[-103.77875,22.734685],[-103.983182,22.771582],[-103.991838,22.574333],[-103.92608,22.490152],[-103.948197,22.378841],[-104.13183,22.343391],[-104.32975,22.264378],[-104.398661,22.085422],[-104.215985,21.916337],[-104.098421,21.784459],[-104.158133,21.59677],[-104.2103,21.519152],[-103.944683,21.375181],[-103.982562,21.270537],[-104.082375,21.205063],[-104.224124,21.169251],[-104.212884,20.972519],[-104.271072,20.861518],[-104.285619,20.708039],[-104.477984,20.844154],[-104.522917,20.906579],[-104.620973,20.923116],[-104.727891,21.009726],[-104.797293,21.017632],[-104.924339,20.931177],[-105.094562,20.918103],[-105.290781,20.68515],[-105.243642,20.583564],[-105.328734,20.513738],[-105.575592,20.487738],[-105.698681,20.406911],[-105.655652,20.313181],[-105.553212,20.201483],[-105.525624,20.031928],[-105.250762,19.666083],[-105.08771,19.561073],[-105.070098,19.447781],[-105.01712,19.368476],[-104.806915,19.229071],[-104.733551,19.228461],[-104.592559,19.149604]]]},"properties":{"LOCATION_TYPE":"level1","ADM0_A3":"MEX","LOCATION_ID":"MEX-JAL","NAME":"Jalisco","TYPE_EN":"State"}},
{"type":"Feature","geometry":{"type":"Polygon","coordinates":[[[-102.168887,17.921199],[-102.159056,18.162354],[-101.941085,18.204677],[-101.874732,18.320329],[-101.893284,18.458615],[-101.838765,18.576541],[-101.645082,18.579796],[-101.592992,18.518095],[-101.491758,18.477064],[-101.257147,18.537112],[-101.024397,18.538765],[-100.992254,18.502902],[-100.731856,18.507449],[-100.788855,18.782316],[-100.684779,18.794099],[-100.623594,18.870631],[-100.298808,19.258515],[-100.330072,19.322904],[-100.15861,19.419849],[-100.214523,19.565008],[-100.122849,19.938008],[-100.176696,19.978471],[-100.176541,20.086164],[-100.285992,20.213392],[-100.39875,20.074279],[-100.396011,19.96426],[-100.726689,19.93713],[-100.829628,19.975629],[-100.914481,19.925192],[-101.017162,19.951289],[-100.99892,20.089989],[-101.163354,20.101564],[-101.194102,20.034798],[-101.419721,20.053608],[-101.382824,20.287031],[-101.480338,20.331111],[-101.607823,20.32031],[-101.689576,20.201248],[-101.905066,20.203315],[-101.949301,20.366044],[-102.09968,20.386818],[-102.242772,20.340361],[-102.29729,20.36222],[-102.498312,20.314729],[-102.677758,20.218198],[-103.048226,20.120426],[-103.085744,20.08172],[-103.036418,19.970409],[-102.933867,19.990408],[-102.772636,19.957077],[-102.728582,19.838893],[-102.809843,19.820858],[-102.796536,19.688669],[-102.73747,19.582319],[-102.745713,19.475607],[-102.614222,19.490852],[-102.548645,19.386879],[-102.657501,19.231126],[-102.728039,19.257533],[-102.884438,19.202549],[-102.988334,19.058424],[-103.122253,19.006127],[-103.296299,19.047727],[-103.348105,18.977757],[-103.477813,18.96644],[-103.585971,18.882052],[-103.742025,18.690412],[-103.71002,18.601176],[-103.575103,18.492255],[-103.4984,18.333483],[-103.36164,18.26682],[-103.113469,18.192098],[-103.024444,18.185818],[-102.742299,18.066962],[-102.597247,18.049051],[-102.168887,17.921199]]]},"properties":{"LOCATION_TYPE":"level1","ADM0_A3":"MEX","LOCATION_ID":"MEX-MIC","NAME":"Michoacán","TYPE_EN":"State"}},
{"type":"Feature","geometry":{"type":"Polygon","coordinates":[[[-98.554548,16.318275],[-98.393291,16.372128],[-98.321926,16.437188],[-98.333191,16.566069],[-98.235626,16.578265],[-98.240174,16.702598],[-98.160592,16.705286],[-98.072949,16.779079],[-98.058996,16.900416],[-98.003031,17.025886],[-98.149585,17.215125],[-98.227616,17.222877],[-98.330762,17.337185],[-98.327714,17.478778],[-98.373964,17.527768],[-98.388692,17.640629],[-98.328024,17.85798],[-98.347816,17.89219],[-98.416959,17.960299],[-98.555245,17.951928],[-98.788357,18.034197],[-98.829543,18.116259],[-98.905456,18.130935],[-99.030668,18.252685],[-99.049737,18.34994],[-99.141514,18.496597],[-99.331373,18.452931],[-99.410025,18.52812],[-99.495498,18.674054],[-99.574252,18.686405],[-99.660345,18.763816],[-99.747265,18.691779],[-100.071173,18.609562],[-100.147913,18.491275],[-100.274778,18.392004],[-100.366452,18.455411],[-100.349502,18.532668],[-100.432908,18.647389],[-100.455232,18.843605],[-100.623594,18.870631],[-100.684779,18.794099],[-100.788855,18.782316],[-100.731856,18.507449],[-100.992254,18.502902],[-101.024397,18.538765],[-101.257147,18.537112],[-101.491758,18.477064],[-101.592992,18.518095],[-101.645082,18.579796],[-101.838765,18.576541],[-101.893284,18.458615],[-101.874732,18.320329],[-101.941085,18.204677],[-102.159056,18.162354],[-102.168887,17.921199],[-102.036733,17.990668],[-101.811061,17.89026],[-101.644487,17.668294],[-101.496491,17.614406],[-101.455773,17.526338],[-101.182245,17.412536],[-101.00824,17.252976],[-99.991686,16.909737],[-99.741241,16.730618],[-99.605395,16.682775],[-99.37426,16.667911],[-98.85655,16.528179],[-98.776898,16.555135],[-98.554548,16.318275]]]},"properties":{"LOCATION_TYPE":"level1","ADM0_A3":"MEX","LOCATION_ID":"MEX-GRO","NAME":"Guerrero","TYPE_EN":"State"}},
{"type":"Feature","geometry":{"type":"Polygon","coordinates":[[[-94.114857,16.057202],[-94.094028,16.098969],[-94.230011,16.163275],[-94.292633,16.14114],[-94.414215,16.234036],[-94.363555,16.287014],[-94.224233,16.203559],[-94.127838,16.220852],[-94.083619,16.148857],[-94.036864,16.273271],[-94.125076,16.508812],[-94.035366,16.662601],[-94.02901,16.813186],[-93.911291,16.880675],[-93.868089,17.012192],[-93.873412,17.15022],[-94.496991,17.186135],[-94.938463,17.21652],[-94.998769,17.360388],[-95.075509,17.391135],[-95.254723,17.582648],[-95.30795,17.672668],[-95.451455,17.624403],[-95.612324,17.515417],[-95.723428,17.502343],[-95.797015,17.537483],[-95.91029,17.783566],[-95.775466,17.995439],[-95.837685,18.120393],[-95.95623,18.164318],[-96.109348,18.142821],[-96.228875,18.201008],[-96.250424,18.284207],[-96.377548,18.428023],[-96.411035,18.539282],[-96.59676,18.612353],[-96.728121,18.410246],[-96.789513,18.28369],[-96.881135,18.244003],[-97.025726,18.122253],[-97.187938,18.176307],[-97.313615,18.144578],[-97.426993,17.990065],[-97.493036,17.993734],[-97.536341,18.094813],[-97.64021,18.170519],[-97.605639,18.320381],[-97.724856,18.302191],[-97.817822,18.137033],[-97.732504,18.004844],[-97.808107,17.935236],[-97.890738,17.937407],[-97.925103,18.03585],[-98.173098,18.017454],[-98.242809,17.913791],[-98.347816,17.89219],[-98.328024,17.85798],[-98.388692,17.640629],[-98.373964,17.527768],[-98.327714,17.478778],[-98.330762,17.337185],[-98.227616,17.222877],[-98.149585,17.215125],[-98.003031,17.025886],[-98.058996,16.900416],[-98.072949,16.779079],[-98.160592,16.705286],[-98.240174,16.702598],[-98.235626,16.578265],[-98.333191,16.566069],[-98.321926,16.437188],[-98.393291,16.372128],[-98.554548,16.318275],[-98.445302,16.278103],[-98.123769,16.209174],[-98.085235,16.165066],[-97.772719,15.979454],[-97.529703,15.968188],[-97.266025,15.935912],[-97.160675,15.903754],[-97.022282,15.807167],[-96.845123,15.732571],[-96.680975,15.709413],[-96.556038,15.659025],[-96.431142,15.695868],[-96.236637,15.68333],[-95.959882,15.827914],[-95.662313,15.91157],[-95.572369,15.957122],[-95.434478,15.97538],[-95.233247,16.158248],[-94.895879,16.211688],[-94.901153,16.246527],[-95.063832,16.268256],[-94.852081,16.4289],[-94.763295,16.293524],[-94.654408,16.363593],[-94.587148,16.282416],[-94.700958,16.195583],[-94.439565,16.186794],[-94.114857,16.057202]]]},"properties":{"LOCATION_TYPE":"level1","ADM0_A3":"MEX","LOCATION_ID":"MEX-OAX","NAME":"Oaxaca","TYPE_EN":"State"}},
{"type":"Feature","geometry":{"type":"Polygon","coordinates":[[[-89.664188,22.371069],[-89.610152,22.461081],[-89.655165,22.472001],[-89.697972,22.417544],[-89.664188,22.371069]]]},"properties":{"LOCATION_TYPE":"level1","ADM0_A3":"MEX","LOCATION_ID":"MEX-X01~","NAME":null,"TYPE_EN":null}},
{"type":"Feature","geometry":{"type":"Polygon","coordinates":[[[-98.640873,19.461913],[-98.659476,19.585523],[-98.605113,19.740966],[-98.697665,19.850417],[-98.834763,19.886383],[-98.915688,19.804321],[-98.966279,19.821478],[-98.94256,19.990356],[-99.017749,20.042136],[-99.202079,19.979091],[-99.386564,19.756314],[-99.447232,19.910155],[-99.518597,19.953098],[-99.485782,20.060998],[-99.548673,20.157581],[-99.716518,20.183833],[-99.844107,20.30889],[-99.937745,20.252253],[-99.950922,20.170862],[-100.122849,19.938008],[-100.214523,19.565008],[-100.15861,19.419849],[-100.330072,19.322904],[-100.298808,19.258515],[-100.623594,18.870631],[-100.455232,18.843605],[-100.432908,18.647389],[-100.349502,18.532668],[-100.366452,18.455411],[-100.274778,18.392004],[-100.147913,18.491275],[-100.071173,18.609562],[-99.747265,18.691779],[-99.660345,18.763816],[-99.574252,18.686405],[-99.495498,18.674054],[-99.47245,18.800455],[-99.390801,18.895591],[-99.307602,18.934814],[-99.333544,19.029847],[-99.285071,19.142449],[-99.332872,19.297685],[-99.259698,19.360886],[-99.123737,19.571054],[-98.958735,19.261357],[-98.963954,19.089119],[-98.840137,19.044626],[-98.814919,18.974346],[-98.709757,18.96985],[-98.646402,19.023594],[-98.632811,19.189578],[-98.671724,19.389876],[-98.640873,19.461913]]]},"properties":{"LOCATION_TYPE":"level1","ADM0_A3":"MEX","LOCATION_ID":"MEX-MEX","NAME":"México","TYPE_EN":"State"}},
{"type":"Feature","geometry":{"type":"Polygon","coordinates":[[[-98.646402,19.023594],[-98.658184,18.89125],[-98.733374,18.811927],[-98.665626,18.70227],[-98.750013,18.691934],[-98.676943,18.427506],[-98.807168,18.49484],[-98.877809,18.480474],[-98.940286,18.40358],[-99.049737,18.34994],[-99.030668,18.252685],[-98.905456,18.130935],[-98.829543,18.116259],[-98.788357,18.034197],[-98.555245,17.951928],[-98.416959,17.960299],[-98.347816,17.89219],[-98.242809,17.913791],[-98.173098,18.017454],[-97.925103,18.03585],[-97.890738,17.937407],[-97.808107,17.935236],[-97.732504,18.004844],[-97.817822,18.137033],[-97.724856,18.302191],[-97.605639,18.320381],[-97.64021,18.170519],[-97.536341,18.094813],[-97.493036,17.993734],[-97.426993,17.990065],[-97.313615,18.144578],[-97.187938,18.176307],[-97.025726,18.122253],[-96.881135,18.244003],[-96.789513,18.28369],[-96.728121,18.410246],[-96.80021,18.550548],[-96.987279,18.513547],[-97.091407,18.551064],[-97.136365,18.64987],[-97.310411,18.684545],[-97.330875,18.80986],[-97.226902,18.91342],[-97.264109,19.160433],[-97.10908,19.178675],[-96.982008,19.28797],[-97.225765,19.338717],[-97.392422,19.575808],[-97.324519,19.694457],[-97.310463,19.890156],[-97.154245,20.080325],[-97.152902,20.145799],[-97.403481,20.259591],[-97.470402,20.237525],[-97.543059,20.136704],[-97.690026,20.188174],[-97.774052,20.273233],[-97.769711,20.438701],[-97.693437,20.46578],[-97.639797,20.415757],[-97.558562,20.504227],[-97.588844,20.582207],[-97.662224,20.606908],[-97.77922,20.813769],[-97.896422,20.806379],[-97.935851,20.730466],[-97.950889,20.54996],[-98.000188,20.484486],[-98.159403,20.329664],[-98.235523,20.314523],[-98.245858,20.202436],[-98.135322,20.210291],[-98.100957,20.086164],[-98.245031,19.871294],[-98.243636,19.82618],[-98.143125,19.672753],[-97.94076,19.579839],[-97.844487,19.436333],[-97.759014,19.447857],[-97.641244,19.372823],[-97.668116,19.28394],[-97.827589,19.311431],[-97.846658,19.211903],[-97.929133,19.158469],[-98.050108,19.209164],[-98.108295,19.134853],[-98.193458,19.106483],[-98.351743,19.241358],[-98.432978,19.344091],[-98.465896,19.438349],[-98.640873,19.461913],[-98.671724,19.389876],[-98.632811,19.189578],[-98.646402,19.023594]]]},"properties":{"LOCATION_TYPE":"level1","ADM0_A3":"MEX","LOCATION_ID":"MEX-PUE","NAME":"Puebla","TYPE_EN":"State"}},
{"type":"Feature","geometry":{"type":"Polygon","coordinates":[[[-98.646402,19.023594],[-98.709757,18.96985],[-98.814919,18.974346],[-98.840137,19.044626],[-98.963954,19.089119],[-99.042812,19.057803],[-99.285071,19.142449],[-99.333544,19.029847],[-99.307602,18.934814],[-99.390801,18.895591],[-99.47245,18.800455],[-99.495498,18.674054],[-99.410025,18.52812],[-99.331373,18.452931],[-99.141514,18.496597],[-99.049737,18.34994],[-98.940286,18.40358],[-98.877809,18.480474],[-98.807168,18.49484],[-98.676943,18.427506],[-98.750013,18.691934],[-98.665626,18.70227],[-98.733374,18.811927],[-98.658184,18.89125],[-98.646402,19.023594]]]},"properties":{"LOCATION_TYPE":"level1","ADM0_A3":"MEX","LOCATION_ID":"MEX-MOR","NAME":"Morelos","TYPE_EN":"State"}},
{"type":"Feature","geometry":{"type":"Polygon","coordinates":[[[-99.043381,21.268315],[-99.112317,21.290329],[-99.098829,21.381538],[-99.198255,21.623125],[-99.332407,21.522769],[-99.381189,21.432646],[-99.570222,21.39239],[-99.720083,21.514656],[-99.790622,21.419106],[-99.792534,21.291414],[-99.725458,21.224286],[-99.826899,21.158347],[-99.95981,21.201187],[-100.052466,21.158244],[-100.105796,20.916656],[-100.183208,20.878984],[-100.253798,20.932521],[-100.322165,20.896296],[-100.473939,20.950608],[-100.5652,20.739768],[-100.558378,20.658119],[-100.491096,20.543398],[-100.484636,20.4356],[-100.373997,20.272458],[-100.285992,20.213392],[-100.176541,20.086164],[-100.176696,19.978471],[-100.122849,19.938008],[-99.950922,20.170862],[-99.937745,20.252253],[-99.844107,20.30889],[-99.819509,20.512495],[-99.644998,20.562001],[-99.49002,20.661065],[-99.521387,20.735479],[-99.492035,20.834388],[-99.415451,20.896141],[-99.354318,21.027812],[-99.364084,21.111166],[-99.227917,21.118815],[-99.042295,21.175762],[-99.043381,21.268315]]]},"properties":{"LOCATION_TYPE":"level1","ADM0_A3":"MEX","LOCATION_ID":"MEX-QUE","NAME":"Querétaro","TYPE_EN":"State"}},
{"type":"Feature","geometry":{"type":"Polygon","coordinates":[[[-99.043381,21.268315],[-99.042295,21.175762],[-99.227917,21.118815],[-99.364084,21.111166],[-99.354318,21.027812],[-99.415451,20.896141],[-99.492035,20.834388],[-99.521387,20.735479],[-99.49002,20.661065],[-99.644998,20.562001],[-99.819509,20.512495],[-99.844107,20.30889],[-99.716518,20.183833],[-99.548673,20.157581],[-99.485782,20.060998],[-99.518597,19.953098],[-99.447232,19.910155],[-99.386564,19.756314],[-99.202079,19.979091],[-99.017749,20.042136],[-98.94256,19.990356],[-98.966279,19.821478],[-98.915688,19.804321],[-98.834763,19.886383],[-98.697665,19.850417],[-98.605113,19.740966],[-98.659476,19.585523],[-98.572505,19.633686],[-98.330711,19.606969],[-98.2672,19.714508],[-98.143125,19.672753],[-98.243636,19.82618],[-98.245031,19.871294],[-98.100957,20.086164],[-98.135322,20.210291],[-98.245858,20.202436],[-98.235523,20.314523],[-98.159403,20.329664],[-98.000188,20.484486],[-98.021582,20.660806],[-98.110828,20.688402],[-98.335775,20.43498],[-98.500623,20.362427],[-98.568526,20.472291],[-98.507858,20.62453],[-98.437216,20.676774],[-98.393239,20.876969],[-98.23573,20.828961],[-98.232422,20.938309],[-98.129896,21.072151],[-98.212423,21.150596],[-98.410137,21.177571],[-98.493233,21.263354],[-98.442797,21.353684],[-98.515092,21.398849],[-98.585166,21.377042],[-98.592297,21.212246],[-98.823601,21.176899],[-98.895948,21.208628],[-98.939097,21.291207],[-99.043381,21.268315]]]},"properties":{"LOCATION_TYPE":"level1","ADM0_A3":"MEX","LOCATION_ID":"MEX-HID","NAME":"Hidalgo","TYPE_EN":"State"}},
{"type":"Feature","geometry":{"type":"Polygon","coordinates":[[[-99.790622,21.419106],[-99.958622,21.459104],[-100.076134,21.554292],[-100.403969,21.677747],[-100.455749,21.648136],[-100.499209,21.513623],[-100.627315,21.491763],[-100.961455,21.750352],[-101.259731,21.771953],[-101.32598,21.872929],[-101.449384,21.822131],[-101.520542,21.840941],[-101.579711,21.778464],[-101.538267,21.636871],[-101.636866,21.516671],[-101.574647,21.424274],[-101.572683,21.347586],[-101.687509,21.236068],[-101.771948,21.230074],[-101.855044,21.148374],[-102.045626,20.872473],[-102.085107,20.729329],[-101.976897,20.62856],[-101.980617,20.555283],[-102.09968,20.386818],[-101.949301,20.366044],[-101.905066,20.203315],[-101.689576,20.201248],[-101.607823,20.32031],[-101.480338,20.331111],[-101.382824,20.287031],[-101.419721,20.053608],[-101.194102,20.034798],[-101.163354,20.101564],[-100.99892,20.089989],[-101.017162,19.951289],[-100.914481,19.925192],[-100.829628,19.975629],[-100.726689,19.93713],[-100.396011,19.96426],[-100.39875,20.074279],[-100.285992,20.213392],[-100.373997,20.272458],[-100.484636,20.4356],[-100.491096,20.543398],[-100.558378,20.658119],[-100.5652,20.739768],[-100.473939,20.950608],[-100.322165,20.896296],[-100.253798,20.932521],[-100.183208,20.878984],[-100.105796,20.916656],[-100.052466,21.158244],[-99.95981,21.201187],[-99.826899,21.158347],[-99.725458,21.224286],[-99.792534,21.291414],[-99.790622,21.419106]]]},"properties":{"LOCATION_TYPE":"level1","ADM0_A3":"MEX","LOCATION_ID":"MEX-GUA","NAME":"Guanajuato","TYPE_EN":"State"}},
{"type":"Feature","geometry":{"type":"Polygon","coordinates":[[[-100.82844,24.564961],[-100.869677,24.46706],[-100.994217,24.371433],[-101.245468,23.992696],[-101.33585,23.951562],[-101.409283,23.869396],[-101.663531,23.707055],[-101.715982,23.630832],[-101.828327,23.581197],[-101.938501,23.454434],[-102.072601,23.354595],[-102.190372,23.404205],[-102.252952,23.189024],[-102.228044,23.100761],[-102.25104,22.983662],[-102.11694,22.757009],[-101.953229,22.647558],[-101.832719,22.482091],[-101.761664,22.449534],[-101.630199,22.498007],[-101.583897,22.58596],[-101.512015,22.608698],[-101.35187,22.589578],[-101.301486,22.48085],[-101.379414,22.360806],[-101.322415,22.101649],[-101.520542,21.840941],[-101.449384,21.822131],[-101.32598,21.872929],[-101.259731,21.771953],[-100.961455,21.750352],[-100.627315,21.491763],[-100.499209,21.513623],[-100.455749,21.648136],[-100.403969,21.677747],[-100.076134,21.554292],[-99.958622,21.459104],[-99.790622,21.419106],[-99.720083,21.514656],[-99.570222,21.39239],[-99.381189,21.432646],[-99.332407,21.522769],[-99.198255,21.623125],[-99.098829,21.381538],[-99.112317,21.290329],[-99.043381,21.268315],[-98.939097,21.291207],[-98.895948,21.208628],[-98.823601,21.176899],[-98.592297,21.212246],[-98.585166,21.377042],[-98.515092,21.398849],[-98.530078,21.524836],[-98.642268,21.608862],[-98.624026,21.684878],[-98.488996,21.752729],[-98.531835,21.849364],[-98.538347,21.972251],[-98.452254,21.980416],[-98.361303,22.15255],[-98.373706,22.264946],[-98.616171,22.41858],[-98.76531,22.405661],[-98.812439,22.362511],[-98.939356,22.37233],[-99.248433,22.458888],[-99.379174,22.683422],[-99.55446,22.620997],[-99.987406,22.777266],[-100.039754,22.868269],[-99.915834,22.95741],[-99.914697,23.017768],[-99.988697,23.092183],[-100.057272,23.241062],[-100.326816,23.254136],[-100.439316,23.229022],[-100.47089,23.417847],[-100.454767,23.513397],[-100.4943,23.661579],[-100.487582,23.821492],[-100.579824,23.930503],[-100.603854,24.026157],[-100.610313,24.283324],[-100.82844,24.564961]]]},"properties":{"LOCATION_TYPE":"level1","ADM0_A3":"MEX","LOCATION_ID":"MEX-SLP","NAME":"San Luis Potosí","TYPE_EN":"State"}},
{"type":"Feature","geometry":{"type":"Polygon","coordinates":[[[-100.82844,24.564961],[-100.925178,24.611676],[-101.09664,24.641003],[-101.196944,24.796549],[-101.341586,24.811871],[-101.461734,24.749342],[-101.574389,24.80691],[-101.59077,24.882435],[-101.767762,24.938065],[-101.860728,25.07555],[-102.17337,25.162961],[-102.582389,25.125133],[-102.668172,25.078935],[-102.491697,24.824015],[-102.49025,24.474191],[-102.800877,24.409983],[-103.246612,24.491089],[-103.397688,24.42546],[-103.429108,24.352338],[-103.516105,24.340556],[-103.670437,24.161755],[-103.83593,24.085042],[-103.851407,23.850741],[-103.878951,23.773071],[-103.819239,23.646309],[-103.917915,23.653053],[-103.940963,23.567089],[-104.108989,23.435314],[-104.134284,23.18675],[-104.189061,23.117711],[-104.208802,22.643683],[-104.311431,22.319103],[-104.32975,22.264378],[-104.13183,22.343391],[-103.948197,22.378841],[-103.92608,22.490152],[-103.991838,22.574333],[-103.983182,22.771582],[-103.77875,22.734685],[-103.794951,22.623994],[-103.85133,22.568545],[-103.889028,22.344528],[-103.848178,22.197302],[-103.761077,22.559605],[-103.656897,22.591335],[-103.60796,22.524414],[-103.683046,22.321997],[-103.678266,22.136892],[-103.488639,22.134928],[-103.447556,22.241847],[-103.358647,22.348765],[-103.427092,22.417598],[-103.37278,22.516765],[-103.131761,22.338275],[-103.045669,22.25151],[-103.156075,21.998399],[-103.289013,21.98548],[-103.400737,21.928791],[-103.526828,21.817222],[-103.519283,21.600284],[-103.666277,21.487939],[-103.746504,21.297253],[-103.637105,21.254569],[-103.591449,21.19297],[-103.36384,21.150389],[-103.231678,21.079075],[-103.047529,21.073959],[-103.0559,21.265834],[-102.914927,21.282267],[-102.768605,21.338698],[-102.685665,21.40102],[-102.640525,21.568348],[-102.776176,21.607829],[-102.760492,21.748802],[-102.856352,21.850295],[-102.841779,21.932977],[-102.647812,22.212908],[-102.621043,22.306649],[-102.511024,22.305512],[-102.345143,22.396979],[-102.291554,22.464779],[-102.229078,22.369023],[-101.987645,22.250115],[-101.97979,22.123043],[-101.845432,22.017468],[-101.764196,21.962846],[-101.62312,21.930703],[-101.520542,21.840941],[-101.322415,22.101649],[-101.379414,22.360806],[-101.301486,22.48085],[-101.35187,22.589578],[-101.512015,22.608698],[-101.583897,22.58596],[-101.630199,22.498007],[-101.761664,22.449534],[-101.832719,22.482091],[-101.953229,22.647558],[-102.11694,22.757009],[-102.25104,22.983662],[-102.228044,23.100761],[-102.252952,23.189024],[-102.190372,23.404205],[-102.072601,23.354595],[-101.938501,23.454434],[-101.828327,23.581197],[-101.715982,23.630832],[-101.663531,23.707055],[-101.409283,23.869396],[-101.33585,23.951562],[-101.245468,23.992696],[-100.994217,24.371433],[-100.869677,24.46706],[-100.82844,24.564961]]]},"properties":{"LOCATION_TYPE":"level1","ADM0_A3":"MEX","LOCATION_ID":"MEX-ZAC","NAME":"Zacatecas","TYPE_EN":"State"}},
{"type":"Feature","geometry":{"type":"Polygon","coordinates":[[[-101.845432,22.017468],[-101.97979,22.123043],[-101.987645,22.250115],[-102.229078,22.369023],[-102.291554,22.464779],[-102.345143,22.396979],[-102.511024,22.305512],[-102.621043,22.306649],[-102.647812,22.212908],[-102.841779,21.932977],[-102.856352,21.850295],[-102.760492,21.748802],[-102.630319,21.773038],[-102.514176,21.706117],[-102.231248,21.677747],[-102.079888,21.767922],[-102.04914,21.865901],[-101.891734,21.955663],[-101.845432,22.017468]]]},"properties":{"LOCATION_TYPE":"level1","ADM0_A3":"MEX","LOCATION_ID":"MEX-AGU","NAME":"Aguascalientes","TYPE_EN":"State"}},
{"type":"Feature","geometry":{"type":"Polygon","coordinates":[[[-106.93693,25.641588],[-107.061987,25.501493],[-107.096119,25.420309],[-107.126272,25.18991],[-107.036381,24.919694],[-106.756372,24.703531],[-106.621833,24.481943],[-106.595943,24.368048],[-106.506387,24.293789],[-106.404611,24.289603],[-106.273999,24.39094],[-106.19558,24.389778],[-106.05334,24.283273],[-105.94836,24.07326],[-105.871749,24.031014],[-105.916113,23.940167],[-105.897355,23.71354],[-105.826041,23.566572],[-105.715325,23.464149],[-105.687833,23.297235],[-105.550115,23.162979],[-105.392347,23.14975],[-105.388626,23.033323],[-105.131484,23.017045],[-104.945475,22.915604],[-104.888579,22.790289],[-104.994206,22.67505],[-104.970719,22.541725],[-104.774349,22.676239],[-104.667921,22.625648],[-104.587435,22.45956],[-104.477157,22.416772],[-104.334634,22.474856],[-104.311431,22.319103],[-104.208802,22.643683],[-104.189061,23.117711],[-104.134284,23.18675],[-104.108989,23.435314],[-103.940963,23.567089],[-103.917915,23.653053],[-103.819239,23.646309],[-103.878951,23.773071],[-103.851407,23.850741],[-103.83593,24.085042],[-103.670437,24.161755],[-103.516105,24.340556],[-103.429108,24.352338],[-103.397688,24.42546],[-103.246612,24.491089],[-102.800877,24.409983],[-102.49025,24.474191],[-102.491697,24.824015],[-102.668172,25.078935],[-102.815786,24.904372],[-102.843097,24.728284],[-102.971875,24.806652],[-103.139539,24.847838],[-103.25147,24.922975],[-103.275319,25.072139],[-103.387973,25.14061],[-103.509206,25.29781],[-103.42487,25.427492],[-103.487786,25.540948],[-103.320174,25.698716],[-103.34534,26.123858],[-103.281339,26.262402],[-103.325703,26.408673],[-103.627261,26.64393],[-103.941531,26.760408],[-104.115577,26.773095],[-104.234588,26.723227],[-104.51979,26.371543],[-104.59777,26.351002],[-104.833337,26.486782],[-104.988031,26.503576],[-105.043505,26.46823],[-105.116834,26.552411],[-105.327467,26.459471],[-105.555929,26.572823],[-105.680417,26.698939],[-105.808497,26.693255],[-106.027528,26.838595],[-106.091994,26.734932],[-106.157882,26.742063],[-106.169793,26.612614],[-106.224828,26.559671],[-106.227231,26.42924],[-106.40151,26.381026],[-106.427297,26.301341],[-106.378307,26.131506],[-106.426496,26.039109],[-106.524862,25.992781],[-106.544499,25.779925],[-106.720896,25.633216],[-106.93693,25.641588]]]},"properties":{"LOCATION_TYPE":"level1","ADM0_A3":"MEX","LOCATION_ID":"MEX-DUR","NAME":"Durango","TYPE_EN":"State"}},
{"type":"Feature","geometry":{"type":"Polygon","coordinates":[[[-98.143125,19.672753],[-98.2672,19.714508],[-98.330711,19.606969],[-98.572505,19.633686],[-98.659476,19.585523],[-98.640873,19.461913],[-98.465896,19.438349],[-98.432978,19.344091],[-98.351743,19.241358],[-98.193458,19.106483],[-98.108295,19.134853],[-98.050108,19.209164],[-97.929133,19.158469],[-97.846658,19.211903],[-97.827589,19.311431],[-97.668116,19.28394],[-97.641244,19.372823],[-97.759014,19.447857],[-97.844487,19.436333],[-97.94076,19.579839],[-98.143125,19.672753]]]},"properties":{"LOCATION_TYPE":"level1","ADM0_A3":"MEX","LOCATION_ID":"MEX-TLA","NAME":"Tlaxcala","TYPE_EN":"State"}},
{"type":"Feature","geometry":{"type":"Polygon","coordinates":[[[-98.963954,19.089119],[-98.958735,19.261357],[-99.123737,19.571054],[-99.259698,19.360886],[-99.332872,19.297685],[-99.285071,19.142449],[-99.042812,19.057803],[-98.963954,19.089119]]]},"properties":{"LOCATION_TYPE":"level1","ADM0_A3":"MEX","LOCATION_ID":"MEX-DIF","NAME":"Distrito Federal","TYPE_EN":"Federal District"}}
]}