{"type":"FeatureCollection", "features": [
{"type":"Feature","geometry":{"type":"MultiPolygon","coordinates":[[[[169.590343,5.80093],[169.615245,5.798774],[169.63502,5.829047],[169.647797,5.870022],[169.652517,5.899848],[169.665212,5.938788],[169.721446,5.97663],[169.700206,5.97602],[169.655528,5.942857],[169.645193,5.917141],[169.638682,5.870347],[169.617524,5.818264],[169.590343,5.80093]]],[[[168.757823,7.307929],[168.791515,7.293402],[168.815278,7.292467],[168.830089,7.307929],[168.757823,7.307929]]]]},"properties":{"LOCATION_TYPE":"level1","ADM0_A3":"MHL","LOCATION_ID":"MHL-L","NAME":"Railik Chain","TYPE_EN":null}},
{"type":"Feature","geometry":{"type":"MultiPolygon","coordinates":[[[[171.756684,6.972113],[171.689464,7.019924],[171.611176,7.019924],[171.613943,7.00609],[171.660411,7.013088],[171.688731,7.006578],[171.730317,6.975572],[171.756684,6.972113]]],[[[171.393565,7.109931],[171.22641,7.075751],[171.05714,7.143459],[171.060883,7.135403],[171.202159,7.072455],[171.263194,7.067694],[171.293468,7.083686],[171.366873,7.094468],[171.393565,7.109931]]]]},"properties":{"LOCATION_TYPE":"level1","ADM0_A3":"MHL","LOCATION_ID":"MHL-T","NAME":"Ratak Chain","TYPE_EN":null}}
]}