{"type":"FeatureCollection", "features": [
{"type":"Feature","geometry":{"type":"Polygon","coordinates":[[[20.539049,41.402944],[20.532937,41.370447],[20.477747,41.319598],[20.495441,41.250257],[20.568075,41.253539],[20.594891,41.22125],[20.51268,41.210147],[20.565494,41.147412],[20.576966,41.093513],[20.65386,41.075272],[20.737784,41.166376],[20.734166,41.219448],[20.758868,41.282958],[20.732823,41.313034],[20.728792,41.361171],[20.687347,41.422614],[20.684764,41.424914],[20.678356,41.425482],[20.646626,41.402615],[20.539049,41.402944]]]},"properties":{"LOCATION_TYPE":"level1","ADM0_A3":"MKD","LOCATION_ID":"MKD-72","NAME":"Struga","TYPE_EN":"Statistical Region"}},
{"type":"Feature","geometry":{"type":"Polygon","coordinates":[[[20.539049,41.402944],[20.646626,41.402615],[20.678356,41.425482],[20.649314,41.484031],[20.609626,41.522685],[20.567872,41.524753],[20.481597,41.468269],[20.490873,41.436025],[20.539049,41.402944]]]},"properties":{"LOCATION_TYPE":"level1","ADM0_A3":"MKD","LOCATION_ID":"MKD-78","NAME":"Centar župa","TYPE_EN":"Statistical Region"}},
{"type":"Feature","geometry":{"type":"Polygon","coordinates":[[[20.481597,41.468269],[20.567872,41.524753],[20.609626,41.522685],[20.649314,41.484031],[20.678356,41.425482],[20.684764,41.424914],[20.728895,41.478786],[20.643112,41.545656],[20.598154,41.550875],[20.53467,41.587324],[20.520845,41.568368],[20.444157,41.549661],[20.444984,41.508475],[20.481597,41.468269]]]},"properties":{"LOCATION_TYPE":"level1","ADM0_A3":"MKD","LOCATION_ID":"MKD-21","NAME":"Debar","TYPE_EN":"Statistical Region"}},
{"type":"Feature","geometry":{"type":"Polygon","coordinates":[[[20.53467,41.587324],[20.598154,41.550875],[20.643112,41.545656],[20.728895,41.478786],[20.75618,41.473489],[20.803929,41.507002],[20.817572,41.539377],[20.809511,41.61467],[20.853539,41.660016],[20.89736,41.664537],[20.860567,41.712183],[20.815092,41.731562],[20.794318,41.773006],[20.72011,41.778355],[20.690035,41.753627],[20.64859,41.757632],[20.550136,41.80006],[20.500381,41.734095],[20.508339,41.661748],[20.53467,41.587324]]]},"properties":{"LOCATION_TYPE":"level1","ADM0_A3":"MKD","LOCATION_ID":"MKD-50","NAME":"Mavrovo and Rostusa","TYPE_EN":"Statistical Region"}},
{"type":"Feature","geometry":{"type":"Polygon","coordinates":[[[20.550136,41.80006],[20.64859,41.757632],[20.690035,41.753627],[20.72011,41.778355],[20.794318,41.773006],[20.815092,41.731562],[20.860567,41.712183],[20.89736,41.664537],[20.985004,41.624488],[21.052907,41.647587],[21.05611,41.67942],[21.029962,41.728203],[21.0527,41.775021],[21.079055,41.777295],[21.029032,41.821143],[20.955858,41.849487],[20.915964,41.809102],[20.846511,41.804425],[20.792354,41.839204],[20.714398,41.859163],[20.652827,41.86928],[20.61872,41.850522],[20.567147,41.873182],[20.541722,41.86158],[20.550136,41.80006]]]},"properties":{"LOCATION_TYPE":"level1","ADM0_A3":"MKD","LOCATION_ID":"MKD-19","NAME":"Gostivar","TYPE_EN":"Statistical Region"}},
{"type":"Feature","geometry":{"type":"Polygon","coordinates":[[[20.51268,41.210147],[20.594891,41.22125],[20.568075,41.253539],[20.495441,41.250257],[20.51268,41.210147]]]},"properties":{"LOCATION_TYPE":"level1","ADM0_A3":"MKD","LOCATION_ID":"MKD-12","NAME":"Vevčani","TYPE_EN":"Statistical Region"}},
{"type":"Feature","geometry":{"type":"Polygon","coordinates":[[[20.664092,41.059149],[20.702746,40.936314],[20.766102,40.893732],[20.836544,40.923904],[20.841963,40.982202],[20.878964,40.990702],[20.904492,41.121883],[20.936118,41.14984],[21.018077,41.188727],[21.039367,41.211903],[21.031512,41.224952],[20.969501,41.227458],[20.907282,41.250196],[20.821086,41.239499],[20.778298,41.182009],[20.664092,41.059149]]]},"properties":{"LOCATION_TYPE":"level1","ADM0_A3":"MKD","LOCATION_ID":"MKD-58","NAME":"Ohrid","TYPE_EN":"Statistical Region"}},
{"type":"Feature","geometry":{"type":"Polygon","coordinates":[[[20.664092,41.059149],[20.778298,41.182009],[20.821086,41.239499],[20.907282,41.250196],[20.969501,41.227458],[21.031512,41.224952],[20.955548,41.324222],[20.907282,41.367191],[20.888575,41.42202],[20.798348,41.428686],[20.687347,41.422614],[20.728792,41.361171],[20.732823,41.313034],[20.758868,41.282958],[20.734166,41.219448],[20.737784,41.166376],[20.65386,41.075272],[20.664092,41.059149]]]},"properties":{"LOCATION_TYPE":"level1","ADM0_A3":"MKD","LOCATION_ID":"MKD-22","NAME":"Debarca","TYPE_EN":"Statistical Region"}},
{"type":"Feature","geometry":{"type":"Polygon","coordinates":[[[20.836544,40.923904],[20.939941,40.907065],[20.965262,40.849394],[21.112127,40.853942],[21.183027,40.870168],[21.245824,40.863226],[21.261059,40.906857],[21.239872,40.94515],[21.190056,40.974295],[21.134762,40.979153],[21.073784,41.046746],[21.10572,41.092298],[21.097038,41.125836],[21.069133,41.198468],[21.039367,41.211903],[21.018077,41.188727],[20.936118,41.14984],[20.904492,41.121883],[20.878964,40.990702],[20.841963,40.982202],[20.836544,40.923904]]]},"properties":{"LOCATION_TYPE":"level1","ADM0_A3":"MKD","LOCATION_ID":"MKD-66","NAME":"Resen","TYPE_EN":"Statistical Region"}},
{"type":"Feature","geometry":{"type":"Polygon","coordinates":[[[22.796818,41.337039],[22.916978,41.335773],[22.940852,41.349829],[22.937339,41.410755],[22.952118,41.427705],[22.943599,41.523201],[22.858068,41.517053],[22.859411,41.500413],[22.80143,41.448607],[22.786237,41.397267],[22.796818,41.337039]]]},"properties":{"LOCATION_TYPE":"level1","ADM0_A3":"MKD","LOCATION_ID":"MKD-56","NAME":"Novo Selo","TYPE_EN":"Statistical Region"}},
{"type":"Feature","geometry":{"type":"Polygon","coordinates":[[[22.742003,41.28703],[22.662214,41.294146],[22.566406,41.241488],[22.59059,41.218415],[22.662421,41.206167],[22.657185,41.176986],[22.704898,41.139661],[22.727222,41.165809],[22.742003,41.28703]]]},"properties":{"LOCATION_TYPE":"level1","ADM0_A3":"MKD","LOCATION_ID":"MKD-26","NAME":"Dojran","TYPE_EN":"Statistical Region"}},
{"type":"Feature","geometry":{"type":"Polygon","coordinates":[[[22.762293,41.3225],[22.707379,41.345952],[22.661284,41.31598],[22.609917,41.311251],[22.584286,41.33262],[22.536227,41.329777],[22.493025,41.409152],[22.445793,41.445998],[22.40931,41.448116],[22.330038,41.424655],[22.336549,41.378017],[22.400111,41.361481],[22.468221,41.313448],[22.481346,41.236269],[22.504601,41.212989],[22.525892,41.246837],[22.566406,41.241488],[22.662214,41.294146],[22.742003,41.28703],[22.762293,41.3225]]]},"properties":{"LOCATION_TYPE":"level1","ADM0_A3":"MKD","LOCATION_ID":"MKD-10","NAME":"Valandovo","TYPE_EN":"Statistical Region"}},
{"type":"Feature","geometry":{"type":"Polygon","coordinates":[[[22.796818,41.337039],[22.786237,41.397267],[22.758746,41.391582],[22.674306,41.472869],[22.601132,41.45716],[22.532713,41.489948],[22.508942,41.466642],[22.445793,41.445998],[22.493025,41.409152],[22.536227,41.329777],[22.584286,41.33262],[22.609917,41.311251],[22.661284,41.31598],[22.707379,41.345952],[22.762293,41.3225],[22.796818,41.337039]]]},"properties":{"LOCATION_TYPE":"level1","ADM0_A3":"MKD","LOCATION_ID":"MKD-73","NAME":"Strumitsa","TYPE_EN":"Statistical Region"}},
{"type":"Feature","geometry":{"type":"Polygon","coordinates":[[[22.657185,41.176986],[22.662421,41.206167],[22.59059,41.218415],[22.566406,41.241488],[22.525892,41.246837],[22.504601,41.212989],[22.519897,41.148626],[22.586634,41.124085],[22.657185,41.176986]]]},"properties":{"LOCATION_TYPE":"level1","ADM0_A3":"MKD","LOCATION_ID":"MKD-05","NAME":"Bogdanci","TYPE_EN":"Statistical Region"}},
{"type":"Feature","geometry":{"type":"Polygon","coordinates":[[[22.586634,41.124085],[22.519897,41.148626],[22.504601,41.212989],[22.481346,41.236269],[22.468221,41.313448],[22.400111,41.361481],[22.336549,41.378017],[22.347401,41.326599],[22.281979,41.305877],[22.292521,41.253115],[22.250249,41.236217],[22.261618,41.193972],[22.213637,41.160684],[22.29345,41.147515],[22.306679,41.128447],[22.380163,41.131702],[22.421814,41.114649],[22.586634,41.124085]]]},"properties":{"LOCATION_TYPE":"level1","ADM0_A3":"MKD","LOCATION_ID":"MKD-18","NAME":"Gevgelija","TYPE_EN":"Statistical Region"}},
{"type":"Feature","geometry":{"type":"Polygon","coordinates":[[[22.213637,41.160684],[22.261618,41.193972],[22.250249,41.236217],[22.292521,41.253115],[22.281979,41.305877],[22.222448,41.27854],[22.157232,41.293862],[22.084782,41.349311],[22.053879,41.402176],[22.044164,41.495969],[21.983806,41.503048],[21.975951,41.462637],[21.897609,41.432407],[21.834564,41.43189],[21.80976,41.45654],[21.772036,41.441347],[21.815031,41.406258],[21.827123,41.365512],[21.819888,41.295826],[21.832187,41.266603],[21.88345,41.264562],[21.866604,41.212265],[21.885517,41.191775],[21.887791,41.137696],[21.925545,41.106754],[22.029074,41.138575],[22.103384,41.121522],[22.160332,41.151908],[22.213637,41.160684]]]},"properties":{"LOCATION_TYPE":"level1","ADM0_A3":"MKD","LOCATION_ID":"MKD-36","NAME":"Kavadartsi","TYPE_EN":"Statistical Region"}},
{"type":"Feature","geometry":{"type":"Polygon","coordinates":[[[21.505731,40.900903],[21.581556,40.866292],[21.6569,40.918227],[21.736998,40.919157],[21.778133,40.93373],[21.783714,40.964167],[21.831256,40.99352],[21.896333,41.064705],[21.834461,41.094753],[21.657934,41.131495],[21.599333,41.154723],[21.541042,41.092944],[21.467145,41.106199],[21.430041,41.084004],[21.42322,41.041707],[21.441307,40.997084],[21.503938,40.951325],[21.505731,40.900903]]]},"properties":{"LOCATION_TYPE":"level1","ADM0_A3":"MKD","LOCATION_ID":"MKD-55","NAME":"Novaci","TYPE_EN":"Statistical Region"}},
{"type":"Feature","geometry":{"type":"Polygon","coordinates":[[[21.925545,41.106754],[21.887791,41.137696],[21.885517,41.191775],[21.866604,41.212265],[21.88345,41.264562],[21.832187,41.266603],[21.819888,41.295826],[21.827123,41.365512],[21.815031,41.406258],[21.772036,41.441347],[21.715502,41.47398],[21.676744,41.466617],[21.661965,41.42972],[21.60264,41.443517],[21.575459,41.409101],[21.531224,41.387965],[21.454329,41.381583],[21.410197,41.350784],[21.423323,41.317685],[21.414021,41.270504],[21.364619,41.246165],[21.440273,41.191362],[21.494327,41.171208],[21.536598,41.17759],[21.599333,41.154723],[21.657934,41.131495],[21.834461,41.094753],[21.896333,41.064705],[21.925545,41.106754]]]},"properties":{"LOCATION_TYPE":"level1","ADM0_A3":"MKD","LOCATION_ID":"MKD-62","NAME":"Prilep","TYPE_EN":"Statistical Region"}},
{"type":"Feature","geometry":{"type":"Polygon","coordinates":[[[21.505731,40.900903],[21.503938,40.951325],[21.441307,40.997084],[21.42322,41.041707],[21.430041,41.084004],[21.376918,41.078811],[21.360691,41.131392],[21.313976,41.169735],[21.313976,41.21025],[21.289895,41.218776],[21.17786,41.148496],[21.097038,41.125836],[21.10572,41.092298],[21.073784,41.046746],[21.134762,40.979153],[21.190056,40.974295],[21.239872,40.94515],[21.261059,40.906857],[21.245824,40.863226],[21.344878,40.873062],[21.381258,40.900502],[21.42942,40.908977],[21.505731,40.900903]]]},"properties":{"LOCATION_TYPE":"level1","ADM0_A3":"MKD","LOCATION_ID":"MKD-04","NAME":"Bitola","TYPE_EN":"Statistical Region"}},
{"type":"Feature","geometry":{"type":"Polygon","coordinates":[[[21.676886,42.234945],[21.561815,42.247164],[21.471973,42.23913],[21.515721,42.181147],[21.486265,42.141821],[21.510966,42.101668],[21.540939,42.070249],[21.603674,42.059423],[21.635713,42.128747],[21.684393,42.163396],[21.676886,42.234945]]]},"properties":{"LOCATION_TYPE":"level1","ADM0_A3":"MKD","LOCATION_ID":"MKD-48","NAME":"Lipkovo","TYPE_EN":"Statistical Region"}},
{"type":"Feature","geometry":{"type":"Polygon","coordinates":[[[21.471973,42.23913],[21.429834,42.215848],[21.353766,42.215977],[21.294958,42.148979],[21.300796,42.098425],[21.341984,42.071541],[21.359244,42.029063],[21.381672,42.021828],[21.388597,42.028727],[21.404616,42.052498],[21.423116,42.031595],[21.442133,42.103709],[21.486265,42.141821],[21.515721,42.181147],[21.471973,42.23913]]]},"properties":{"LOCATION_TYPE":"level1","ADM0_A3":"MKD","LOCATION_ID":"MKD-82","NAME":"Čučer Sandevo","TYPE_EN":"Statistical Region"}},
{"type":"Feature","geometry":{"type":"Polygon","coordinates":[[[21.300796,42.098425],[21.245727,42.096167],[21.318007,42.001132],[21.358624,41.984828],[21.359244,42.029063],[21.341984,42.071541],[21.300796,42.098425]]]},"properties":{"LOCATION_TYPE":"level1","ADM0_A3":"MKD","LOCATION_ID":"MKD-29","NAME":"Gjorče Petrov","TYPE_EN":"Municipality"}},
{"type":"Feature","geometry":{"type":"Polygon","coordinates":[[[21.229298,42.103822],[21.164941,42.086062],[21.178997,42.005628],[21.138379,41.98984],[21.187369,41.9701],[21.180237,41.900311],[21.217134,41.877677],[21.333716,41.943125],[21.359865,41.948422],[21.358624,41.984828],[21.318007,42.001132],[21.245727,42.096167],[21.229298,42.103822]]]},"properties":{"LOCATION_TYPE":"level1","ADM0_A3":"MKD","LOCATION_ID":"MKD-68","NAME":"Saraj","TYPE_EN":"Municipality"}},
{"type":"Feature","geometry":{"type":"Polygon","coordinates":[[[21.229298,42.103822],[21.199873,42.14115],[21.098484,42.195953],[21.04094,42.15997],[21.129801,42.073505],[21.092594,42.031853],[21.029445,42.013818],[21.031409,42.007436],[21.111921,41.981314],[21.138379,41.98984],[21.178997,42.005628],[21.164941,42.086062],[21.229298,42.103822]]]},"properties":{"LOCATION_TYPE":"level1","ADM0_A3":"MKD","LOCATION_ID":"MKD-35","NAME":"Jegunovce","TYPE_EN":"Municipality"}},
{"type":"Feature","geometry":{"type":"Polygon","coordinates":[[[21.04094,42.15997],[20.90417,42.116668],[20.959165,42.092573],[21.029445,42.013818],[21.092594,42.031853],[21.129801,42.073505],[21.04094,42.15997]]]},"properties":{"LOCATION_TYPE":"level1","ADM0_A3":"MKD","LOCATION_ID":"MKD-75","NAME":"Tearce","TYPE_EN":"Municipality"}},
{"type":"Feature","geometry":{"type":"Polygon","coordinates":[[[20.90417,42.116668],[20.810543,42.092936],[20.765378,42.064333],[20.741814,41.970773],[20.751439,41.940338],[20.847441,41.987618],[20.920305,41.978265],[20.957925,41.952504],[21.02004,41.952685],[21.047429,41.964881],[21.031409,42.007436],[21.029445,42.013818],[20.959165,42.092573],[20.90417,42.116668]]]},"properties":{"LOCATION_TYPE":"level1","ADM0_A3":"MKD","LOCATION_ID":"MKD-76","NAME":"Tetovo","TYPE_EN":"Statistical Region"}},
{"type":"Feature","geometry":{"type":"Polygon","coordinates":[[[20.751052,41.910218],[20.774991,41.918759],[20.869869,41.902714],[20.948313,41.873284],[20.979526,41.906047],[20.957925,41.952504],[20.920305,41.978265],[20.847441,41.987618],[20.751439,41.940338],[20.751052,41.910218]]]},"properties":{"LOCATION_TYPE":"level1","ADM0_A3":"MKD","LOCATION_ID":"MKD-06","NAME":"Bogovinje","TYPE_EN":"Statistical Region"}},
{"type":"Feature","geometry":{"type":"Polygon","coordinates":[[[20.714398,41.859163],[20.792354,41.839204],[20.846511,41.804425],[20.915964,41.809102],[20.955858,41.849487],[20.948313,41.873284],[20.869869,41.902714],[20.774991,41.918759],[20.751052,41.910218],[20.714398,41.859163]]]},"properties":{"LOCATION_TYPE":"level1","ADM0_A3":"MKD","LOCATION_ID":"MKD-16","NAME":"Vrapcište","TYPE_EN":"Statistical Region"}},
{"type":"Feature","geometry":{"type":"Polygon","coordinates":[[[22.506939,42.148927],[22.481449,42.193317],[22.443622,42.214427],[22.345023,42.313439],[22.307609,42.31933],[22.259757,42.369095],[22.233402,42.348889],[22.138113,42.31912],[22.142266,42.295092],[22.192324,42.266878],[22.187773,42.232293],[22.203431,42.120272],[22.289937,42.119936],[22.346574,42.094485],[22.416958,42.099575],[22.506939,42.148927]]]},"properties":{"LOCATION_TYPE":"level1","ADM0_A3":"MKD","LOCATION_ID":"MKD-44","NAME":"Kriva Palanka","TYPE_EN":"Statistical Region"}},
{"type":"Feature","geometry":{"type":"Polygon","coordinates":[[[22.138113,42.31912],[22.045407,42.302424],[22.051502,42.255302],[22.02153,42.241246],[22.043544,42.182283],[22.0237,42.163525],[22.141729,42.089292],[22.203431,42.120272],[22.187773,42.232293],[22.192324,42.266878],[22.142266,42.295092],[22.138113,42.31912]]]},"properties":{"LOCATION_TYPE":"level1","ADM0_A3":"MKD","LOCATION_ID":"MKD-65","NAME":"Rankovce","TYPE_EN":"Statistical Region"}},
{"type":"Feature","geometry":{"type":"Polygon","coordinates":[[[22.045407,42.302424],[21.941534,42.333102],[21.88438,42.309512],[21.8172,42.305145],[21.719521,42.260957],[21.77555,42.237939],[21.759633,42.213393],[21.759633,42.129315],[21.785162,42.104407],[21.858542,42.120323],[21.945979,42.097379],[22.0237,42.163525],[22.043544,42.182283],[22.02153,42.241246],[22.051502,42.255302],[22.045407,42.302424]]]},"properties":{"LOCATION_TYPE":"level1","ADM0_A3":"MKD","LOCATION_ID":"MKD-71","NAME":"Staro Nagoričane","TYPE_EN":"Statistical Region"}},
{"type":"Feature","geometry":{"type":"Polygon","coordinates":[[[21.676886,42.234945],[21.684393,42.163396],[21.635713,42.128747],[21.603674,42.059423],[21.633543,42.040018],[21.688217,42.00971],[21.686666,41.983768],[21.730281,41.957904],[21.782061,41.96209],[21.81286,41.941936],[21.867327,41.997204],[21.930889,41.974079],[21.985769,41.999607],[21.95218,42.046194],[21.921794,42.058906],[21.945979,42.097379],[21.858542,42.120323],[21.785162,42.104407],[21.759633,42.129315],[21.759633,42.213393],[21.77555,42.237939],[21.719521,42.260957],[21.676886,42.234945]]]},"properties":{"LOCATION_TYPE":"level1","ADM0_A3":"MKD","LOCATION_ID":"MKD-47","NAME":"Kumanovo","TYPE_EN":"Statistical Region"}},
{"type":"Feature","geometry":{"type":"Polygon","coordinates":[[[22.627177,42.079127],[22.623767,42.009684],[22.605887,41.982451],[22.608574,41.927467],[22.682264,41.90274],[22.696527,41.872328],[22.67441,41.807164],[22.757609,41.788509],[22.811972,41.809593],[22.882088,41.871618],[22.843701,42.014465],[22.77063,42.043998],[22.725052,42.042474],[22.627177,42.079127]]]},"properties":{"LOCATION_TYPE":"level1","ADM0_A3":"MKD","LOCATION_ID":"MKD-23","NAME":"Delčevo","TYPE_EN":"Statistical Region"}},
{"type":"Feature","geometry":{"type":"Polygon","coordinates":[[[22.506939,42.148927],[22.416958,42.099575],[22.454991,42.085493],[22.460262,42.045573],[22.488685,42.032267],[22.517727,41.945166],[22.550283,41.94576],[22.574054,41.986171],[22.605887,41.982451],[22.623767,42.009684],[22.627177,42.079127],[22.506939,42.148927]]]},"properties":{"LOCATION_TYPE":"level1","ADM0_A3":"MKD","LOCATION_ID":"MKD-51","NAME":"Makedonska Kamenica","TYPE_EN":"Statistical Region"}},
{"type":"Feature","geometry":{"type":"Polygon","coordinates":[[[22.985435,41.677198],[22.872847,41.727376],[22.782517,41.734972],[22.757609,41.788509],[22.67441,41.807164],[22.653739,41.73399],[22.620873,41.727117],[22.643921,41.67911],[22.629244,41.6341],[22.690946,41.606401],[22.72805,41.569427],[22.771768,41.536535],[22.858068,41.517053],[22.943599,41.523201],[22.933721,41.584595],[22.940852,41.63764],[22.985435,41.677198]]]},"properties":{"LOCATION_TYPE":"level1","ADM0_A3":"MKD","LOCATION_ID":"MKD-03","NAME":"Berovo","TYPE_EN":"Statistical Region"}},
{"type":"Feature","geometry":{"type":"Polygon","coordinates":[[[22.882088,41.871618],[22.811972,41.809593],[22.757609,41.788509],[22.782517,41.734972],[22.872847,41.727376],[22.985435,41.677198],[23.009582,41.71637],[22.991185,41.760992],[22.939716,41.776702],[22.901372,41.860418],[22.882088,41.871618]]]},"properties":{"LOCATION_TYPE":"level1","ADM0_A3":"MKD","LOCATION_ID":"MKD-60","NAME":"Pehčevo","TYPE_EN":"Statistical Region"}},
{"type":"Feature","geometry":{"type":"Polygon","coordinates":[[[21.02004,41.952685],[21.080088,41.900699],[21.070787,41.856567],[21.183751,41.839049],[21.233774,41.817189],[21.240802,41.855895],[21.217134,41.877677],[21.180237,41.900311],[21.187369,41.9701],[21.138379,41.98984],[21.111921,41.981314],[21.031409,42.007436],[21.047429,41.964881],[21.02004,41.952685]]]},"properties":{"LOCATION_TYPE":"level1","ADM0_A3":"MKD","LOCATION_ID":"MKD-30","NAME":"Želino","TYPE_EN":"Statistical Region"}},
{"type":"Feature","geometry":{"type":"Polygon","coordinates":[[[21.02004,41.952685],[20.957925,41.952504],[20.979526,41.906047],[20.948313,41.873284],[20.955858,41.849487],[21.029032,41.821143],[21.079055,41.777295],[21.166388,41.839875],[21.183751,41.839049],[21.070787,41.856567],[21.080088,41.900699],[21.02004,41.952685]]]},"properties":{"LOCATION_TYPE":"level1","ADM0_A3":"MKD","LOCATION_ID":"MKD-08","NAME":"Brvenica","TYPE_EN":"Statistical Region"}},
{"type":"Feature","geometry":{"type":"Polygon","coordinates":[[[21.183751,41.839049],[21.166388,41.839875],[21.079055,41.777295],[21.0527,41.775021],[21.029962,41.728203],[21.05611,41.67942],[21.052907,41.647587],[21.102826,41.621232],[21.101482,41.579762],[21.147681,41.534338],[21.076161,41.466746],[21.132075,41.480569],[21.195223,41.429099],[21.240699,41.442613],[21.259716,41.472094],[21.327308,41.516252],[21.374334,41.592914],[21.372474,41.632214],[21.395315,41.663504],[21.374024,41.718591],[21.346429,41.727996],[21.304674,41.738822],[21.233774,41.817189],[21.183751,41.839049]]]},"properties":{"LOCATION_TYPE":"level1","ADM0_A3":"MKD","LOCATION_ID":"MKD-52","NAME":"Brod","TYPE_EN":"Statistical Region"}},
{"type":"Feature","geometry":{"type":"Polygon","coordinates":[[[21.052907,41.647587],[20.985004,41.624488],[20.96733,41.549919],[21.005261,41.504237],[21.101482,41.579762],[21.102826,41.621232],[21.052907,41.647587]]]},"properties":{"LOCATION_TYPE":"level1","ADM0_A3":"MKD","LOCATION_ID":"MKD-57","NAME":"Oslomej","TYPE_EN":"Statistical Region"}},
{"type":"Feature","geometry":{"type":"Polygon","coordinates":[[[21.233774,41.817189],[21.304674,41.738822],[21.346429,41.727996],[21.359141,41.894136],[21.439963,41.888322],[21.447404,41.925477],[21.428491,41.945399],[21.359865,41.948422],[21.333716,41.943125],[21.217134,41.877677],[21.240802,41.855895],[21.233774,41.817189]]]},"properties":{"LOCATION_TYPE":"level1","ADM0_A3":"MKD","LOCATION_ID":"MKD-70","NAME":"Sopište","TYPE_EN":"Statistical Region"}},
{"type":"Feature","geometry":{"type":"Polygon","coordinates":[[[21.359865,41.948422],[21.428491,41.945399],[21.427767,41.955062],[21.427251,41.98674],[21.427974,42.002889],[21.381672,42.021828],[21.359244,42.029063],[21.358624,41.984828],[21.359865,41.948422]]]},"properties":{"LOCATION_TYPE":"level1","ADM0_A3":"MKD","LOCATION_ID":"MKD-38","NAME":"Karpoš","TYPE_EN":"Municipality"}},
{"type":"Feature","geometry":{"type":"Polygon","coordinates":[[[21.423116,42.031595],[21.404616,42.052498],[21.388597,42.028727],[21.423116,42.031595]]]},"properties":{"LOCATION_TYPE":"level1","ADM0_A3":"MKD","LOCATION_ID":"MKD-84","NAME":"Šuto Orizari","TYPE_EN":"Municipality"}},
{"type":"Feature","geometry":{"type":"Polygon","coordinates":[[[21.423116,42.031595],[21.388597,42.028727],[21.381672,42.021828],[21.427974,42.002889],[21.445854,41.997075],[21.466835,42.00847],[21.469315,42.062885],[21.510966,42.101668],[21.486265,42.141821],[21.442133,42.103709],[21.423116,42.031595]]]},"properties":{"LOCATION_TYPE":"level1","ADM0_A3":"MKD","LOCATION_ID":"MKD-09","NAME":"Butel","TYPE_EN":"Municipality"}},
{"type":"Feature","geometry":{"type":"Polygon","coordinates":[[[21.445854,41.997075],[21.427974,42.002889],[21.427251,41.98674],[21.438309,41.982787],[21.444304,41.982761],[21.445854,41.997075]]]},"properties":{"LOCATION_TYPE":"level1","ADM0_A3":"MKD","LOCATION_ID":"MKD-79","NAME":"Čair","TYPE_EN":"Municipality"}},
{"type":"Feature","geometry":{"type":"Polygon","coordinates":[[[21.438309,41.982787],[21.427251,41.98674],[21.427767,41.955062],[21.434485,41.971805],[21.438309,41.982787]]]},"properties":{"LOCATION_TYPE":"level1","ADM0_A3":"MKD","LOCATION_ID":"MKD-77","NAME":"Centar","TYPE_EN":"Municipality"}},
{"type":"Feature","geometry":{"type":"Polygon","coordinates":[[[20.985004,41.624488],[20.89736,41.664537],[20.853539,41.660016],[20.809511,41.61467],[20.856123,41.575783],[20.896947,41.52129],[20.96733,41.549919],[20.985004,41.624488]]]},"properties":{"LOCATION_TYPE":"level1","ADM0_A3":"MKD","LOCATION_ID":"MKD-31","NAME":"Zajas","TYPE_EN":"Statistical Region"}},
{"type":"Feature","geometry":{"type":"Polygon","coordinates":[[[21.374334,41.592914],[21.327308,41.516252],[21.259716,41.472094],[21.30147,41.430727],[21.267054,41.420418],[21.310359,41.37533],[21.3548,41.355047],[21.410197,41.350784],[21.454329,41.381583],[21.531224,41.387965],[21.575459,41.409101],[21.60264,41.443517],[21.532671,41.493152],[21.464354,41.508888],[21.455569,41.553614],[21.423116,41.582113],[21.374334,41.592914]]]},"properties":{"LOCATION_TYPE":"level1","ADM0_A3":"MKD","LOCATION_ID":"MKD-27","NAME":"Dolneni","TYPE_EN":"Statistical Region"}},
{"type":"Feature","geometry":{"type":"Polygon","coordinates":[[[21.410197,41.350784],[21.3548,41.355047],[21.310359,41.37533],[21.332166,41.312259],[21.334646,41.26296],[21.364619,41.246165],[21.414021,41.270504],[21.423323,41.317685],[21.410197,41.350784]]]},"properties":{"LOCATION_TYPE":"level1","ADM0_A3":"MKD","LOCATION_ID":"MKD-45","NAME":"Krivogaštani","TYPE_EN":"Statistical Region"}},
{"type":"Feature","geometry":{"type":"Polygon","coordinates":[[[21.364619,41.246165],[21.334646,41.26296],[21.313976,41.21025],[21.313976,41.169735],[21.360691,41.131392],[21.376918,41.078811],[21.430041,41.084004],[21.467145,41.106199],[21.541042,41.092944],[21.599333,41.154723],[21.536598,41.17759],[21.494327,41.171208],[21.440273,41.191362],[21.364619,41.246165]]]},"properties":{"LOCATION_TYPE":"level1","ADM0_A3":"MKD","LOCATION_ID":"MKD-53","NAME":"Mogila","TYPE_EN":"Statistical Region"}},
{"type":"Feature","geometry":{"type":"Polygon","coordinates":[[[21.374334,41.592914],[21.423116,41.582113],[21.455569,41.553614],[21.464354,41.508888],[21.532671,41.493152],[21.60264,41.443517],[21.661965,41.42972],[21.676744,41.466617],[21.715502,41.47398],[21.772036,41.441347],[21.80976,41.45654],[21.816064,41.487856],[21.788882,41.500206],[21.802008,41.563226],[21.773379,41.601905],[21.693074,41.639061],[21.671163,41.696008],[21.591892,41.706964],[21.570911,41.740347],[21.483061,41.744558],[21.444304,41.731562],[21.395315,41.663504],[21.372474,41.632214],[21.374334,41.592914]]]},"properties":{"LOCATION_TYPE":"level1","ADM0_A3":"MKD","LOCATION_ID":"MKD-80","NAME":"Čaška","TYPE_EN":"Statistical Region"}},
{"type":"Feature","geometry":{"type":"Polygon","coordinates":[[[21.80976,41.45654],[21.834564,41.43189],[21.897609,41.432407],[21.975951,41.462637],[21.983806,41.503048],[21.983392,41.552503],[21.923758,41.54364],[21.902157,41.5216],[21.816064,41.487856],[21.80976,41.45654]]]},"properties":{"LOCATION_TYPE":"level1","ADM0_A3":"MKD","LOCATION_ID":"MKD-67","NAME":"Rosoman","TYPE_EN":"Statistical Region"}},
{"type":"Feature","geometry":{"type":"Polygon","coordinates":[[[21.983806,41.503048],[22.044164,41.495969],[22.053879,41.402176],[22.084782,41.349311],[22.134288,41.351042],[22.161779,41.451553],[22.194129,41.47659],[22.259448,41.454834],[22.300066,41.489302],[22.260275,41.543589],[22.21604,41.545656],[22.168497,41.587074],[22.111033,41.594464],[22.010781,41.653479],[21.978638,41.599373],[21.983392,41.552503],[21.983806,41.503048]]]},"properties":{"LOCATION_TYPE":"level1","ADM0_A3":"MKD","LOCATION_ID":"MKD-54","NAME":"Negotino","TYPE_EN":"Statistical Region"}},
{"type":"Feature","geometry":{"type":"Polygon","coordinates":[[[20.809511,41.61467],[20.817572,41.539377],[20.803929,41.507002],[20.75618,41.473489],[20.728895,41.478786],[20.684764,41.424914],[20.687347,41.422614],[20.798348,41.428686],[20.888575,41.42202],[20.907282,41.367191],[20.955548,41.324222],[21.007741,41.353962],[21.085463,41.354375],[21.139103,41.38489],[21.133522,41.405018],[21.0712,41.428686],[21.004641,41.411995],[20.969811,41.443414],[20.975495,41.469278],[20.896947,41.52129],[20.856123,41.575783],[20.809511,41.61467]]]},"properties":{"LOCATION_TYPE":"level1","ADM0_A3":"MKD","LOCATION_ID":"MKD-28","NAME":"Drugovo","TYPE_EN":"Statistical Region"}},
{"type":"Feature","geometry":{"type":"Polygon","coordinates":[[[21.445854,41.997075],[21.444304,41.982761],[21.554271,41.92788],[21.572048,41.91013],[21.5829,41.919664],[21.540009,41.98736],[21.551687,42.016195],[21.540939,42.070249],[21.510966,42.101668],[21.469315,42.062885],[21.466835,42.00847],[21.445854,41.997075]]]},"properties":{"LOCATION_TYPE":"level1","ADM0_A3":"MKD","LOCATION_ID":"MKD-17","NAME":"Gazi Baba","TYPE_EN":"Municipality"}},
{"type":"Feature","geometry":{"type":"Polygon","coordinates":[[[21.259716,41.472094],[21.240699,41.442613],[21.195223,41.429099],[21.133522,41.405018],[21.139103,41.38489],[21.169902,41.357218],[21.21176,41.357218],[21.217444,41.309779],[21.256305,41.307867],[21.293305,41.256604],[21.289895,41.218776],[21.313976,41.21025],[21.334646,41.26296],[21.332166,41.312259],[21.310359,41.37533],[21.267054,41.420418],[21.30147,41.430727],[21.259716,41.472094]]]},"properties":{"LOCATION_TYPE":"level1","ADM0_A3":"MKD","LOCATION_ID":"MKD-46","NAME":"Kruševo","TYPE_EN":"Statistical Region"}},
{"type":"Feature","geometry":{"type":"Polygon","coordinates":[[[21.139103,41.38489],[21.085463,41.354375],[21.007741,41.353962],[20.955548,41.324222],[21.031512,41.224952],[21.039367,41.211903],[21.069133,41.198468],[21.097038,41.125836],[21.17786,41.148496],[21.289895,41.218776],[21.293305,41.256604],[21.256305,41.307867],[21.217444,41.309779],[21.21176,41.357218],[21.169902,41.357218],[21.139103,41.38489]]]},"properties":{"LOCATION_TYPE":"level1","ADM0_A3":"MKD","LOCATION_ID":"MKD-25","NAME":"Demir Hisar","TYPE_EN":"Statistical Region"}},
{"type":"Feature","geometry":{"type":"Polygon","coordinates":[[[21.434485,41.971805],[21.536081,41.918682],[21.554271,41.92788],[21.444304,41.982761],[21.438309,41.982787],[21.434485,41.971805]]]},"properties":{"LOCATION_TYPE":"level1","ADM0_A3":"MKD","LOCATION_ID":"MKD-01","NAME":"Aerodrom","TYPE_EN":"Municipality"}},
{"type":"Feature","geometry":{"type":"Polygon","coordinates":[[[21.346429,41.727996],[21.374024,41.718591],[21.395315,41.663504],[21.444304,41.731562],[21.483061,41.744558],[21.466525,41.813443],[21.513033,41.820858],[21.536701,41.869951],[21.586414,41.894885],[21.572048,41.91013],[21.554271,41.92788],[21.536081,41.918682],[21.447404,41.925477],[21.439963,41.888322],[21.359141,41.894136],[21.346429,41.727996]]]},"properties":{"LOCATION_TYPE":"level1","ADM0_A3":"MKD","LOCATION_ID":"MKD-74","NAME":"Studeničani","TYPE_EN":"Statistical Region"}},
{"type":"Feature","geometry":{"type":"Polygon","coordinates":[[[21.447404,41.925477],[21.536081,41.918682],[21.434485,41.971805],[21.427767,41.955062],[21.428491,41.945399],[21.447404,41.925477]]]},"properties":{"LOCATION_TYPE":"level1","ADM0_A3":"MKD","LOCATION_ID":"MKD-39","NAME":"Kisela Voda","TYPE_EN":"Municipality"}},
{"type":"Feature","geometry":{"type":"Polygon","coordinates":[[[22.256347,41.948241],[22.328178,42.000899],[22.336756,42.026117],[22.301823,42.050767],[22.249113,42.051335],[22.245185,42.019038],[22.162916,42.034334],[22.024837,42.00015],[22.014088,41.964571],[22.094083,41.90336],[22.098631,41.867548],[22.147207,41.859667],[22.224515,41.849203],[22.189375,41.883826],[22.256347,41.948241]]]},"properties":{"LOCATION_TYPE":"level1","ADM0_A3":"MKD","LOCATION_ID":"MKD-63","NAME":"Probištip","TYPE_EN":"Statistical Region"}},
{"type":"Feature","geometry":{"type":"Polygon","coordinates":[[[22.256347,41.948241],[22.189375,41.883826],[22.224515,41.849203],[22.282496,41.810523],[22.391016,41.792178],[22.356496,41.846748],[22.256347,41.948241]]]},"properties":{"LOCATION_TYPE":"level1","ADM0_A3":"MKD","LOCATION_ID":"MKD-81","NAME":"Češinovo-Obleševo","TYPE_EN":"Statistical Region"}},
{"type":"Feature","geometry":{"type":"Polygon","coordinates":[[[21.540009,41.98736],[21.587964,42.000279],[21.633543,42.040018],[21.603674,42.059423],[21.540939,42.070249],[21.551687,42.016195],[21.540009,41.98736]]]},"properties":{"LOCATION_TYPE":"level1","ADM0_A3":"MKD","LOCATION_ID":"MKD-02","NAME":"Aračinovo","TYPE_EN":"Statistical Region"}},
{"type":"Feature","geometry":{"type":"Polygon","coordinates":[[[21.483061,41.744558],[21.570911,41.740347],[21.631269,41.774866],[21.627238,41.819928],[21.63716,41.882715],[21.586414,41.894885],[21.536701,41.869951],[21.513033,41.820858],[21.466525,41.813443],[21.483061,41.744558]]]},"properties":{"LOCATION_TYPE":"level1","ADM0_A3":"MKD","LOCATION_ID":"MKD-32","NAME":"Zelenikovo","TYPE_EN":"Statistical Region"}},
{"type":"Feature","geometry":{"type":"Polygon","coordinates":[[[20.96733,41.549919],[20.896947,41.52129],[20.975495,41.469278],[21.005261,41.504237],[20.96733,41.549919]]]},"properties":{"LOCATION_TYPE":"level1","ADM0_A3":"MKD","LOCATION_ID":"MKD-40","NAME":"Kičevo","TYPE_EN":"Statistical Region"}},
{"type":"Feature","geometry":{"type":"Polygon","coordinates":[[[21.195223,41.429099],[21.132075,41.480569],[21.076161,41.466746],[21.0712,41.428686],[21.133522,41.405018],[21.195223,41.429099]]]},"properties":{"LOCATION_TYPE":"level1","ADM0_A3":"MKD","LOCATION_ID":"MKD-61","NAME":"Plasnica","TYPE_EN":"Statistical Region"}},
{"type":"Feature","geometry":{"type":"Polygon","coordinates":[[[21.076161,41.466746],[21.147681,41.534338],[21.101482,41.579762],[21.005261,41.504237],[20.975495,41.469278],[20.969811,41.443414],[21.004641,41.411995],[21.0712,41.428686],[21.076161,41.466746]]]},"properties":{"LOCATION_TYPE":"level1","ADM0_A3":"MKD","LOCATION_ID":"MKD-15","NAME":"Vraneštica","TYPE_EN":"Statistical Region"}},
{"type":"Feature","geometry":{"type":"Polygon","coordinates":[[[21.572048,41.91013],[21.586414,41.894885],[21.63716,41.882715],[21.627238,41.819928],[21.666512,41.802203],[21.72377,41.809205],[21.736069,41.883154],[21.803248,41.911602],[21.81286,41.941936],[21.782061,41.96209],[21.730281,41.957904],[21.686666,41.983768],[21.674057,41.93434],[21.631373,41.941445],[21.5829,41.919664],[21.572048,41.91013]]]},"properties":{"LOCATION_TYPE":"level1","ADM0_A3":"MKD","LOCATION_ID":"MKD-85","NAME":"Skopje","TYPE_EN":"Statistical Region"}},
{"type":"Feature","geometry":{"type":"Polygon","coordinates":[[[21.84893,41.83494],[21.819061,41.804761],[21.825159,41.748305],[21.861436,41.711976],[21.899987,41.652032],[21.961172,41.663969],[21.93678,41.692443],[22.013985,41.732905],[21.929959,41.797862],[21.84893,41.83494]]]},"properties":{"LOCATION_TYPE":"level1","ADM0_A3":"MKD","LOCATION_ID":"MKD-49","NAME":"Lozovo","TYPE_EN":"Statistical Region"}},
{"type":"Feature","geometry":{"type":"Polygon","coordinates":[[[22.013985,41.732905],[22.09522,41.829075],[22.098631,41.867548],[22.094083,41.90336],[22.014088,41.964571],[22.024837,42.00015],[21.985769,41.999607],[21.930889,41.974079],[21.867327,41.997204],[21.81286,41.941936],[21.803248,41.911602],[21.813997,41.867626],[21.84893,41.83494],[21.929959,41.797862],[22.013985,41.732905]]]},"properties":{"LOCATION_TYPE":"level1","ADM0_A3":"MKD","LOCATION_ID":"MKD-69","NAME":"Sveti Nikole","TYPE_EN":"Statistical Region"}},
{"type":"Feature","geometry":{"type":"Polygon","coordinates":[[[21.983392,41.552503],[21.978638,41.599373],[22.010781,41.653479],[21.961172,41.663969],[21.899987,41.652032],[21.861436,41.711976],[21.857509,41.684433],[21.805936,41.622731],[21.773379,41.601905],[21.802008,41.563226],[21.788882,41.500206],[21.816064,41.487856],[21.902157,41.5216],[21.923758,41.54364],[21.983392,41.552503]]]},"properties":{"LOCATION_TYPE":"level1","ADM0_A3":"MKD","LOCATION_ID":"MKD-20","NAME":"Gradsko","TYPE_EN":"Statistical Region"}},
{"type":"Feature","geometry":{"type":"Polygon","coordinates":[[[22.336756,42.026117],[22.346574,42.094485],[22.289937,42.119936],[22.203431,42.120272],[22.141729,42.089292],[22.0237,42.163525],[21.945979,42.097379],[21.921794,42.058906],[21.95218,42.046194],[21.985769,41.999607],[22.024837,42.00015],[22.162916,42.034334],[22.245185,42.019038],[22.249113,42.051335],[22.301823,42.050767],[22.336756,42.026117]]]},"properties":{"LOCATION_TYPE":"level1","ADM0_A3":"MKD","LOCATION_ID":"MKD-43","NAME":"Kratovo","TYPE_EN":"Statistical Region"}},
{"type":"Feature","geometry":{"type":"Polygon","coordinates":[[[21.5829,41.919664],[21.631373,41.941445],[21.674057,41.93434],[21.686666,41.983768],[21.688217,42.00971],[21.633543,42.040018],[21.587964,42.000279],[21.540009,41.98736],[21.5829,41.919664]]]},"properties":{"LOCATION_TYPE":"level1","ADM0_A3":"MKD","LOCATION_ID":"MKD-34","NAME":"Ilinden","TYPE_EN":"Statistical Region"}},
{"type":"Feature","geometry":{"type":"Polygon","coordinates":[[[22.224515,41.849203],[22.147207,41.859667],[22.122815,41.836232],[22.141005,41.780628],[22.186894,41.77683],[22.298102,41.708617],[22.401041,41.712726],[22.446206,41.770164],[22.44662,41.78931],[22.391016,41.792178],[22.282496,41.810523],[22.224515,41.849203]]]},"properties":{"LOCATION_TYPE":"level1","ADM0_A3":"MKD","LOCATION_ID":"MKD-37","NAME":"Karbinci","TYPE_EN":"Statistical Region"}},
{"type":"Feature","geometry":{"type":"Polygon","coordinates":[[[22.010781,41.653479],[22.111033,41.594464],[22.168497,41.587074],[22.21604,41.545656],[22.260275,41.543589],[22.323423,41.598753],[22.291281,41.660584],[22.311228,41.67911],[22.369209,41.66818],[22.401041,41.712726],[22.298102,41.708617],[22.186894,41.77683],[22.141005,41.780628],[22.122815,41.836232],[22.147207,41.859667],[22.098631,41.867548],[22.09522,41.829075],[22.013985,41.732905],[21.93678,41.692443],[21.961172,41.663969],[22.010781,41.653479]]]},"properties":{"LOCATION_TYPE":"level1","ADM0_A3":"MKD","LOCATION_ID":"MKD-83","NAME":"Štip","TYPE_EN":"Statistical Region"}},
{"type":"Feature","geometry":{"type":"Polygon","coordinates":[[[22.256347,41.948241],[22.356496,41.846748],[22.435458,41.869486],[22.451374,41.947672],[22.517727,41.945166],[22.488685,42.032267],[22.460262,42.045573],[22.454991,42.085493],[22.416958,42.099575],[22.346574,42.094485],[22.336756,42.026117],[22.328178,42.000899],[22.256347,41.948241]]]},"properties":{"LOCATION_TYPE":"level1","ADM0_A3":"MKD","LOCATION_ID":"MKD-42","NAME":"Kočani","TYPE_EN":"Statistical Region"}},
{"type":"Feature","geometry":{"type":"Polygon","coordinates":[[[22.356496,41.846748],[22.391016,41.792178],[22.44662,41.78931],[22.435458,41.869486],[22.356496,41.846748]]]},"properties":{"LOCATION_TYPE":"level1","ADM0_A3":"MKD","LOCATION_ID":"MKD-33","NAME":"Zrnovci","TYPE_EN":"Statistical Region"}},
{"type":"Feature","geometry":{"type":"Polygon","coordinates":[[[21.570911,41.740347],[21.591892,41.706964],[21.671163,41.696008],[21.693074,41.639061],[21.773379,41.601905],[21.805936,41.622731],[21.857509,41.684433],[21.861436,41.711976],[21.825159,41.748305],[21.819061,41.804761],[21.84893,41.83494],[21.813997,41.867626],[21.803248,41.911602],[21.736069,41.883154],[21.72377,41.809205],[21.666512,41.802203],[21.627238,41.819928],[21.631269,41.774866],[21.570911,41.740347]]]},"properties":{"LOCATION_TYPE":"level1","ADM0_A3":"MKD","LOCATION_ID":"MKD-13","NAME":"Veles","TYPE_EN":"Statistical Region"}},
{"type":"Feature","geometry":{"type":"Polygon","coordinates":[[[22.300066,41.489302],[22.259448,41.454834],[22.194129,41.47659],[22.161779,41.451553],[22.134288,41.351042],[22.084782,41.349311],[22.157232,41.293862],[22.222448,41.27854],[22.281979,41.305877],[22.347401,41.326599],[22.336549,41.378017],[22.330038,41.424655],[22.331898,41.475221],[22.300066,41.489302]]]},"properties":{"LOCATION_TYPE":"level1","ADM0_A3":"MKD","LOCATION_ID":"MKD-24","NAME":"Demir Kapija","TYPE_EN":"Statistical Region"}},
{"type":"Feature","geometry":{"type":"Polygon","coordinates":[[[22.446206,41.770164],[22.482587,41.75231],[22.529095,41.768949],[22.620873,41.727117],[22.653739,41.73399],[22.67441,41.807164],[22.696527,41.872328],[22.682264,41.90274],[22.608574,41.927467],[22.605887,41.982451],[22.574054,41.986171],[22.550283,41.94576],[22.517727,41.945166],[22.451374,41.947672],[22.435458,41.869486],[22.44662,41.78931],[22.446206,41.770164]]]},"properties":{"LOCATION_TYPE":"level1","ADM0_A3":"MKD","LOCATION_ID":"MKD-14","NAME":"Vinica","TYPE_EN":"Statistical Region"}},
{"type":"Feature","geometry":{"type":"Polygon","coordinates":[[[22.858068,41.517053],[22.771768,41.536535],[22.72805,41.569427],[22.726396,41.510386],[22.674306,41.472869],[22.758746,41.391582],[22.786237,41.397267],[22.80143,41.448607],[22.859411,41.500413],[22.858068,41.517053]]]},"properties":{"LOCATION_TYPE":"level1","ADM0_A3":"MKD","LOCATION_ID":"MKD-07","NAME":"Bosilovo","TYPE_EN":"Statistical Region"}},
{"type":"Feature","geometry":{"type":"Polygon","coordinates":[[[22.401041,41.712726],[22.369209,41.66818],[22.311228,41.67911],[22.291281,41.660584],[22.323423,41.598753],[22.419128,41.579323],[22.503671,41.507338],[22.540981,41.549841],[22.60568,41.533693],[22.578085,41.596893],[22.629244,41.6341],[22.643921,41.67911],[22.620873,41.727117],[22.529095,41.768949],[22.482587,41.75231],[22.446206,41.770164],[22.401041,41.712726]]]},"properties":{"LOCATION_TYPE":"level1","ADM0_A3":"MKD","LOCATION_ID":"MKD-64","NAME":"Radoviš","TYPE_EN":"Statistical Region"}},
{"type":"Feature","geometry":{"type":"Polygon","coordinates":[[[22.508942,41.466642],[22.532713,41.489948],[22.601132,41.45716],[22.674306,41.472869],[22.726396,41.510386],[22.72805,41.569427],[22.690946,41.606401],[22.629244,41.6341],[22.578085,41.596893],[22.60568,41.533693],[22.540981,41.549841],[22.503671,41.507338],[22.508942,41.466642]]]},"properties":{"LOCATION_TYPE":"level1","ADM0_A3":"MKD","LOCATION_ID":"MKD-11","NAME":"Vasilevo","TYPE_EN":"Statistical Region"}},
{"type":"Feature","geometry":{"type":"Polygon","coordinates":[[[22.300066,41.489302],[22.331898,41.475221],[22.330038,41.424655],[22.40931,41.448116],[22.445793,41.445998],[22.508942,41.466642],[22.503671,41.507338],[22.419128,41.579323],[22.323423,41.598753],[22.260275,41.543589],[22.300066,41.489302]]]},"properties":{"LOCATION_TYPE":"level1","ADM0_A3":"MKD","LOCATION_ID":"MKD-41","NAME":"Konče","TYPE_EN":"Statistical Region"}}
]}