{"type":"FeatureCollection", "features": [
{"type":"Feature","geometry":{"type":"Polygon","coordinates":[[[-9.141379,15.495581],[-9.672118,15.430661],[-9.835596,15.371104],[-10.131599,15.372629],[-10.308746,15.435209],[-10.736368,15.422626],[-10.915169,15.102904],[-11.045393,15.270206],[-11.298195,15.451048],[-11.409557,15.602201],[-11.727057,15.541171],[-11.845655,15.179075],[-11.837076,14.893097],[-12.165945,14.625181],[-12.22173,14.391242],[-11.997583,14.166165],[-11.962908,13.909152],[-12.097629,13.70441],[-11.996808,13.544161],[-11.613111,13.360813],[-11.450278,13.075095],[-11.377776,12.480221],[-11.507794,12.191608],[-11.351318,12.040403],[-11.191173,12.01441],[-11.052318,12.202512],[-10.909794,12.200135],[-10.711357,11.890386],[-10.381403,12.180136],[-10.26694,12.217808],[-9.722994,12.025417],[-9.628167,12.170163],[-9.308497,12.345036],[-9.321519,12.496603],[-9.027765,12.404751],[-8.891028,12.649952],[-8.598152,12.806893],[-8.555467,13.217669],[-8.45661,13.462951],[-8.554899,13.683377],[-8.846586,13.968708],[-8.764731,14.108984],[-8.809353,14.288224],[-8.132056,14.339952],[-8.237037,14.519941],[-8.463044,14.69794],[-8.50702,14.962963],[-8.741037,15.025957],[-8.804057,15.244961],[-9.141379,15.495581]]]},"properties":{"LOCATION_TYPE":"level1","ADM0_A3":"MLI","LOCATION_ID":"MLI-1","NAME":"Kayes","TYPE_EN":"Region"}},
{"type":"Feature","geometry":{"type":"Polygon","coordinates":[[[0.003735,21.848899],[-0.96358,22.481265],[-2.523226,23.500996],[-3.448544,24.106023],[-4.821613,24.995065],[-6.593107,24.994134],[-6.374722,23.150293],[-6.219383,21.822855],[-6.113705,20.919551],[-5.963533,19.620612],[-5.756466,17.741037],[-5.623347,16.527829],[-5.353286,16.311977],[-5.508761,15.5069],[-5.357058,15.552953],[-5.15105,15.608944],[-4.688029,15.580961],[-3.983033,15.824952],[-3.869009,15.671964],[-3.845031,15.493938],[-3.64202,15.490941],[-3.490014,15.599953],[-3.482056,15.732942],[-3.156029,15.832936],[-2.924028,15.853942],[-2.772022,15.716948],[-2.597019,15.368933],[-2.450052,15.30395],[-2.147021,15.406941],[-1.686041,15.430945],[-1.386008,15.321959],[-1.214029,15.178945],[-0.771272,15.056619],[-0.500343,15.079721],[-0.694009,16.046954],[-0.717057,16.949948],[-1.608501,17.035653],[-1.706919,17.514513],[-0.934666,17.886144],[-0.88516,18.955277],[-0.964328,19.064185],[-1.419727,19.41065],[-2.043384,19.915529],[-1.320767,20.281811],[-0.221919,21.152973],[0.003735,21.848899]]]},"properties":{"LOCATION_TYPE":"level1","ADM0_A3":"MLI","LOCATION_ID":"MLI-6","NAME":"Timbuktu","TYPE_EN":"Region"}},
{"type":"Feature","geometry":{"type":"Polygon","coordinates":[[[-0.500343,15.079721],[-0.236699,15.065619],[0.218467,14.910977],[0.514831,14.993556],[0.670067,14.939735],[0.973718,14.991257],[1.331526,15.283616],[3.000158,15.339117],[3.073021,15.427199],[3.507103,15.353973],[3.526534,15.495954],[3.871215,15.714804],[4.060558,16.298334],[4.183961,16.416053],[4.181998,16.809621],[4.235638,16.995863],[4.232408,17.975234],[2.926158,17.975234],[1.975828,17.975234],[1.797648,17.757444],[1.203679,17.628743],[0.570126,18.133622],[0.065221,18.707799],[-0.88516,18.955277],[-0.934666,17.886144],[-1.706919,17.514513],[-1.608501,17.035653],[-0.717057,16.949948],[-0.694009,16.046954],[-0.500343,15.079721]]]},"properties":{"LOCATION_TYPE":"level1","ADM0_A3":"MLI","LOCATION_ID":"MLI-7","NAME":"Gao","TYPE_EN":"Region"}},
{"type":"Feature","geometry":{"type":"Polygon","coordinates":[[[-3.965468,13.489217],[-3.596882,13.199402],[-3.248634,13.292781],[-3.259719,13.658315],[-3.067508,13.606767],[-2.895245,13.651648],[-2.928059,13.799624],[-2.840855,14.042994],[-2.46168,14.280912],[-2.151879,14.15614],[-2.023412,14.198643],[-1.967033,14.483742],[-1.69692,14.496119],[-1.350275,14.714969],[-1.043317,14.817908],[-0.771272,15.056619],[-1.214029,15.178945],[-1.386008,15.321959],[-1.686041,15.430945],[-2.147021,15.406941],[-2.450052,15.30395],[-2.597019,15.368933],[-2.772022,15.716948],[-2.924028,15.853942],[-3.156029,15.832936],[-3.482056,15.732942],[-3.490014,15.599953],[-3.64202,15.490941],[-3.845031,15.493938],[-3.869009,15.671964],[-3.983033,15.824952],[-4.688029,15.580961],[-5.15105,15.608944],[-5.357058,15.552953],[-5.184019,15.470942],[-5.100019,15.195946],[-5.208049,15.023941],[-5.546013,14.930949],[-5.664042,14.531956],[-5.283031,14.298947],[-5.187016,14.170944],[-5.208049,13.989947],[-4.899024,13.970956],[-4.855021,13.588938],[-4.603021,13.574934],[-4.387014,13.646945],[-4.283041,13.835952],[-4.086024,13.926954],[-3.958022,13.597956],[-3.965468,13.489217]]]},"properties":{"LOCATION_TYPE":"level1","ADM0_A3":"MLI","LOCATION_ID":"MLI-5","NAME":"Mopti","TYPE_EN":"Region"}},
{"type":"Feature","geometry":{"type":"Polygon","coordinates":[[[-3.965468,13.489217],[-3.958022,13.597956],[-4.086024,13.926954],[-4.283041,13.835952],[-4.387014,13.646945],[-4.603021,13.574934],[-4.855021,13.588938],[-4.899024,13.970956],[-5.208049,13.989947],[-5.187016,14.170944],[-5.283031,14.298947],[-5.664042,14.531956],[-5.546013,14.930949],[-5.208049,15.023941],[-5.100019,15.195946],[-5.184019,15.470942],[-5.357058,15.552953],[-5.508761,15.5069],[-6.320145,15.494543],[-6.40503,15.167963],[-6.545021,14.943946],[-6.436036,14.780959],[-6.382034,14.535961],[-6.582022,14.479943],[-6.900064,13.997957],[-6.900064,13.748954],[-6.783043,13.623949],[-6.774025,13.365954],[-6.926058,13.341951],[-7.081009,13.01595],[-6.886034,12.907946],[-6.894044,12.787954],[-6.625016,12.808934],[-6.390044,12.699949],[-6.261008,12.554945],[-5.896017,12.651941],[-5.579034,12.816944],[-5.43403,12.606957],[-5.269027,12.795938],[-5.065008,12.574943],[-4.776034,12.622951],[-4.691052,12.739946],[-4.46437,12.717251],[-4.297227,12.712145],[-4.229324,12.948952],[-4.351073,13.118322],[-3.965468,13.489217]]]},"properties":{"LOCATION_TYPE":"level1","ADM0_A3":"MLI","LOCATION_ID":"MLI-4","NAME":"Ségou","TYPE_EN":"Region"}},
{"type":"Feature","geometry":{"type":"Polygon","coordinates":[[[-4.46437,12.717251],[-4.691052,12.739946],[-4.776034,12.622951],[-5.065008,12.574943],[-5.269027,12.795938],[-5.43403,12.606957],[-5.579034,12.816944],[-5.896017,12.651941],[-6.261008,12.554945],[-5.982007,12.121948],[-6.347049,12.026941],[-6.469031,11.652958],[-6.947012,11.861964],[-7.07902,12.011954],[-7.048066,12.137942],[-7.116072,12.432937],[-7.319005,12.226954],[-7.479977,12.147941],[-7.54403,12.005934],[-8.071026,11.685954],[-8.431056,11.641951],[-8.539425,11.456312],[-8.427724,11.40008],[-8.696906,10.996048],[-8.505755,11.052789],[-8.311142,11.000803],[-8.295535,10.537446],[-8.228873,10.423422],[-7.829001,10.211652],[-7.708646,10.402467],[-7.46618,10.429494],[-7.346963,10.247903],[-6.95939,10.185503],[-6.973136,10.33229],[-6.700336,10.34167],[-6.667883,10.650901],[-6.52138,10.564214],[-6.28,10.723274],[-6.207808,10.637543],[-6.180884,10.215838],[-6.015933,10.18987],[-5.806282,10.413474],[-5.594047,10.453937],[-5.468111,10.58783],[-5.431421,10.844688],[-5.489764,11.082115],[-5.322332,11.135549],[-5.218307,11.422198],[-5.307811,11.629007],[-5.268227,11.843051],[-5.167819,11.943665],[-4.806808,11.996271],[-4.406135,12.307467],[-4.386885,12.530192],[-4.46437,12.717251]]]},"properties":{"LOCATION_TYPE":"level1","ADM0_A3":"MLI","LOCATION_ID":"MLI-3","NAME":"Sikasso","TYPE_EN":"Region"}},
{"type":"Feature","geometry":{"type":"Polygon","coordinates":[[[-9.027765,12.404751],[-8.797004,11.913227],[-8.847233,11.657946],[-8.712874,11.640066],[-8.539425,11.456312],[-8.431056,11.641951],[-8.071026,11.685954],[-7.54403,12.005934],[-7.479977,12.147941],[-7.319005,12.226954],[-7.116072,12.432937],[-7.048066,12.137942],[-7.07902,12.011954],[-6.947012,11.861964],[-6.469031,11.652958],[-6.347049,12.026941],[-5.982007,12.121948],[-6.261008,12.554945],[-6.390044,12.699949],[-6.625016,12.808934],[-6.894044,12.787954],[-6.886034,12.907946],[-7.081009,13.01595],[-6.926058,13.341951],[-6.774025,13.365954],[-6.783043,13.623949],[-6.900064,13.748954],[-6.900064,13.997957],[-6.582022,14.479943],[-6.382034,14.535961],[-6.436036,14.780959],[-6.545021,14.943946],[-6.40503,15.167963],[-6.320145,15.494543],[-7.517237,15.494973],[-9.141379,15.495581],[-8.804057,15.244961],[-8.741037,15.025957],[-8.50702,14.962963],[-8.463044,14.69794],[-8.237037,14.519941],[-8.132056,14.339952],[-8.809353,14.288224],[-8.764731,14.108984],[-8.846586,13.968708],[-8.554899,13.683377],[-8.45661,13.462951],[-8.555467,13.217669],[-8.598152,12.806893],[-8.891028,12.649952],[-9.027765,12.404751]],[[-7.978141,12.542916],[-8.054312,12.579536],[-8.051197,12.690803],[-7.938592,12.661565],[-7.978141,12.542916]]]},"properties":{"LOCATION_TYPE":"level1","ADM0_A3":"MLI","LOCATION_ID":"MLI-2","NAME":"Koulikoro","TYPE_EN":"Region"}},
{"type":"Feature","geometry":{"type":"Polygon","coordinates":[[[0.003735,21.848899],[-0.221919,21.152973],[-1.320767,20.281811],[-2.043384,19.915529],[-1.419727,19.41065],[-0.964328,19.064185],[-0.88516,18.955277],[0.065221,18.707799],[0.570126,18.133622],[1.203679,17.628743],[1.797648,17.757444],[1.975828,17.975234],[2.926158,17.975234],[4.232408,17.975234],[4.22861,19.142244],[3.308356,18.981685],[3.102684,19.153561],[3.25823,19.410393],[3.199422,19.553769],[3.216785,19.794064],[2.946001,19.941652],[2.400401,20.056555],[2.18243,20.278505],[2.056339,20.215046],[1.778113,20.304291],[1.643961,20.522676],[1.145284,20.795889],[1.146524,21.101711],[0.003735,21.848899]]]},"properties":{"LOCATION_TYPE":"level1","ADM0_A3":"MLI","LOCATION_ID":"MLI-8","NAME":"Kidal","TYPE_EN":"Region"}},
{"type":"Feature","geometry":{"type":"Polygon","coordinates":[[[-7.978141,12.542916],[-7.938592,12.661565],[-8.051197,12.690803],[-8.054312,12.579536],[-7.978141,12.542916]]]},"properties":{"LOCATION_TYPE":"level1","ADM0_A3":"MLI","LOCATION_ID":"MLI-BKO","NAME":"Bamako","TYPE_EN":"District"}}
]}