{"type":"FeatureCollection", "features": [
{"type":"Feature","geometry":{"type":"Polygon","coordinates":[[[14.524896,35.898035],[14.519453,35.894254],[14.529367,35.881563],[14.540018,35.882747],[14.548025,35.890041],[14.524896,35.898035]]]},"properties":{"LOCATION_TYPE":"level1","ADM0_A3":"MLT","LOCATION_ID":"MLT-21","NAME":"Kalkara","TYPE_EN":null}},
{"type":"Feature","geometry":{"type":"Polygon","coordinates":[[[14.513927,35.900824],[14.507178,35.898723],[14.501557,35.895173],[14.510728,35.88896],[14.515371,35.891128],[14.519453,35.894254],[14.524896,35.898035],[14.513927,35.900824]]]},"properties":{"LOCATION_TYPE":"level1","ADM0_A3":"MLT","LOCATION_ID":"MLT-60","NAME":"Valletta","TYPE_EN":null}},
{"type":"Feature","geometry":{"type":"Polygon","coordinates":[[[14.510391,35.924599],[14.492884,35.906616],[14.507178,35.898723],[14.513927,35.900824],[14.510391,35.924599]]]},"properties":{"LOCATION_TYPE":"level1","ADM0_A3":"MLT","LOCATION_ID":"MLT-56","NAME":"Sliema","TYPE_EN":null}},
{"type":"Feature","geometry":{"type":"Polygon","coordinates":[[[14.501433,35.930382],[14.484101,35.920025],[14.48203,35.912332],[14.488566,35.90468],[14.492884,35.906616],[14.510391,35.924599],[14.501433,35.930382]]]},"properties":{"LOCATION_TYPE":"level1","ADM0_A3":"MLT","LOCATION_ID":"MLT-48","NAME":"San Giljan","TYPE_EN":null}},
{"type":"Feature","geometry":{"type":"Polygon","coordinates":[[[14.464896,35.946559],[14.462504,35.929196],[14.471971,35.920321],[14.484101,35.920025],[14.501433,35.930382],[14.478689,35.936957],[14.464896,35.946559]]]},"properties":{"LOCATION_TYPE":"level1","ADM0_A3":"MLT","LOCATION_ID":"MLT-40","NAME":"Pembroke","TYPE_EN":null}},
{"type":"Feature","geometry":{"type":"Polygon","coordinates":[[[14.438217,35.962574],[14.421084,35.938072],[14.425818,35.920321],[14.434989,35.905824],[14.446528,35.904344],[14.451261,35.912924],[14.455107,35.9289],[14.462504,35.929196],[14.464896,35.946559],[14.438217,35.962574]]]},"properties":{"LOCATION_TYPE":"level1","ADM0_A3":"MLT","LOCATION_ID":"MLT-38","NAME":"Naxxar","TYPE_EN":null}},
{"type":"Feature","geometry":{"type":"Polygon","coordinates":[[[14.4058,35.967848],[14.399782,35.955232],[14.372268,35.945468],[14.373747,35.936297],[14.377297,35.92535],[14.387948,35.924167],[14.39209,35.912332],[14.403333,35.90819],[14.404516,35.925646],[14.425818,35.920321],[14.421084,35.938072],[14.438217,35.962574],[14.4058,35.967848]]]},"properties":{"LOCATION_TYPE":"level1","ADM0_A3":"MLT","LOCATION_ID":"MLT-51","NAME":"San Pawl il-Bahar","TYPE_EN":null}},
{"type":"Feature","geometry":{"type":"Polygon","coordinates":[[[14.340892,35.92557],[14.373747,35.936297],[14.372268,35.945468],[14.399782,35.955232],[14.4058,35.967848],[14.349376,35.973131],[14.362315,35.982408],[14.377289,35.986233],[14.377289,35.993638],[14.347504,35.988715],[14.322032,35.973131],[14.33253,35.962836],[14.338227,35.946967],[14.340892,35.92557]]]},"properties":{"LOCATION_TYPE":"level1","ADM0_A3":"MLT","LOCATION_ID":"MLT-30","NAME":"Mellieħa","TYPE_EN":null}},
{"type":"Feature","geometry":{"type":"Polygon","coordinates":[[[14.342621,35.900202],[14.363984,35.899315],[14.40422,35.905232],[14.403333,35.90819],[14.39209,35.912332],[14.387948,35.924167],[14.377297,35.92535],[14.373747,35.936297],[14.340892,35.92557],[14.342621,35.900202]]]},"properties":{"LOCATION_TYPE":"level1","ADM0_A3":"MLT","LOCATION_ID":"MLT-31","NAME":"Mġarr","TYPE_EN":null}},
{"type":"Feature","geometry":{"type":"Polygon","coordinates":[[[14.36481,35.864422],[14.392978,35.867954],[14.398599,35.860262],[14.41635,35.863812],[14.4128,35.879492],[14.402445,35.881563],[14.411617,35.891327],[14.413096,35.89754],[14.40422,35.905232],[14.363984,35.899315],[14.342621,35.900202],[14.342621,35.880683],[14.36481,35.864422]]]},"properties":{"LOCATION_TYPE":"level1","ADM0_A3":"MLT","LOCATION_ID":"MLT-46","NAME":"Rabat","TYPE_EN":null}},
{"type":"Feature","geometry":{"type":"Polygon","coordinates":[[[14.38918,35.839525],[14.398599,35.860262],[14.392978,35.867954],[14.36481,35.864422],[14.381521,35.842963],[14.38918,35.839525]]]},"properties":{"LOCATION_TYPE":"level1","ADM0_A3":"MLT","LOCATION_ID":"MLT-07","NAME":"Dingli","TYPE_EN":null}},
{"type":"Feature","geometry":{"type":"Polygon","coordinates":[[[14.428818,35.822576],[14.45067,35.839256],[14.457178,35.847244],[14.4699,35.860262],[14.463391,35.862629],[14.44564,35.864404],[14.434989,35.857895],[14.41635,35.863812],[14.398599,35.860262],[14.38918,35.839525],[14.428818,35.822576]]]},"properties":{"LOCATION_TYPE":"level1","ADM0_A3":"MLT","LOCATION_ID":"MLT-55","NAME":"Siġġiewi","TYPE_EN":null}},
{"type":"Feature","geometry":{"type":"Polygon","coordinates":[[[14.453583,35.81628],[14.466942,35.830084],[14.466942,35.837777],[14.45067,35.839256],[14.428818,35.822576],[14.453583,35.81628]]]},"properties":{"LOCATION_TYPE":"level1","ADM0_A3":"MLT","LOCATION_ID":"MLT-44","NAME":"Qrendi","TYPE_EN":null}},
{"type":"Feature","geometry":{"type":"Polygon","coordinates":[[[14.497619,35.809422],[14.512503,35.820617],[14.508953,35.829789],[14.504219,35.829197],[14.486172,35.825055],[14.48351,35.834226],[14.476409,35.838368],[14.466942,35.837777],[14.466942,35.830084],[14.453583,35.81628],[14.472667,35.811428],[14.497619,35.809422]]]},"properties":{"LOCATION_TYPE":"level1","ADM0_A3":"MLT","LOCATION_ID":"MLT-68","NAME":"Żurrieq","TYPE_EN":null}},
{"type":"Feature","geometry":{"type":"Polygon","coordinates":[[[14.54026,35.828992],[14.525225,35.839848],[14.508953,35.829789],[14.512503,35.820617],[14.497619,35.809422],[14.527517,35.801215],[14.527517,35.813544],[14.54026,35.828992]]]},"properties":{"LOCATION_TYPE":"level1","ADM0_A3":"MLT","LOCATION_ID":"MLT-05","NAME":"Birżebbuġa","TYPE_EN":null}},
{"type":"Feature","geometry":{"type":"Polygon","coordinates":[[[14.565819,35.841697],[14.548302,35.845765],[14.524634,35.844581],[14.525225,35.839848],[14.54026,35.828992],[14.548025,35.836005],[14.561778,35.82982],[14.565819,35.841697]]]},"properties":{"LOCATION_TYPE":"level1","ADM0_A3":"MLT","LOCATION_ID":"MLT-28","NAME":"Marsaxlokk","TYPE_EN":null}},
{"type":"Feature","geometry":{"type":"Polygon","coordinates":[[[14.560886,35.873031],[14.542977,35.860853],[14.548302,35.845765],[14.565819,35.841697],[14.560886,35.873031]]]},"properties":{"LOCATION_TYPE":"level1","ADM0_A3":"MLT","LOCATION_ID":"MLT-27","NAME":"Marsaskala","TYPE_EN":null}},
{"type":"Feature","geometry":{"type":"Polygon","coordinates":[[[14.556176,35.879261],[14.540018,35.882747],[14.529367,35.881563],[14.526705,35.874463],[14.525225,35.865587],[14.542977,35.860853],[14.560886,35.873031],[14.556176,35.879261]]]},"properties":{"LOCATION_TYPE":"level1","ADM0_A3":"MLT","LOCATION_ID":"MLT-64","NAME":"Żabbar","TYPE_EN":null}},
{"type":"Feature","geometry":{"type":"Polygon","coordinates":[[[14.548025,35.890041],[14.540018,35.882747],[14.556176,35.879261],[14.548025,35.890041]]]},"properties":{"LOCATION_TYPE":"level1","ADM0_A3":"MLT","LOCATION_ID":"MLT-63","NAME":"Xgħajra","TYPE_EN":null}},
{"type":"Feature","geometry":{"type":"Polygon","coordinates":[[[14.194844,36.029396],[14.211785,36.051904],[14.183604,36.064765],[14.187999,36.045396],[14.184906,36.034613],[14.194844,36.029396]]]},"properties":{"LOCATION_TYPE":"level1","ADM0_A3":"MLT","LOCATION_ID":"MLT-50","NAME":"San Lawrenz","TYPE_EN":null}},
{"type":"Feature","geometry":{"type":"Polygon","coordinates":[[[14.209669,36.023105],[14.226458,36.033444],[14.235451,36.031788],[14.235687,36.037941],[14.228588,36.047644],[14.218884,36.051431],[14.211785,36.051904],[14.194844,36.029396],[14.209669,36.023105]]]},"properties":{"LOCATION_TYPE":"level1","ADM0_A3":"MLT","LOCATION_ID":"MLT-22","NAME":"Kerċem","TYPE_EN":null}},
{"type":"Feature","geometry":{"type":"Polygon","coordinates":[[[14.233002,36.016508],[14.240421,36.026581],[14.241131,36.028474],[14.235451,36.031788],[14.226458,36.033444],[14.209669,36.023105],[14.233002,36.016508]]]},"properties":{"LOCATION_TYPE":"level1","ADM0_A3":"MLT","LOCATION_ID":"MLT-36","NAME":"Munxar","TYPE_EN":null}},
{"type":"Feature","geometry":{"type":"Polygon","coordinates":[[[14.273635,36.015953],[14.27166,36.019245],[14.240421,36.026581],[14.233002,36.016508],[14.26002,36.013495],[14.273635,36.015953]]]},"properties":{"LOCATION_TYPE":"level1","ADM0_A3":"MLT","LOCATION_ID":"MLT-52","NAME":"Sannat","TYPE_EN":null}},
{"type":"Feature","geometry":{"type":"Polygon","coordinates":[[[14.30012,36.024995],[14.296982,36.030368],[14.280653,36.033444],[14.27166,36.019245],[14.273635,36.015953],[14.30012,36.024995]]]},"properties":{"LOCATION_TYPE":"level1","ADM0_A3":"MLT","LOCATION_ID":"MLT-13","NAME":"Għajnsielem","TYPE_EN":null}},
{"type":"Feature","geometry":{"type":"Polygon","coordinates":[[[14.320429,36.046244],[14.296982,36.030368],[14.30012,36.024995],[14.322032,36.027167],[14.334239,36.034369],[14.320429,36.046244]]]},"properties":{"LOCATION_TYPE":"level1","ADM0_A3":"MLT","LOCATION_ID":"MLT-42","NAME":"Qala","TYPE_EN":null}},
{"type":"Feature","geometry":{"type":"Polygon","coordinates":[[[14.289079,36.064467],[14.280653,36.033444],[14.296982,36.030368],[14.320429,36.046244],[14.289079,36.064467]]]},"properties":{"LOCATION_TYPE":"level1","ADM0_A3":"MLT","LOCATION_ID":"MLT-37","NAME":"Nadur","TYPE_EN":null}},
{"type":"Feature","geometry":{"type":"Polygon","coordinates":[[[14.271997,36.071004],[14.267637,36.05995],[14.253437,36.054507],[14.250597,36.045751],[14.255093,36.037468],[14.280653,36.033444],[14.289079,36.064467],[14.271997,36.071004]]]},"properties":{"LOCATION_TYPE":"level1","ADM0_A3":"MLT","LOCATION_ID":"MLT-61","NAME":"Xagħra","TYPE_EN":null}},
{"type":"Feature","geometry":{"type":"Polygon","coordinates":[[[14.233525,36.072761],[14.231191,36.057347],[14.239474,36.049301],[14.250597,36.045751],[14.253437,36.054507],[14.267637,36.05995],[14.271997,36.071004],[14.256602,36.075588],[14.233525,36.072761]]]},"properties":{"LOCATION_TYPE":"level1","ADM0_A3":"MLT","LOCATION_ID":"MLT-65","NAME":"Żebbuġ","TYPE_EN":null}},
{"type":"Feature","geometry":{"type":"Polygon","coordinates":[[[14.212925,36.070238],[14.218884,36.051431],[14.228588,36.047644],[14.239474,36.049301],[14.231191,36.057347],[14.233525,36.072761],[14.212925,36.070238]]]},"properties":{"LOCATION_TYPE":"level1","ADM0_A3":"MLT","LOCATION_ID":"MLT-16","NAME":"Għasri","TYPE_EN":null}},
{"type":"Feature","geometry":{"type":"Polygon","coordinates":[[[14.183604,36.064765],[14.211785,36.051904],[14.218884,36.051431],[14.212925,36.070238],[14.183604,36.064765]]]},"properties":{"LOCATION_TYPE":"level1","ADM0_A3":"MLT","LOCATION_ID":"MLT-14","NAME":"Għarb","TYPE_EN":null}},
{"type":"Feature","geometry":{"type":"Polygon","coordinates":[[[14.235687,36.037941],[14.24468,36.030604],[14.255093,36.037468],[14.250597,36.045751],[14.239474,36.049301],[14.228588,36.047644],[14.235687,36.037941]]]},"properties":{"LOCATION_TYPE":"level1","ADM0_A3":"MLT","LOCATION_ID":"MLT-45","NAME":"Victoria","TYPE_EN":null}},
{"type":"Feature","geometry":{"type":"Polygon","coordinates":[[[14.235451,36.031788],[14.241131,36.028474],[14.24468,36.030604],[14.235687,36.037941],[14.235451,36.031788]]]},"properties":{"LOCATION_TYPE":"level1","ADM0_A3":"MLT","LOCATION_ID":"MLT-10","NAME":"Fontana, Gozo","TYPE_EN":null}},
{"type":"Feature","geometry":{"type":"Polygon","coordinates":[[[14.240421,36.026581],[14.27166,36.019245],[14.280653,36.033444],[14.255093,36.037468],[14.24468,36.030604],[14.241131,36.028474],[14.240421,36.026581]]]},"properties":{"LOCATION_TYPE":"level1","ADM0_A3":"MLT","LOCATION_ID":"MLT-62","NAME":"Xewkija","TYPE_EN":null}},
{"type":"Feature","geometry":{"type":"Polygon","coordinates":[[[14.40422,35.905232],[14.413096,35.89754],[14.435285,35.895173],[14.434989,35.905824],[14.425818,35.920321],[14.404516,35.925646],[14.403333,35.90819],[14.40422,35.905232]]]},"properties":{"LOCATION_TYPE":"level1","ADM0_A3":"MLT","LOCATION_ID":"MLT-32","NAME":"Mosta","TYPE_EN":null}},
{"type":"Feature","geometry":{"type":"Polygon","coordinates":[[[14.435285,35.895173],[14.445936,35.894877],[14.448599,35.90109],[14.446528,35.904344],[14.434989,35.905824],[14.435285,35.895173]]]},"properties":{"LOCATION_TYPE":"level1","ADM0_A3":"MLT","LOCATION_ID":"MLT-24","NAME":"Lija","TYPE_EN":null}},
{"type":"Feature","geometry":{"type":"Polygon","coordinates":[[[14.435285,35.895173],[14.413096,35.89754],[14.411617,35.891327],[14.411025,35.884226],[14.4128,35.879492],[14.428776,35.878605],[14.454516,35.883043],[14.45777,35.88896],[14.445936,35.894877],[14.435285,35.895173]]]},"properties":{"LOCATION_TYPE":"level1","ADM0_A3":"MLT","LOCATION_ID":"MLT-01","NAME":"Attard","TYPE_EN":null}},
{"type":"Feature","geometry":{"type":"Polygon","coordinates":[[[14.402445,35.881563],[14.411025,35.884226],[14.411617,35.891327],[14.402445,35.881563]]]},"properties":{"LOCATION_TYPE":"level1","ADM0_A3":"MLT","LOCATION_ID":"MLT-35","NAME":"Mtarfa","TYPE_EN":null}},
{"type":"Feature","geometry":{"type":"Polygon","coordinates":[[[14.402445,35.881563],[14.4128,35.879492],[14.411025,35.884226],[14.402445,35.881563]]]},"properties":{"LOCATION_TYPE":"level1","ADM0_A3":"MLT","LOCATION_ID":"MLT-29","NAME":"Mdina","TYPE_EN":null}},
{"type":"Feature","geometry":{"type":"Polygon","coordinates":[[[14.41635,35.863812],[14.434989,35.857895],[14.44564,35.864404],[14.463391,35.862629],[14.454811,35.8718],[14.454516,35.883043],[14.428776,35.878605],[14.4128,35.879492],[14.41635,35.863812]]]},"properties":{"LOCATION_TYPE":"level1","ADM0_A3":"MLT","LOCATION_ID":"MLT-66","NAME":"Żebbuġ","TYPE_EN":null}},
{"type":"Feature","geometry":{"type":"Polygon","coordinates":[[[14.463391,35.862629],[14.4699,35.860262],[14.480255,35.872096],[14.484101,35.875942],[14.479072,35.881859],[14.470196,35.884226],[14.45777,35.88896],[14.454516,35.883043],[14.454811,35.8718],[14.463391,35.862629]]]},"properties":{"LOCATION_TYPE":"level1","ADM0_A3":"MLT","LOCATION_ID":"MLT-43","NAME":"Qormi","TYPE_EN":null}},
{"type":"Feature","geometry":{"type":"Polygon","coordinates":[[[14.455107,35.9289],[14.463687,35.911741],[14.48203,35.912332],[14.484101,35.920025],[14.471971,35.920321],[14.462504,35.929196],[14.455107,35.9289]]]},"properties":{"LOCATION_TYPE":"level1","ADM0_A3":"MLT","LOCATION_ID":"MLT-57","NAME":"Swieqi","TYPE_EN":null}},
{"type":"Feature","geometry":{"type":"Polygon","coordinates":[[[14.451261,35.912924],[14.462208,35.909374],[14.463687,35.911741],[14.455107,35.9289],[14.451261,35.912924]]]},"properties":{"LOCATION_TYPE":"level1","ADM0_A3":"MLT","LOCATION_ID":"MLT-15","NAME":"Għargħur","TYPE_EN":null}},
{"type":"Feature","geometry":{"type":"Polygon","coordinates":[[[14.48203,35.912332],[14.463687,35.911741],[14.462208,35.909374],[14.462504,35.90109],[14.472184,35.898872],[14.485885,35.900361],[14.488566,35.90468],[14.48203,35.912332]]]},"properties":{"LOCATION_TYPE":"level1","ADM0_A3":"MLT","LOCATION_ID":"MLT-49","NAME":"San Ġwann","TYPE_EN":null}},
{"type":"Feature","geometry":{"type":"Polygon","coordinates":[[[14.451261,35.912924],[14.446528,35.904344],[14.448599,35.90109],[14.454516,35.899019],[14.462504,35.90109],[14.462208,35.909374],[14.451261,35.912924]]]},"properties":{"LOCATION_TYPE":"level1","ADM0_A3":"MLT","LOCATION_ID":"MLT-19","NAME":"Iklin","TYPE_EN":null}},
{"type":"Feature","geometry":{"type":"Polygon","coordinates":[[[14.454516,35.899019],[14.45777,35.88896],[14.470196,35.884226],[14.47412,35.891724],[14.472184,35.898872],[14.462504,35.90109],[14.454516,35.899019]]]},"properties":{"LOCATION_TYPE":"level1","ADM0_A3":"MLT","LOCATION_ID":"MLT-04","NAME":"Birkirkara","TYPE_EN":null}},
{"type":"Feature","geometry":{"type":"Polygon","coordinates":[[[14.448599,35.90109],[14.445936,35.894877],[14.45777,35.88896],[14.454516,35.899019],[14.448599,35.90109]]]},"properties":{"LOCATION_TYPE":"level1","ADM0_A3":"MLT","LOCATION_ID":"MLT-02","NAME":"Balzan","TYPE_EN":null}},
{"type":"Feature","geometry":{"type":"Polygon","coordinates":[[[14.479072,35.881859],[14.48663,35.886363],[14.47412,35.891724],[14.470196,35.884226],[14.479072,35.881859]]]},"properties":{"LOCATION_TYPE":"level1","ADM0_A3":"MLT","LOCATION_ID":"MLT-54","NAME":"Santa Venera","TYPE_EN":null}},
{"type":"Feature","geometry":{"type":"Polygon","coordinates":[[[14.484101,35.875942],[14.496607,35.884427],[14.496161,35.888299],[14.48663,35.886363],[14.479072,35.881859],[14.484101,35.875942]]]},"properties":{"LOCATION_TYPE":"level1","ADM0_A3":"MLT","LOCATION_ID":"MLT-18","NAME":"Ħamrun","TYPE_EN":null}},
{"type":"Feature","geometry":{"type":"Polygon","coordinates":[[[14.480255,35.872096],[14.493273,35.862924],[14.500669,35.879788],[14.496607,35.884427],[14.484101,35.875942],[14.480255,35.872096]]]},"properties":{"LOCATION_TYPE":"level1","ADM0_A3":"MLT","LOCATION_ID":"MLT-26","NAME":"Marsa","TYPE_EN":null}},
{"type":"Feature","geometry":{"type":"Polygon","coordinates":[[[14.4699,35.860262],[14.457178,35.847244],[14.478184,35.846357],[14.490314,35.839552],[14.504219,35.829197],[14.508953,35.829789],[14.503332,35.836593],[14.494456,35.850794],[14.494752,35.858487],[14.493273,35.862924],[14.480255,35.872096],[14.4699,35.860262]]]},"properties":{"LOCATION_TYPE":"level1","ADM0_A3":"MLT","LOCATION_ID":"MLT-25","NAME":"Luqa","TYPE_EN":null}},
{"type":"Feature","geometry":{"type":"Polygon","coordinates":[[[14.45067,35.839256],[14.466942,35.837777],[14.476409,35.838368],[14.478184,35.846357],[14.457178,35.847244],[14.45067,35.839256]]]},"properties":{"LOCATION_TYPE":"level1","ADM0_A3":"MLT","LOCATION_ID":"MLT-33","NAME":"Mqabba","TYPE_EN":null}},
{"type":"Feature","geometry":{"type":"Polygon","coordinates":[[[14.48351,35.834226],[14.490314,35.839552],[14.478184,35.846357],[14.476409,35.838368],[14.48351,35.834226]]]},"properties":{"LOCATION_TYPE":"level1","ADM0_A3":"MLT","LOCATION_ID":"MLT-23","NAME":"Kirkop","TYPE_EN":null}},
{"type":"Feature","geometry":{"type":"Polygon","coordinates":[[[14.48351,35.834226],[14.486172,35.825055],[14.504219,35.829197],[14.490314,35.839552],[14.48351,35.834226]]]},"properties":{"LOCATION_TYPE":"level1","ADM0_A3":"MLT","LOCATION_ID":"MLT-47","NAME":"Safi","TYPE_EN":null}},
{"type":"Feature","geometry":{"type":"Polygon","coordinates":[[[14.525225,35.839848],[14.524634,35.844581],[14.511024,35.856711],[14.509841,35.854936],[14.509841,35.850203],[14.503332,35.836593],[14.508953,35.829789],[14.525225,35.839848]]]},"properties":{"LOCATION_TYPE":"level1","ADM0_A3":"MLT","LOCATION_ID":"MLT-17","NAME":"Għaxaq","TYPE_EN":null}},
{"type":"Feature","geometry":{"type":"Polygon","coordinates":[[[14.524634,35.844581],[14.548302,35.845765],[14.542977,35.860853],[14.525225,35.865587],[14.51635,35.860262],[14.511024,35.856711],[14.524634,35.844581]]]},"properties":{"LOCATION_TYPE":"level1","ADM0_A3":"MLT","LOCATION_ID":"MLT-67","NAME":"Żejtun","TYPE_EN":null}},
{"type":"Feature","geometry":{"type":"Polygon","coordinates":[[[14.525225,35.865587],[14.526705,35.874463],[14.513687,35.873871],[14.508361,35.869137],[14.51635,35.860262],[14.525225,35.865587]]]},"properties":{"LOCATION_TYPE":"level1","ADM0_A3":"MLT","LOCATION_ID":"MLT-08","NAME":"Fgura","TYPE_EN":null}},
{"type":"Feature","geometry":{"type":"Polygon","coordinates":[[[14.51635,35.860262],[14.508361,35.869137],[14.494752,35.858487],[14.509841,35.854936],[14.511024,35.856711],[14.51635,35.860262]]]},"properties":{"LOCATION_TYPE":"level1","ADM0_A3":"MLT","LOCATION_ID":"MLT-59","NAME":"Tarxien","TYPE_EN":null}},
{"type":"Feature","geometry":{"type":"Polygon","coordinates":[[[14.509841,35.854936],[14.494752,35.858487],[14.494456,35.850794],[14.509841,35.850203],[14.509841,35.854936]]]},"properties":{"LOCATION_TYPE":"level1","ADM0_A3":"MLT","LOCATION_ID":"MLT-53","NAME":"Santa Luċija","TYPE_EN":null}},
{"type":"Feature","geometry":{"type":"Polygon","coordinates":[[[14.509841,35.850203],[14.494456,35.850794],[14.503332,35.836593],[14.509841,35.850203]]]},"properties":{"LOCATION_TYPE":"level1","ADM0_A3":"MLT","LOCATION_ID":"MLT-11","NAME":"Gudja","TYPE_EN":null}},
{"type":"Feature","geometry":{"type":"Polygon","coordinates":[[[14.508361,35.869137],[14.513687,35.873871],[14.513687,35.88038],[14.508361,35.88541],[14.500669,35.879788],[14.493273,35.862924],[14.494752,35.858487],[14.508361,35.869137]]]},"properties":{"LOCATION_TYPE":"level1","ADM0_A3":"MLT","LOCATION_ID":"MLT-39","NAME":"Paola","TYPE_EN":null}},
{"type":"Feature","geometry":{"type":"Polygon","coordinates":[[[14.507178,35.898723],[14.492884,35.906616],[14.488566,35.90468],[14.485885,35.900361],[14.489161,35.897383],[14.501557,35.895173],[14.507178,35.898723]]]},"properties":{"LOCATION_TYPE":"level1","ADM0_A3":"MLT","LOCATION_ID":"MLT-12","NAME":"Gżira","TYPE_EN":null}},
{"type":"Feature","geometry":{"type":"Polygon","coordinates":[[[14.498006,35.89251],[14.496161,35.888299],[14.496607,35.884427],[14.500669,35.879788],[14.508361,35.88541],[14.510728,35.88896],[14.501557,35.895173],[14.498006,35.89251]]]},"properties":{"LOCATION_TYPE":"level1","ADM0_A3":"MLT","LOCATION_ID":"MLT-09","NAME":"Floriana","TYPE_EN":null}},
{"type":"Feature","geometry":{"type":"Polygon","coordinates":[[[14.501557,35.895173],[14.489161,35.897383],[14.489427,35.891918],[14.498006,35.89251],[14.501557,35.895173]]]},"properties":{"LOCATION_TYPE":"level1","ADM0_A3":"MLT","LOCATION_ID":"MLT-58","NAME":"Ta' Xbiex","TYPE_EN":null}},
{"type":"Feature","geometry":{"type":"Polygon","coordinates":[[[14.510728,35.88896],[14.508361,35.88541],[14.513687,35.88038],[14.521256,35.887107],[14.515371,35.891128],[14.510728,35.88896]]]},"properties":{"LOCATION_TYPE":"level1","ADM0_A3":"MLT","LOCATION_ID":"MLT-20","NAME":"Isla","TYPE_EN":null}},
{"type":"Feature","geometry":{"type":"Polygon","coordinates":[[[14.529367,35.881563],[14.521256,35.887107],[14.513687,35.88038],[14.513687,35.873871],[14.526705,35.874463],[14.529367,35.881563]]]},"properties":{"LOCATION_TYPE":"level1","ADM0_A3":"MLT","LOCATION_ID":"MLT-06","NAME":"Cospicua","TYPE_EN":null}},
{"type":"Feature","geometry":{"type":"Polygon","coordinates":[[[14.498006,35.89251],[14.489427,35.891918],[14.48663,35.886363],[14.496161,35.888299],[14.498006,35.89251]]]},"properties":{"LOCATION_TYPE":"level1","ADM0_A3":"MLT","LOCATION_ID":"MLT-41","NAME":"Pietà","TYPE_EN":null}},
{"type":"Feature","geometry":{"type":"Polygon","coordinates":[[[14.48663,35.886363],[14.489427,35.891918],[14.489161,35.897383],[14.485885,35.900361],[14.472184,35.898872],[14.47412,35.891724],[14.48663,35.886363]]]},"properties":{"LOCATION_TYPE":"level1","ADM0_A3":"MLT","LOCATION_ID":"MLT-34","NAME":"Msida","TYPE_EN":null}},
{"type":"Feature","geometry":{"type":"Polygon","coordinates":[[[14.521256,35.887107],[14.529367,35.881563],[14.519453,35.894254],[14.515371,35.891128],[14.521256,35.887107]]]},"properties":{"LOCATION_TYPE":"level1","ADM0_A3":"MLT","LOCATION_ID":"MLT-03","NAME":"Birgu","TYPE_EN":null}}
]}