{"type":"FeatureCollection", "features": [
{"type":"Feature","geometry":{"type":"MultiPolygon","coordinates":[[[[92.64104,21.308586],[92.558722,21.25984],[92.524512,21.361126],[92.423123,21.363658],[92.322664,21.461895],[92.236261,21.417092],[92.183654,21.317201],[92.174973,21.175608],[92.270518,21.049018],[92.381114,20.700141],[92.453624,20.668524],[92.539887,20.527533],[92.653168,20.41828],[92.831554,20.478949],[92.901215,20.308051],[92.772146,20.201483],[92.860362,20.124945],[92.936046,20.211982],[93.018565,20.14997],[92.975922,20.087836],[93.048676,19.994818],[93.148123,19.99433],[93.190278,20.064439],[93.272472,20.047512],[93.374848,20.088528],[93.413585,19.977525],[93.565929,19.916571],[93.70753,19.916571],[93.60141,19.783433],[93.693533,19.724799],[93.739594,19.617499],[93.914561,19.472805],[93.984386,19.464057],[93.987315,19.386705],[93.929942,19.29975],[93.796886,19.235175],[93.665294,19.305609],[93.611339,19.403266],[93.484141,19.392727],[93.497813,19.31391],[93.750255,18.970404],[93.930431,18.858629],[93.973888,18.922797],[93.955414,19.126899],[94.033376,19.204535],[94.066091,19.042873],[94.053233,18.840888],[94.133556,18.846503],[94.212413,18.741848],[94.279633,18.480211],[94.389659,18.362698],[94.396983,18.291449],[94.480968,18.094224],[94.447439,17.973334],[94.50172,17.786607],[94.595225,17.615465],[94.567719,17.46288],[94.754351,17.371653],[94.799413,17.465394],[94.809541,17.623989],[94.882922,17.729978],[94.902662,17.850823],[94.859461,17.927976],[94.8915,18.180518],[94.836595,18.35762],[94.763653,18.466315],[94.746703,18.605376],[94.791868,18.697154],[94.722828,18.79136],[94.789491,18.86996],[94.682314,19.024989],[94.57121,19.099248],[94.531522,19.305799],[94.430133,19.451345],[94.369775,19.730579],[94.327917,19.818093],[94.333912,19.949558],[94.265182,20.016944],[94.25619,20.111357],[94.000185,20.532106],[93.903964,20.58107],[93.904584,20.701915],[93.802161,20.762273],[93.749761,20.869037],[93.655813,20.853947],[93.683615,20.715919],[93.614679,20.665716],[93.474016,20.6737],[93.263383,20.793356],[93.160236,20.918491],[93.132641,21.04409],[92.927589,21.077551],[92.835088,21.059542],[92.780001,21.156125],[92.64104,21.308586]]],[[[93.745372,18.799994],[93.742442,18.872301],[93.621755,18.910346],[93.497813,18.840888],[93.645274,18.679348],[93.746837,18.708808],[93.745372,18.799994]]],[[[93.970714,19.416938],[93.880219,19.479193],[93.819998,19.471503],[93.731212,19.554104],[93.641775,19.492011],[93.773774,19.298774],[93.856944,19.278876],[93.965831,19.363023],[93.970714,19.416938]]]]},"properties":{"LOCATION_TYPE":"level1","ADM0_A3":"MMR","LOCATION_ID":"MMR-16","NAME":"Rakhine","TYPE_EN":"State"}},
{"type":"Feature","geometry":{"type":"Polygon","coordinates":[[[92.64104,21.308586],[92.780001,21.156125],[92.835088,21.059542],[92.927589,21.077551],[93.132641,21.04409],[93.160236,20.918491],[93.263383,20.793356],[93.474016,20.6737],[93.614679,20.665716],[93.683615,20.715919],[93.655813,20.853947],[93.749761,20.869037],[93.802161,20.762273],[93.904584,20.701915],[94.023026,20.651556],[94.138265,20.692949],[94.04163,20.906786],[94.109739,21.06551],[94.106019,21.208732],[94.027987,21.265834],[94.125242,21.585504],[94.007006,21.790091],[94.053412,21.959073],[94.021476,22.04943],[94.049691,22.159785],[94.021786,22.294298],[94.047211,22.360031],[94.007006,22.678022],[93.992537,22.920255],[94.019409,23.071822],[94.000289,23.33054],[94.049071,23.347955],[94.044524,23.490556],[94.142502,23.499289],[94.170097,23.694962],[94.128859,23.853905],[93.997911,23.916965],[93.803711,23.936059],[93.743042,23.995281],[93.612404,24.009052],[93.456652,23.95996],[93.368285,24.07848],[93.302966,24.041143],[93.355986,23.906991],[93.374796,23.739017],[93.432364,23.647317],[93.384201,23.313126],[93.3749,23.129726],[93.298832,23.01795],[93.196512,23.053839],[93.138221,23.005264],[93.175532,22.881705],[93.079517,22.77272],[93.099154,22.51196],[93.16592,22.386593],[93.169021,22.246912],[92.967172,22.062685],[92.853898,22.024135],[92.708067,22.147952],[92.650913,22.019174],[92.575879,21.977574],[92.590245,21.495537],[92.64104,21.308586]]]},"properties":{"LOCATION_TYPE":"level1","ADM0_A3":"MMR","LOCATION_ID":"MMR-14","NAME":"Chin","TYPE_EN":"State"}},
{"type":"Feature","geometry":{"type":"Polygon","coordinates":[[[97.647345,23.868524],[97.516456,23.942829],[97.707658,24.125299],[97.718407,24.277667],[97.639859,24.439285],[97.519556,24.430784],[97.536093,24.745028],[97.66394,24.829778],[97.748483,24.82647],[97.703318,24.960416],[97.737527,25.090511],[97.82362,25.261612],[97.888939,25.205646],[98.044899,25.311944],[98.108357,25.388891],[98.099469,25.493329],[98.150215,25.613063],[98.332633,25.566968],[98.461307,25.794654],[98.610032,25.800597],[98.692404,25.87899],[98.582437,25.982291],[98.54554,26.105643],[98.70553,26.174941],[98.657781,26.311625],[98.717209,26.408725],[98.755553,26.625043],[98.749248,26.771442],[98.672561,27.175603],[98.704187,27.304174],[98.674421,27.386598],[98.679279,27.577336],[98.400019,27.675728],[98.383276,27.555787],[98.294703,27.536615],[98.204372,27.727301],[98.176674,27.898117],[98.107117,27.973074],[98.118693,28.14079],[97.897518,28.355325],[97.740008,28.38261],[97.699597,28.48803],[97.527721,28.529526],[97.445349,28.382971],[97.436667,28.286414],[97.333831,28.235254],[97.298898,28.12924],[97.355122,28.023045],[97.333521,27.894164],[97.222933,27.899719],[97.060359,27.750452],[96.87019,27.61909],[96.905123,27.408406],[97.134773,27.127338],[97.058827,27.092076],[96.951736,26.989852],[96.764564,26.98843],[96.449441,26.942361],[96.342161,26.963238],[96.198294,26.766196],[96.069723,26.694262],[96.132045,26.578791],[96.127911,26.470013],[96.014119,26.388157],[96.154886,26.142203],[96.163774,26.031073],[96.079955,25.88904],[96.178037,25.651665],[96.043161,25.533713],[95.96854,25.515652],[95.987971,25.199702],[96.073134,25.07803],[95.840383,24.964988],[95.937225,24.710197],[96.103829,24.636972],[96.136075,24.554522],[96.235088,24.458714],[96.42474,24.501063],[96.65625,24.417192],[96.607675,24.355335],[96.606744,24.249838],[96.673614,24.141912],[96.729838,24.028094],[96.916803,23.904381],[96.892929,23.823404],[96.784098,23.749713],[97.003516,23.699949],[97.097567,23.645405],[97.305306,23.704135],[97.471291,23.785267],[97.634589,23.825885],[97.647345,23.868524]]]},"properties":{"LOCATION_TYPE":"level1","ADM0_A3":"MMR","LOCATION_ID":"MMR-11","NAME":"Kachin","TYPE_EN":"State"}},
{"type":"Feature","geometry":{"type":"Polygon","coordinates":[[[97.058827,27.092076],[96.865332,27.171624],[96.859648,27.240716],[96.758879,27.341743],[96.5869,27.353577],[96.510936,27.292495],[96.407789,27.29818],[96.142586,27.25751],[96.013188,27.190796],[95.888855,27.027034],[95.777957,26.995149],[95.591302,26.823739],[95.489809,26.810716],[95.392658,26.691757],[95.119082,26.604217],[95.040638,26.475594],[95.064202,26.392602],[95.046322,26.24796],[95.139546,26.029937],[95.00064,25.922036],[95.008805,25.737138],[94.961469,25.717966],[94.850778,25.562782],[94.692028,25.476327],[94.608003,25.394627],[94.550125,25.245282],[94.576893,25.173607],[94.689135,25.138518],[94.708565,25.02589],[94.589502,24.74725],[94.516329,24.704953],[94.410805,24.545945],[94.289986,24.31676],[94.19025,23.995281],[94.128859,23.853905],[94.170097,23.694962],[94.142502,23.499289],[94.044524,23.490556],[94.049071,23.347955],[94.000289,23.33054],[94.019409,23.071822],[93.992537,22.920255],[94.007006,22.678022],[94.113253,22.708097],[94.216606,22.5556],[94.295774,22.388866],[94.242858,22.261432],[94.279445,22.106325],[94.349311,22.110537],[94.41618,21.989614],[94.395717,21.82443],[94.490388,21.767328],[94.601906,21.819728],[94.843958,21.8289],[95.052214,21.809987],[95.152053,21.823268],[95.248481,21.66103],[95.342222,21.608862],[95.379946,21.707435],[95.561537,21.739578],[95.657138,21.626923],[95.772067,21.62607],[95.835835,21.705032],[95.869322,21.825154],[96.02094,21.896493],[96.051223,21.956335],[96.007505,22.089427],[95.963683,22.392484],[95.985284,22.550097],[95.916967,22.661666],[95.96482,22.76905],[95.975155,23.153988],[95.909526,23.344648],[95.945286,23.451954],[96.082022,23.629437],[96.193023,23.50022],[96.320664,23.506653],[96.396525,23.573729],[96.43983,23.68858],[96.558375,23.864642],[96.508042,24.010679],[96.414611,24.051194],[96.673614,24.141912],[96.606744,24.249838],[96.607675,24.355335],[96.65625,24.417192],[96.42474,24.501063],[96.235088,24.458714],[96.136075,24.554522],[96.103829,24.636972],[95.937225,24.710197],[95.840383,24.964988],[96.073134,25.07803],[95.987971,25.199702],[95.96854,25.515652],[96.043161,25.533713],[96.178037,25.651665],[96.079955,25.88904],[96.163774,26.031073],[96.154886,26.142203],[96.014119,26.388157],[96.127911,26.470013],[96.132045,26.578791],[96.069723,26.694262],[96.198294,26.766196],[96.342161,26.963238],[96.449441,26.942361],[96.764564,26.98843],[96.951736,26.989852],[97.058827,27.092076]]]},"properties":{"LOCATION_TYPE":"level1","ADM0_A3":"MMR","LOCATION_ID":"MMR-01","NAME":"Sagaing","TYPE_EN":"Division"}},
{"type":"Feature","geometry":{"type":"Polygon","coordinates":[[[97.869123,19.57049],[98.008312,19.639112],[98.017924,19.789388],[98.111355,19.77714],[98.217911,19.707971],[98.532621,19.675854],[98.641348,19.744946],[98.80785,19.806544],[98.883711,19.745463],[99.008768,19.845922],[99.016829,20.041],[99.117495,20.117791],[99.295675,20.062497],[99.441403,20.101617],[99.525842,20.196184],[99.502898,20.345219],[99.651932,20.306824],[99.7696,20.328424],[99.837709,20.416843],[99.942044,20.444025],[100.055474,20.344186],[100.120948,20.388782],[100.149266,20.548101],[100.21133,20.697394],[100.383671,20.831701],[100.536685,20.807672],[100.515704,20.886478],[100.543454,21.0274],[100.637557,21.069671],[100.689388,21.15933],[100.725407,21.311672],[100.791966,21.297357],[101.003426,21.405981],[101.143159,21.513417],[101.173855,21.611912],[101.068693,21.762032],[100.79703,21.626123],[100.621744,21.469078],[100.456689,21.455022],[100.326517,21.524269],[100.187145,21.427892],[100.089994,21.52892],[100.082345,21.684466],[99.95026,21.721156],[99.920185,21.852001],[99.96566,21.963002],[99.942406,22.045529],[99.821018,22.017779],[99.739162,22.066768],[99.438612,22.124232],[99.364922,22.098859],[99.166381,22.132087],[99.166381,22.204641],[99.282756,22.411915],[99.35779,22.495476],[99.355,22.608544],[99.307871,22.719596],[99.414428,22.856901],[99.42993,22.936741],[99.534627,22.949324],[99.478196,23.065751],[99.350969,23.119262],[99.21661,23.057379],[99.074913,23.101666],[99.026441,23.160448],[98.859009,23.179387],[98.910686,23.297597],[98.875546,23.446425],[98.780874,23.532854],[98.857356,23.604348],[98.777877,23.7693],[98.663672,23.796947],[98.663259,23.969546],[98.856219,24.083802],[98.866967,24.143256],[98.585227,24.075715],[98.503269,24.121268],[98.330669,24.099486],[98.181531,24.118658],[97.889973,24.022617],[97.647345,23.868524],[97.634589,23.825885],[97.471291,23.785267],[97.305306,23.704135],[97.097567,23.645405],[97.003516,23.699949],[96.784098,23.749713],[96.892929,23.823404],[96.916803,23.904381],[96.729838,24.028094],[96.673614,24.141912],[96.414611,24.051194],[96.508042,24.010679],[96.558375,23.864642],[96.43983,23.68858],[96.396525,23.573729],[96.320664,23.506653],[96.306504,23.4295],[96.204185,23.311937],[96.159227,23.166312],[96.212453,23.049782],[96.346502,23.017536],[96.486338,23.039628],[96.717435,22.933872],[96.640334,22.821941],[96.471249,22.783106],[96.266817,22.780083],[96.203565,22.739698],[96.333376,22.487827],[96.31746,22.398013],[96.402519,22.365328],[96.47807,22.164358],[96.746064,22.065139],[96.876599,21.807506],[96.70462,21.717047],[96.58287,21.596977],[96.344848,21.541321],[96.288314,21.459698],[96.331516,21.249504],[96.374097,21.174909],[96.240359,21.149975],[96.21049,21.059542],[96.257929,20.974172],[96.588761,20.84524],[96.454196,20.685301],[96.548143,20.579287],[96.476416,20.423069],[96.538635,20.205072],[96.380505,20.022499],[96.451612,19.860674],[96.537085,19.849383],[96.65563,19.677507],[96.673304,19.495787],[96.815621,19.388093],[96.839902,19.288449],[96.926828,19.43592],[96.895616,19.496278],[96.972614,19.623841],[97.135394,19.72784],[97.167847,19.988729],[97.280812,19.890879],[97.393466,19.940385],[97.513562,19.90186],[97.586013,19.827343],[97.560123,19.742361],[97.611954,19.686576],[97.852146,19.635158],[97.869123,19.57049]]]},"properties":{"LOCATION_TYPE":"level1","ADM0_A3":"MMR","LOCATION_ID":"MMR-17","NAME":"Shan","TYPE_EN":"State"}},
{"type":"Feature","geometry":{"type":"Polygon","coordinates":[[[97.869123,19.57049],[97.852146,19.635158],[97.611954,19.686576],[97.560123,19.742361],[97.586013,19.827343],[97.513562,19.90186],[97.393466,19.940385],[97.280812,19.890879],[97.167847,19.988729],[97.135394,19.72784],[96.972614,19.623841],[96.895616,19.496278],[96.926828,19.43592],[96.839902,19.288449],[96.86647,19.168029],[96.932306,19.117903],[96.965172,18.986697],[97.11462,18.700332],[97.300966,18.68302],[97.372899,18.548617],[97.509531,18.491276],[97.617948,18.553158],[97.75179,18.582484],[97.71913,18.864638],[97.657842,18.925719],[97.810804,19.11222],[97.806154,19.301097],[97.767086,19.397525],[97.869123,19.57049]]]},"properties":{"LOCATION_TYPE":"level1","ADM0_A3":"MMR","LOCATION_ID":"MMR-12","NAME":"Kayah","TYPE_EN":"State"}},
{"type":"Feature","geometry":{"type":"Polygon","coordinates":[[[97.372899,18.548617],[97.300966,18.68302],[97.11462,18.700332],[96.965172,18.986697],[96.932306,19.117903],[96.86647,19.168029],[96.839902,19.288449],[96.815621,19.388093],[96.673304,19.495787],[96.636717,19.452353],[96.398902,19.470001],[96.538015,19.172964],[96.530367,19.079973],[96.684466,18.921765],[96.627105,18.875722],[96.615633,18.747719],[96.702656,18.604394],[96.81314,18.599201],[96.930239,18.645245],[96.982432,18.588039],[96.970443,18.439004],[97.006617,18.372729],[97.129193,18.303793],[97.140252,18.206383],[97.203504,18.152665],[97.132294,17.955933],[97.203814,17.806898],[97.177769,17.738246],[97.233993,17.545544],[97.386542,17.624609],[97.457442,17.525261],[97.444523,17.468908],[97.521314,17.294991],[97.531442,17.125182],[97.470774,17.027359],[97.498266,16.880133],[97.557694,16.727506],[97.703517,16.573537],[97.740245,16.559272],[97.919533,16.429695],[98.080556,16.278232],[98.131923,16.162812],[97.823414,16.133873],[97.862998,16.044757],[97.841294,15.854872],[97.885323,15.728058],[98.127582,15.359631],[98.207693,15.219216],[98.283024,15.289972],[98.38524,15.256253],[98.40343,15.360097],[98.559906,15.355317],[98.567141,15.452546],[98.54306,15.735371],[98.583781,15.976959],[98.658711,16.116278],[98.807229,16.110542],[98.883711,16.25875],[98.903348,16.363447],[98.788626,16.374557],[98.656954,16.301642],[98.631633,16.463131],[98.54709,16.620124],[98.456657,16.723218],[98.524559,16.850445],[98.436193,17.011573],[98.313306,17.052035],[98.221012,17.20076],[98.100606,17.302614],[97.982784,17.505444],[97.768947,17.67918],[97.685541,17.880718],[97.754064,17.969034],[97.684301,18.146103],[97.560587,18.328262],[97.452583,18.333611],[97.372899,18.548617]]]},"properties":{"LOCATION_TYPE":"level1","ADM0_A3":"MMR","LOCATION_ID":"MMR-13","NAME":"Kayin","TYPE_EN":"State"}},
{"type":"Feature","geometry":{"type":"MultiPolygon","coordinates":[[[[98.207693,15.219216],[98.127582,15.359631],[97.885323,15.728058],[97.841294,15.854872],[97.862998,16.044757],[97.823414,16.133873],[98.131923,16.162812],[98.080556,16.278232],[97.919533,16.429695],[97.740245,16.559272],[97.651866,16.507229],[97.626638,16.437567],[97.649913,16.28384],[97.582286,16.009101],[97.727061,15.843207],[97.742931,15.604478],[97.79477,15.407904],[97.72641,15.339586],[97.80714,15.174954],[97.794923,14.880153],[97.871577,14.978569],[97.902273,15.078434],[98.012757,15.098097],[98.1189,14.993116],[98.191224,14.99321],[98.164995,15.125796],[98.207693,15.219216]]],[[[97.703517,16.573537],[97.557694,16.727506],[97.498266,16.880133],[97.470774,17.027359],[97.531442,17.125182],[97.521314,17.294991],[97.444523,17.468908],[97.457442,17.525261],[97.386542,17.624609],[97.233993,17.545544],[97.106456,17.528827],[96.959901,17.616264],[96.890758,17.602698],[96.882902,17.457198],[96.904552,17.375312],[97.068614,17.25137],[97.100271,17.133775],[97.198985,16.997463],[97.183279,16.921536],[97.255445,16.697869],[97.337413,16.631578],[97.402599,16.516913],[97.612966,16.530585],[97.703517,16.573537]]],[[[97.589366,16.415269],[97.520518,16.510891],[97.452159,16.449408],[97.459269,16.301362],[97.571364,16.222693],[97.589366,16.415269]]]]},"properties":{"LOCATION_TYPE":"level1","ADM0_A3":"MMR","LOCATION_ID":"MMR-15","NAME":"Mon","TYPE_EN":"State"}},
{"type":"Feature","geometry":{"type":"MultiPolygon","coordinates":[[[[98.191224,14.99321],[98.1189,14.993116],[98.012757,15.098097],[97.902273,15.078434],[97.871577,14.978569],[97.794923,14.880153],[97.84254,14.736314],[97.97641,14.443752],[97.9935,14.330512],[98.108572,14.132636],[98.061697,14.010077],[98.103282,13.87637],[98.103282,13.700995],[98.244802,13.714057],[98.298839,13.671047],[98.431651,13.478746],[98.479991,13.283881],[98.578461,13.186754],[98.583832,13.026597],[98.691173,12.710435],[98.623057,12.558173],[98.605154,12.428941],[98.676768,12.315253],[98.552013,12.279608],[98.703136,12.048082],[98.720225,11.964301],[98.610362,11.731269],[98.684337,11.682807],[98.768077,11.761949],[98.698009,11.388007],[98.759288,11.268948],[98.706554,11.097846],[98.712413,10.924384],[98.634044,10.913723],[98.577403,10.770413],[98.459321,10.715399],[98.528494,10.364203],[98.490733,10.204332],[98.521007,10.028998],[98.589854,10.04206],[98.696056,10.2237],[98.791313,10.520418],[98.747905,10.623125],[98.766715,10.688754],[98.905415,10.814406],[98.974454,10.824198],[99.001533,10.957627],[99.212993,11.108264],[99.243275,11.197664],[99.428173,11.496896],[99.440576,11.597278],[99.5307,11.630919],[99.606871,11.725694],[99.630022,11.815766],[99.554057,11.895037],[99.574004,11.976324],[99.466311,12.126031],[99.457112,12.256411],[99.387039,12.465907],[99.393757,12.589775],[99.21413,12.73465],[99.151084,12.994789],[99.093207,13.038327],[99.102095,13.171342],[99.190152,13.229504],[99.187878,13.42714],[99.152015,13.581963],[99.152531,13.714875],[99.092173,13.863574],[99.016209,13.937936],[98.945309,14.069142],[98.753693,14.200116],[98.54771,14.377676],[98.418209,14.607559],[98.243336,14.805118],[98.191224,14.99321]]],[[[98.278331,11.799791],[98.240489,11.624823],[98.187511,11.53498],[98.275157,11.48078],[98.323009,11.731269],[98.278331,11.799791]]],[[[98.53533,11.803616],[98.382091,11.77619],[98.441905,11.564114],[98.549001,11.621731],[98.53533,11.803616]]],[[[98.603526,11.967434],[98.440278,12.015367],[98.478038,11.890937],[98.603526,11.967434]]],[[[98.466319,12.583726],[98.333018,12.67121],[98.302745,12.598578],[98.333832,12.512356],[98.302013,12.337958],[98.391287,12.361518],[98.465343,12.480658],[98.466319,12.583726]]]]},"properties":{"LOCATION_TYPE":"level1","ADM0_A3":"MMR","LOCATION_ID":"MMR-05","NAME":"Tanintharyi","TYPE_EN":"Division"}},
{"type":"Feature","geometry":{"type":"MultiPolygon","coordinates":[[[[96.017258,16.378167],[95.904152,16.406053],[95.832321,16.479124],[95.888959,16.552608],[95.906115,16.742053],[95.872319,16.818845],[95.904255,16.904963],[95.795838,17.118206],[95.706748,17.206392],[95.690728,17.300107],[95.746745,17.46219],[95.649387,17.581589],[95.516475,17.63404],[95.458184,17.725973],[95.490327,17.914462],[95.382736,18.230748],[95.153357,18.471275],[95.084357,18.376863],[94.910724,18.41159],[94.836595,18.35762],[94.8915,18.180518],[94.859461,17.927976],[94.902662,17.850823],[94.882922,17.729978],[94.809541,17.623989],[94.799413,17.465394],[94.754351,17.371653],[94.567719,17.46288],[94.57252,17.311103],[94.511974,17.275214],[94.510916,17.169013],[94.456716,17.050605],[94.464692,16.949652],[94.378917,16.886949],[94.40268,16.788275],[94.331065,16.528632],[94.273123,16.538153],[94.215099,16.15766],[94.239513,15.976304],[94.340017,15.996243],[94.507009,16.189602],[94.515636,16.287258],[94.643728,16.283515],[94.683849,16.209174],[94.642345,16.044664],[94.562348,15.961859],[94.658702,15.854478],[94.721202,15.856676],[94.786876,15.962144],[94.83961,15.962063],[94.858653,15.78262],[94.975597,15.764146],[95.115245,15.893948],[95.173595,15.777818],[95.282563,15.838324],[95.287934,15.740139],[95.396495,15.716376],[95.523448,15.803656],[95.664724,15.949205],[95.755544,16.14525],[95.979991,16.223131],[96.067556,16.310248],[96.017258,16.378167]]],[[[94.66212,16.221869],[94.611583,16.221747],[94.485362,16.058987],[94.389659,16.000922],[94.40919,15.907457],[94.5796,16.013251],[94.629649,16.075181],[94.66212,16.221869]]]]},"properties":{"LOCATION_TYPE":"level1","ADM0_A3":"MMR","LOCATION_ID":"MMR-07","NAME":"Ayeyarwady","TYPE_EN":"Division"}},
{"type":"Feature","geometry":{"type":"Polygon","coordinates":[[[96.827153,16.890353],[96.714541,16.976483],[96.394458,16.989403],[96.396008,17.073015],[96.328829,17.205953],[96.286144,17.370775],[96.074064,17.742457],[95.902601,17.646753],[95.746745,17.46219],[95.690728,17.300107],[95.706748,17.206392],[95.795838,17.118206],[95.904255,16.904963],[95.872319,16.818845],[95.906115,16.742053],[95.888959,16.552608],[95.832321,16.479124],[95.904152,16.406053],[96.017258,16.378167],[96.118988,16.321763],[96.285336,16.365993],[96.336436,16.439439],[96.246349,16.554877],[96.265961,16.596829],[96.436261,16.477768],[96.615943,16.518005],[96.801036,16.737372],[96.827153,16.890353]]]},"properties":{"LOCATION_TYPE":"level1","ADM0_A3":"MMR","LOCATION_ID":"MMR-06","NAME":"Yangon","TYPE_EN":"Division"}},
{"type":"Feature","geometry":{"type":"Polygon","coordinates":[[[96.882902,17.457198],[96.890758,17.602698],[96.959901,17.616264],[97.106456,17.528827],[97.233993,17.545544],[97.177769,17.738246],[97.203814,17.806898],[97.132294,17.955933],[97.203504,18.152665],[97.140252,18.206383],[97.129193,18.303793],[97.006617,18.372729],[96.970443,18.439004],[96.982432,18.588039],[96.930239,18.645245],[96.81314,18.599201],[96.702656,18.604394],[96.615633,18.747719],[96.627105,18.875722],[96.684466,18.921765],[96.530367,19.079973],[96.538015,19.172964],[96.398902,19.470001],[96.17721,19.483152],[96.123363,19.417523],[95.963063,19.478036],[95.800282,19.463593],[95.852992,19.329828],[95.825914,19.171052],[95.545104,19.165394],[95.306875,19.055323],[95.27866,18.964708],[95.18833,18.900914],[95.213031,18.805467],[95.163008,18.716739],[95.079809,18.666975],[95.063066,18.561736],[95.153357,18.471275],[95.382736,18.230748],[95.490327,17.914462],[95.458184,17.725973],[95.516475,17.63404],[95.649387,17.581589],[95.746745,17.46219],[95.902601,17.646753],[96.074064,17.742457],[96.286144,17.370775],[96.328829,17.205953],[96.396008,17.073015],[96.394458,16.989403],[96.714541,16.976483],[96.827153,16.890353],[96.87908,16.934719],[96.910167,17.06684],[96.849376,17.212958],[96.910899,17.284857],[96.851248,17.359565],[96.882902,17.457198]]]},"properties":{"LOCATION_TYPE":"level1","ADM0_A3":"MMR","LOCATION_ID":"MMR-02","NAME":"Bago","TYPE_EN":"Division"}},
{"type":"Feature","geometry":{"type":"Polygon","coordinates":[[[94.836595,18.35762],[94.910724,18.41159],[95.084357,18.376863],[95.153357,18.471275],[95.063066,18.561736],[95.079809,18.666975],[95.163008,18.716739],[95.213031,18.805467],[95.18833,18.900914],[95.27866,18.964708],[95.306875,19.055323],[95.545104,19.165394],[95.825914,19.171052],[95.852992,19.329828],[95.800282,19.463593],[95.725351,19.609424],[95.816198,19.837808],[95.785296,20.00728],[95.827981,20.138435],[95.751706,20.27884],[95.718013,20.497457],[95.633057,20.643056],[95.624169,20.722508],[95.47379,20.755452],[95.291476,20.656801],[95.068647,20.589364],[95.084047,20.824233],[95.001468,20.88056],[94.903386,20.889707],[94.814709,20.952985],[94.79993,21.143645],[94.843028,21.222478],[94.985551,21.249789],[95.002191,21.296685],[95.141614,21.313867],[95.330233,21.463884],[95.342222,21.608862],[95.248481,21.66103],[95.152053,21.823268],[95.052214,21.809987],[94.843958,21.8289],[94.601906,21.819728],[94.490388,21.767328],[94.395717,21.82443],[94.41618,21.989614],[94.349311,22.110537],[94.279445,22.106325],[94.242858,22.261432],[94.295774,22.388866],[94.216606,22.5556],[94.113253,22.708097],[94.007006,22.678022],[94.047211,22.360031],[94.021786,22.294298],[94.049691,22.159785],[94.021476,22.04943],[94.053412,21.959073],[94.007006,21.790091],[94.125242,21.585504],[94.027987,21.265834],[94.106019,21.208732],[94.109739,21.06551],[94.04163,20.906786],[94.138265,20.692949],[94.023026,20.651556],[93.904584,20.701915],[93.903964,20.58107],[94.000185,20.532106],[94.25619,20.111357],[94.265182,20.016944],[94.333912,19.949558],[94.327917,19.818093],[94.369775,19.730579],[94.430133,19.451345],[94.531522,19.305799],[94.57121,19.099248],[94.682314,19.024989],[94.789491,18.86996],[94.722828,18.79136],[94.791868,18.697154],[94.746703,18.605376],[94.763653,18.466315],[94.836595,18.35762]]]},"properties":{"LOCATION_TYPE":"level1","ADM0_A3":"MMR","LOCATION_ID":"MMR-03","NAME":"Magway","TYPE_EN":"Division"}},
{"type":"Feature","geometry":{"type":"Polygon","coordinates":[[[96.320664,23.506653],[96.193023,23.50022],[96.082022,23.629437],[95.945286,23.451954],[95.909526,23.344648],[95.975155,23.153988],[95.96482,22.76905],[95.916967,22.661666],[95.985284,22.550097],[95.963683,22.392484],[96.007505,22.089427],[96.051223,21.956335],[96.02094,21.896493],[95.869322,21.825154],[95.835835,21.705032],[95.772067,21.62607],[95.657138,21.626923],[95.561537,21.739578],[95.379946,21.707435],[95.342222,21.608862],[95.330233,21.463884],[95.141614,21.313867],[95.002191,21.296685],[94.985551,21.249789],[94.843028,21.222478],[94.79993,21.143645],[94.814709,20.952985],[94.903386,20.889707],[95.001468,20.88056],[95.084047,20.824233],[95.068647,20.589364],[95.291476,20.656801],[95.47379,20.755452],[95.624169,20.722508],[95.633057,20.643056],[95.718013,20.497457],[95.751706,20.27884],[95.827981,20.138435],[95.785296,20.00728],[95.816198,19.837808],[95.725351,19.609424],[95.800282,19.463593],[95.963063,19.478036],[96.123363,19.417523],[96.17721,19.483152],[96.398902,19.470001],[96.636717,19.452353],[96.673304,19.495787],[96.65563,19.677507],[96.537085,19.849383],[96.451612,19.860674],[96.380505,20.022499],[96.538635,20.205072],[96.476416,20.423069],[96.548143,20.579287],[96.454196,20.685301],[96.588761,20.84524],[96.257929,20.974172],[96.21049,21.059542],[96.240359,21.149975],[96.374097,21.174909],[96.331516,21.249504],[96.288314,21.459698],[96.344848,21.541321],[96.58287,21.596977],[96.70462,21.717047],[96.876599,21.807506],[96.746064,22.065139],[96.47807,22.164358],[96.402519,22.365328],[96.31746,22.398013],[96.333376,22.487827],[96.203565,22.739698],[96.266817,22.780083],[96.471249,22.783106],[96.640334,22.821941],[96.717435,22.933872],[96.486338,23.039628],[96.346502,23.017536],[96.212453,23.049782],[96.159227,23.166312],[96.204185,23.311937],[96.306504,23.4295],[96.320664,23.506653]]]},"properties":{"LOCATION_TYPE":"level1","ADM0_A3":"MMR","LOCATION_ID":"MMR-04","NAME":"Mandalay","TYPE_EN":"Division"}}
]}