{"type":"FeatureCollection", "features": [
{"type":"Feature","geometry":{"type":"Polygon","coordinates":[[[18.506798,42.59849],[18.437355,42.559212],[18.467741,42.453379],[18.654145,42.451809],[18.611195,42.521901],[18.506798,42.59849]]]},"properties":{"LOCATION_TYPE":"level1","ADM0_A3":"MNE","LOCATION_ID":"MNE-08","NAME":"Herceg Novi","TYPE_EN":"Municipality"}},
{"type":"Feature","geometry":{"type":"Polygon","coordinates":[[[20.055638,42.763866],[20.183398,42.742508],[20.209236,42.791704],[20.345352,42.827439],[20.337084,42.906969],[20.129464,42.973605],[20.056378,42.838057],[20.055638,42.763866]]]},"properties":{"LOCATION_TYPE":"level1","ADM0_A3":"MNE","LOCATION_ID":"MNE-17","NAME":"Rožaje","TYPE_EN":"Municipality"}},
{"type":"Feature","geometry":{"type":"Polygon","coordinates":[[[20.055638,42.763866],[20.056378,42.838057],[20.129464,42.973605],[20.056344,43.020796],[19.894321,42.940041],[19.698777,42.90751],[19.678985,42.881646],[19.67573,42.825293],[19.877629,42.763282],[19.90941,42.689281],[20.037006,42.707363],[20.055638,42.763866]]]},"properties":{"LOCATION_TYPE":"level1","ADM0_A3":"MNE","LOCATION_ID":"MNE-03","NAME":"Berane","TYPE_EN":"Municipality"}},
{"type":"Feature","geometry":{"type":"Polygon","coordinates":[[[20.037006,42.707363],[19.90941,42.689281],[19.746885,42.58893],[19.75159,42.493402],[19.819596,42.466479],[19.981757,42.510765],[20.10392,42.653108],[20.037006,42.707363]]]},"properties":{"LOCATION_TYPE":"level1","ADM0_A3":"MNE","LOCATION_ID":"MNE-13","NAME":"Plav","TYPE_EN":"Municipality"}},
{"type":"Feature","geometry":{"type":"Polygon","coordinates":[[[19.547845,43.218815],[19.355645,43.393063],[19.218392,43.438202],[19.122791,43.535948],[18.911021,43.507268],[19.00993,43.410995],[19.022535,43.296546],[19.071994,43.197674],[19.187491,43.188837],[19.321178,43.120521],[19.411146,43.045177],[19.459464,43.049647],[19.547845,43.218815]]]},"properties":{"LOCATION_TYPE":"level1","ADM0_A3":"MNE","LOCATION_ID":"MNE-14","NAME":"Pljevlja","TYPE_EN":"Municipality"}},
{"type":"Feature","geometry":{"type":"Polygon","coordinates":[[[19.547845,43.218815],[19.459464,43.049647],[19.621573,43.01368],[19.698777,42.90751],[19.894321,42.940041],[20.056344,43.020796],[19.92915,43.113907],[19.805127,43.089955],[19.713556,43.165609],[19.618678,43.168245],[19.547845,43.218815]]]},"properties":{"LOCATION_TYPE":"level1","ADM0_A3":"MNE","LOCATION_ID":"MNE-04","NAME":"Bijelo Polje","TYPE_EN":"Municipality"}},
{"type":"Feature","geometry":{"type":"Polygon","coordinates":[[[19.022535,43.296546],[18.989506,43.272016],[19.02471,43.094217],[19.211469,43.04776],[19.331668,42.990115],[19.411146,43.045177],[19.321178,43.120521],[19.187491,43.188837],[19.071994,43.197674],[19.022535,43.296546]]]},"properties":{"LOCATION_TYPE":"level1","ADM0_A3":"MNE","LOCATION_ID":"MNE-21","NAME":"Žabljak","TYPE_EN":"Municipality"}},
{"type":"Feature","geometry":{"type":"Polygon","coordinates":[[[18.989506,43.272016],[18.899135,43.351903],[18.679511,43.24948],[18.621128,43.124578],[18.737389,43.095148],[18.850147,42.955156],[18.978098,42.9334],[18.930917,43.030113],[19.02471,43.094217],[18.989506,43.272016]]]},"properties":{"LOCATION_TYPE":"level1","ADM0_A3":"MNE","LOCATION_ID":"MNE-15","NAME":"Plužine","TYPE_EN":"Municipality"}},
{"type":"Feature","geometry":{"type":"Polygon","coordinates":[[[18.621128,43.124578],[18.638996,43.020243],[18.452754,42.993398],[18.46743,42.769199],[18.539674,42.695457],[18.542832,42.626429],[18.648299,42.629336],[18.727364,42.718116],[18.859914,42.690831],[18.93717,42.620215],[19.072304,42.708763],[19.177879,42.694991],[19.210745,42.759509],[19.208575,42.858935],[18.978098,42.9334],[18.850147,42.955156],[18.737389,43.095148],[18.621128,43.124578]]]},"properties":{"LOCATION_TYPE":"level1","ADM0_A3":"MNE","LOCATION_ID":"MNE-12","NAME":"Nikšic","TYPE_EN":"Municipality"}},
{"type":"Feature","geometry":{"type":"Polygon","coordinates":[[[18.506798,42.59849],[18.611195,42.521901],[18.654145,42.451809],[18.685658,42.476746],[18.73465,42.428186],[18.693614,42.357577],[18.788744,42.276025],[18.793561,42.354211],[18.76054,42.507432],[18.698012,42.540504],[18.648299,42.629336],[18.542832,42.626429],[18.506798,42.59849]]]},"properties":{"LOCATION_TYPE":"level1","ADM0_A3":"MNE","LOCATION_ID":"MNE-10","NAME":"Kotor","TYPE_EN":"Municipality"}},
{"type":"Feature","geometry":{"type":"Polygon","coordinates":[[[19.746885,42.58893],[19.90941,42.689281],[19.877629,42.763282],[19.67573,42.825293],[19.664361,42.702097],[19.628136,42.665071],[19.658037,42.634613],[19.746885,42.58893]]]},"properties":{"LOCATION_TYPE":"level1","ADM0_A3":"MNE","LOCATION_ID":"MNE-01","NAME":"Andrijevica","TYPE_EN":"Municipality"}},
{"type":"Feature","geometry":{"type":"Polygon","coordinates":[[[19.658037,42.634613],[19.628136,42.665071],[19.572583,42.736048],[19.446855,42.675147],[19.300972,42.676879],[19.220615,42.570942],[19.198808,42.487433],[18.985332,42.506346],[19.142584,42.370877],[19.109511,42.300312],[19.283357,42.198047],[19.517806,42.45803],[19.658037,42.634613]]]},"properties":{"LOCATION_TYPE":"level1","ADM0_A3":"MNE","LOCATION_ID":"MNE-16","NAME":"Podgorica","TYPE_EN":"Municipality"}},
{"type":"Feature","geometry":{"type":"Polygon","coordinates":[[[19.283357,42.198047],[19.109511,42.300312],[18.922546,42.302147],[18.995874,42.221635],[18.971441,42.18327],[19.048676,42.140204],[19.141184,42.019813],[19.241803,42.011467],[19.214517,42.101617],[19.369998,42.106507],[19.283357,42.198047]]]},"properties":{"LOCATION_TYPE":"level1","ADM0_A3":"MNE","LOCATION_ID":"MNE-02","NAME":"Bar","TYPE_EN":"Municipality"}},
{"type":"Feature","geometry":{"type":"Polygon","coordinates":[[[19.369998,42.106507],[19.214517,42.101617],[19.241803,42.011467],[19.141184,42.019813],[19.170258,41.937974],[19.310232,41.894517],[19.371045,41.98656],[19.369998,42.106507]]]},"properties":{"LOCATION_TYPE":"level1","ADM0_A3":"MNE","LOCATION_ID":"MNE-20","NAME":"Ulcinj","TYPE_EN":"Municipality"}},
{"type":"Feature","geometry":{"type":"Polygon","coordinates":[[[18.971441,42.18327],[18.995874,42.221635],[18.922546,42.302147],[18.793561,42.354211],[18.788744,42.276025],[18.871593,42.290473],[18.971441,42.18327]]]},"properties":{"LOCATION_TYPE":"level1","ADM0_A3":"MNE","LOCATION_ID":"MNE-05","NAME":"Budva","TYPE_EN":"Municipality"}},
{"type":"Feature","geometry":{"type":"Polygon","coordinates":[[[18.693614,42.357577],[18.73465,42.428186],[18.685658,42.476746],[18.644949,42.418362],[18.658539,42.386623],[18.693614,42.357577]]]},"properties":{"LOCATION_TYPE":"level1","ADM0_A3":"MNE","LOCATION_ID":"MNE-19","NAME":"Tivat","TYPE_EN":"Municipality"}},
{"type":"Feature","geometry":{"type":"Polygon","coordinates":[[[19.331668,42.990115],[19.372286,42.934486],[19.449077,42.899242],[19.678985,42.881646],[19.698777,42.90751],[19.621573,43.01368],[19.459464,43.049647],[19.411146,43.045177],[19.331668,42.990115]]]},"properties":{"LOCATION_TYPE":"level1","ADM0_A3":"MNE","LOCATION_ID":"MNE-11","NAME":"Mojkovac","TYPE_EN":"Municipality"}},
{"type":"Feature","geometry":{"type":"Polygon","coordinates":[[[18.93717,42.620215],[18.859914,42.690831],[18.727364,42.718116],[18.648299,42.629336],[18.698012,42.540504],[18.76054,42.507432],[18.793561,42.354211],[18.922546,42.302147],[19.109511,42.300312],[19.142584,42.370877],[18.985332,42.506346],[19.005693,42.55885],[18.93717,42.620215]]]},"properties":{"LOCATION_TYPE":"level1","ADM0_A3":"MNE","LOCATION_ID":"MNE-06","NAME":"Cetinje","TYPE_EN":"Municipality"}},
{"type":"Feature","geometry":{"type":"Polygon","coordinates":[[[19.02471,43.094217],[18.930917,43.030113],[18.978098,42.9334],[19.208575,42.858935],[19.227798,42.910508],[19.372286,42.934486],[19.331668,42.990115],[19.211469,43.04776],[19.02471,43.094217]]]},"properties":{"LOCATION_TYPE":"level1","ADM0_A3":"MNE","LOCATION_ID":"MNE-18","NAME":"Šavnik","TYPE_EN":"Municipality"}},
{"type":"Feature","geometry":{"type":"Polygon","coordinates":[[[19.210745,42.759509],[19.300972,42.676879],[19.446855,42.675147],[19.572583,42.736048],[19.628136,42.665071],[19.664361,42.702097],[19.67573,42.825293],[19.678985,42.881646],[19.449077,42.899242],[19.372286,42.934486],[19.227798,42.910508],[19.208575,42.858935],[19.210745,42.759509]]]},"properties":{"LOCATION_TYPE":"level1","ADM0_A3":"MNE","LOCATION_ID":"MNE-09","NAME":"Kolašin","TYPE_EN":"Municipality"}},
{"type":"Feature","geometry":{"type":"Polygon","coordinates":[[[19.210745,42.759509],[19.177879,42.694991],[19.072304,42.708763],[18.93717,42.620215],[19.005693,42.55885],[18.985332,42.506346],[19.198808,42.487433],[19.220615,42.570942],[19.300972,42.676879],[19.210745,42.759509]]]},"properties":{"LOCATION_TYPE":"level1","ADM0_A3":"MNE","LOCATION_ID":"MNE-07","NAME":"Danilovgrad","TYPE_EN":"Municipality"}}
]}