{"type":"FeatureCollection", "features": [
{"type":"Feature","geometry":{"type":"Polygon","coordinates":[[[116.581959,46.298012],[116.804581,46.382906],[117.301708,46.350144],[117.393795,46.57137],[117.696206,46.512253],[118.238291,46.715393],[118.720071,46.676739],[118.816241,46.758181],[119.316934,46.611678],[119.680116,46.591628],[119.902893,46.842413],[119.699959,47.159526],[119.157564,47.517669],[119.08346,47.661562],[118.767406,47.756156],[118.542252,47.966246],[118.182481,48.028206],[117.741681,47.977589],[117.317107,47.654069],[116.85326,47.872118],[116.243891,47.862894],[115.852701,47.705565],[115.561866,47.933199],[115.51453,48.122103],[115.809292,48.273954],[115.800404,48.530372],[116.684278,49.823265],[116.21764,50.013848],[115.750898,49.884967],[115.368699,49.895405],[114.75375,50.236211],[114.286285,50.276881],[113.579661,50.019945],[113.212448,49.822025],[113.043673,49.588602],[112.733718,49.492794],[112.432238,49.529174],[112.126405,49.43994],[112.213544,48.949364],[112.554195,48.416477],[112.538588,48.076807],[112.688347,47.810209],[113.003056,47.663758],[113.803524,47.511157],[114.478728,47.146373],[114.440591,46.883263],[114.911984,46.491995],[115.170469,46.569354],[116.244409,46.621056],[116.581959,46.298012]]]},"properties":{"LOCATION_TYPE":"level1","ADM0_A3":"MNG","LOCATION_ID":"MNG-061","NAME":"Dornod","TYPE_EN":"Province"}},
{"type":"Feature","geometry":{"type":"Polygon","coordinates":[[[89.997091,50.003664],[89.623862,49.902692],[89.682308,49.708336],[89.252205,49.629427],[88.870627,49.436002],[88.19997,49.454347],[88.143953,49.27074],[87.855185,49.158964],[87.756896,48.920374],[88.033779,48.72912],[87.942828,48.599489],[88.565116,48.342993],[88.580774,48.211994],[89.045551,47.992989],[89.5418,48.031023],[89.751296,47.824317],[90.082852,47.756104],[90.441228,47.493045],[90.46872,47.308922],[91.014292,46.689844],[91.839904,46.622994],[91.440135,46.947832],[91.468763,47.177896],[90.964091,48.032004],[90.841515,48.112361],[90.796453,48.608661],[91.347014,48.700852],[90.892365,49.301771],[90.300359,49.575734],[89.997091,50.003664]]]},"properties":{"LOCATION_TYPE":"level1","ADM0_A3":"MNG","LOCATION_ID":"MNG-071","NAME":"Bayan-Ölgiy","TYPE_EN":"Province"}},
{"type":"Feature","geometry":{"type":"Polygon","coordinates":[[[91.014292,46.689844],[90.896188,46.302033],[91.002435,46.021843],[90.710773,45.752196],[90.651138,45.493142],[90.90549,45.185977],[91.135036,45.197862],[91.662963,45.059525],[92.009401,45.076216],[92.475109,44.997461],[93.075941,45.005192],[93.11011,45.667807],[93.409317,45.92376],[93.783248,46.585581],[94.266009,46.864892],[94.033672,47.242698],[93.540058,47.505111],[93.487968,47.631046],[93.190829,48.088538],[93.456446,48.397563],[93.191242,48.616723],[92.767599,48.560085],[92.293933,48.635636],[91.740065,48.962593],[91.347014,48.700852],[90.796453,48.608661],[90.841515,48.112361],[90.964091,48.032004],[91.468763,47.177896],[91.440135,46.947832],[91.839904,46.622994],[91.014292,46.689844]]]},"properties":{"LOCATION_TYPE":"level1","ADM0_A3":"MNG","LOCATION_ID":"MNG-043","NAME":"Hovd","TYPE_EN":"Province"}},
{"type":"Feature","geometry":{"type":"Polygon","coordinates":[[[116.581959,46.298012],[116.244409,46.621056],[115.170469,46.569354],[114.911984,46.491995],[114.440591,46.883263],[114.478728,47.146373],[113.803524,47.511157],[113.003056,47.663758],[112.688347,47.810209],[112.210547,47.702308],[112.09045,47.382069],[111.691508,47.35065],[111.529038,47.176242],[111.307036,46.714126],[111.230968,46.229995],[111.600868,46.112018],[111.770987,45.804543],[111.754347,45.508179],[111.970975,45.284885],[111.984637,45.087154],[112.441333,45.052393],[112.614242,44.908836],[113.104858,44.794373],[113.635058,44.746262],[114.055291,44.940565],[114.418886,45.20148],[114.533711,45.3855],[114.938855,45.373769],[115.63783,45.444359],[116.011967,45.678557],[116.581959,46.298012]]]},"properties":{"LOCATION_TYPE":"level1","ADM0_A3":"MNG","LOCATION_ID":"MNG-051","NAME":"Sühbaatar","TYPE_EN":"Province"}},
{"type":"Feature","geometry":{"type":"Polygon","coordinates":[[[111.984637,45.087154],[111.970975,45.284885],[111.754347,45.508179],[111.770987,45.804543],[111.600868,46.112018],[111.230968,46.229995],[110.972069,46.074087],[110.552353,46.240485],[110.154548,46.63333],[109.9897,46.310636],[109.741447,46.188757],[109.391907,46.178551],[109.001647,46.515249],[109.119056,46.773063],[108.828117,47.011756],[108.479922,46.780297],[107.956749,46.774406],[108.290786,46.382285],[108.292439,46.037345],[108.507723,45.637318],[108.61366,45.022213],[108.307632,44.851268],[107.877581,44.814035],[107.708082,44.511289],[107.67873,44.297581],[107.976696,43.707358],[108.052867,43.076286],[108.04968,42.43912],[108.796852,42.398369],[109.485131,42.449296],[109.667342,42.54898],[110.406728,42.768605],[110.933724,43.287772],[111.59725,43.523391],[111.933353,43.696636],[111.838785,43.938792],[111.519425,44.18857],[111.406357,44.416463],[111.738533,44.9663],[111.984637,45.087154]]]},"properties":{"LOCATION_TYPE":"level1","ADM0_A3":"MNG","LOCATION_ID":"MNG-063","NAME":"Dornogovi","TYPE_EN":"Province"}},
{"type":"Feature","geometry":{"type":"Polygon","coordinates":[[[93.075941,45.005192],[93.525278,44.951263],[93.97507,44.659962],[94.69823,44.343496],[95.036814,44.254974],[95.379428,44.287117],[95.327545,44.006669],[95.510273,43.979125],[95.908492,43.214547],[96.294308,42.933272],[96.350635,42.740906],[97.193271,42.78726],[97.849992,42.723045],[97.797679,43.247593],[97.932038,43.56871],[97.964181,44.406954],[98.178018,44.510617],[98.248815,44.988159],[98.479188,45.451335],[98.377386,45.835859],[98.150113,46.053442],[97.707039,46.314641],[97.638723,46.605011],[96.986566,46.609817],[96.834741,46.893055],[96.419882,46.885511],[96.19447,47.243163],[95.47038,47.573531],[95.110092,47.56242],[94.082041,47.774242],[93.487968,47.631046],[93.540058,47.505111],[94.033672,47.242698],[94.266009,46.864892],[93.783248,46.585581],[93.409317,45.92376],[93.11011,45.667807],[93.075941,45.005192]]]},"properties":{"LOCATION_TYPE":"level1","ADM0_A3":"MNG","LOCATION_ID":"MNG-065","NAME":"Govi-Altay","TYPE_EN":"Province"}},
{"type":"Feature","geometry":{"type":"Polygon","coordinates":[[[97.849992,42.723045],[99.474476,42.564199],[99.621903,42.597443],[99.518401,43.201136],[99.487189,44.113948],[99.788049,44.171309],[100.258098,43.834276],[101.186206,43.820995],[101.754751,44.056588],[101.50412,44.726211],[101.567992,44.851991],[101.18507,45.027407],[101.110242,45.412112],[101.308783,45.772865],[101.290903,45.982956],[101.474354,46.121733],[101.519209,46.596019],[101.263618,46.818228],[100.712747,46.841017],[100.349358,47.183012],[99.909282,47.095679],[99.819055,47.429612],[99.65276,47.663551],[99.247203,47.488859],[98.391028,47.650373],[98.153937,47.238771],[97.859278,47.174563],[97.638723,46.605011],[97.707039,46.314641],[98.150113,46.053442],[98.377386,45.835859],[98.479188,45.451335],[98.248815,44.988159],[98.178018,44.510617],[97.964181,44.406954],[97.932038,43.56871],[97.797679,43.247593],[97.849992,42.723045]]]},"properties":{"LOCATION_TYPE":"level1","ADM0_A3":"MNG","LOCATION_ID":"MNG-069","NAME":"Bayanhongor","TYPE_EN":"Province"}},
{"type":"Feature","geometry":{"type":"Polygon","coordinates":[[[99.621903,42.597443],[100.016975,42.676518],[101.21871,42.529834],[101.637599,42.515442],[102.034164,42.18461],[103.073481,42.004517],[103.720986,41.755566],[104.500784,41.870598],[104.497993,41.665778],[105.014809,41.596144],[105.274483,41.755463],[105.868607,41.993484],[106.767829,42.286619],[108.04968,42.43912],[108.052867,43.076286],[107.976696,43.707358],[107.67873,44.297581],[107.708082,44.511289],[107.279788,44.495579],[106.428677,44.243165],[106.027151,44.197199],[105.762981,44.306236],[105.497054,44.690761],[104.20256,44.830339],[104.100757,45.183909],[103.771682,45.188353],[103.635773,45.014178],[103.259258,44.841656],[102.931216,44.319724],[102.999843,44.154101],[102.123927,44.148081],[101.754751,44.056588],[101.186206,43.820995],[100.258098,43.834276],[99.788049,44.171309],[99.487189,44.113948],[99.518401,43.201136],[99.621903,42.597443]]]},"properties":{"LOCATION_TYPE":"level1","ADM0_A3":"MNG","LOCATION_ID":"MNG-053","NAME":"Ömnögovi","TYPE_EN":"Province"}},
{"type":"Feature","geometry":{"type":"Polygon","coordinates":[[[102.619529,50.399009],[102.327635,50.545546],[102.051217,51.383609],[101.387795,51.450556],[100.510898,51.726895],[100.005968,51.731727],[99.679321,51.888669],[99.32389,51.934221],[98.855599,52.106691],[98.711111,51.845105],[98.33222,51.718317],[98.050893,51.46642],[97.80636,51.001126],[98.023298,50.642026],[98.293462,50.518623],[98.105567,50.06387],[97.566582,49.916799],[97.301688,49.725545],[97.08527,49.805838],[96.89882,49.375875],[97.107696,49.248415],[97.532373,49.202372],[97.894521,49.037886],[98.520323,48.98409],[98.742428,49.134417],[99.053623,49.155811],[99.154703,48.855235],[99.017863,48.635223],[99.096618,48.338032],[99.661028,48.312245],[100.41261,48.535849],[100.329721,48.682507],[100.432041,49.011376],[100.738792,49.218056],[101.340616,48.976081],[101.653982,48.999748],[101.677236,49.192812],[101.977889,49.373007],[102.280817,49.431608],[102.558112,49.789623],[102.10429,49.962222],[102.619529,50.399009]]]},"properties":{"LOCATION_TYPE":"level1","ADM0_A3":"MNG","LOCATION_ID":"MNG-041","NAME":"Hövsgöl","TYPE_EN":"Province"}},
{"type":"Feature","geometry":{"type":"Polygon","coordinates":[[[102.619529,50.399009],[102.10429,49.962222],[102.558112,49.789623],[102.280817,49.431608],[101.977889,49.373007],[101.677236,49.192812],[101.653982,48.999748],[101.960423,48.784671],[102.131162,48.810484],[102.238235,48.48133],[102.632216,48.251396],[102.842333,47.929504],[103.207375,47.698872],[103.677734,47.250553],[104.147473,47.297992],[104.068615,47.468317],[104.527501,47.653422],[104.760459,47.661691],[104.703821,47.944877],[104.393349,47.988441],[104.288343,48.14378],[104.533909,48.419164],[104.528225,48.625766],[104.378053,48.899134],[104.000712,48.986778],[104.103031,49.12124],[104.519543,49.10553],[104.733484,49.686037],[104.535253,49.855252],[104.52254,50.149859],[104.349502,50.271868],[104.198115,50.170014],[103.601407,50.13353],[102.619529,50.399009]]]},"properties":{"LOCATION_TYPE":"level1","ADM0_A3":"MNG","LOCATION_ID":"MNG-067","NAME":"Bulgan","TYPE_EN":"Province"}},
{"type":"Feature","geometry":{"type":"Polygon","coordinates":[[[95.477201,49.894083],[94.624539,50.015191],[94.344349,50.249182],[94.237586,50.565235],[93.011408,50.623319],[92.649776,50.674066],[92.301683,50.843358],[92.15885,50.689103],[91.749779,50.684091],[91.415743,50.461365],[91.012046,50.425295],[90.683901,50.216212],[90.475232,50.21461],[89.997091,50.003664],[90.300359,49.575734],[90.892365,49.301771],[91.347014,48.700852],[91.740065,48.962593],[92.293933,48.635636],[92.767599,48.560085],[93.191242,48.616723],[93.456446,48.397563],[93.715448,48.657599],[94.130306,48.802965],[94.793522,48.686744],[95.095209,48.7239],[95.573009,48.943266],[95.685974,49.307843],[95.450226,49.662654],[95.477201,49.894083]]]},"properties":{"LOCATION_TYPE":"level1","ADM0_A3":"MNG","LOCATION_ID":"MNG-046","NAME":"Uvs","TYPE_EN":"Province"}},
{"type":"Feature","geometry":{"type":"Polygon","coordinates":[[[108.569973,49.325719],[108.032661,49.589326],[107.946517,49.933491],[107.224907,49.997053],[106.656518,50.327007],[106.244863,50.290265],[105.984879,50.399767],[105.32864,50.476455],[104.349502,50.271868],[104.52254,50.149859],[104.535253,49.855252],[104.733484,49.686037],[104.519543,49.10553],[104.378053,48.899134],[104.528225,48.625766],[105.013983,48.505205],[105.494781,48.644421],[105.834502,48.865131],[106.572441,48.530475],[107.07639,48.615327],[107.253226,48.55807],[107.657129,48.653361],[107.73206,48.795136],[107.531659,48.975822],[107.908484,49.074214],[108.088524,49.008688],[108.521469,49.123824],[108.569973,49.325719]],[[106.365735,49.524161],[106.799714,49.470469],[106.798887,49.131678],[106.356847,49.18599],[105.808353,49.131213],[105.895893,49.491501],[106.040277,49.617178],[106.365735,49.524161]]]},"properties":{"LOCATION_TYPE":"level1","ADM0_A3":"MNG","LOCATION_ID":"MNG-049","NAME":"Selenge","TYPE_EN":"Province"}},
{"type":"Feature","geometry":{"type":"Polygon","coordinates":[[[97.08527,49.805838],[96.969202,49.886672],[96.372856,49.886052],[95.867047,50.014984],[95.477201,49.894083],[95.450226,49.662654],[95.685974,49.307843],[95.573009,48.943266],[95.095209,48.7239],[94.793522,48.686744],[94.130306,48.802965],[93.715448,48.657599],[93.456446,48.397563],[93.190829,48.088538],[93.487968,47.631046],[94.082041,47.774242],[95.110092,47.56242],[95.47038,47.573531],[96.19447,47.243163],[96.419882,46.885511],[96.834741,46.893055],[96.986566,46.609817],[97.638723,46.605011],[97.859278,47.174563],[98.153937,47.238771],[98.391028,47.650373],[98.184839,47.680708],[98.219566,48.08275],[98.483529,48.101044],[99.096618,48.338032],[99.017863,48.635223],[99.154703,48.855235],[99.053623,49.155811],[98.742428,49.134417],[98.520323,48.98409],[97.894521,49.037886],[97.532373,49.202372],[97.107696,49.248415],[96.89882,49.375875],[97.08527,49.805838]]]},"properties":{"LOCATION_TYPE":"level1","ADM0_A3":"MNG","LOCATION_ID":"MNG-057","NAME":"Dzavhan","TYPE_EN":"Province"}},
{"type":"Feature","geometry":{"type":"Polygon","coordinates":[[[108.569973,49.325719],[108.521469,49.123824],[108.854886,48.816452],[109.036063,48.34661],[108.874626,48.07133],[108.484882,47.913613],[108.428762,47.556322],[108.694069,47.098004],[108.828117,47.011756],[109.119056,46.773063],[109.001647,46.515249],[109.391907,46.178551],[109.741447,46.188757],[109.9897,46.310636],[110.154548,46.63333],[110.552353,46.240485],[110.972069,46.074087],[111.230968,46.229995],[111.307036,46.714126],[111.529038,47.176242],[111.691508,47.35065],[112.09045,47.382069],[112.210547,47.702308],[112.688347,47.810209],[112.538588,48.076807],[112.554195,48.416477],[112.213544,48.949364],[112.126405,49.43994],[111.338454,49.36474],[110.731359,49.137674],[110.371175,49.24175],[110.181419,49.161962],[109.286693,49.33854],[108.569973,49.325719]]]},"properties":{"LOCATION_TYPE":"level1","ADM0_A3":"MNG","LOCATION_ID":"MNG-039","NAME":"Hentiy","TYPE_EN":"Province"}},
{"type":"Feature","geometry":{"type":"Polygon","coordinates":[[[106.365735,49.524161],[106.040277,49.617178],[105.895893,49.491501],[105.808353,49.131213],[106.356847,49.18599],[106.798887,49.131678],[106.799714,49.470469],[106.365735,49.524161]]]},"properties":{"LOCATION_TYPE":"level1","ADM0_A3":"MNG","LOCATION_ID":"MNG-037","NAME":"Darhan-Uul","TYPE_EN":"Municipality"}},
{"type":"Feature","geometry":{"type":"Polygon","coordinates":[[[108.428762,47.556322],[108.201902,47.750522],[108.484882,47.913613],[108.874626,48.07133],[109.036063,48.34661],[108.854886,48.816452],[108.521469,49.123824],[108.088524,49.008688],[107.908484,49.074214],[107.531659,48.975822],[107.73206,48.795136],[107.657129,48.653361],[107.253226,48.55807],[107.07639,48.615327],[106.572441,48.530475],[105.834502,48.865131],[105.494781,48.644421],[105.013983,48.505205],[104.528225,48.625766],[104.533909,48.419164],[104.288343,48.14378],[104.393349,47.988441],[104.703821,47.944877],[104.760459,47.661691],[104.527501,47.653422],[104.068615,47.468317],[104.147473,47.297992],[104.328547,47.040695],[104.234393,46.852438],[104.431176,46.510236],[104.603879,46.420474],[104.966751,46.590412],[105.396699,46.438871],[105.765462,46.732238],[106.163887,46.574573],[106.699462,46.572403],[107.101504,46.403524],[107.517603,46.454736],[107.831589,46.606148],[107.956749,46.774406],[108.479922,46.780297],[108.828117,47.011756],[108.694069,47.098004],[108.428762,47.556322]],[[106.881776,48.171892],[107.099334,48.218814],[107.351722,47.977563],[107.572173,47.913562],[107.510782,47.65182],[106.522108,47.745458],[106.356689,48.256297],[106.881776,48.171892]]]},"properties":{"LOCATION_TYPE":"level1","ADM0_A3":"MNG","LOCATION_ID":"MNG-047","NAME":"Töv","TYPE_EN":"Province"}},
{"type":"Feature","geometry":{"type":"Polygon","coordinates":[[[101.653982,48.999748],[101.340616,48.976081],[100.738792,49.218056],[100.432041,49.011376],[100.329721,48.682507],[100.41261,48.535849],[99.661028,48.312245],[99.096618,48.338032],[98.483529,48.101044],[98.219566,48.08275],[98.184839,47.680708],[98.391028,47.650373],[99.247203,47.488859],[99.65276,47.663551],[99.819055,47.429612],[99.909282,47.095679],[100.349358,47.183012],[100.712747,46.841017],[101.263618,46.818228],[101.801156,46.901324],[102.553565,47.113662],[102.731125,47.286726],[103.030435,47.350805],[103.193009,47.206111],[103.677734,47.250553],[103.207375,47.698872],[102.842333,47.929504],[102.632216,48.251396],[102.238235,48.48133],[102.131162,48.810484],[101.960423,48.784671],[101.653982,48.999748]]]},"properties":{"LOCATION_TYPE":"level1","ADM0_A3":"MNG","LOCATION_ID":"MNG-073","NAME":"Arhangay","TYPE_EN":"Province"}},
{"type":"Feature","geometry":{"type":"Polygon","coordinates":[[[104.519543,49.10553],[104.103031,49.12124],[104.000712,48.986778],[104.378053,48.899134],[104.519543,49.10553]]]},"properties":{"LOCATION_TYPE":"level1","ADM0_A3":"MNG","LOCATION_ID":"MNG-035","NAME":"Orhon","TYPE_EN":"Municipality"}},
{"type":"Feature","geometry":{"type":"Polygon","coordinates":[[[107.956749,46.774406],[107.831589,46.606148],[107.517603,46.454736],[107.101504,46.403524],[106.699462,46.572403],[106.163887,46.574573],[105.765462,46.732238],[105.396699,46.438871],[104.966751,46.590412],[104.603879,46.420474],[104.419704,46.160594],[104.165353,46.101217],[104.059209,45.743771],[103.768685,45.718088],[103.620166,45.518462],[103.771682,45.188353],[104.100757,45.183909],[104.20256,44.830339],[105.497054,44.690761],[105.762981,44.306236],[106.027151,44.197199],[106.428677,44.243165],[107.279788,44.495579],[107.708082,44.511289],[107.877581,44.814035],[108.307632,44.851268],[108.61366,45.022213],[108.507723,45.637318],[108.292439,46.037345],[108.290786,46.382285],[107.956749,46.774406]]]},"properties":{"LOCATION_TYPE":"level1","ADM0_A3":"MNG","LOCATION_ID":"MNG-059","NAME":"Dundgovi","TYPE_EN":"Province"}},
{"type":"Feature","geometry":{"type":"Polygon","coordinates":[[[104.147473,47.297992],[103.677734,47.250553],[103.193009,47.206111],[103.030435,47.350805],[102.731125,47.286726],[102.553565,47.113662],[101.801156,46.901324],[101.263618,46.818228],[101.519209,46.596019],[101.474354,46.121733],[101.290903,45.982956],[101.308783,45.772865],[101.110242,45.412112],[101.18507,45.027407],[101.567992,44.851991],[101.50412,44.726211],[101.754751,44.056588],[102.123927,44.148081],[102.999843,44.154101],[102.931216,44.319724],[103.259258,44.841656],[103.635773,45.014178],[103.771682,45.188353],[103.620166,45.518462],[103.768685,45.718088],[104.059209,45.743771],[104.165353,46.101217],[104.419704,46.160594],[104.603879,46.420474],[104.431176,46.510236],[104.234393,46.852438],[104.328547,47.040695],[104.147473,47.297992]]]},"properties":{"LOCATION_TYPE":"level1","ADM0_A3":"MNG","LOCATION_ID":"MNG-055","NAME":"Övörhangay","TYPE_EN":"Province"}},
{"type":"Feature","geometry":{"type":"Polygon","coordinates":[[[108.484882,47.913613],[108.201902,47.750522],[108.428762,47.556322],[108.484882,47.913613]]]},"properties":{"LOCATION_TYPE":"level1","ADM0_A3":"MNG","LOCATION_ID":"MNG-064","NAME":"Govĭ-Sümber","TYPE_EN":"Municipality"}},
{"type":"Feature","geometry":{"type":"Polygon","coordinates":[[[106.881776,48.171892],[106.356689,48.256297],[106.522108,47.745458],[107.510782,47.65182],[107.572173,47.913562],[107.351722,47.977563],[107.099334,48.218814],[106.881776,48.171892]]]},"properties":{"LOCATION_TYPE":"level1","ADM0_A3":"MNG","LOCATION_ID":"MNG-1","NAME":"Ulaanbaatar","TYPE_EN":"Municipality"}}
]}