{"type":"FeatureCollection", "features": [
{"type":"Feature","geometry":{"type":"Polygon","coordinates":[[[145.20574,14.181383],[145.130707,14.146918],[145.209972,14.110663],[145.282074,14.161038],[145.20574,14.181383]]]},"properties":{"LOCATION_TYPE":"level1","ADM0_A3":"MNP","LOCATION_ID":"MNP-X01~","NAME":"Rota","TYPE_EN":null}},
{"type":"Feature","geometry":{"type":"Polygon","coordinates":[[[145.647309,15.072089],[145.578461,15.017483],[145.606456,14.928127],[145.667817,14.982733],[145.647309,15.072089]]]},"properties":{"LOCATION_TYPE":"level1","ADM0_A3":"MNP","LOCATION_ID":"MNP-X02~","NAME":"Tinian","TYPE_EN":null}},
{"type":"Feature","geometry":{"type":"Polygon","coordinates":[[[145.787852,15.267279],[145.698253,15.203192],[145.685557,15.102484],[145.73878,15.136664],[145.792735,15.232245],[145.787852,15.267279]]]},"properties":{"LOCATION_TYPE":"level1","ADM0_A3":"MNP","LOCATION_ID":"MNP-X03~","NAME":"Saipan","TYPE_EN":null}},
{"type":"Feature","geometry":{"type":"MultiPolygon","coordinates":[[[[145.771118,18.175209],[145.739513,18.090969],[145.758149,18.061184],[145.835623,18.128323],[145.771118,18.175209]]],[[[145.661632,18.72427],[145.705089,18.737128],[145.688324,18.807359],[145.650372,18.808902],[145.661632,18.72427]]]]},"properties":{"LOCATION_TYPE":"level1","ADM0_A3":"MNP","LOCATION_ID":"MNP-X04~","NAME":"Northern Islands","TYPE_EN":null}}
]}