{"type":"FeatureCollection", "features": [
{"type":"Feature","geometry":{"type":"Polygon","coordinates":[[[31.926311,-24.27674],[31.986554,-24.423108],[31.988724,-25.37261],[31.9664,-25.479684],[31.991618,-25.650216],[31.911933,-25.785298],[31.949243,-25.958104],[32.057454,-26.0412],[32.081432,-26.14879],[32.039884,-26.283666],[32.117398,-26.582252],[32.113884,-26.840014],[32.352216,-26.860272],[32.893077,-26.846124],[32.929454,-26.266046],[32.868826,-26.219415],[32.680837,-26.188165],[32.650727,-26.093357],[32.516612,-25.949965],[32.552712,-25.865818],[32.658761,-25.910562],[32.769542,-25.681736],[32.872732,-25.543878],[33.132008,-25.379165],[33.122041,-25.236547],[33.008146,-25.20704],[32.986855,-25.064051],[32.926962,-25.037438],[32.938279,-24.793783],[32.835753,-24.72185],[32.71545,-24.533283],[32.705529,-24.40497],[32.478049,-24.351226],[32.391181,-24.278104],[32.06717,-24.211648],[31.926311,-24.27674]]]},"properties":{"LOCATION_TYPE":"level1","ADM0_A3":"MOZ","LOCATION_ID":"MOZ-L","NAME":"Maputo","TYPE_EN":"Province"}},
{"type":"Feature","geometry":{"type":"Polygon","coordinates":[[[40.527029,-13.510593],[40.567882,-13.366632],[40.561046,-13.099054],[40.589203,-12.95794],[40.560069,-12.813897],[40.646821,-12.755304],[40.480317,-12.484308],[40.532074,-12.39072],[40.492198,-12.250095],[40.536876,-11.99684],[40.429454,-11.641534],[40.471365,-11.416762],[40.348806,-11.317071],[40.506521,-11.187433],[40.552013,-11.074314],[40.496104,-10.955743],[40.602061,-10.820489],[40.561046,-10.584649],[40.453949,-10.469008],[40.2507,-10.610927],[40.008131,-10.811122],[39.760498,-10.943104],[39.482685,-10.999224],[39.286625,-11.15415],[39.126221,-11.139681],[38.896261,-11.167689],[38.759732,-11.263187],[38.654209,-11.275796],[38.492255,-11.413462],[38.402235,-11.644147],[38.44461,-11.813542],[38.426885,-11.937101],[38.331645,-12.122619],[38.209482,-12.214396],[38.175221,-12.352734],[38.031818,-12.49195],[38.042671,-12.72129],[37.986963,-13.086384],[38.214753,-13.151342],[38.142613,-13.31712],[38.042981,-13.419801],[38.112537,-13.482794],[38.180182,-13.748153],[38.279814,-13.95305],[38.420374,-14.126889],[38.707281,-14.143891],[38.841381,-14.106425],[39.101417,-13.941939],[39.208026,-13.953515],[39.452765,-13.83037],[39.484391,-13.783654],[39.741843,-13.674204],[39.848762,-13.675031],[40.115619,-13.455923],[40.25251,-13.487962],[40.420407,-13.456078],[40.527029,-13.510593]]]},"properties":{"LOCATION_TYPE":"level1","ADM0_A3":"MOZ","LOCATION_ID":"MOZ-P","NAME":"Cabo Delgado","TYPE_EN":"Province"}},
{"type":"Feature","geometry":{"type":"Polygon","coordinates":[[[38.492255,-11.413462],[38.347664,-11.358789],[38.25661,-11.27714],[38.070782,-11.255849],[37.875238,-11.319101],[37.783667,-11.55888],[37.427824,-11.722591],[37.226595,-11.693755],[37.044384,-11.595674],[36.820109,-11.573556],[36.747038,-11.66647],[36.562967,-11.731272],[36.494857,-11.68094],[36.199681,-11.701507],[36.168055,-11.578724],[35.939749,-11.434133],[35.826371,-11.413462],[35.576257,-11.605182],[35.381747,-11.57769],[34.651249,-11.570042],[34.563812,-11.830905],[34.380051,-12.10386],[34.354006,-12.199461],[34.494463,-12.68739],[34.549343,-13.159092],[34.545312,-13.325749],[34.640603,-13.492354],[34.894438,-13.534728],[35.084091,-13.704227],[35.455748,-14.136965],[35.522824,-14.262746],[35.853036,-14.667476],[35.863268,-14.876662],[35.904299,-14.886894],[35.784513,-15.195195],[35.837623,-15.458281],[36.197098,-15.455594],[36.279006,-15.494351],[36.368096,-15.310331],[36.567153,-15.236641],[36.711951,-15.060889],[36.714741,-15.004097],[36.890234,-14.774963],[37.170631,-14.594509],[37.341938,-14.548672],[37.495107,-14.394418],[37.573914,-14.394418],[37.676336,-14.270912],[37.85617,-14.230346],[37.936424,-14.30507],[38.169691,-14.230707],[38.263742,-14.161409],[38.420374,-14.126889],[38.279814,-13.95305],[38.180182,-13.748153],[38.112537,-13.482794],[38.042981,-13.419801],[38.142613,-13.31712],[38.214753,-13.151342],[37.986963,-13.086384],[38.042671,-12.72129],[38.031818,-12.49195],[38.175221,-12.352734],[38.209482,-12.214396],[38.331645,-12.122619],[38.426885,-11.937101],[38.44461,-11.813542],[38.402235,-11.644147],[38.492255,-11.413462]]]},"properties":{"LOCATION_TYPE":"level1","ADM0_A3":"MOZ","LOCATION_ID":"MOZ-A","NAME":"Niassa","TYPE_EN":"Province"}},
{"type":"Feature","geometry":{"type":"Polygon","coordinates":[[[35.291673,-17.129368],[35.0813,-17.12407],[35.036548,-17.03591],[35.113443,-16.960256],[35.095769,-16.817319],[35.004509,-16.814631],[34.732071,-16.529171],[34.65497,-16.48938],[34.524745,-16.300761],[34.44599,-16.293216],[34.385219,-16.186453],[34.387699,-16.037004],[34.233186,-15.88983],[34.247139,-15.794125],[34.404029,-15.646847],[34.410127,-15.481276],[34.569083,-15.27116],[34.548723,-15.057633],[34.584173,-14.984459],[34.505831,-14.700342],[34.501801,-14.575698],[34.344084,-14.387389],[33.888918,-14.488158],[33.774196,-14.530016],[33.604233,-14.524022],[33.439178,-14.380671],[33.202707,-14.013872],[32.227366,-14.33902],[31.658408,-14.519578],[31.410878,-14.633576],[30.815772,-14.768245],[30.214465,-14.981462],[30.287949,-15.278911],[30.369185,-15.374719],[30.395953,-15.590623],[30.402568,-16.001244],[30.857424,-15.998144],[30.973075,-16.062016],[31.1141,-15.996904],[31.259983,-16.023465],[31.404574,-16.162268],[31.686107,-16.207227],[31.86005,-16.340759],[31.910279,-16.428919],[32.290463,-16.45176],[32.671783,-16.599761],[32.698655,-16.686784],[32.893372,-16.712415],[32.933369,-16.815768],[32.828776,-16.935141],[32.954143,-17.167168],[33.011651,-17.383991],[33.092843,-17.21683],[33.108708,-17.089448],[33.234385,-16.998084],[33.320943,-16.740942],[33.442745,-16.601674],[33.442641,-16.521007],[33.590126,-16.417189],[33.822721,-16.42277],[33.915636,-16.554493],[34.017387,-16.628907],[34.22032,-16.698877],[34.407957,-16.731175],[34.596163,-16.830239],[34.770674,-16.901759],[34.860901,-16.974726],[35.085642,-17.492059],[35.105589,-17.567558],[35.320046,-17.723672],[35.336272,-17.368294],[35.291673,-17.129368]]]},"properties":{"LOCATION_TYPE":"level1","ADM0_A3":"MOZ","LOCATION_ID":"MOZ-T","NAME":"Tete","TYPE_EN":"Province"}},
{"type":"Feature","geometry":{"type":"Polygon","coordinates":[[[33.011651,-17.383991],[32.936573,-17.498311],[33.006646,-17.580993],[32.999102,-17.794313],[32.957037,-17.817981],[32.93709,-18.047114],[32.952283,-18.233046],[33.034965,-18.332885],[32.996414,-18.46714],[32.870737,-18.535767],[32.920243,-18.726246],[32.885207,-18.787844],[32.69142,-18.83425],[32.691058,-19.01429],[32.819991,-19.028346],[32.862262,-19.118057],[32.828673,-19.284558],[32.768831,-19.363623],[32.825365,-19.479172],[32.81627,-19.652081],[33.032795,-19.784166],[33.001995,-19.927],[32.88531,-20.10301],[32.845209,-20.286668],[32.646462,-20.557969],[32.513136,-20.564583],[32.469108,-20.68685],[32.49722,-20.898103],[32.339814,-21.134058],[32.445849,-21.308994],[32.560938,-21.384017],[32.6846,-21.39983],[32.797254,-21.481066],[32.920606,-21.48706],[33.070054,-21.596356],[33.200175,-21.490006],[33.276967,-21.504579],[33.567388,-21.395955],[33.890159,-21.408305],[34.015681,-21.311567],[34.111076,-21.052461],[33.895533,-20.952933],[33.874294,-20.714032],[33.741331,-20.66649],[33.490855,-20.419787],[33.508735,-20.291681],[33.412669,-20.078257],[33.524083,-19.986893],[33.667124,-19.93532],[33.779158,-19.95966],[33.954858,-19.850726],[33.87507,-19.777604],[33.851195,-19.594618],[33.924576,-19.574929],[33.927211,-19.308278],[34.027618,-18.95445],[33.851505,-18.761697],[33.725208,-18.718134],[33.725621,-18.646665],[33.871504,-18.487708],[33.816107,-18.285757],[34.019247,-18.168348],[34.130506,-18.262554],[34.227296,-18.217337],[34.280213,-18.083495],[34.278352,-17.938233],[34.158256,-17.871519],[34.130196,-17.595877],[34.174276,-17.489423],[34.224816,-17.18908],[34.28414,-17.070896],[34.46785,-16.987748],[34.596163,-16.830239],[34.407957,-16.731175],[34.22032,-16.698877],[34.017387,-16.628907],[33.915636,-16.554493],[33.822721,-16.42277],[33.590126,-16.417189],[33.442641,-16.521007],[33.442745,-16.601674],[33.320943,-16.740942],[33.234385,-16.998084],[33.108708,-17.089448],[33.092843,-17.21683],[33.011651,-17.383991]]]},"properties":{"LOCATION_TYPE":"level1","ADM0_A3":"MOZ","LOCATION_ID":"MOZ-B","NAME":"Manica","TYPE_EN":"Province"}},
{"type":"Feature","geometry":{"type":"Polygon","coordinates":[[[32.445849,-21.308994],[32.408543,-21.290327],[31.433822,-22.302048],[31.279103,-22.415323],[31.536349,-23.156983],[31.521466,-23.415572],[31.642285,-23.587861],[31.741194,-23.836787],[31.855812,-23.946548],[31.869455,-24.163795],[31.926311,-24.27674],[32.06717,-24.211648],[32.391181,-24.278104],[32.478049,-24.351226],[32.705529,-24.40497],[32.71545,-24.533283],[32.835753,-24.72185],[32.938279,-24.793783],[32.926962,-25.037438],[32.986855,-25.064051],[33.008146,-25.20704],[33.122041,-25.236547],[33.132008,-25.379165],[33.464692,-25.213149],[33.729177,-25.105076],[34.480154,-24.852227],[34.323673,-24.785774],[34.297628,-24.710739],[34.461184,-24.626869],[34.382636,-24.468894],[34.12632,-24.527805],[34.003434,-24.332726],[33.992375,-24.086385],[33.924111,-24.084369],[33.949587,-23.588017],[33.846854,-23.380278],[33.843134,-23.194863],[33.684384,-23.026346],[33.55788,-22.83411],[33.444295,-22.753856],[33.309471,-22.582032],[33.318618,-22.402405],[33.37262,-22.36835],[33.372155,-22.108831],[33.331537,-21.999897],[33.161108,-21.829262],[33.146535,-21.710044],[33.276967,-21.504579],[33.200175,-21.490006],[33.070054,-21.596356],[32.920606,-21.48706],[32.797254,-21.481066],[32.6846,-21.39983],[32.560938,-21.384017],[32.445849,-21.308994]]]},"properties":{"LOCATION_TYPE":"level1","ADM0_A3":"MOZ","LOCATION_ID":"MOZ-G","NAME":"Gaza","TYPE_EN":"Province"}},
{"type":"Feature","geometry":{"type":"Polygon","coordinates":[[[35.837623,-15.458281],[35.795675,-16.004965],[35.697593,-16.107491],[35.374616,-16.140977],[35.258757,-16.271512],[35.214419,-16.484212],[35.131943,-16.537646],[35.278187,-16.700737],[35.291673,-17.129368],[35.336272,-17.368294],[35.320046,-17.723672],[35.440452,-17.888882],[35.593466,-18.02815],[35.74493,-18.061636],[35.913085,-18.263329],[36.087854,-18.368491],[36.149453,-18.521246],[36.11886,-18.615246],[36.133067,-18.808574],[36.244314,-18.883233],[36.295421,-18.780206],[36.416189,-18.774998],[36.417491,-18.688735],[36.552013,-18.486017],[36.631684,-18.437677],[36.88738,-18.18906],[37.086436,-17.869073],[37.212413,-17.74505],[37.36085,-17.649998],[37.908865,-17.355157],[38.039887,-17.327813],[38.59547,-17.094415],[38.875499,-17.045587],[39.090505,-16.983819],[39.12908,-16.87184],[39.127824,-16.823934],[38.984267,-16.562813],[39.036408,-16.443027],[38.920963,-16.208623],[38.937913,-16.11483],[38.810944,-15.829369],[38.681856,-15.684469],[38.549823,-15.629537],[38.372728,-15.471407],[38.195064,-15.435492],[38.138582,-15.34666],[37.889553,-15.235142],[37.841287,-15.187651],[37.678507,-15.239896],[37.524873,-15.131117],[37.379352,-15.217469],[37.214866,-15.011487],[36.714741,-15.004097],[36.711951,-15.060889],[36.567153,-15.236641],[36.368096,-15.310331],[36.279006,-15.494351],[36.197098,-15.455594],[35.837623,-15.458281]]]},"properties":{"LOCATION_TYPE":"level1","ADM0_A3":"MOZ","LOCATION_ID":"MOZ-Q","NAME":"Zambezia","TYPE_EN":"Province"}},
{"type":"Feature","geometry":{"type":"Polygon","coordinates":[[[32.658761,-25.910562],[32.552712,-25.865818],[32.516612,-25.949965],[32.658761,-25.910562]]]},"properties":{"LOCATION_TYPE":"level1","ADM0_A3":"MOZ","LOCATION_ID":"MOZ-L","NAME":"Maputo","TYPE_EN":"Province"}},
{"type":"Feature","geometry":{"type":"Polygon","coordinates":[[[35.112478,-20.952651],[34.875009,-21.023678],[34.729281,-21.130751],[34.675227,-21.092924],[34.463044,-21.171111],[34.362688,-21.291207],[34.243678,-21.268469],[34.172157,-21.321851],[34.015681,-21.311567],[33.890159,-21.408305],[33.567388,-21.395955],[33.276967,-21.504579],[33.146535,-21.710044],[33.161108,-21.829262],[33.331537,-21.999897],[33.372155,-22.108831],[33.37262,-22.36835],[33.318618,-22.402405],[33.309471,-22.582032],[33.444295,-22.753856],[33.55788,-22.83411],[33.684384,-23.026346],[33.843134,-23.194863],[33.846854,-23.380278],[33.949587,-23.588017],[33.924111,-24.084369],[33.992375,-24.086385],[34.003434,-24.332726],[34.12632,-24.527805],[34.382636,-24.468894],[34.461184,-24.626869],[34.297628,-24.710739],[34.323673,-24.785774],[34.480154,-24.852227],[34.648936,-24.812758],[35.106456,-24.597914],[35.304373,-24.375746],[35.4935,-24.110528],[35.543224,-23.863214],[35.394786,-23.841892],[35.424083,-23.480645],[35.482188,-23.317315],[35.478526,-23.176853],[35.600922,-22.943617],[35.520763,-22.907647],[35.492686,-22.564874],[35.542247,-22.409926],[35.496837,-22.141534],[35.419932,-22.167169],[35.335785,-22.089125],[35.271007,-21.644138],[35.151622,-21.453871],[35.057953,-21.137628],[35.112478,-20.952651]]]},"properties":{"LOCATION_TYPE":"level1","ADM0_A3":"MOZ","LOCATION_ID":"MOZ-I","NAME":"Inhambane","TYPE_EN":"Province"}},
{"type":"Feature","geometry":{"type":"Polygon","coordinates":[[[36.133067,-18.808574],[36.11886,-18.615246],[36.149453,-18.521246],[36.087854,-18.368491],[35.913085,-18.263329],[35.74493,-18.061636],[35.593466,-18.02815],[35.440452,-17.888882],[35.320046,-17.723672],[35.105589,-17.567558],[35.085642,-17.492059],[34.860901,-16.974726],[34.770674,-16.901759],[34.596163,-16.830239],[34.46785,-16.987748],[34.28414,-17.070896],[34.224816,-17.18908],[34.174276,-17.489423],[34.130196,-17.595877],[34.158256,-17.871519],[34.278352,-17.938233],[34.280213,-18.083495],[34.227296,-18.217337],[34.130506,-18.262554],[34.019247,-18.168348],[33.816107,-18.285757],[33.871504,-18.487708],[33.725621,-18.646665],[33.725208,-18.718134],[33.851505,-18.761697],[34.027618,-18.95445],[33.927211,-19.308278],[33.924576,-19.574929],[33.851195,-19.594618],[33.87507,-19.777604],[33.954858,-19.850726],[33.779158,-19.95966],[33.667124,-19.93532],[33.524083,-19.986893],[33.412669,-20.078257],[33.508735,-20.291681],[33.490855,-20.419787],[33.741331,-20.66649],[33.874294,-20.714032],[33.895533,-20.952933],[34.111076,-21.052461],[34.015681,-21.311567],[34.172157,-21.321851],[34.243678,-21.268469],[34.362688,-21.291207],[34.463044,-21.171111],[34.675227,-21.092924],[34.729281,-21.130751],[34.875009,-21.023678],[35.112478,-20.952651],[35.003429,-20.825453],[34.993337,-20.730157],[34.851817,-20.670831],[34.742442,-20.550226],[34.679942,-20.346938],[34.776866,-20.135024],[34.757579,-19.869073],[34.880056,-19.863377],[35.126801,-19.705011],[35.339854,-19.520685],[35.577322,-19.266371],[35.662283,-19.132989],[36.133067,-18.808574]]]},"properties":{"LOCATION_TYPE":"level1","ADM0_A3":"MOZ","LOCATION_ID":"MOZ-S","NAME":"Sofala","TYPE_EN":"Province"}},
{"type":"Feature","geometry":{"type":"Polygon","coordinates":[[[40.527029,-13.510593],[40.420407,-13.456078],[40.25251,-13.487962],[40.115619,-13.455923],[39.848762,-13.675031],[39.741843,-13.674204],[39.484391,-13.783654],[39.452765,-13.83037],[39.208026,-13.953515],[39.101417,-13.941939],[38.841381,-14.106425],[38.707281,-14.143891],[38.420374,-14.126889],[38.263742,-14.161409],[38.169691,-14.230707],[37.936424,-14.30507],[37.85617,-14.230346],[37.676336,-14.270912],[37.573914,-14.394418],[37.495107,-14.394418],[37.341938,-14.548672],[37.170631,-14.594509],[36.890234,-14.774963],[36.714741,-15.004097],[37.214866,-15.011487],[37.379352,-15.217469],[37.524873,-15.131117],[37.678507,-15.239896],[37.841287,-15.187651],[37.889553,-15.235142],[38.138582,-15.34666],[38.195064,-15.435492],[38.372728,-15.471407],[38.549823,-15.629537],[38.681856,-15.684469],[38.810944,-15.829369],[38.937913,-16.11483],[38.920963,-16.208623],[39.036408,-16.443027],[38.984267,-16.562813],[39.127824,-16.823934],[39.12908,-16.87184],[39.356212,-16.723891],[39.698253,-16.532159],[39.800629,-16.368259],[39.813324,-16.276951],[39.992361,-16.222426],[40.104747,-16.06406],[40.164561,-15.915623],[40.363617,-15.714776],[40.425792,-15.615004],[40.573253,-15.504978],[40.681651,-15.233005],[40.580903,-15.20322],[40.533214,-15.120701],[40.711925,-15.072931],[40.670909,-14.976658],[40.83546,-14.802341],[40.811371,-14.61297],[40.84254,-14.464451],[40.760753,-14.403741],[40.746104,-14.270929],[40.60963,-14.138604],[40.650564,-14.031915],[40.542654,-13.658868],[40.527029,-13.510593]]]},"properties":{"LOCATION_TYPE":"level1","ADM0_A3":"MOZ","LOCATION_ID":"MOZ-N","NAME":"Nampula","TYPE_EN":"Province"}}
]}