{"type":"FeatureCollection", "features": [
{"type":"Feature","geometry":{"type":"Polygon","coordinates":[[[-6.506338,24.275967],[-6.593107,24.994134],[-4.821613,24.995065],[-6.139905,25.79021],[-7.297043,26.470737],[-8.682385,27.285416],[-8.680809,26.013142],[-8.707216,25.995004],[-10.202292,25.994952],[-12.015308,25.9949],[-12.015308,24.936619],[-12.015308,23.495182],[-12.353892,23.322479],[-12.619432,23.270829],[-13.015247,23.018002],[-13.165497,22.752695],[-13.09333,22.495476],[-13.032093,21.581939],[-12.37805,21.351617],[-10.787837,21.519979],[-6.506338,24.275967]]]},"properties":{"LOCATION_TYPE":"level1","ADM0_A3":"MRT","LOCATION_ID":"MRT-11","NAME":"Tiris Zemmour","TYPE_EN":"Region"}},
{"type":"Feature","geometry":{"type":"Polygon","coordinates":[[[-14.295598,21.333226],[-15.002258,21.333169],[-16.26771,21.332911],[-16.958831,21.332859],[-16.931223,21.151516],[-16.745432,20.868598],[-16.665028,20.670559],[-16.55248,20.576402],[-16.391184,20.569485],[-16.199696,20.215155],[-16.213979,20.033271],[-16.297963,19.922512],[-16.233795,19.793647],[-16.384633,19.57392],[-16.323232,19.457913],[-16.22735,19.591543],[-15.578398,20.737443],[-15.839777,21.150802],[-14.173186,21.144498],[-14.295598,21.333226]]]},"properties":{"LOCATION_TYPE":"level1","ADM0_A3":"MRT","LOCATION_ID":"MRT-08","NAME":"Dakhlet Nouadhibou","TYPE_EN":"Region"}},
{"type":"Feature","geometry":{"type":"Polygon","coordinates":[[[-14.295598,21.333226],[-14.173186,21.144498],[-14.154479,21.118065],[-14.219669,19.42853],[-14.221788,19.00052],[-13.244225,19.00052],[-12.669066,18.557007],[-12.342135,18.89957],[-11.677912,19.319803],[-11.450613,19.203066],[-11.422501,19.408841],[-11.034773,19.711381],[-7.987724,19.725411],[-6.371634,23.123981],[-6.506338,24.275967],[-10.787837,21.519979],[-12.37805,21.351617],[-13.032093,21.581939],[-13.015247,21.333428],[-14.295598,21.333226]]]},"properties":{"LOCATION_TYPE":"level1","ADM0_A3":"MRT","LOCATION_ID":"MRT-07","NAME":"Adrar","TYPE_EN":"Region"}},
{"type":"Feature","geometry":{"type":"Polygon","coordinates":[[[-14.948934,16.670553],[-14.597011,16.629167],[-14.343254,16.63666],[-14.0156,16.35585],[-13.964078,16.23007],[-13.811323,16.122066],[-13.718306,16.159288],[-13.589888,16.307894],[-13.181645,16.414037],[-13.110073,16.575939],[-12.931531,16.616428],[-12.82301,16.858299],[-12.727926,17.047073],[-12.517913,17.121203],[-12.310225,17.275406],[-12.544784,17.491853],[-12.478716,18.274208],[-12.669066,18.557007],[-13.733652,17.799999],[-13.958729,17.603525],[-14.320154,17.088053],[-14.620187,16.855561],[-14.948934,16.670553]]]},"properties":{"LOCATION_TYPE":"level1","ADM0_A3":"MRT","LOCATION_ID":"MRT-05","NAME":"Brakna","TYPE_EN":"Region"}},
{"type":"Feature","geometry":{"type":"Polygon","coordinates":[[[-14.948934,16.670553],[-14.620187,16.855561],[-14.320154,17.088053],[-13.958729,17.603525],[-13.733652,17.799999],[-12.669066,18.557007],[-13.244225,19.00052],[-14.221788,19.00052],[-16.210357,18.995876],[-16.060118,18.390923],[-15.781098,18.393064],[-15.78146,17.886557],[-16.032104,17.886402],[-16.04898,17.667182],[-16.172597,17.262356],[-16.343088,16.942288],[-16.459218,16.643948],[-16.539215,16.267239],[-16.381088,16.246658],[-16.327397,16.474551],[-16.132266,16.554753],[-16.05377,16.495428],[-15.672191,16.481372],[-15.49091,16.56452],[-15.125093,16.58271],[-14.948934,16.670553]]]},"properties":{"LOCATION_TYPE":"level1","ADM0_A3":"MRT","LOCATION_ID":"MRT-06","NAME":"Trarza","TYPE_EN":"Region"}},
{"type":"Feature","geometry":{"type":"Polygon","coordinates":[[[-13.718306,16.159288],[-13.484934,16.154984],[-13.31373,15.92213],[-13.237844,15.62344],[-13.089584,15.49704],[-12.96432,15.509158],[-12.856782,15.221992],[-12.746639,15.131136],[-12.705395,15.270877],[-12.46311,15.658528],[-12.237542,15.880633],[-12.004895,15.939389],[-12.010295,16.052147],[-12.388386,16.208985],[-12.429391,16.442847],[-12.65762,16.485092],[-12.831537,16.673685],[-12.82301,16.858299],[-12.931531,16.616428],[-13.110073,16.575939],[-13.181645,16.414037],[-13.589888,16.307894],[-13.718306,16.159288]]]},"properties":{"LOCATION_TYPE":"level1","ADM0_A3":"MRT","LOCATION_ID":"MRT-04","NAME":"Gorgol","TYPE_EN":"Region"}},
{"type":"Feature","geometry":{"type":"Polygon","coordinates":[[[-12.746639,15.131136],[-12.471508,14.998],[-12.382495,14.84602],[-12.224779,14.763441],[-11.973967,14.779848],[-11.837076,14.893097],[-11.860899,15.049005],[-11.816923,15.296096],[-11.70174,15.537425],[-11.561072,15.904792],[-11.677163,16.031063],[-11.834182,15.909107],[-12.004895,15.939389],[-12.237542,15.880633],[-12.46311,15.658528],[-12.705395,15.270877],[-12.746639,15.131136]]]},"properties":{"LOCATION_TYPE":"level1","ADM0_A3":"MRT","LOCATION_ID":"MRT-10","NAME":"Guidimaka","TYPE_EN":"Region"}},
{"type":"Feature","geometry":{"type":"Polygon","coordinates":[[[-6.371634,23.123981],[-7.987724,19.725411],[-9.149746,17.28233],[-8.598333,17.350621],[-8.28923,17.023044],[-8.893767,16.391713],[-8.86904,16.32164],[-9.067477,16.062172],[-8.969525,15.856965],[-8.95937,15.539078],[-9.003216,15.495526],[-8.017826,15.495128],[-7.174519,15.494818],[-5.510951,15.495903],[-5.353286,16.311977],[-5.623347,16.527829],[-5.756466,17.741037],[-5.857545,18.6608],[-5.963533,19.620612],[-6.113705,20.919551],[-6.219383,21.822855],[-6.371634,23.123981]]]},"properties":{"LOCATION_TYPE":"level1","ADM0_A3":"MRT","LOCATION_ID":"MRT-01","NAME":"Hodh ech Chargui","TYPE_EN":"Region"}},
{"type":"Feature","geometry":{"type":"Polygon","coordinates":[[[-9.003216,15.495526],[-8.95937,15.539078],[-8.969525,15.856965],[-9.067477,16.062172],[-8.86904,16.32164],[-8.893767,16.391713],[-8.28923,17.023044],[-8.598333,17.350621],[-9.149746,17.28233],[-9.722709,17.556319],[-10.332542,17.518233],[-11.079473,17.72282],[-10.991442,17.391394],[-10.990357,16.816364],[-10.838661,16.614102],[-10.73629,16.566353],[-10.837111,16.248259],[-10.778691,16.044861],[-10.666914,15.938097],[-10.584746,15.428127],[-10.308746,15.435209],[-10.131599,15.372629],[-9.835596,15.371104],[-9.672118,15.430661],[-9.42389,15.440532],[-9.349218,15.495644],[-9.003216,15.495526]]]},"properties":{"LOCATION_TYPE":"level1","ADM0_A3":"MRT","LOCATION_ID":"MRT-02","NAME":"Hodh el Gharbi","TYPE_EN":"Region"}},
{"type":"Feature","geometry":{"type":"Polygon","coordinates":[[[-11.70174,15.537425],[-11.409557,15.602201],[-11.298195,15.451048],[-11.045393,15.270206],[-10.915169,15.102904],[-10.736368,15.422626],[-10.584746,15.428127],[-10.666914,15.938097],[-10.778691,16.044861],[-10.837111,16.248259],[-10.73629,16.566353],[-10.838661,16.614102],[-10.990357,16.816364],[-10.991442,17.391394],[-11.079473,17.72282],[-10.970694,18.310924],[-11.194169,18.185247],[-11.212488,18.096389],[-11.547894,18.050475],[-11.574301,17.936683],[-11.424982,17.674994],[-11.570425,17.123942],[-11.752533,17.139135],[-11.909888,17.086167],[-12.213642,17.186807],[-12.310225,17.275406],[-12.517913,17.121203],[-12.727926,17.047073],[-12.82301,16.858299],[-12.831537,16.673685],[-12.65762,16.485092],[-12.429391,16.442847],[-12.388386,16.208985],[-12.010295,16.052147],[-12.004895,15.939389],[-11.834182,15.909107],[-11.677163,16.031063],[-11.561072,15.904792],[-11.70174,15.537425]]]},"properties":{"LOCATION_TYPE":"level1","ADM0_A3":"MRT","LOCATION_ID":"MRT-03","NAME":"Assaba","TYPE_EN":"Region"}},
{"type":"Feature","geometry":{"type":"Polygon","coordinates":[[[-16.210357,18.995876],[-14.221788,19.00052],[-14.219669,19.42853],[-14.154479,21.118065],[-14.173186,21.144498],[-15.839777,21.150802],[-15.578398,20.737443],[-16.22735,19.591543],[-16.323232,19.457913],[-16.474599,19.270819],[-16.368276,19.221503],[-16.210357,18.995876]]]},"properties":{"LOCATION_TYPE":"level1","ADM0_A3":"MRT","LOCATION_ID":"MRT-12","NAME":"Inchiri","TYPE_EN":"Region"}},
{"type":"Feature","geometry":{"type":"Polygon","coordinates":[[[-16.032104,17.886402],[-15.78146,17.886557],[-15.781098,18.393064],[-16.060118,18.390923],[-16.032104,17.886402]]]},"properties":{"LOCATION_TYPE":"level1","ADM0_A3":"MRT","LOCATION_ID":"MRT-NKC","NAME":"Nouakchott","TYPE_EN":"District"}},
{"type":"Feature","geometry":{"type":"Polygon","coordinates":[[[-7.987724,19.725411],[-11.034773,19.711381],[-11.422501,19.408841],[-11.450613,19.203066],[-11.677912,19.319803],[-12.342135,18.89957],[-12.669066,18.557007],[-12.478716,18.274208],[-12.544784,17.491853],[-12.310225,17.275406],[-12.213642,17.186807],[-11.909888,17.086167],[-11.752533,17.139135],[-11.570425,17.123942],[-11.424982,17.674994],[-11.574301,17.936683],[-11.547894,18.050475],[-11.212488,18.096389],[-11.194169,18.185247],[-10.970694,18.310924],[-11.079473,17.72282],[-10.332542,17.518233],[-9.722709,17.556319],[-9.149746,17.28233],[-7.987724,19.725411]]]},"properties":{"LOCATION_TYPE":"level1","ADM0_A3":"MRT","LOCATION_ID":"MRT-09","NAME":"Tagant","TYPE_EN":"Region"}}
]}