{"type":"FeatureCollection", "features": [
{"type":"Feature","geometry":{"type":"Polygon","coordinates":[[[-62.225458,16.747808],[-62.188632,16.738967],[-62.170033,16.777004],[-62.225458,16.747808]]]},"properties":{"LOCATION_TYPE":"level1","ADM0_A3":"MSR","LOCATION_ID":"MSR-P","NAME":"Saint Peter","TYPE_EN":"Parish"}},
{"type":"Feature","geometry":{"type":"Polygon","coordinates":[[[-62.150787,16.720364],[-62.188632,16.738967],[-62.225458,16.747808],[-62.218861,16.688707],[-62.167877,16.67536],[-62.150787,16.720364]]]},"properties":{"LOCATION_TYPE":"level1","ADM0_A3":"MSR","LOCATION_ID":"MSR-A","NAME":"Saint Anthony","TYPE_EN":"Parish"}},
{"type":"Feature","geometry":{"type":"Polygon","coordinates":[[[-62.170033,16.777004],[-62.188632,16.738967],[-62.150787,16.720364],[-62.170033,16.777004]]]},"properties":{"LOCATION_TYPE":"level1","ADM0_A3":"MSR","LOCATION_ID":"MSR-G","NAME":"Saint Georges","TYPE_EN":"Parish"}}
]}