{"type":"FeatureCollection", "features": [
{"type":"Feature","geometry":{"type":"Polygon","coordinates":[[[57.580333,-19.999933],[57.630849,-20.155504],[57.733653,-20.096124],[57.667735,-19.994073],[57.580333,-19.999933]]]},"properties":{"LOCATION_TYPE":"level1","ADM0_A3":"MUS","LOCATION_ID":"MUS-RR","NAME":"Rivière du Rempart","TYPE_EN":"District"}},
{"type":"Feature","geometry":{"type":"Polygon","coordinates":[[[57.493826,-20.122328],[57.499258,-20.123155],[57.547087,-20.1351],[57.546262,-20.201959],[57.607879,-20.18486],[57.630849,-20.155504],[57.580333,-19.999933],[57.532481,-20.024835],[57.493826,-20.122328]]]},"properties":{"LOCATION_TYPE":"level1","ADM0_A3":"MUS","LOCATION_ID":"MUS-PA","NAME":"Pamplemousses","TYPE_EN":"District"}},
{"type":"Feature","geometry":{"type":"Polygon","coordinates":[[[57.463878,-20.161554],[57.465407,-20.167533],[57.499258,-20.123155],[57.493826,-20.122328],[57.463878,-20.161554]]]},"properties":{"LOCATION_TYPE":"level1","ADM0_A3":"MUS","LOCATION_ID":"MUS-PL","NAME":"Port Louis city","TYPE_EN":"City"}},
{"type":"Feature","geometry":{"type":"Polygon","coordinates":[[[57.399262,-20.497979],[57.391376,-20.452965],[57.486951,-20.422897],[57.45903,-20.398198],[57.471049,-20.328818],[57.459207,-20.290864],[57.456963,-20.256074],[57.459691,-20.21906],[57.470843,-20.188794],[57.465407,-20.167533],[57.463878,-20.161554],[57.400157,-20.200616],[57.370616,-20.260512],[57.357758,-20.427423],[57.399262,-20.497979]]]},"properties":{"LOCATION_TYPE":"level1","ADM0_A3":"MUS","LOCATION_ID":"MUS-BL","NAME":"Rivière Noire","TYPE_EN":"District"}},
{"type":"Feature","geometry":{"type":"Polygon","coordinates":[[[57.630974,-20.49204],[57.612593,-20.425045],[57.546013,-20.402493],[57.486951,-20.422897],[57.391376,-20.452965],[57.399262,-20.497979],[57.503591,-20.517348],[57.630974,-20.49204]]]},"properties":{"LOCATION_TYPE":"level1","ADM0_A3":"MUS","LOCATION_ID":"MUS-SA","NAME":"Savanne","TYPE_EN":"District"}},
{"type":"Feature","geometry":{"type":"Polygon","coordinates":[[[57.778168,-20.304783],[57.668434,-20.328396],[57.599707,-20.343431],[57.546013,-20.402493],[57.612593,-20.425045],[57.630974,-20.49204],[57.726817,-20.425063],[57.71225,-20.387465],[57.781505,-20.335707],[57.778168,-20.304783]]]},"properties":{"LOCATION_TYPE":"level1","ADM0_A3":"MUS","LOCATION_ID":"MUS-GP","NAME":"Grand Port","TYPE_EN":"District"}},
{"type":"Feature","geometry":{"type":"Polygon","coordinates":[[[57.733653,-20.096124],[57.630849,-20.155504],[57.607879,-20.18486],[57.668434,-20.328396],[57.778168,-20.304783],[57.795746,-20.222752],[57.733653,-20.096124]]]},"properties":{"LOCATION_TYPE":"level1","ADM0_A3":"MUS","LOCATION_ID":"MUS-FL","NAME":"Flacq","TYPE_EN":"District"}},
{"type":"Feature","geometry":{"type":"Polygon","coordinates":[[[56.524181,-10.330011],[56.529796,-10.35296],[56.548513,-10.382013],[56.568614,-10.386407],[56.542817,-10.346449],[56.524181,-10.330011]]]},"properties":{"LOCATION_TYPE":"level1","ADM0_A3":"MUS","LOCATION_ID":"MUS-AG","NAME":"Agaléga","TYPE_EN":"Dependency"}},
{"type":"Feature","geometry":{"type":"Polygon","coordinates":[[[63.476248,-19.67783],[63.389171,-19.684747],[63.335216,-19.717869],[63.366384,-19.767185],[63.469412,-19.722914],[63.476248,-19.67783]]]},"properties":{"LOCATION_TYPE":"level1","ADM0_A3":"MUS","LOCATION_ID":"MUS-RO","NAME":"Rodrigues","TYPE_EN":"Dependency"}},
{"type":"Feature","geometry":{"type":"Polygon","coordinates":[[[57.607879,-20.18486],[57.546262,-20.201959],[57.485877,-20.190941],[57.599707,-20.343431],[57.668434,-20.328396],[57.607879,-20.18486]]]},"properties":{"LOCATION_TYPE":"level1","ADM0_A3":"MUS","LOCATION_ID":"MUS-MO","NAME":"Moka","TYPE_EN":"District"}},
{"type":"Feature","geometry":{"type":"Polygon","coordinates":[[[57.599707,-20.343431],[57.485877,-20.190941],[57.470843,-20.188794],[57.459691,-20.21906],[57.494793,-20.248513],[57.511193,-20.276627],[57.528765,-20.296542],[57.554536,-20.326413],[57.503579,-20.346914],[57.483127,-20.322063],[57.471049,-20.328818],[57.45903,-20.398198],[57.486951,-20.422897],[57.546013,-20.402493],[57.599707,-20.343431]]]},"properties":{"LOCATION_TYPE":"level1","ADM0_A3":"MUS","LOCATION_ID":"MUS-PW","NAME":"Plaines Wilhems","TYPE_EN":"District"}},
{"type":"Feature","geometry":{"type":"Polygon","coordinates":[[[57.456963,-20.256074],[57.494793,-20.248513],[57.459691,-20.21906],[57.456963,-20.256074]]]},"properties":{"LOCATION_TYPE":"level1","ADM0_A3":"MUS","LOCATION_ID":"MUS-BR","NAME":"Beau Bassin-Rose Hill","TYPE_EN":"City"}},
{"type":"Feature","geometry":{"type":"Polygon","coordinates":[[[57.470843,-20.188794],[57.485877,-20.190941],[57.546262,-20.201959],[57.547087,-20.1351],[57.499258,-20.123155],[57.465407,-20.167533],[57.470843,-20.188794]]]},"properties":{"LOCATION_TYPE":"level1","ADM0_A3":"MUS","LOCATION_ID":"MUS-PL","NAME":"Port Louis","TYPE_EN":"City"}},
{"type":"Feature","geometry":{"type":"Polygon","coordinates":[[[57.459207,-20.290864],[57.511193,-20.276627],[57.494793,-20.248513],[57.456963,-20.256074],[57.459207,-20.290864]]]},"properties":{"LOCATION_TYPE":"level1","ADM0_A3":"MUS","LOCATION_ID":"MUS-QB","NAME":"Quatre Bornes","TYPE_EN":"City"}},
{"type":"Feature","geometry":{"type":"Polygon","coordinates":[[[57.471049,-20.328818],[57.483127,-20.322063],[57.528765,-20.296542],[57.511193,-20.276627],[57.459207,-20.290864],[57.471049,-20.328818]]]},"properties":{"LOCATION_TYPE":"level1","ADM0_A3":"MUS","LOCATION_ID":"MUS-VP","NAME":"Vacoas-Phoenix","TYPE_EN":"City"}},
{"type":"Feature","geometry":{"type":"Polygon","coordinates":[[[57.483127,-20.322063],[57.503579,-20.346914],[57.554536,-20.326413],[57.528765,-20.296542],[57.483127,-20.322063]]]},"properties":{"LOCATION_TYPE":"level1","ADM0_A3":"MUS","LOCATION_ID":"MUS-CU","NAME":"Curepipe","TYPE_EN":"City"}}
]}