{"type":"FeatureCollection", "features": [
{"type":"Feature","geometry":{"type":"Polygon","coordinates":[[[34.620859,-10.582423],[34.565053,-10.409803],[34.58531,-10.300662],[34.4833,-9.946162],[34.288067,-9.70845],[34.103169,-9.529856],[34.012735,-9.477457],[33.945866,-9.55001],[33.951343,-9.67362],[33.86525,-9.66959],[33.734612,-9.584117],[33.650135,-9.610901],[33.698956,-9.771083],[33.485739,-9.972311],[33.635343,-10.068532],[33.69415,-10.064863],[33.94845,-10.451972],[34.090147,-10.569432],[34.184353,-10.584883],[34.620859,-10.582423]]]},"properties":{"LOCATION_TYPE":"level1","ADM0_A3":"MWI","LOCATION_ID":"MWI-CT","NAME":"Chitipa","TYPE_EN":"District"}},
{"type":"Feature","geometry":{"type":"Polygon","coordinates":[[[34.620859,-10.582423],[34.184353,-10.584883],[34.090147,-10.569432],[33.94845,-10.451972],[33.673849,-10.573048],[33.500983,-10.769161],[33.319082,-10.81815],[33.29096,-10.975086],[33.541602,-11.020929],[33.609556,-11.053278],[33.815022,-11.013591],[33.909383,-11.02682],[33.951861,-10.966049],[34.056454,-11.076998],[34.234944,-10.965687],[34.617838,-10.965739],[34.672436,-10.739498],[34.620859,-10.582423]]]},"properties":{"LOCATION_TYPE":"level1","ADM0_A3":"MWI","LOCATION_ID":"MWI-RU","NAME":"Rumphi","TYPE_EN":"District"}},
{"type":"Feature","geometry":{"type":"Polygon","coordinates":[[[34.617838,-10.965739],[34.234944,-10.965687],[34.056454,-11.076998],[34.021882,-11.228617],[34.102859,-11.427933],[34.01165,-11.462814],[33.964315,-11.533818],[33.862822,-11.536143],[33.782155,-11.615931],[33.770787,-11.724245],[33.820448,-11.790856],[33.821223,-11.992601],[33.716785,-12.100605],[33.842668,-12.143341],[34.028704,-12.204733],[34.355581,-12.20494],[34.380051,-12.10386],[34.563812,-11.830905],[34.60443,-11.732616],[34.607117,-11.591126],[34.651249,-11.570042],[34.964615,-11.573556],[34.960687,-11.498522],[34.886583,-11.375429],[34.759149,-11.337498],[34.714087,-11.202726],[34.62107,-11.119734],[34.617838,-10.965739]]]},"properties":{"LOCATION_TYPE":"level1","ADM0_A3":"MWI","LOCATION_ID":"MWI-NB","NAME":"Nkhata Bay","TYPE_EN":"District"}},
{"type":"Feature","geometry":{"type":"Polygon","coordinates":[[[34.69414,-12.000403],[34.65621,-12.097245],[34.732484,-12.109027],[34.754188,-12.020144],[34.69414,-12.000403]]]},"properties":{"LOCATION_TYPE":"level1","ADM0_A3":"MWI","LOCATION_ID":"MWI-LK","NAME":"Likoma","TYPE_EN":"District"}},
{"type":"Feature","geometry":{"type":"Polygon","coordinates":[[[33.650135,-9.610901],[33.404245,-9.604891],[33.300272,-9.492236],[33.172941,-9.511046],[32.99228,-9.391364],[32.97471,-9.601273],[33.089225,-9.643958],[33.175422,-9.602307],[33.216711,-9.727054],[33.336962,-9.823689],[33.365591,-9.898826],[33.309987,-10.012721],[33.533281,-10.231209],[33.559171,-10.404325],[33.673849,-10.573048],[33.94845,-10.451972],[33.69415,-10.064863],[33.635343,-10.068532],[33.485739,-9.972311],[33.698956,-9.771083],[33.650135,-9.610901]]]},"properties":{"LOCATION_TYPE":"level1","ADM0_A3":"MWI","LOCATION_ID":"MWI-CT","NAME":"Chitipa","TYPE_EN":"District"}},
{"type":"Feature","geometry":{"type":"Polygon","coordinates":[[[33.29096,-10.975086],[33.390912,-11.164795],[33.230302,-11.416563],[33.212629,-11.563841],[33.302649,-11.60973],[33.312674,-11.898704],[33.2549,-12.072647],[33.330141,-12.298266],[33.458298,-12.31811],[33.513887,-12.374281],[33.585217,-12.572462],[33.576535,-12.648375],[33.651156,-12.70248],[33.835072,-12.70956],[33.884681,-12.634784],[34.057229,-12.564246],[34.101929,-12.502337],[33.907988,-12.43893],[33.847319,-12.309223],[33.76071,-12.223801],[33.842668,-12.143341],[33.716785,-12.100605],[33.821223,-11.992601],[33.820448,-11.790856],[33.770787,-11.724245],[33.782155,-11.615931],[33.862822,-11.536143],[33.964315,-11.533818],[34.01165,-11.462814],[34.102859,-11.427933],[34.021882,-11.228617],[34.056454,-11.076998],[33.951861,-10.966049],[33.909383,-11.02682],[33.815022,-11.013591],[33.609556,-11.053278],[33.541602,-11.020929],[33.29096,-10.975086]]]},"properties":{"LOCATION_TYPE":"level1","ADM0_A3":"MWI","LOCATION_ID":"MWI-MZ","NAME":"Mzimba","TYPE_EN":"District"}},
{"type":"Feature","geometry":{"type":"Polygon","coordinates":[[[33.513887,-12.374281],[33.373239,-12.518511],[33.255107,-12.531947],[33.024836,-12.612666],[32.941121,-12.769865],[33.005044,-12.892959],[32.965925,-13.116821],[32.995071,-13.190873],[32.905487,-13.351391],[33.139559,-13.336602],[33.205653,-13.509614],[33.333397,-13.628263],[33.422281,-13.480469],[33.46388,-13.397115],[33.61891,-13.233972],[33.698491,-13.208496],[33.84825,-13.057756],[33.920855,-13.022771],[34.000437,-12.941484],[33.943489,-12.854047],[33.832695,-12.846037],[33.835072,-12.70956],[33.651156,-12.70248],[33.576535,-12.648375],[33.585217,-12.572462],[33.513887,-12.374281]]]},"properties":{"LOCATION_TYPE":"level1","ADM0_A3":"MWI","LOCATION_ID":"MWI-KS","NAME":"Kasungu","TYPE_EN":"District"}},
{"type":"Feature","geometry":{"type":"Polygon","coordinates":[[[32.905487,-13.351391],[32.813066,-13.528217],[32.722839,-13.573382],[32.807795,-13.699163],[32.763044,-13.777194],[32.85942,-13.808097],[33.049434,-13.996612],[33.154544,-13.936564],[33.280221,-14.060794],[33.290557,-14.156913],[33.357105,-14.230565],[33.341459,-13.98974],[33.254384,-13.825306],[33.333397,-13.628263],[33.205653,-13.509614],[33.139559,-13.336602],[32.905487,-13.351391]]]},"properties":{"LOCATION_TYPE":"level1","ADM0_A3":"MWI","LOCATION_ID":"MWI-MC","NAME":"Mchinji","TYPE_EN":"District"}},
{"type":"Feature","geometry":{"type":"Polygon","coordinates":[[[34.355581,-12.20494],[34.028704,-12.204733],[33.842668,-12.143341],[33.76071,-12.223801],[33.847319,-12.309223],[33.907988,-12.43893],[34.101929,-12.502337],[34.057229,-12.564246],[33.884681,-12.634784],[33.835072,-12.70956],[33.832695,-12.846037],[33.943489,-12.854047],[34.000437,-12.941484],[33.920855,-13.022771],[34.097743,-13.164519],[34.133607,-13.489616],[34.327703,-13.403833],[34.58276,-13.403626],[34.545312,-13.325749],[34.549343,-13.159092],[34.494463,-12.68739],[34.355581,-12.20494]]]},"properties":{"LOCATION_TYPE":"level1","ADM0_A3":"MWI","LOCATION_ID":"MWI-NK","NAME":"Nkhotakota","TYPE_EN":"District"}},
{"type":"Feature","geometry":{"type":"Polygon","coordinates":[[[34.58276,-13.403626],[34.327703,-13.403833],[34.133607,-13.489616],[34.116709,-13.504602],[34.121515,-13.623923],[34.250447,-13.780347],[34.283623,-13.850782],[34.496375,-14.114332],[34.549912,-14.072836],[34.735999,-14.078107],[34.863898,-13.516283],[34.640603,-13.492354],[34.58276,-13.403626]]]},"properties":{"LOCATION_TYPE":"level1","ADM0_A3":"MWI","LOCATION_ID":"MWI-SA","NAME":"Salima","TYPE_EN":"District"}},
{"type":"Feature","geometry":{"type":"Polygon","coordinates":[[[34.863898,-13.516283],[34.735999,-14.078107],[34.748246,-14.303209],[34.796977,-14.554977],[34.913197,-14.706079],[34.990299,-14.755378],[35.275036,-14.755688],[35.439522,-14.762199],[35.531248,-14.708094],[35.596412,-14.588773],[35.750539,-14.543143],[35.522824,-14.262746],[35.455748,-14.136965],[35.084091,-13.704227],[34.863898,-13.516283]]]},"properties":{"LOCATION_TYPE":"level1","ADM0_A3":"MWI","LOCATION_ID":"MWI-MG","NAME":"Mangochi","TYPE_EN":"District"}},
{"type":"Feature","geometry":{"type":"Polygon","coordinates":[[[35.750539,-14.543143],[35.596412,-14.588773],[35.531248,-14.708094],[35.439522,-14.762199],[35.275036,-14.755688],[35.31524,-14.872529],[35.172613,-15.230181],[35.443243,-15.241653],[35.530627,-15.207082],[35.788583,-15.211428],[35.790818,-15.146826],[35.904299,-14.886894],[35.863268,-14.876662],[35.853036,-14.667476],[35.750539,-14.543143]]]},"properties":{"LOCATION_TYPE":"level1","ADM0_A3":"MWI","LOCATION_ID":"MWI-MH","NAME":"Machinga","TYPE_EN":"District"}},
{"type":"Feature","geometry":{"type":"Polygon","coordinates":[[[33.618406,-14.561841],[33.720401,-14.489709],[33.774196,-14.530016],[33.888918,-14.488158],[34.050769,-14.495186],[34.077537,-14.454672],[34.344084,-14.387389],[34.380436,-14.413643],[34.509139,-14.431677],[34.592132,-14.406459],[34.748246,-14.303209],[34.735999,-14.078107],[34.549912,-14.072836],[34.496375,-14.114332],[34.283623,-13.850782],[34.204972,-13.927677],[34.093403,-14.11304],[33.96385,-14.195671],[33.941784,-14.282332],[33.71632,-14.386098],[33.686089,-14.49157],[33.618406,-14.561841]]]},"properties":{"LOCATION_TYPE":"level1","ADM0_A3":"MWI","LOCATION_ID":"MWI-DE","NAME":"Dedza","TYPE_EN":"District"}},
{"type":"Feature","geometry":{"type":"Polygon","coordinates":[[[33.618406,-14.561841],[33.686089,-14.49157],[33.71632,-14.386098],[33.941784,-14.282332],[33.96385,-14.195671],[34.093403,-14.11304],[34.204972,-13.927677],[34.283623,-13.850782],[34.250447,-13.780347],[34.049478,-13.823394],[33.997181,-13.781742],[33.774662,-13.748204],[33.754819,-13.662112],[33.582426,-13.703608],[33.466981,-13.665212],[33.422281,-13.480469],[33.333397,-13.628263],[33.254384,-13.825306],[33.341459,-13.98974],[33.357105,-14.230565],[33.439178,-14.380671],[33.618406,-14.561841]]]},"properties":{"LOCATION_TYPE":"level1","ADM0_A3":"MWI","LOCATION_ID":"MWI-LI","NAME":"Lilongwe","TYPE_EN":"District"}},
{"type":"Feature","geometry":{"type":"Polygon","coordinates":[[[34.886613,-16.700849],[35.004509,-16.814631],[35.095769,-16.817319],[35.113443,-16.960256],[35.036548,-17.03591],[35.0813,-17.12407],[35.234779,-17.135335],[35.304956,-17.104226],[35.276017,-16.955191],[35.278187,-16.700737],[35.174318,-16.625496],[35.131943,-16.537646],[35.214419,-16.484212],[35.237253,-16.39909],[35.096132,-16.331354],[35.063369,-16.478322],[34.886613,-16.700849]]]},"properties":{"LOCATION_TYPE":"level1","ADM0_A3":"MWI","LOCATION_ID":"MWI-NS","NAME":"Nsanje","TYPE_EN":"District"}},
{"type":"Feature","geometry":{"type":"Polygon","coordinates":[[[34.886613,-16.700849],[35.063369,-16.478322],[35.096132,-16.331354],[35.082334,-16.264175],[34.891597,-16.02667],[34.850514,-15.972358],[34.863536,-15.823737],[34.749797,-15.812213],[34.537045,-15.806787],[34.342218,-15.730323],[34.247139,-15.794125],[34.233186,-15.88983],[34.387699,-16.037004],[34.385219,-16.186453],[34.44599,-16.293216],[34.524745,-16.300761],[34.65497,-16.48938],[34.732071,-16.529171],[34.886613,-16.700849]]]},"properties":{"LOCATION_TYPE":"level1","ADM0_A3":"MWI","LOCATION_ID":"MWI-CK","NAME":"Chikwawa","TYPE_EN":"District"}},
{"type":"Feature","geometry":{"type":"Polygon","coordinates":[[[34.342218,-15.730323],[34.537045,-15.806787],[34.749797,-15.812213],[34.762974,-15.610675],[34.419118,-15.575327],[34.342218,-15.730323]]]},"properties":{"LOCATION_TYPE":"level1","ADM0_A3":"MWI","LOCATION_ID":"MWI-MW","NAME":"Mwanza","TYPE_EN":"District"}},
{"type":"Feature","geometry":{"type":"Polygon","coordinates":[[[34.419118,-15.575327],[34.762974,-15.610675],[34.842866,-15.545821],[34.894697,-15.418542],[35.011073,-15.351001],[35.054636,-15.324594],[34.843073,-15.313742],[34.769795,-15.240568],[34.559085,-15.200178],[34.569083,-15.27116],[34.410127,-15.481276],[34.419118,-15.575327]]]},"properties":{"LOCATION_TYPE":"level1","ADM0_A3":"MWI","LOCATION_ID":"MWI-NE","NAME":"Neno","TYPE_EN":"District"}},
{"type":"Feature","geometry":{"type":"Polygon","coordinates":[[[34.559085,-15.200178],[34.769795,-15.240568],[34.843073,-15.313742],[34.917383,-14.99247],[34.990299,-14.755378],[34.913197,-14.706079],[34.796977,-14.554977],[34.748246,-14.303209],[34.592132,-14.406459],[34.509139,-14.431677],[34.380436,-14.413643],[34.501801,-14.575698],[34.505831,-14.700342],[34.584173,-14.984459],[34.548723,-15.057633],[34.559085,-15.200178]]]},"properties":{"LOCATION_TYPE":"level1","ADM0_A3":"MWI","LOCATION_ID":"MWI-NU","NAME":"Ntcheu","TYPE_EN":"District"}},
{"type":"Feature","geometry":{"type":"Polygon","coordinates":[[[35.788583,-15.211428],[35.530627,-15.207082],[35.443243,-15.241653],[35.172613,-15.230181],[35.054636,-15.324594],[35.011073,-15.351001],[35.142382,-15.537346],[35.340665,-15.683435],[35.465257,-15.663436],[35.526597,-15.606696],[35.660955,-15.485463],[35.837558,-15.459199],[35.788583,-15.211428]]]},"properties":{"LOCATION_TYPE":"level1","ADM0_A3":"MWI","LOCATION_ID":"MWI-ZO","NAME":"Zomba","TYPE_EN":"District"}},
{"type":"Feature","geometry":{"type":"Polygon","coordinates":[[[35.837558,-15.459199],[35.660955,-15.485463],[35.526597,-15.606696],[35.533573,-15.829938],[35.600597,-15.935513],[35.665296,-15.893293],[35.796591,-15.933198],[35.837558,-15.459199]]]},"properties":{"LOCATION_TYPE":"level1","ADM0_A3":"MWI","LOCATION_ID":"MWI-PH","NAME":"Phalombe","TYPE_EN":"District"}},
{"type":"Feature","geometry":{"type":"Polygon","coordinates":[[[35.796591,-15.933198],[35.665296,-15.893293],[35.600597,-15.935513],[35.533573,-15.829938],[35.526597,-15.606696],[35.465257,-15.663436],[35.340665,-15.683435],[35.334774,-15.942747],[35.310434,-16.005328],[35.299156,-16.208721],[35.374616,-16.140977],[35.529025,-16.140771],[35.697593,-16.107491],[35.770044,-16.058812],[35.796591,-15.933198]]]},"properties":{"LOCATION_TYPE":"level1","ADM0_A3":"MWI","LOCATION_ID":"MWI-MU","NAME":"Mulanje","TYPE_EN":"District"}},
{"type":"Feature","geometry":{"type":"Polygon","coordinates":[[[35.299156,-16.208721],[35.310434,-16.005328],[35.248991,-15.91877],[35.146258,-15.860944],[34.994174,-15.931947],[34.891597,-16.02667],[35.082334,-16.264175],[35.096132,-16.331354],[35.237253,-16.39909],[35.299156,-16.208721]]]},"properties":{"LOCATION_TYPE":"level1","ADM0_A3":"MWI","LOCATION_ID":"MWI-TH","NAME":"Thyolo","TYPE_EN":"District"}},
{"type":"Feature","geometry":{"type":"Polygon","coordinates":[[[34.116709,-13.504602],[33.747842,-13.493336],[33.691515,-13.321977],[33.61891,-13.233972],[33.46388,-13.397115],[33.422281,-13.480469],[33.466981,-13.665212],[33.582426,-13.703608],[33.754819,-13.662112],[33.774662,-13.748204],[33.997181,-13.781742],[34.049478,-13.823394],[34.250447,-13.780347],[34.121515,-13.623923],[34.116709,-13.504602]]]},"properties":{"LOCATION_TYPE":"level1","ADM0_A3":"MWI","LOCATION_ID":"MWI-DO","NAME":"Dowa","TYPE_EN":"District"}},
{"type":"Feature","geometry":{"type":"Polygon","coordinates":[[[35.172613,-15.230181],[35.31524,-14.872529],[35.275036,-14.755688],[34.990299,-14.755378],[34.917383,-14.99247],[34.843073,-15.313742],[35.054636,-15.324594],[35.172613,-15.230181]]]},"properties":{"LOCATION_TYPE":"level1","ADM0_A3":"MWI","LOCATION_ID":"MWI-BA","NAME":"Balaka","TYPE_EN":"District"}},
{"type":"Feature","geometry":{"type":"Polygon","coordinates":[[[35.340665,-15.683435],[35.142382,-15.537346],[35.104969,-15.60468],[35.146258,-15.860944],[35.248991,-15.91877],[35.310434,-16.005328],[35.334774,-15.942747],[35.340665,-15.683435]]]},"properties":{"LOCATION_TYPE":"level1","ADM0_A3":"MWI","LOCATION_ID":"MWI-CR","NAME":"Chiradzulu","TYPE_EN":"District"}},
{"type":"Feature","geometry":{"type":"Polygon","coordinates":[[[35.142382,-15.537346],[35.011073,-15.351001],[34.894697,-15.418542],[34.842866,-15.545821],[34.762974,-15.610675],[34.749797,-15.812213],[34.863536,-15.823737],[34.850514,-15.972358],[34.891597,-16.02667],[34.994174,-15.931947],[35.146258,-15.860944],[35.104969,-15.60468],[35.142382,-15.537346]]]},"properties":{"LOCATION_TYPE":"level1","ADM0_A3":"MWI","LOCATION_ID":"MWI-BL","NAME":"Blantyre","TYPE_EN":"District"}},
{"type":"Feature","geometry":{"type":"Polygon","coordinates":[[[33.920855,-13.022771],[33.84825,-13.057756],[33.698491,-13.208496],[33.61891,-13.233972],[33.691515,-13.321977],[33.747842,-13.493336],[34.116709,-13.504602],[34.133607,-13.489616],[34.097743,-13.164519],[33.920855,-13.022771]]]},"properties":{"LOCATION_TYPE":"level1","ADM0_A3":"MWI","LOCATION_ID":"MWI-NI","NAME":"Ntchisi","TYPE_EN":"District"}}
]}