{"type":"FeatureCollection", "features": [
{"type":"Feature","geometry":{"type":"MultiPolygon","coordinates":[[[[115.639134,4.14595],[115.878849,4.352139],[116.020649,4.270852],[116.125759,4.378907],[116.228802,4.356118],[116.310657,4.383377],[116.391066,4.294674],[116.494109,4.324853],[117.164662,4.333147],[117.217165,4.35343],[117.412915,4.200081],[117.567149,4.159654],[117.65211,4.284857],[117.605805,4.382025],[117.671153,4.426011],[117.729503,4.354682],[117.808279,4.333564],[117.892263,4.256985],[118.004568,4.231635],[118.137055,4.298651],[118.33253,4.339016],[118.542817,4.360012],[118.645274,4.444037],[118.59962,4.519192],[118.444591,4.614936],[118.333507,4.651557],[118.219005,4.756293],[118.136485,4.88231],[118.21697,4.965806],[118.357188,5.038804],[118.428396,5.018785],[118.509044,4.931057],[118.584972,4.971869],[118.681488,4.944322],[119.155935,5.106187],[119.2671,5.201077],[119.274262,5.361151],[119.204845,5.443345],[119.085704,5.409857],[118.970876,5.42829],[118.736583,5.547838],[118.594005,5.682074],[118.410655,5.796129],[118.262218,5.827867],[118.17628,5.805162],[118.12672,5.693549],[118.054698,5.718329],[117.964854,5.686225],[117.937999,5.814521],[118.058849,5.808987],[118.125173,5.863918],[118.016856,6.060981],[117.884044,5.954657],[117.654633,5.958686],[117.665538,6.079901],[117.605642,6.18183],[117.722992,6.254625],[117.743826,6.389879],[117.64088,6.521715],[117.509776,6.6022],[117.442231,6.553046],[117.30893,6.628811],[117.228363,6.83808],[117.246755,6.950507],[117.143809,7.00373],[117.07838,6.992621],[117.029307,6.90998],[117.052501,6.830756],[116.973806,6.708075],[116.824474,6.581732],[116.778494,6.626532],[116.858653,6.817857],[116.832042,6.973334],[116.74643,7.010443],[116.6692,6.87641],[116.64503,6.716946],[116.503184,6.495185],[116.347667,6.379584],[116.319998,6.313381],[116.201345,6.217963],[116.066417,5.93065],[116.050792,5.842271],[115.919932,5.746772],[115.848643,5.560004],[115.674083,5.529364],[115.585216,5.616156],[115.550141,5.540188],[115.404307,5.423896],[115.35963,5.319648],[115.489757,5.222968],[115.560802,5.207831],[115.556977,5.067206],[115.421562,4.962329],[115.622483,4.957811],[115.658501,4.824822],[115.559799,4.586878],[115.596696,4.380327],[115.6754,4.31245],[115.63225,4.232455],[115.639134,4.14595]]],[[[117.171153,7.342678],[117.064138,7.270738],[117.064138,7.126654],[117.229747,7.19184],[117.283214,7.308783],[117.171153,7.342678]]]]},"properties":{"LOCATION_TYPE":"level1","ADM0_A3":"MYS","LOCATION_ID":"MYS-12","NAME":"Sabah","TYPE_EN":"State"}},
{"type":"Feature","geometry":{"type":"Polygon","coordinates":[[[100.377659,6.526754],[100.317887,6.576706],[100.280783,6.688921],[100.166836,6.695122],[100.127289,6.442288],[100.198732,6.260528],[100.365481,6.455756],[100.377659,6.526754]]]},"properties":{"LOCATION_TYPE":"level1","ADM0_A3":"MYS","LOCATION_ID":"MYS-09","NAME":"Perlis","TYPE_EN":"State"}},
{"type":"Feature","geometry":{"type":"MultiPolygon","coordinates":[[[[100.377659,6.526754],[100.365481,6.455756],[100.198732,6.260528],[100.349132,6.012681],[100.375743,5.81094],[100.344005,5.669257],[100.354296,5.568983],[100.533223,5.549791],[100.524852,5.469176],[100.559113,5.146818],[100.503716,5.134235],[100.557098,5.08093],[100.686185,5.207254],[100.762873,5.320838],[100.839768,5.339597],[100.873512,5.464525],[100.946893,5.550643],[100.972427,5.772853],[101.015312,5.898349],[101.071122,5.919846],[101.094273,6.085754],[101.052519,6.134562],[101.081664,6.246467],[100.974281,6.272616],[100.910099,6.235796],[100.822145,6.259877],[100.805609,6.414803],[100.71285,6.493041],[100.648409,6.447153],[100.377659,6.526754]]],[[[99.900617,6.364304],[99.851085,6.465644],[99.719044,6.353231],[99.728735,6.261476],[99.900617,6.364304]]]]},"properties":{"LOCATION_TYPE":"level1","ADM0_A3":"MYS","LOCATION_ID":"MYS-02","NAME":"Kedah","TYPE_EN":"State"}},
{"type":"Feature","geometry":{"type":"Polygon","coordinates":[[[102.542003,5.854763],[102.499848,5.897406],[102.379893,6.132961],[102.315684,6.190375],[102.07309,6.257514],[102.060002,6.094797],[101.959388,6.011598],[101.912931,5.859308],[101.800483,5.739909],[101.697567,5.767138],[101.667521,5.669034],[101.670466,5.518061],[101.753304,5.485324],[101.747102,5.36249],[101.620495,5.360087],[101.532025,5.274278],[101.456629,4.995122],[101.463296,4.900476],[101.410586,4.830713],[101.379063,4.612845],[101.46128,4.572589],[101.541379,4.595792],[101.660079,4.567396],[101.770409,4.641319],[101.776765,4.73692],[101.887352,4.675167],[101.956289,4.751907],[102.116124,4.759116],[102.199581,4.643825],[102.343293,4.644988],[102.402876,4.718214],[102.516255,4.675555],[102.598523,4.693616],[102.660638,4.768417],[102.641828,4.849343],[102.51119,4.915127],[102.503284,5.070311],[102.414814,5.18002],[102.44029,5.369388],[102.396055,5.42153],[102.405822,5.608444],[102.386288,5.685958],[102.542003,5.854763]]]},"properties":{"LOCATION_TYPE":"level1","ADM0_A3":"MYS","LOCATION_ID":"MYS-03","NAME":"Kelantan","TYPE_EN":"State"}},
{"type":"Feature","geometry":{"type":"Polygon","coordinates":[[[100.972427,5.772853],[100.946893,5.550643],[100.873512,5.464525],[100.839768,5.339597],[100.762873,5.320838],[100.686185,5.207254],[100.557098,5.08093],[100.503716,5.134235],[100.404097,5.120177],[100.364513,5.084296],[100.453868,4.908922],[100.577403,4.854315],[100.632579,4.532904],[100.56544,4.319159],[100.632579,4.155463],[100.776052,4.086493],[100.718761,3.990871],[100.720714,3.868069],[100.840569,3.842808],[100.935421,3.861677],[100.997794,3.794394],[101.092465,3.776333],[101.256176,3.672748],[101.347075,3.703314],[101.348005,3.793076],[101.524894,3.676856],[101.626851,3.77176],[101.560757,4.0042],[101.584942,4.082025],[101.467636,4.217159],[101.439266,4.387071],[101.341959,4.431461],[101.381698,4.515022],[101.379063,4.612845],[101.410586,4.830713],[101.463296,4.900476],[101.456629,4.995122],[101.532025,5.274278],[101.620495,5.360087],[101.747102,5.36249],[101.753304,5.485324],[101.670466,5.518061],[101.667521,5.669034],[101.697567,5.767138],[101.579308,5.906333],[101.53466,5.906023],[101.248993,5.786986],[101.225015,5.699214],[101.105435,5.637642],[100.972427,5.772853]]]},"properties":{"LOCATION_TYPE":"level1","ADM0_A3":"MYS","LOCATION_ID":"MYS-08","NAME":"Perak","TYPE_EN":"State"}},
{"type":"Feature","geometry":{"type":"MultiPolygon","coordinates":[[[[115.421562,4.962329],[115.358409,4.902777],[115.198904,4.950751],[115.146801,4.88562],[115.207365,4.825598],[115.272684,4.636772],[115.272478,4.474663],[115.343791,4.371672],[115.324361,4.314596],[115.113004,4.382369],[115.03549,4.621244],[115.022634,4.895901],[114.948363,4.818932],[114.878186,4.812808],[114.751786,4.738523],[114.782172,4.497789],[114.836432,4.357229],[114.766875,4.131816],[114.674891,4.04407],[114.586628,4.021435],[114.477384,4.144968],[114.41992,4.260129],[114.296723,4.316663],[114.245564,4.481433],[114.118956,4.561635],[113.99879,4.601142],[113.946788,4.27383],[113.736827,4.001288],[113.434255,3.75316],[113.391449,3.648342],[113.277599,3.484198],[113.069347,3.278998],[113.061209,3.218655],[112.974376,3.144232],[112.727306,3.066107],[112.574718,3.033922],[112.01352,2.885932],[111.860606,2.880601],[111.669607,2.843085],[111.440278,2.680121],[111.404552,2.483954],[111.448253,2.372382],[111.365489,2.340766],[111.254731,2.419257],[111.208507,2.388861],[111.184744,2.145087],[111.211274,2.07392],[111.096039,1.774482],[111.137055,1.682034],[111.037852,1.676947],[110.967947,1.503241],[110.83961,1.565985],[110.726736,1.547431],[110.366466,1.715888],[110.211681,1.682034],[110.167654,1.70185],[109.927745,1.692288],[109.886729,1.760199],[109.731781,1.839586],[109.654633,1.936998],[109.626621,2.029696],[109.528436,1.889989],[109.546626,1.814335],[109.647188,1.761883],[109.64171,1.637162],[109.677264,1.572851],[109.842835,1.403275],[109.932545,1.378522],[109.976263,1.287726],[110.093466,1.191608],[110.17036,1.174451],[110.256556,1.039059],[110.422644,0.909455],[110.553903,0.85137],[110.613434,0.893952],[110.783966,0.908163],[110.852696,0.997201],[111.197584,1.075233],[111.351787,1.013893],[111.538855,0.997718],[111.655231,1.030791],[111.823076,1.008467],[111.910099,1.114042],[112.100061,1.154918],[112.183984,1.369039],[112.180057,1.449034],[112.470478,1.567657],[112.768858,1.552232],[112.854951,1.582721],[113.023416,1.537013],[112.973186,1.415083],[113.089045,1.431335],[113.158602,1.388159],[113.323656,1.351392],[113.397553,1.293927],[113.503387,1.314495],[113.649528,1.233259],[113.808174,1.339713],[113.909667,1.442471],[114.053947,1.465054],[114.160401,1.424798],[114.355738,1.501951],[114.500638,1.436037],[114.669,1.694006],[114.671377,1.820975],[114.831988,1.902521],[114.84532,2.024968],[114.780621,2.036053],[114.753026,2.134806],[114.778761,2.247202],[114.919631,2.295675],[115.126543,2.47923],[115.16189,2.590386],[115.05647,2.608627],[115.066909,2.828201],[115.242092,3.041624],[115.341517,2.991136],[115.464094,3.030824],[115.517011,3.157276],[115.482801,3.206472],[115.517631,3.357161],[115.600623,3.441212],[115.548533,3.605285],[115.588634,3.857595],[115.538301,3.897825],[115.609511,3.996915],[115.639134,4.14595],[115.63225,4.232455],[115.6754,4.31245],[115.596696,4.380327],[115.559799,4.586878],[115.658501,4.824822],[115.622483,4.957811],[115.421562,4.962329]]],[[[111.411388,2.391099],[111.381847,2.523342],[111.381033,2.697903],[111.299001,2.702704],[111.308116,2.452135],[111.411388,2.391099]]]]},"properties":{"LOCATION_TYPE":"level1","ADM0_A3":"MYS","LOCATION_ID":"MYS-13","NAME":"Sarawak","TYPE_EN":"State"}},
{"type":"Feature","geometry":{"type":"MultiPolygon","coordinates":[[[[100.404097,5.120177],[100.503716,5.134235],[100.559113,5.146818],[100.524852,5.469176],[100.533223,5.549791],[100.354296,5.568983],[100.385265,5.376939],[100.430024,5.302883],[100.404097,5.120177]]],[[[100.309825,5.450751],[100.234711,5.464504],[100.193126,5.399319],[100.194998,5.272284],[100.288748,5.262681],[100.343435,5.417629],[100.309825,5.450751]]]]},"properties":{"LOCATION_TYPE":"level1","ADM0_A3":"MYS","LOCATION_ID":"MYS-07","NAME":"Pulau Pinang","TYPE_EN":"State"}},
{"type":"Feature","geometry":{"type":"Polygon","coordinates":[[[101.721201,2.59585],[101.772579,2.738154],[101.759505,2.862823],[101.860997,2.858482],[101.964505,3.037076],[101.946832,3.213758],[101.915981,3.260602],[101.830302,3.289154],[101.764983,3.373257],[101.764207,3.492681],[101.813352,3.597636],[101.765758,3.67422],[101.626851,3.77176],[101.524894,3.676856],[101.348005,3.793076],[101.347075,3.703314],[101.256176,3.672748],[101.092465,3.776333],[100.997794,3.794394],[100.935421,3.861677],[100.840569,3.842808],[100.927989,3.696601],[101.040538,3.621975],[101.108409,3.473944],[101.197602,3.35932],[101.297618,3.274604],[101.323416,3.124457],[101.372813,3.002346],[101.283051,2.9112],[101.286388,2.849677],[101.399181,2.819078],[101.542328,2.661282],[101.721201,2.59585]],[[101.716407,3.206135],[101.763122,3.175956],[101.730979,3.02979],[101.665815,3.082241],[101.622356,3.18208],[101.716407,3.206135]],[[101.681473,2.874243],[101.673877,2.966098],[101.730359,2.928865],[101.681473,2.874243]]]},"properties":{"LOCATION_TYPE":"level1","ADM0_A3":"MYS","LOCATION_ID":"MYS-10","NAME":"Selangor","TYPE_EN":"State"}},
{"type":"Feature","geometry":{"type":"Polygon","coordinates":[[[101.988466,2.391328],[102.082379,2.461323],[102.183768,2.491812],[102.275339,2.464269],[102.383653,2.487859],[102.59935,2.421739],[102.634077,2.633871],[102.704563,2.839],[102.66808,2.891839],[102.466335,3.029247],[102.388614,3.117924],[102.304484,3.13198],[101.915981,3.260602],[101.946832,3.213758],[101.964505,3.037076],[101.860997,2.858482],[101.759505,2.862823],[101.772579,2.738154],[101.721201,2.59585],[101.783051,2.575873],[101.858165,2.41942],[101.988466,2.391328]]]},"properties":{"LOCATION_TYPE":"level1","ADM0_A3":"MYS","LOCATION_ID":"MYS-05","NAME":"Negeri Sembilan","TYPE_EN":"State"}},
{"type":"Feature","geometry":{"type":"Polygon","coordinates":[[[102.48889,2.092977],[102.519717,2.349754],[102.59935,2.421739],[102.383653,2.487859],[102.275339,2.464269],[102.183768,2.491812],[102.082379,2.461323],[101.988466,2.391328],[102.187999,2.216376],[102.48889,2.092977]]]},"properties":{"LOCATION_TYPE":"level1","ADM0_A3":"MYS","LOCATION_ID":"MYS-04","NAME":"Melaka","TYPE_EN":"State"}},
{"type":"Feature","geometry":{"type":"Polygon","coordinates":[[[103.64031,2.671291],[103.609935,2.449205],[103.364471,2.593899],[103.158696,2.52982],[102.992091,2.595242],[102.814428,2.794713],[102.704563,2.839],[102.634077,2.633871],[102.59935,2.421739],[102.519717,2.349754],[102.48889,2.092977],[102.650645,1.940904],[102.721853,1.847073],[102.804454,1.860093],[102.934581,1.747545],[103.03712,1.715522],[103.206065,1.610419],[103.367361,1.538398],[103.4463,1.35932],[103.50408,1.289944],[103.681407,1.441799],[103.839692,1.476549],[103.974457,1.419827],[104.219249,1.346177],[104.294688,1.446519],[104.255219,1.637763],[104.195323,1.798733],[104.11964,1.891181],[104.12086,1.954047],[103.97641,2.192369],[103.948985,2.339911],[103.837657,2.463813],[103.839692,2.524848],[103.7671,2.623847],[103.64031,2.671291]]]},"properties":{"LOCATION_TYPE":"level1","ADM0_A3":"MYS","LOCATION_ID":"MYS-01","NAME":"Johor","TYPE_EN":"State"}},
{"type":"Feature","geometry":{"type":"Polygon","coordinates":[[[103.4428,4.168972],[103.345248,4.180004],[103.307369,4.110266],[103.338427,3.928081],[103.115288,4.088614],[102.916954,4.161529],[102.934007,4.273176],[103.01178,4.335963],[102.975141,4.475309],[102.887498,4.469857],[102.843263,4.547139],[102.843883,4.675942],[102.690404,4.717361],[102.660638,4.768417],[102.598523,4.693616],[102.516255,4.675555],[102.402876,4.718214],[102.343293,4.644988],[102.199581,4.643825],[102.116124,4.759116],[101.956289,4.751907],[101.887352,4.675167],[101.776765,4.73692],[101.770409,4.641319],[101.660079,4.567396],[101.541379,4.595792],[101.46128,4.572589],[101.379063,4.612845],[101.381698,4.515022],[101.341959,4.431461],[101.439266,4.387071],[101.467636,4.217159],[101.584942,4.082025],[101.560757,4.0042],[101.626851,3.77176],[101.765758,3.67422],[101.813352,3.597636],[101.764207,3.492681],[101.764983,3.373257],[101.830302,3.289154],[101.915981,3.260602],[102.304484,3.13198],[102.388614,3.117924],[102.466335,3.029247],[102.66808,2.891839],[102.704563,2.839],[102.814428,2.794713],[102.992091,2.595242],[103.158696,2.52982],[103.364471,2.593899],[103.609935,2.449205],[103.64031,2.671291],[103.473643,2.85102],[103.434581,2.961819],[103.456065,3.203762],[103.428071,3.367174],[103.482188,3.511786],[103.404552,3.600043],[103.338715,3.758205],[103.437999,3.975043],[103.395193,4.116278],[103.4428,4.168972]]]},"properties":{"LOCATION_TYPE":"level1","ADM0_A3":"MYS","LOCATION_ID":"MYS-06","NAME":"Pahang","TYPE_EN":"State"}},
{"type":"Feature","geometry":{"type":"Polygon","coordinates":[[[102.542003,5.854763],[102.386288,5.685958],[102.405822,5.608444],[102.396055,5.42153],[102.44029,5.369388],[102.414814,5.18002],[102.503284,5.070311],[102.51119,4.915127],[102.641828,4.849343],[102.660638,4.768417],[102.690404,4.717361],[102.843883,4.675942],[102.843263,4.547139],[102.887498,4.469857],[102.975141,4.475309],[103.01178,4.335963],[102.934007,4.273176],[102.916954,4.161529],[103.115288,4.088614],[103.338427,3.928081],[103.307369,4.110266],[103.345248,4.180004],[103.4428,4.168972],[103.494151,4.336615],[103.451427,4.488471],[103.469412,4.550035],[103.448578,4.795071],[103.120291,5.381334],[102.959483,5.54206],[102.875662,5.571438],[102.542003,5.854763]]]},"properties":{"LOCATION_TYPE":"level1","ADM0_A3":"MYS","LOCATION_ID":"MYS-11","NAME":"Terengganu","TYPE_EN":"State"}},
{"type":"Feature","geometry":{"type":"Polygon","coordinates":[[[115.248546,5.365465],[115.189138,5.344794],[115.160899,5.266995],[115.259288,5.291205],[115.248546,5.365465]]]},"properties":{"LOCATION_TYPE":"level1","ADM0_A3":"MYS","LOCATION_ID":"MYS-15","NAME":"Labuan","TYPE_EN":"Federal Territory"}},
{"type":"Feature","geometry":{"type":"Polygon","coordinates":[[[101.716407,3.206135],[101.622356,3.18208],[101.665815,3.082241],[101.730979,3.02979],[101.763122,3.175956],[101.716407,3.206135]]]},"properties":{"LOCATION_TYPE":"level1","ADM0_A3":"MYS","LOCATION_ID":"MYS-14","NAME":"Kuala Lumpur","TYPE_EN":"Federal Territory"}},
{"type":"Feature","geometry":{"type":"Polygon","coordinates":[[[101.681473,2.874243],[101.730359,2.928865],[101.673877,2.966098],[101.681473,2.874243]]]},"properties":{"LOCATION_TYPE":"level1","ADM0_A3":"MYS","LOCATION_ID":"MYS-16","NAME":"Putrajaya","TYPE_EN":"Federal Territory"}}
]}