{"type":"FeatureCollection", "features": [
{"type":"Feature","geometry":{"type":"Polygon","coordinates":[[[14.829428,-25.000077],[14.80128,-25.262791],[14.876964,-25.578058],[14.842784,-25.763604],[14.979015,-26.05877],[14.966319,-26.335219],[15.128754,-26.457615],[15.168142,-26.602797],[15.083018,-26.695245],[15.234223,-26.965427],[15.295258,-27.322442],[15.520681,-27.633722],[15.684255,-27.949884],[15.911143,-28.171319],[16.419444,-28.607029],[16.769343,-28.442604],[16.764382,-28.283234],[16.892953,-28.082626],[17.097798,-28.031156],[17.191953,-28.20882],[17.345742,-28.22763],[17.402069,-28.367776],[17.328172,-28.456143],[17.420569,-28.593396],[17.403619,-28.704293],[17.913252,-28.781291],[18.166467,-28.901904],[18.397564,-28.898907],[18.745656,-28.839892],[18.954533,-28.866661],[19.081657,-28.959368],[19.288879,-28.871001],[19.248571,-28.771576],[19.482872,-28.678248],[19.568759,-28.531177],[19.981653,-28.422347],[19.982687,-26.895515],[19.982067,-25.618988],[19.775155,-25.6682],[19.523181,-25.602778],[19.325053,-25.618281],[19.237203,-25.497358],[19.077627,-25.563762],[18.641167,-25.529242],[18.474666,-25.444751],[18.250907,-25.46196],[17.767732,-25.566294],[17.414266,-25.549035],[17.334581,-25.758324],[17.168906,-25.693884],[16.995997,-25.730264],[16.925407,-25.66572],[16.581448,-25.58743],[16.288133,-25.605052],[16.341049,-25.853822],[16.177545,-25.849791],[15.975594,-25.600608],[15.862526,-25.58004],[15.758656,-25.006122],[14.829428,-25.000077]]]},"properties":{"LOCATION_TYPE":"level1","ADM0_A3":"NAM","LOCATION_ID":"NAM-KA","NAME":"Karas","TYPE_EN":"Region"}},
{"type":"Feature","geometry":{"type":"Polygon","coordinates":[[[14.219112,-17.388137],[13.942745,-17.408187],[13.884351,-17.338527],[13.521324,-17.1219],[13.363711,-16.964183],[13.166307,-16.951057],[12.887151,-17.029812],[12.818318,-17.104846],[12.554561,-17.235588],[12.242642,-17.224839],[12.095261,-17.139676],[11.755138,-17.266697],[11.717621,-17.546319],[11.849082,-18.143183],[11.937348,-18.23211],[12.031889,-18.50535],[12.286876,-18.697686],[12.567393,-19.102309],[12.7046,-19.410821],[13.005382,-19.935479],[13.07088,-20.114229],[13.154633,-20.154229],[13.387218,-20.816095],[13.628103,-21.187595],[13.904402,-21.036545],[14.208053,-20.959341],[14.294766,-20.987039],[14.728951,-20.999338],[15.120349,-20.764107],[15.384415,-20.487225],[15.600733,-20.562569],[15.752145,-20.582826],[16.039052,-20.415394],[16.309113,-20.378497],[16.307977,-20.226465],[16.502073,-20.124094],[16.530185,-20.003171],[16.701958,-19.917182],[16.702991,-19.491265],[16.631368,-19.451732],[15.94004,-19.330654],[15.317029,-19.191335],[14.536198,-19.24668],[14.363909,-19.098214],[14.388921,-18.892697],[14.303551,-18.66222],[14.290322,-18.079206],[14.164438,-17.768011],[14.136636,-17.566679],[14.219112,-17.388137]]]},"properties":{"LOCATION_TYPE":"level1","ADM0_A3":"NAM","LOCATION_ID":"NAM-KU","NAME":"Kunene","TYPE_EN":"Region"}},
{"type":"Feature","geometry":{"type":"Polygon","coordinates":[[[15.559114,-17.388545],[14.219112,-17.388137],[14.136636,-17.566679],[14.164438,-17.768011],[14.290322,-18.079206],[14.303551,-18.66222],[14.388921,-18.892697],[14.363909,-19.098214],[14.536198,-19.24668],[15.317029,-19.191335],[15.554534,-19.041473],[15.512263,-18.724438],[15.563319,-18.623152],[15.499757,-18.151192],[15.287884,-18.024584],[15.646932,-17.679231],[15.559114,-17.388545]]]},"properties":{"LOCATION_TYPE":"level1","ADM0_A3":"NAM","LOCATION_ID":"NAM-OS","NAME":"Omusati","TYPE_EN":"Region"}},
{"type":"Feature","geometry":{"type":"Polygon","coordinates":[[[15.559114,-17.388545],[15.646932,-17.679231],[15.665845,-17.73902],[15.999262,-17.69556],[16.389729,-17.914513],[16.7495,-17.769044],[18.000173,-17.765892],[18.000483,-17.389116],[16.852852,-17.388757],[15.559114,-17.388545]]]},"properties":{"LOCATION_TYPE":"level1","ADM0_A3":"NAM","LOCATION_ID":"NAM-OW","NAME":"Ohangwena","TYPE_EN":"Region"}},
{"type":"Feature","geometry":{"type":"Polygon","coordinates":[[[18.000483,-17.389116],[18.000173,-17.765892],[18.009268,-18.748984],[18.19458,-18.759992],[19.235963,-18.815079],[19.234723,-19.188906],[20.975609,-19.172106],[20.993436,-18.318612],[20.986455,-17.965771],[20.806202,-18.031405],[20.565494,-17.985206],[20.336154,-17.854878],[20.03426,-17.895909],[19.672628,-17.842682],[19.421274,-17.859426],[19.17209,-17.801238],[19.020575,-17.822322],[18.761986,-17.747701],[18.453581,-17.389893],[18.000483,-17.389116]]]},"properties":{"LOCATION_TYPE":"level1","ADM0_A3":"NAM","LOCATION_ID":"NAM-OK","NAME":"Kavango","TYPE_EN":"Region"}},
{"type":"Feature","geometry":{"type":"Polygon","coordinates":[[[20.993436,-18.318612],[21.475722,-18.299502],[22.981367,-18.020036],[23.311476,-18.009804],[23.501542,-18.23749],[23.57916,-18.467864],[23.645409,-18.466004],[24.183051,-18.029441],[24.421589,-17.956474],[24.577755,-18.044427],[24.725343,-17.895909],[24.958094,-17.800928],[25.190741,-17.755349],[24.95799,-17.551744],[24.684415,-17.49242],[24.591294,-17.528386],[24.407016,-17.474539],[24.220464,-17.4795],[23.47622,-17.626365],[22.230508,-17.857565],[21.381154,-18.012595],[21.216617,-17.930636],[20.986455,-17.965771],[20.993436,-18.318612]]]},"properties":{"LOCATION_TYPE":"level1","ADM0_A3":"NAM","LOCATION_ID":"NAM-CA","NAME":"Caprivi","TYPE_EN":"Region"}},
{"type":"Feature","geometry":{"type":"Polygon","coordinates":[[[19.982067,-25.618988],[19.981343,-24.580411],[19.980483,-23.864489],[19.275031,-23.853841],[19.151524,-23.719999],[18.971173,-23.67933],[18.784518,-23.748783],[18.534094,-23.68367],[18.443453,-23.503681],[17.980949,-23.64698],[17.859716,-23.573806],[17.456434,-23.605949],[17.395145,-23.418415],[17.179448,-23.202718],[17.010156,-23.193054],[16.819263,-23.271913],[16.621239,-23.235481],[16.491428,-23.464872],[16.576901,-23.586105],[16.279141,-23.784181],[16.194082,-23.890376],[15.750905,-23.944585],[15.74243,-23.813637],[15.452215,-23.693851],[15.087069,-23.650029],[15.046555,-23.601608],[14.48406,-23.551039],[14.496593,-23.925958],[14.473643,-24.159112],[14.612315,-24.445733],[14.601899,-24.562433],[14.780772,-24.803399],[14.829428,-25.000077],[15.758656,-25.006122],[15.862526,-25.58004],[15.975594,-25.600608],[16.177545,-25.849791],[16.341049,-25.853822],[16.288133,-25.605052],[16.581448,-25.58743],[16.925407,-25.66572],[16.995997,-25.730264],[17.168906,-25.693884],[17.334581,-25.758324],[17.414266,-25.549035],[17.767732,-25.566294],[18.250907,-25.46196],[18.474666,-25.444751],[18.641167,-25.529242],[19.077627,-25.563762],[19.237203,-25.497358],[19.325053,-25.618281],[19.523181,-25.602778],[19.775155,-25.6682],[19.982067,-25.618988]]]},"properties":{"LOCATION_TYPE":"level1","ADM0_A3":"NAM","LOCATION_ID":"NAM-HA","NAME":"Hardap","TYPE_EN":"Region"}},
{"type":"Feature","geometry":{"type":"Polygon","coordinates":[[[20.975609,-19.172106],[19.234723,-19.188906],[19.235963,-18.815079],[18.19458,-18.759992],[18.171635,-18.951091],[18.01919,-19.047054],[18.004514,-19.258411],[17.889999,-19.359025],[17.933717,-19.462223],[17.686394,-19.501548],[17.411268,-19.364916],[17.36972,-19.240324],[17.126841,-19.16591],[16.989692,-19.340886],[16.702991,-19.491265],[16.701958,-19.917182],[16.530185,-20.003171],[16.502073,-20.124094],[16.307977,-20.226465],[16.309113,-20.378497],[16.039052,-20.415394],[15.752145,-20.582826],[15.600733,-20.562569],[15.832347,-20.840485],[16.417427,-21.161292],[16.514579,-21.172144],[16.532976,-21.416057],[16.441405,-21.515172],[16.393449,-21.728027],[16.476545,-21.919747],[16.468173,-22.143764],[16.39686,-22.192392],[16.446986,-22.373879],[16.724282,-22.234301],[16.836936,-22.29714],[17.098109,-22.198076],[17.141621,-22.237402],[17.453333,-22.088677],[17.450542,-21.977935],[17.604642,-21.840165],[17.834395,-21.812363],[18.117892,-21.705341],[18.241709,-21.622763],[18.261139,-21.234673],[18.350539,-21.198654],[18.375861,-21.03856],[18.541742,-20.964767],[18.578742,-20.812321],[18.83144,-20.470792],[19.482356,-20.242743],[20.789977,-20.385112],[20.97936,-20.351028],[20.975609,-19.172106]]]},"properties":{"LOCATION_TYPE":"level1","ADM0_A3":"NAM","LOCATION_ID":"NAM-OD","NAME":"Otjozondjupa","TYPE_EN":"Region"}},
{"type":"Feature","geometry":{"type":"Polygon","coordinates":[[[20.97936,-20.351028],[20.789977,-20.385112],[19.482356,-20.242743],[18.83144,-20.470792],[18.578742,-20.812321],[18.541742,-20.964767],[18.375861,-21.03856],[18.350539,-21.198654],[18.261139,-21.234673],[18.241709,-21.622763],[18.117892,-21.705341],[18.12554,-21.929772],[17.974438,-22.124954],[17.963379,-22.213993],[18.219591,-22.48116],[18.298863,-22.949813],[18.37121,-23.08102],[18.35519,-23.227109],[18.495647,-23.334699],[18.443453,-23.503681],[18.534094,-23.68367],[18.784518,-23.748783],[18.971173,-23.67933],[19.151524,-23.719999],[19.275031,-23.853841],[19.980483,-23.864489],[19.979793,-23.204526],[19.978346,-22.000671],[20.97198,-22.000671],[20.984796,-21.963981],[20.97936,-20.351028]]]},"properties":{"LOCATION_TYPE":"level1","ADM0_A3":"NAM","LOCATION_ID":"NAM-OH","NAME":"Omaheke","TYPE_EN":"Region"}},
{"type":"Feature","geometry":{"type":"Polygon","coordinates":[[[14.48406,-23.551039],[15.046555,-23.601608],[15.087069,-23.650029],[15.452215,-23.693851],[15.74243,-23.813637],[15.826352,-23.80573],[15.895392,-22.904235],[16.056106,-22.845065],[16.057036,-22.597328],[16.186847,-22.592833],[16.446986,-22.373879],[16.39686,-22.192392],[16.468173,-22.143764],[16.476545,-21.919747],[16.393449,-21.728027],[16.441405,-21.515172],[16.532976,-21.416057],[16.514579,-21.172144],[16.417427,-21.161292],[15.832347,-20.840485],[15.600733,-20.562569],[15.384415,-20.487225],[15.120349,-20.764107],[14.728951,-20.999338],[14.294766,-20.987039],[14.208053,-20.959341],[13.904402,-21.036545],[13.628103,-21.187595],[13.831716,-21.456476],[13.958263,-21.704848],[13.952322,-21.783949],[14.137218,-21.946384],[14.386485,-22.276462],[14.508556,-22.548028],[14.521983,-22.923435],[14.410167,-22.970798],[14.491954,-23.309177],[14.434337,-23.415216],[14.48406,-23.551039]]]},"properties":{"LOCATION_TYPE":"level1","ADM0_A3":"NAM","LOCATION_ID":"NAM-ER","NAME":"Erongo","TYPE_EN":"Region"}},
{"type":"Feature","geometry":{"type":"Polygon","coordinates":[[[16.446986,-22.373879],[16.186847,-22.592833],[16.057036,-22.597328],[16.056106,-22.845065],[15.895392,-22.904235],[15.826352,-23.80573],[15.74243,-23.813637],[15.750905,-23.944585],[16.194082,-23.890376],[16.279141,-23.784181],[16.576901,-23.586105],[16.491428,-23.464872],[16.621239,-23.235481],[16.819263,-23.271913],[17.010156,-23.193054],[17.179448,-23.202718],[17.395145,-23.418415],[17.456434,-23.605949],[17.859716,-23.573806],[17.980949,-23.64698],[18.443453,-23.503681],[18.495647,-23.334699],[18.35519,-23.227109],[18.37121,-23.08102],[18.298863,-22.949813],[18.219591,-22.48116],[17.963379,-22.213993],[17.974438,-22.124954],[18.12554,-21.929772],[18.117892,-21.705341],[17.834395,-21.812363],[17.604642,-21.840165],[17.450542,-21.977935],[17.453333,-22.088677],[17.141621,-22.237402],[17.098109,-22.198076],[16.836936,-22.29714],[16.724282,-22.234301],[16.446986,-22.373879]]]},"properties":{"LOCATION_TYPE":"level1","ADM0_A3":"NAM","LOCATION_ID":"NAM-KH","NAME":"Khomas","TYPE_EN":"Region"}},
{"type":"Feature","geometry":{"type":"Polygon","coordinates":[[[15.646932,-17.679231],[15.287884,-18.024584],[15.499757,-18.151192],[15.563319,-18.623152],[15.512263,-18.724438],[15.554534,-19.041473],[15.317029,-19.191335],[15.94004,-19.330654],[15.912032,-19.092943],[15.85095,-18.968093],[15.860252,-18.80278],[16.035642,-18.652453],[15.948619,-18.475203],[15.943038,-18.313766],[16.037915,-18.140856],[15.999262,-18.022672],[15.999262,-17.69556],[15.665845,-17.73902],[15.646932,-17.679231]]]},"properties":{"LOCATION_TYPE":"level1","ADM0_A3":"NAM","LOCATION_ID":"NAM-ON","NAME":"Oshana","TYPE_EN":"Region"}},
{"type":"Feature","geometry":{"type":"Polygon","coordinates":[[[16.702991,-19.491265],[16.989692,-19.340886],[17.126841,-19.16591],[17.36972,-19.240324],[17.411268,-19.364916],[17.686394,-19.501548],[17.933717,-19.462223],[17.889999,-19.359025],[18.004514,-19.258411],[18.01919,-19.047054],[18.171635,-18.951091],[18.19458,-18.759992],[18.009268,-18.748984],[18.000173,-17.765892],[16.7495,-17.769044],[16.389729,-17.914513],[15.999262,-17.69556],[15.999262,-18.022672],[16.037915,-18.140856],[15.943038,-18.313766],[15.948619,-18.475203],[16.035642,-18.652453],[15.860252,-18.80278],[15.85095,-18.968093],[15.912032,-19.092943],[15.94004,-19.330654],[16.631368,-19.451732],[16.702991,-19.491265]]]},"properties":{"LOCATION_TYPE":"level1","ADM0_A3":"NAM","LOCATION_ID":"NAM-OT","NAME":"Oshikoto","TYPE_EN":"Region"}}
]}