{"type":"FeatureCollection", "features": [
{"type":"Feature","geometry":{"type":"Polygon","coordinates":[[[165.111664,-21.373142],[165.177288,-21.328104],[165.261727,-21.315339],[165.363116,-21.359161],[165.378309,-21.413835],[165.491119,-21.41306],[165.66842,-21.521683],[165.773324,-21.529332],[165.870527,-21.595839],[166.029122,-21.601834],[166.082281,-21.524595],[166.066742,-21.469903],[165.908376,-21.378025],[165.84962,-21.383966],[165.754405,-21.302341],[165.623057,-21.267999],[165.60255,-21.192153],[165.406749,-21.055434],[165.413097,-20.949151],[165.336681,-20.931573],[165.27003,-20.869561],[165.21754,-20.764418],[165.061534,-20.734063],[164.82781,-20.582696],[164.725434,-20.472833],[164.580821,-20.390883],[164.495616,-20.300226],[164.315766,-20.234796],[164.244314,-20.285333],[164.182953,-20.247328],[164.051768,-20.109308],[164.040212,-20.300958],[164.132498,-20.300958],[164.170584,-20.339125],[164.156993,-20.397149],[164.192556,-20.525811],[164.286632,-20.57586],[164.357188,-20.702325],[164.365571,-20.758071],[164.519379,-20.890558],[164.656586,-20.945896],[164.653575,-20.98447],[164.727306,-21.060235],[164.800792,-21.082208],[164.834158,-21.183282],[164.920421,-21.285089],[164.985525,-21.302016],[165.084483,-21.391371],[165.111664,-21.373142]]]},"properties":{"LOCATION_TYPE":"level1","ADM0_A3":"NCL","LOCATION_ID":"NCL-X03~","NAME":"Nord","TYPE_EN":"Province"}},
{"type":"Feature","geometry":{"type":"MultiPolygon","coordinates":[[[[167.521007,-22.569594],[167.42449,-22.5617],[167.418712,-22.645278],[167.507335,-22.670668],[167.521007,-22.569594]]],[[[166.082281,-21.524595],[166.029122,-21.601834],[165.870527,-21.595839],[165.773324,-21.529332],[165.66842,-21.521683],[165.491119,-21.41306],[165.378309,-21.413835],[165.363116,-21.359161],[165.261727,-21.315339],[165.177288,-21.328104],[165.111664,-21.373142],[165.173513,-21.483005],[165.256847,-21.515069],[165.290782,-21.576755],[165.413422,-21.62363],[165.463145,-21.605645],[165.504568,-21.678155],[165.677745,-21.761407],[165.732921,-21.738946],[165.820567,-21.863946],[165.86671,-21.857843],[165.989513,-21.956313],[166.06072,-21.903253],[166.143809,-21.980564],[166.144542,-22.046563],[166.236176,-22.151788],[166.285899,-22.149347],[166.478363,-22.287205],[166.632823,-22.276951],[166.77768,-22.392022],[166.877452,-22.333673],[166.911632,-22.385024],[167.013438,-22.316339],[167.028819,-22.226821],[166.959321,-22.144952],[166.938813,-22.079848],[166.873709,-22.035089],[166.778331,-22.014581],[166.671235,-21.925226],[166.573416,-21.874933],[166.411306,-21.705499],[166.218761,-21.596938],[166.116466,-21.517267],[166.082281,-21.524595]]]]},"properties":{"LOCATION_TYPE":"level1","ADM0_A3":"NCL","LOCATION_ID":"NCL-X02~","NAME":"Sud","TYPE_EN":"Province"}},
{"type":"Feature","geometry":{"type":"MultiPolygon","coordinates":[[[[168.137462,-21.431817],[168.00766,-21.452895],[167.966645,-21.394301],[167.835948,-21.374282],[167.856781,-21.500746],[167.958181,-21.638442],[168.035411,-21.658461],[168.12908,-21.601332],[168.137462,-21.431817]]],[[[167.432302,-21.027765],[167.385509,-20.941664],[167.284679,-20.901788],[167.281505,-20.784438],[167.308279,-20.73089],[167.212576,-20.672133],[167.154307,-20.713067],[167.185313,-20.788181],[167.133474,-20.890069],[167.082205,-20.916192],[167.067393,-20.996352],[167.146332,-21.073012],[167.267589,-21.091485],[167.331065,-21.164158],[167.42335,-21.147556],[167.432302,-21.027765]]]]},"properties":{"LOCATION_TYPE":"level1","ADM0_A3":"NCL","LOCATION_ID":"NCL-X01~","NAME":"Îles Loyauté","TYPE_EN":"Province"}}
]}