{"type":"FeatureCollection", "features": [
{"type":"Feature","geometry":{"type":"Polygon","coordinates":[[[4.625845,13.723151],[5.273507,13.752521],[5.554317,13.873418],[6.12038,13.654077],[6.284208,13.667656],[6.333392,13.923181],[6.517256,14.04121],[6.471833,14.414779],[6.532501,14.923741],[6.673681,15.428413],[6.614408,16.201234],[6.339128,16.353937],[6.120485,16.861607],[5.803346,17.127947],[5.268599,17.450408],[4.718193,17.964433],[4.732507,18.351593],[4.863455,18.612301],[4.230271,18.645374],[4.235638,16.995863],[4.181998,16.809621],[4.183961,16.416053],[4.060558,16.298334],[3.873849,15.720882],[4.105104,15.089519],[4.111925,14.887257],[4.253622,14.657865],[4.419348,14.439739],[4.469164,14.062088],[4.625845,13.723151]]]},"properties":{"LOCATION_TYPE":"level1","ADM0_A3":"NER","LOCATION_ID":"NER-5","NAME":"Tahoua","TYPE_EN":"Department"}},
{"type":"Feature","geometry":{"type":"Polygon","coordinates":[[[2.844301,12.399244],[3.255129,12.018751],[3.292749,11.918653],[3.603945,11.905579],[3.6457,12.528539],[3.929093,12.750386],[4.088773,12.996236],[4.125774,13.472977],[4.625845,13.723151],[4.469164,14.062088],[4.419348,14.439739],[4.253622,14.657865],[4.150114,14.454777],[3.818661,14.264866],[3.717634,14.003693],[3.532374,13.835848],[3.333316,13.746861],[3.174101,13.797866],[3.104235,13.616017],[2.886884,13.516126],[2.819808,13.263997],[2.709633,13.273195],[2.475953,13.136459],[2.605712,12.851102],[2.631602,12.515515],[2.844301,12.399244]]]},"properties":{"LOCATION_TYPE":"level1","ADM0_A3":"NER","LOCATION_ID":"NER-3","NAME":"Dosso","TYPE_EN":"Department"}},
{"type":"Feature","geometry":{"type":"Polygon","coordinates":[[[10.647882,13.369406],[11.440004,13.364431],[11.852795,13.245394],[12.057641,13.116772],[12.472706,13.064165],[12.561073,13.242759],[12.683132,13.288932],[12.883844,13.495999],[13.228112,13.548037],[13.35999,13.714409],[13.607314,13.7041],[13.449184,14.380131],[13.764358,14.719077],[13.833915,15.019601],[14.368973,15.749634],[15.452421,16.876232],[15.471954,16.916746],[15.567698,18.000039],[13.000065,17.999522],[12.237062,17.657424],[11.99749,17.500379],[12.000126,14.608514],[11.88065,14.375712],[11.524082,14.21319],[11.221465,14.172314],[10.815392,13.806806],[10.623311,13.529614],[10.647882,13.369406]]]},"properties":{"LOCATION_TYPE":"level1","ADM0_A3":"NER","LOCATION_ID":"NER-2","NAME":"Diffa","TYPE_EN":"Department"}},
{"type":"Feature","geometry":{"type":"Polygon","coordinates":[[[6.284208,13.667656],[6.672543,13.321178],[6.906637,13.006856],[7.090089,13.006391],[7.198196,13.117392],[7.391982,13.112534],[7.755578,13.327146],[8.077522,13.310016],[8.246728,13.211292],[8.318335,13.3612],[8.31787,13.60904],[8.237513,13.750479],[8.52287,13.891555],[8.518995,14.11056],[8.356989,14.279904],[7.915052,14.514877],[7.715374,14.461443],[7.70261,14.612235],[7.55988,14.718895],[7.324494,15.334517],[7.124144,15.439265],[6.673681,15.428413],[6.532501,14.923741],[6.471833,14.414779],[6.517256,14.04121],[6.333392,13.923181],[6.284208,13.667656]]]},"properties":{"LOCATION_TYPE":"level1","ADM0_A3":"NER","LOCATION_ID":"NER-4","NAME":"Maradi","TYPE_EN":"Department"}},
{"type":"Feature","geometry":{"type":"Polygon","coordinates":[[[10.647882,13.369406],[10.623311,13.529614],[10.815392,13.806806],[11.221465,14.172314],[11.524082,14.21319],[11.88065,14.375712],[12.000126,14.608514],[11.99749,17.500379],[11.658131,17.382092],[11.249267,17.111927],[10.955022,17.026868],[9.320754,16.000057],[8.968838,15.870711],[8.375592,15.587473],[7.845702,15.538483],[7.444745,15.597705],[7.324494,15.334517],[7.55988,14.718895],[7.70261,14.612235],[7.715374,14.461443],[7.915052,14.514877],[8.356989,14.279904],[8.518995,14.11056],[8.52287,13.891555],[8.237513,13.750479],[8.31787,13.60904],[8.318335,13.3612],[8.246728,13.211292],[8.533515,13.06463],[8.679346,12.923579],[9.269387,12.809788],[9.640734,12.822526],[9.930122,13.145969],[10.161529,13.267202],[10.647882,13.369406]]]},"properties":{"LOCATION_TYPE":"level1","ADM0_A3":"NER","LOCATION_ID":"NER-7","NAME":"Zinder","TYPE_EN":"Department"}},
{"type":"Feature","geometry":{"type":"Polygon","coordinates":[[[2.844301,12.399244],[2.631602,12.515515],[2.605712,12.851102],[2.475953,13.136459],[2.709633,13.273195],[2.819808,13.263997],[2.886884,13.516126],[3.104235,13.616017],[3.174101,13.797866],[3.333316,13.746861],[3.532374,13.835848],[3.717634,14.003693],[3.818661,14.264866],[4.150114,14.454777],[4.253622,14.657865],[4.111925,14.887257],[4.105104,15.089519],[3.873849,15.720882],[3.526534,15.495954],[3.507103,15.353973],[3.073021,15.427199],[3.000158,15.339117],[1.331526,15.283616],[0.973718,14.991257],[0.670067,14.939735],[0.221257,14.995933],[0.18865,14.44775],[0.388792,14.251612],[0.339157,14.12578],[0.620665,13.679967],[0.95098,13.583203],[0.971754,13.067317],[1.113968,12.996236],[1.535854,12.647498],[1.826069,12.604193],[1.971693,12.724237],[2.109049,12.705634],[2.244958,12.424152],[2.070912,12.306898],[2.338079,11.940099],[2.36123,12.218894],[2.844301,12.399244]],[[2.120002,13.616215],[2.276442,13.573549],[2.235554,13.394],[2.015117,13.459775],[2.120002,13.616215]]]},"properties":{"LOCATION_TYPE":"level1","ADM0_A3":"NER","LOCATION_ID":"NER-6","NAME":"Tillabéri","TYPE_EN":"Department"}},
{"type":"Feature","geometry":{"type":"Polygon","coordinates":[[[15.567698,18.000039],[15.651582,18.949387],[15.736021,19.903541],[15.953992,20.374571],[15.544198,20.79899],[15.60931,20.95066],[15.301009,21.40133],[15.180396,21.507267],[15.172024,21.993387],[14.979909,22.995664],[14.23172,22.617949],[13.599562,23.119029],[13.482257,23.179672],[11.968861,23.517351],[11.084367,22.995755],[9.723313,22.193427],[8.634491,21.551502],[7.482726,20.872577],[6.609963,20.142854],[5.837607,19.478631],[5.749344,19.433699],[4.22861,19.142244],[4.230271,18.645374],[4.863455,18.612301],[4.732507,18.351593],[4.718193,17.964433],[5.268599,17.450408],[5.803346,17.127947],[6.120485,16.861607],[6.339128,16.353937],[6.614408,16.201234],[6.673681,15.428413],[7.124144,15.439265],[7.324494,15.334517],[7.444745,15.597705],[7.845702,15.538483],[8.375592,15.587473],[8.968838,15.870711],[9.320754,16.000057],[10.955022,17.026868],[11.249267,17.111927],[11.658131,17.382092],[11.99749,17.500379],[12.237062,17.657424],[13.000065,17.999522],[15.567698,18.000039]]]},"properties":{"LOCATION_TYPE":"level1","ADM0_A3":"NER","LOCATION_ID":"NER-1","NAME":"Agadez","TYPE_EN":"Department"}},
{"type":"Feature","geometry":{"type":"Polygon","coordinates":[[[2.120002,13.616215],[2.015117,13.459775],[2.235554,13.394],[2.276442,13.573549],[2.120002,13.616215]]]},"properties":{"LOCATION_TYPE":"level1","ADM0_A3":"NER","LOCATION_ID":"NER-8","NAME":"Niamey","TYPE_EN":"Capital District"}}
]}