{"type":"FeatureCollection", "features": [
{"type":"Feature","geometry":{"type":"Polygon","coordinates":[[[4.120325,13.210608],[4.088773,12.996236],[3.929093,12.750386],[3.6457,12.528539],[3.603945,11.905579],[3.66699,11.759697],[3.466692,11.442481],[3.705583,11.120733],[4.005162,11.012196],[4.536809,11.001784],[4.72212,10.904218],[4.689047,10.64581],[4.500635,10.460421],[4.513658,10.313479],[4.655354,10.201135],[4.869398,10.269167],[4.827127,10.673096],[5.093054,10.747768],[5.05409,11.033435],[4.763048,11.163815],[4.916734,11.287632],[5.212323,11.346646],[5.344305,11.30931],[5.4767,10.957187],[5.642994,10.968866],[6.027054,11.111208],[6.018165,11.264171],[5.883186,11.429819],[5.913262,11.573118],[5.569821,11.62048],[5.385336,11.718355],[5.023497,11.680605],[4.875083,11.692258],[4.606365,11.538262],[4.529367,11.589035],[4.615667,11.934104],[4.609052,12.318525],[4.829504,12.399373],[4.825887,12.782631],[4.671994,13.054501],[4.340852,13.228133],[4.120325,13.210608]]]},"properties":{"LOCATION_TYPE":"level1","ADM0_A3":"NGA","LOCATION_ID":"NGA-KE","NAME":"Kebbi","TYPE_EN":"State"}},
{"type":"Feature","geometry":{"type":"Polygon","coordinates":[[[3.705583,11.120733],[3.731276,10.825025],[3.837419,10.599897],[3.756907,10.405257],[3.572422,10.285704],[3.66483,10.128654],[4.01405,10.117987],[4.35036,9.725066],[4.45361,9.42542],[4.614427,9.42188],[4.798602,9.139856],[4.979159,9.199723],[5.19744,9.016659],[5.537988,8.929404],[5.790479,8.74572],[6.215879,8.729958],[6.370495,8.680943],[6.465373,8.431734],[6.688512,8.21353],[6.834963,8.406774],[6.758999,8.472248],[6.749594,9.185641],[7.023375,9.213753],[7.17024,9.099187],[7.3108,9.297443],[7.218299,9.416583],[7.338085,9.586624],[7.279174,9.977583],[7.008492,10.017063],[7.041049,10.233045],[6.955989,10.482358],[6.83517,10.623073],[6.568519,10.53468],[6.426719,10.573593],[6.173815,10.361151],[6.093096,10.482565],[6.161929,10.862748],[6.027054,11.111208],[5.642994,10.968866],[5.4767,10.957187],[5.344305,11.30931],[5.212323,11.346646],[4.916734,11.287632],[4.763048,11.163815],[5.05409,11.033435],[5.093054,10.747768],[4.827127,10.673096],[4.869398,10.269167],[4.655354,10.201135],[4.513658,10.313479],[4.500635,10.460421],[4.689047,10.64581],[4.72212,10.904218],[4.536809,11.001784],[4.005162,11.012196],[3.705583,11.120733]]]},"properties":{"LOCATION_TYPE":"level1","ADM0_A3":"NGA","LOCATION_ID":"NGA-NI","NAME":"Niger","TYPE_EN":"State"}},
{"type":"Feature","geometry":{"type":"Polygon","coordinates":[[[3.66483,10.128654],[3.513098,9.846609],[3.128625,9.429581],[3.091315,9.126421],[2.769164,9.057045],[2.722862,8.772308],[2.742439,8.527481],[3.144956,8.768871],[3.243658,8.747658],[3.738098,9.026478],[3.773031,9.140269],[4.164015,8.979116],[4.201015,8.693423],[4.359145,8.311018],[4.555619,8.034109],[4.940918,8.080437],[5.064115,8.03057],[5.35371,7.974268],[5.536024,8.069585],[5.356914,8.348173],[5.515664,8.530694],[5.805052,8.405172],[6.053409,8.373701],[6.215879,8.729958],[5.790479,8.74572],[5.537988,8.929404],[5.19744,9.016659],[4.979159,9.199723],[4.798602,9.139856],[4.614427,9.42188],[4.45361,9.42542],[4.35036,9.725066],[4.01405,10.117987],[3.66483,10.128654]]]},"properties":{"LOCATION_TYPE":"level1","ADM0_A3":"NGA","LOCATION_ID":"NGA-KW","NAME":"Kwara","TYPE_EN":"State"}},
{"type":"Feature","geometry":{"type":"Polygon","coordinates":[[[2.671695,7.893434],[2.773918,7.050785],[2.71511,6.979833],[2.71192,6.474048],[3.16883,6.52446],[3.245311,6.692589],[4.032137,6.689954],[4.087637,6.54433],[4.34197,6.370592],[4.493004,6.320546],[4.594996,6.485289],[4.354908,6.6174],[4.538462,6.857308],[4.561097,6.988282],[4.364106,6.980504],[4.301578,7.089748],[4.077095,7.112434],[3.895814,7.059699],[3.776235,7.143673],[3.654279,7.428668],[3.179372,7.349784],[2.989616,7.571244],[2.999435,7.833682],[2.861769,7.954734],[2.671695,7.893434]]]},"properties":{"LOCATION_TYPE":"level1","ADM0_A3":"NGA","LOCATION_ID":"NGA-OG","NAME":"Ogun","TYPE_EN":"State"}},
{"type":"Feature","geometry":{"type":"Polygon","coordinates":[[[2.671695,7.893434],[2.861769,7.954734],[2.999435,7.833682],[2.989616,7.571244],[3.179372,7.349784],[3.654279,7.428668],[3.776235,7.143673],[3.895814,7.059699],[4.077095,7.112434],[4.145515,7.47435],[4.0341,7.625116],[4.086397,7.847687],[4.263544,7.954037],[4.399866,7.850581],[4.555619,8.034109],[4.359145,8.311018],[4.201015,8.693423],[4.164015,8.979116],[3.773031,9.140269],[3.738098,9.026478],[3.243658,8.747658],[3.144956,8.768871],[2.742439,8.527481],[2.734954,8.211903],[2.671695,7.893434]]]},"properties":{"LOCATION_TYPE":"level1","ADM0_A3":"NGA","LOCATION_ID":"NGA-OY","NAME":"Oyo","TYPE_EN":"State"}},
{"type":"Feature","geometry":{"type":"Polygon","coordinates":[[[2.71192,6.474048],[2.703841,6.368352],[3.384532,6.397691],[3.541352,6.45482],[4.34197,6.370592],[4.087637,6.54433],[4.032137,6.689954],[3.245311,6.692589],[3.16883,6.52446],[2.71192,6.474048]]]},"properties":{"LOCATION_TYPE":"level1","ADM0_A3":"NGA","LOCATION_ID":"NGA-LA","NAME":"Lagos","TYPE_EN":"State"}},
{"type":"Feature","geometry":{"type":"Polygon","coordinates":[[[13.749839,10.942442],[13.98233,11.276264],[14.165471,11.238333],[14.593765,11.496431],[14.546533,11.718614],[14.669936,12.167424],[14.51439,12.323538],[14.179837,12.385602],[14.064908,13.077988],[13.607314,13.7041],[13.35999,13.714409],[13.228112,13.548037],[12.883844,13.495999],[12.683132,13.288932],[12.386742,13.07858],[12.362894,12.88526],[12.47896,12.734158],[12.308324,12.44955],[12.328891,12.299896],[12.235667,11.663242],[12.388319,11.542009],[12.19753,11.284324],[12.104409,11.000802],[11.868454,10.919075],[11.793833,10.659195],[11.701023,10.594186],[11.689137,10.263224],[11.945555,10.04471],[12.106889,10.036029],[12.394727,10.304979],[12.62014,10.361383],[12.840901,10.563154],[13.30971,10.467888],[13.422158,10.930289],[13.749839,10.942442]]]},"properties":{"LOCATION_TYPE":"level1","ADM0_A3":"NGA","LOCATION_ID":"NGA-BO","NAME":"Borno","TYPE_EN":"State"}},
{"type":"Feature","geometry":{"type":"Polygon","coordinates":[[[13.749839,10.942442],[13.422158,10.930289],[13.30971,10.467888],[12.840901,10.563154],[12.62014,10.361383],[12.394727,10.304979],[12.106889,10.036029],[11.945555,10.04471],[11.940388,9.825731],[11.702676,9.643959],[11.525943,9.591973],[11.767272,9.330103],[11.971497,8.918991],[11.79218,8.519351],[11.404297,8.058449],[11.487909,7.880269],[11.647692,7.943572],[11.804996,7.806449],[11.903545,7.453557],[12.024981,7.596592],[12.054954,7.783919],[12.197787,7.975173],[12.249981,8.418764],[12.377001,8.59511],[12.660395,8.659318],[12.805709,8.831503],[12.862036,9.382891],[13.195453,9.542209],[13.262942,9.801728],[13.247956,10.079412],[13.434921,10.153412],[13.566283,10.679013],[13.749839,10.942442]]]},"properties":{"LOCATION_TYPE":"level1","ADM0_A3":"NGA","LOCATION_ID":"NGA-AD","NAME":"Adamawa","TYPE_EN":"State"}},
{"type":"Feature","geometry":{"type":"Polygon","coordinates":[[[11.903545,7.453557],[11.804996,7.806449],[11.647692,7.943572],[11.487909,7.880269],[11.404297,8.058449],[11.79218,8.519351],[11.971497,8.918991],[11.767272,9.330103],[11.525943,9.591973],[11.068606,9.586392],[10.93032,9.602644],[10.56042,9.496656],[10.645997,9.105078],[10.618505,8.88013],[10.228864,8.746727],[10.077349,8.566558],[9.81752,8.373133],[9.615465,8.35117],[9.335172,8.31696],[9.369589,8.057855],[9.169394,7.914453],[9.57123,7.842338],[9.876638,7.562484],[9.874674,7.208992],[9.70962,7.024119],[9.644806,6.521226],[9.769822,6.773722],[9.874622,6.787701],[10.119465,6.994406],[10.238424,6.871003],[10.495979,6.874672],[10.602536,7.058072],[10.831876,6.94521],[11.055945,6.700367],[11.097079,6.449117],[11.319495,6.437283],[11.509767,6.612311],[11.623249,6.932291],[11.881321,7.102048],[11.782722,7.304517],[11.903545,7.453557]]]},"properties":{"LOCATION_TYPE":"level1","ADM0_A3":"NGA","LOCATION_ID":"NGA-TA","NAME":"Taraba","TYPE_EN":"State"}},
{"type":"Feature","geometry":{"type":"Polygon","coordinates":[[[9.644806,6.521226],[9.70962,7.024119],[9.874674,7.208992],[9.876638,7.562484],[9.57123,7.842338],[9.169394,7.914453],[8.978915,8.055452],[8.557959,8.133354],[8.354353,8.001166],[8.42484,7.826473],[7.666023,8.025712],[7.758524,7.720046],[7.785499,7.171087],[7.493734,7.074452],[7.640392,6.862114],[7.851128,6.820256],[7.827667,6.630216],[8.248417,6.773515],[8.291928,6.675588],[8.610462,6.768941],[8.695935,6.891673],[8.956591,6.79018],[8.971577,6.678766],[9.320909,6.642282],[9.48859,6.418208],[9.644806,6.521226]]]},"properties":{"LOCATION_TYPE":"level1","ADM0_A3":"NGA","LOCATION_ID":"NGA-BE","NAME":"Benue","TYPE_EN":"State"}},
{"type":"Feature","geometry":{"type":"Polygon","coordinates":[[[9.48859,6.418208],[9.320909,6.642282],[8.971577,6.678766],[8.956591,6.79018],[8.695935,6.891673],[8.610462,6.768941],[8.291928,6.675588],[8.399622,6.517923],[8.379882,6.235589],[8.246453,6.017902],[7.96678,5.89163],[7.877793,5.690273],[7.89712,5.36497],[8.062485,5.213455],[8.131628,4.934919],[8.299208,4.782341],[8.518321,4.704047],[8.798925,5.159635],[8.8937,5.621751],[8.855872,5.847499],[8.988474,5.937287],[9.48859,6.418208]]]},"properties":{"LOCATION_TYPE":"level1","ADM0_A3":"NGA","LOCATION_ID":"NGA-CR","NAME":"Cross River","TYPE_EN":"State"}},
{"type":"Feature","geometry":{"type":"Polygon","coordinates":[[[6.753879,13.1749],[6.672543,13.321178],[6.368944,13.626275],[6.12038,13.654077],[5.554317,13.873418],[5.273507,13.752521],[4.856892,13.774096],[4.506732,13.694669],[4.248453,13.494139],[4.125774,13.472977],[4.120325,13.210608],[4.340852,13.228133],[4.671994,13.054501],[4.825887,12.782631],[4.829504,12.399373],[4.609052,12.318525],[4.615667,11.934104],[4.529367,11.589035],[4.606365,11.538262],[4.875083,11.692258],[5.023497,11.680605],[5.068146,12.269277],[5.520831,12.257857],[5.552664,12.527401],[5.740249,12.721782],[6.068291,12.823249],[6.050721,12.994375],[6.279338,13.150438],[6.62588,13.092276],[6.753879,13.1749]]]},"properties":{"LOCATION_TYPE":"level1","ADM0_A3":"NGA","LOCATION_ID":"NGA-SO","NAME":"Sokoto","TYPE_EN":"State"}},
{"type":"Feature","geometry":{"type":"Polygon","coordinates":[[[6.753879,13.1749],[6.62588,13.092276],[6.279338,13.150438],[6.050721,12.994375],[6.068291,12.823249],[5.740249,12.721782],[5.552664,12.527401],[5.520831,12.257857],[5.068146,12.269277],[5.023497,11.680605],[5.385336,11.718355],[5.569821,11.62048],[5.913262,11.573118],[5.883186,11.429819],[6.018165,11.264171],[6.027054,11.111208],[6.161929,10.862748],[6.342693,11.039637],[6.668565,11.065656],[6.881782,11.366102],[6.913408,11.766285],[7.066267,11.77923],[7.222019,11.954464],[7.077946,12.478463],[7.062921,12.99514],[6.906637,13.006856],[6.753879,13.1749]]]},"properties":{"LOCATION_TYPE":"level1","ADM0_A3":"NGA","LOCATION_ID":"NGA-ZA","NAME":"Zamfara","TYPE_EN":"State"}},
{"type":"Feature","geometry":{"type":"Polygon","coordinates":[[[12.386742,13.07858],[12.057641,13.116772],[11.852795,13.245394],[11.440004,13.364431],[10.674986,13.375102],[10.161529,13.267202],[9.930122,13.145969],[9.647657,12.830538],[10.159308,12.983885],[10.262661,12.807694],[10.511638,12.793431],[10.609513,12.502441],[10.73519,12.402267],[10.847948,11.866976],[10.968147,11.575263],[11.014243,11.294711],[11.152839,11.330833],[11.353964,11.215879],[11.590332,10.92817],[11.593019,10.597209],[11.701023,10.594186],[11.793833,10.659195],[11.868454,10.919075],[12.104409,11.000802],[12.19753,11.284324],[12.388319,11.542009],[12.235667,11.663242],[12.328891,12.299896],[12.308324,12.44955],[12.47896,12.734158],[12.362894,12.88526],[12.386742,13.07858]]]},"properties":{"LOCATION_TYPE":"level1","ADM0_A3":"NGA","LOCATION_ID":"NGA-YO","NAME":"Yobe","TYPE_EN":"State"}},
{"type":"Feature","geometry":{"type":"Polygon","coordinates":[[[8.977872,12.843183],[8.679346,12.923579],[8.397813,13.075405],[8.077522,13.310016],[7.755578,13.327146],[7.391982,13.112534],[7.198196,13.117392],[7.062921,12.99514],[7.077946,12.478463],[7.222019,11.954464],[7.066267,11.77923],[6.913408,11.766285],[6.881782,11.366102],[6.993093,11.209781],[7.186466,11.112242],[7.242173,11.26337],[7.466759,11.368841],[7.660649,11.274583],[7.776198,11.359152],[7.746535,11.600791],[7.89371,11.650788],[7.833145,11.914364],[7.84131,12.266073],[8.093801,12.382655],[8.282833,12.569569],[8.117159,12.656179],[8.137312,12.81374],[8.535428,12.829863],[8.599196,12.715245],[8.822025,12.690466],[8.977872,12.843183]]]},"properties":{"LOCATION_TYPE":"level1","ADM0_A3":"NGA","LOCATION_ID":"NGA-KT","NAME":"Katsina","TYPE_EN":"State"}},
{"type":"Feature","geometry":{"type":"Polygon","coordinates":[[[8.977872,12.843183],[8.822025,12.690466],[8.599196,12.715245],[8.535428,12.829863],[8.137312,12.81374],[8.117159,12.656179],[8.282833,12.569569],[8.678261,12.539261],[8.785128,12.298655],[8.946152,12.221812],[8.956384,12.050634],[9.181176,12.030274],[9.143349,11.776387],[9.34158,11.532656],[9.224688,11.342435],[9.810492,11.26138],[9.867646,11.032221],[10.105978,10.965352],[10.390198,11.177587],[10.000558,11.262284],[9.863099,11.459818],[9.814523,11.681251],[9.699698,11.851241],[10.154967,12.008544],[10.264728,12.40268],[10.609513,12.502441],[10.511638,12.793431],[10.262661,12.807694],[10.159308,12.983885],[9.647657,12.830538],[9.590298,12.80139],[8.977872,12.843183]]]},"properties":{"LOCATION_TYPE":"level1","ADM0_A3":"NGA","LOCATION_ID":"NGA-JI","NAME":"Jigawa","TYPE_EN":"State"}},
{"type":"Feature","geometry":{"type":"Polygon","coordinates":[[[5.00302,5.85478],[5.115171,6.126913],[4.979262,6.284371],[5.120752,6.514099],[5.079928,6.684347],[5.21563,6.872423],[5.495613,6.872294],[5.540985,6.717058],[5.732911,6.789431],[5.786138,7.030992],[5.952743,7.298986],[6.028397,7.573362],[5.811356,7.75609],[5.623667,7.619742],[5.537781,7.368491],[5.330559,7.419857],[4.991458,7.414845],[4.898234,7.339139],[4.869295,7.098198],[4.732146,7.146515],[4.561097,6.988282],[4.538462,6.857308],[4.354908,6.6174],[4.594996,6.485289],[4.493004,6.320546],[4.717052,6.163642],[5.00302,5.85478]]]},"properties":{"LOCATION_TYPE":"level1","ADM0_A3":"NGA","LOCATION_ID":"NGA-ON","NAME":"Ondo","TYPE_EN":"State"}},
{"type":"Feature","geometry":{"type":"Polygon","coordinates":[[[5.4602,5.13379],[5.641341,5.028401],[6.023436,5.108138],[6.493072,5.39303],[6.605726,5.723165],[6.760859,6.167117],[6.67673,6.535105],[6.052789,6.263907],[6.210712,5.936692],[6.021473,5.761948],[5.663355,6.039942],[5.530133,5.982142],[5.232373,6.038546],[5.115171,6.126913],[5.00302,5.85478],[5.198009,5.501451],[5.4602,5.13379]]]},"properties":{"LOCATION_TYPE":"level1","ADM0_A3":"NGA","LOCATION_ID":"NGA-DE","NAME":"Delta","TYPE_EN":"State"}},
{"type":"Feature","geometry":{"type":"Polygon","coordinates":[[[6.72264,4.591382],[6.565212,4.751338],[6.385791,4.817432],[6.489971,5.202318],[6.493072,5.39303],[6.023436,5.108138],[5.641341,5.028401],[5.4602,5.13379],[5.486339,4.835028],[5.5949,4.636461],[5.9463,4.335191],[6.09669,4.278144],[6.695079,4.347235],[6.72264,4.591382]]]},"properties":{"LOCATION_TYPE":"level1","ADM0_A3":"NGA","LOCATION_ID":"NGA-BY","NAME":"Bayelsa","TYPE_EN":"State"}},
{"type":"Feature","geometry":{"type":"Polygon","coordinates":[[[7.533526,4.702694],[7.496318,4.817381],[7.163315,4.951404],[7.251475,5.194696],[6.870206,5.194929],[6.724375,5.305051],[6.62619,5.502042],[6.668772,5.694278],[6.605726,5.723165],[6.493072,5.39303],[6.489971,5.202318],[6.385791,4.817432],[6.565212,4.751338],[6.72264,4.591382],[6.715587,4.354682],[6.969493,4.374579],[7.263682,4.573798],[7.454112,4.553168],[7.533526,4.702694]]]},"properties":{"LOCATION_TYPE":"level1","ADM0_A3":"NGA","LOCATION_ID":"NGA-RI","NAME":"Rivers","TYPE_EN":"State"}},
{"type":"Feature","geometry":{"type":"Polygon","coordinates":[[[8.299208,4.782341],[8.131628,4.934919],[8.062485,5.213455],[7.89712,5.36497],[7.705297,5.524108],[7.525257,5.305258],[7.496318,4.817381],[7.533526,4.702694],[7.558442,4.525336],[8.29835,4.55329],[8.299208,4.782341]]]},"properties":{"LOCATION_TYPE":"level1","ADM0_A3":"NGA","LOCATION_ID":"NGA-AK","NAME":"Akwa Ibom","TYPE_EN":"State"}},
{"type":"Feature","geometry":{"type":"Polygon","coordinates":[[[7.877793,5.690273],[7.533525,5.972969],[7.363716,6.020615],[7.250131,5.926254],[7.387901,5.842073],[7.404954,5.543176],[7.251475,5.194696],[7.163315,4.951404],[7.496318,4.817381],[7.525257,5.305258],[7.705297,5.524108],[7.89712,5.36497],[7.877793,5.690273]]]},"properties":{"LOCATION_TYPE":"level1","ADM0_A3":"NGA","LOCATION_ID":"NGA-AB","NAME":"Abia","TYPE_EN":"State"}},
{"type":"Feature","geometry":{"type":"Polygon","coordinates":[[[8.291928,6.675588],[8.248417,6.773515],[7.827667,6.630216],[7.734133,6.407568],[7.693205,5.941886],[7.533525,5.972969],[7.877793,5.690273],[7.96678,5.89163],[8.246453,6.017902],[8.379882,6.235589],[8.399622,6.517923],[8.291928,6.675588]]]},"properties":{"LOCATION_TYPE":"level1","ADM0_A3":"NGA","LOCATION_ID":"NGA-EB","NAME":"Ebonyi","TYPE_EN":"State"}},
{"type":"Feature","geometry":{"type":"Polygon","coordinates":[[[6.605726,5.723165],[6.668772,5.694278],[6.895838,5.762026],[6.948548,5.884473],[7.250131,5.926254],[7.363716,6.020615],[7.265118,6.041699],[7.085387,6.41873],[7.10027,6.667759],[6.905966,6.776124],[6.792382,6.566809],[6.67673,6.535105],[6.760859,6.167117],[6.605726,5.723165]]]},"properties":{"LOCATION_TYPE":"level1","ADM0_A3":"NGA","LOCATION_ID":"NGA-AN","NAME":"Anambra","TYPE_EN":"State"}},
{"type":"Feature","geometry":{"type":"Polygon","coordinates":[[[6.67673,6.535105],[6.649238,6.84382],[6.719415,7.148918],[6.628361,7.279039],[6.264145,7.463266],[6.13237,7.42673],[6.028397,7.573362],[5.952743,7.298986],[5.786138,7.030992],[5.732911,6.789431],[5.540985,6.717058],[5.495613,6.872294],[5.21563,6.872423],[5.079928,6.684347],[5.120752,6.514099],[4.979262,6.284371],[5.115171,6.126913],[5.232373,6.038546],[5.530133,5.982142],[5.663355,6.039942],[6.021473,5.761948],[6.210712,5.936692],[6.052789,6.263907],[6.67673,6.535105]]]},"properties":{"LOCATION_TYPE":"level1","ADM0_A3":"NGA","LOCATION_ID":"NGA-ED","NAME":"Edo","TYPE_EN":"State"}},
{"type":"Feature","geometry":{"type":"Polygon","coordinates":[[[10.56042,9.496656],[10.93032,9.602644],[11.068606,9.586392],[10.971351,9.887846],[10.765059,10.039362],[10.843194,10.187647],[10.82335,10.445564],[10.538613,10.71162],[10.673798,11.041368],[11.014243,11.294711],[10.968147,11.575263],[10.847948,11.866976],[10.73519,12.402267],[10.609513,12.502441],[10.264728,12.40268],[10.154967,12.008544],[9.699698,11.851241],[9.814523,11.681251],[9.863099,11.459818],[10.000558,11.262284],[10.390198,11.177587],[10.105978,10.965352],[9.867646,11.032221],[9.810492,11.26138],[9.224688,11.342435],[9.031935,11.296081],[8.767662,11.084802],[8.733969,10.862826],[8.815411,10.664104],[8.741307,10.549046],[8.785025,10.335649],[8.90109,10.330145],[8.960518,10.023109],[9.177249,9.995953],[9.159679,9.72889],[9.299102,9.582154],[9.735354,9.567246],[9.872297,9.837126],[10.56042,9.496656]]]},"properties":{"LOCATION_TYPE":"level1","ADM0_A3":"NGA","LOCATION_ID":"NGA-BA","NAME":"Bauchi","TYPE_EN":"State"}},
{"type":"Feature","geometry":{"type":"Polygon","coordinates":[[[10.56042,9.496656],[9.872297,9.837126],[9.735354,9.567246],[9.299102,9.582154],[9.159679,9.72889],[9.177249,9.995953],[8.960518,10.023109],[8.90109,10.330145],[8.785025,10.335649],[8.660071,10.169173],[8.631546,9.738682],[8.559302,9.484538],[8.659968,9.204761],[8.830087,9.023894],[9.073069,8.989736],[8.884657,8.727426],[8.95163,8.514416],[9.095807,8.454497],[9.407726,8.486382],[9.615465,8.35117],[9.81752,8.373133],[10.077349,8.566558],[10.228864,8.746727],[10.618505,8.88013],[10.645997,9.105078],[10.56042,9.496656]]]},"properties":{"LOCATION_TYPE":"level1","ADM0_A3":"NGA","LOCATION_ID":"NGA-PL","NAME":"Plateau","TYPE_EN":"State"}},
{"type":"Feature","geometry":{"type":"Polygon","coordinates":[[[9.615465,8.35117],[9.407726,8.486382],[9.095807,8.454497],[8.95163,8.514416],[8.884657,8.727426],[9.073069,8.989736],[8.830087,9.023894],[8.659968,9.204761],[8.483648,8.999193],[8.063415,9.218792],[7.950864,9.345941],[7.816609,9.25065],[7.625819,9.310698],[7.4711,8.639163],[7.263464,8.471447],[6.978107,8.411761],[6.970459,7.882155],[7.285788,8.028089],[7.666023,8.025712],[8.42484,7.826473],[8.354353,8.001166],[8.557959,8.133354],[8.978915,8.055452],[9.169394,7.914453],[9.369589,8.057855],[9.335172,8.31696],[9.615465,8.35117]]]},"properties":{"LOCATION_TYPE":"level1","ADM0_A3":"NGA","LOCATION_ID":"NGA-NA","NAME":"Nassarawa","TYPE_EN":"State"}},
{"type":"Feature","geometry":{"type":"Polygon","coordinates":[[[11.068606,9.586392],[11.525943,9.591973],[11.702676,9.643959],[11.940388,9.825731],[11.945555,10.04471],[11.689137,10.263224],[11.701023,10.594186],[11.593019,10.597209],[11.590332,10.92817],[11.353964,11.215879],[11.152839,11.330833],[11.014243,11.294711],[10.673798,11.041368],[10.538613,10.71162],[10.82335,10.445564],[10.843194,10.187647],[10.765059,10.039362],[10.971351,9.887846],[11.068606,9.586392]]]},"properties":{"LOCATION_TYPE":"level1","ADM0_A3":"NGA","LOCATION_ID":"NGA-GO","NAME":"Gombe","TYPE_EN":"State"}},
{"type":"Feature","geometry":{"type":"Polygon","coordinates":[[[7.493734,7.074452],[7.411672,7.107835],[7.020998,6.77832],[6.905966,6.776124],[7.10027,6.667759],[7.085387,6.41873],[7.265118,6.041699],[7.363716,6.020615],[7.533525,5.972969],[7.693205,5.941886],[7.734133,6.407568],[7.827667,6.630216],[7.851128,6.820256],[7.640392,6.862114],[7.493734,7.074452]]]},"properties":{"LOCATION_TYPE":"level1","ADM0_A3":"NGA","LOCATION_ID":"NGA-EN","NAME":"Enugu","TYPE_EN":"State"}},
{"type":"Feature","geometry":{"type":"Polygon","coordinates":[[[7.666023,8.025712],[7.285788,8.028089],[6.970459,7.882155],[6.978107,8.411761],[6.834963,8.406774],[6.688512,8.21353],[6.465373,8.431734],[6.370495,8.680943],[6.215879,8.729958],[6.053409,8.373701],[5.805052,8.405172],[5.515664,8.530694],[5.356914,8.348173],[5.536024,8.069585],[5.624804,7.850348],[5.811356,7.75609],[6.028397,7.573362],[6.13237,7.42673],[6.264145,7.463266],[6.628361,7.279039],[6.719415,7.148918],[6.649238,6.84382],[6.67673,6.535105],[6.792382,6.566809],[6.905966,6.776124],[7.020998,6.77832],[7.411672,7.107835],[7.493734,7.074452],[7.785499,7.171087],[7.758524,7.720046],[7.666023,8.025712]]]},"properties":{"LOCATION_TYPE":"level1","ADM0_A3":"NGA","LOCATION_ID":"NGA-KO","NAME":"Kogi","TYPE_EN":"State"}},
{"type":"Feature","geometry":{"type":"Polygon","coordinates":[[[4.077095,7.112434],[4.301578,7.089748],[4.364106,6.980504],[4.561097,6.988282],[4.732146,7.146515],[4.869295,7.098198],[4.898234,7.339139],[4.991458,7.414845],[4.912393,7.627209],[4.926139,7.843062],[5.064115,8.03057],[4.940918,8.080437],[4.555619,8.034109],[4.399866,7.850581],[4.263544,7.954037],[4.086397,7.847687],[4.0341,7.625116],[4.145515,7.47435],[4.077095,7.112434]]]},"properties":{"LOCATION_TYPE":"level1","ADM0_A3":"NGA","LOCATION_ID":"NGA-OS","NAME":"Osun","TYPE_EN":"State"}},
{"type":"Feature","geometry":{"type":"Polygon","coordinates":[[[6.668772,5.694278],[6.62619,5.502042],[6.724375,5.305051],[6.870206,5.194929],[7.251475,5.194696],[7.404954,5.543176],[7.387901,5.842073],[7.250131,5.926254],[6.948548,5.884473],[6.895838,5.762026],[6.668772,5.694278]]]},"properties":{"LOCATION_TYPE":"level1","ADM0_A3":"NGA","LOCATION_ID":"NGA-IM","NAME":"Imo","TYPE_EN":"State"}},
{"type":"Feature","geometry":{"type":"Polygon","coordinates":[[[5.536024,8.069585],[5.35371,7.974268],[5.064115,8.03057],[4.926139,7.843062],[4.912393,7.627209],[4.991458,7.414845],[5.330559,7.419857],[5.537781,7.368491],[5.623667,7.619742],[5.811356,7.75609],[5.624804,7.850348],[5.536024,8.069585]]]},"properties":{"LOCATION_TYPE":"level1","ADM0_A3":"NGA","LOCATION_ID":"NGA-EK","NAME":"Ekiti","TYPE_EN":"State"}},
{"type":"Feature","geometry":{"type":"Polygon","coordinates":[[[8.741307,10.549046],[8.558372,10.746683],[8.542352,11.082011],[8.113955,11.372691],[8.103206,11.4955],[7.776198,11.359152],[7.660649,11.274583],[7.466759,11.368841],[7.242173,11.26337],[7.186466,11.112242],[6.993093,11.209781],[6.881782,11.366102],[6.668565,11.065656],[6.342693,11.039637],[6.161929,10.862748],[6.093096,10.482565],[6.173815,10.361151],[6.426719,10.573593],[6.568519,10.53468],[6.83517,10.623073],[6.955989,10.482358],[7.041049,10.233045],[7.008492,10.017063],[7.279174,9.977583],[7.338085,9.586624],[7.218299,9.416583],[7.3108,9.297443],[7.625819,9.310698],[7.816609,9.25065],[7.950864,9.345941],[8.063415,9.218792],[8.483648,8.999193],[8.659968,9.204761],[8.559302,9.484538],[8.631546,9.738682],[8.660071,10.169173],[8.785025,10.335649],[8.741307,10.549046]]]},"properties":{"LOCATION_TYPE":"level1","ADM0_A3":"NGA","LOCATION_ID":"NGA-KD","NAME":"Kaduna","TYPE_EN":"State"}},
{"type":"Feature","geometry":{"type":"Polygon","coordinates":[[[9.224688,11.342435],[9.34158,11.532656],[9.143349,11.776387],[9.181176,12.030274],[8.956384,12.050634],[8.946152,12.221812],[8.785128,12.298655],[8.678261,12.539261],[8.282833,12.569569],[8.093801,12.382655],[7.84131,12.266073],[7.833145,11.914364],[7.89371,11.650788],[7.746535,11.600791],[7.776198,11.359152],[8.103206,11.4955],[8.113955,11.372691],[8.542352,11.082011],[8.558372,10.746683],[8.741307,10.549046],[8.815411,10.664104],[8.733969,10.862826],[8.767662,11.084802],[9.031935,11.296081],[9.224688,11.342435]]]},"properties":{"LOCATION_TYPE":"level1","ADM0_A3":"NGA","LOCATION_ID":"NGA-KN","NAME":"Kano","TYPE_EN":"State"}},
{"type":"Feature","geometry":{"type":"Polygon","coordinates":[[[6.978107,8.411761],[7.263464,8.471447],[7.4711,8.639163],[7.625819,9.310698],[7.3108,9.297443],[7.17024,9.099187],[7.023375,9.213753],[6.749594,9.185641],[6.758999,8.472248],[6.834963,8.406774],[6.978107,8.411761]]]},"properties":{"LOCATION_TYPE":"level1","ADM0_A3":"NGA","LOCATION_ID":"NGA-FC","NAME":"Federal Capital Territory","TYPE_EN":"State"}}
]}