{"type":"FeatureCollection", "features": [
{"type":"Feature","geometry":{"type":"Polygon","coordinates":[[[7.072151,52.841317],[7.183623,52.966122],[7.172668,53.125751],[7.194591,53.245022],[6.900564,53.351793],[6.866873,53.434272],[6.730235,53.460639],[6.345551,53.412665],[6.186021,53.410996],[6.278925,53.335866],[6.16906,53.152932],[6.309517,53.092057],[6.46837,53.204505],[6.631461,53.105596],[6.74055,53.111901],[7.038982,52.903903],[7.072151,52.841317]]]},"properties":{"LOCATION_TYPE":"level1","ADM0_A3":"NLD","LOCATION_ID":"NLD-GR","NAME":"Groningen","TYPE_EN":"Province"}},
{"type":"Feature","geometry":{"type":"Polygon","coordinates":[[[7.072151,52.841317],[7.038982,52.903903],[6.74055,53.111901],[6.631461,53.105596],[6.46837,53.204505],[6.309517,53.092057],[6.429458,52.959352],[6.265437,52.925659],[6.129476,52.853415],[6.206939,52.796726],[6.164875,52.693425],[6.321299,52.668258],[6.382588,52.619579],[6.624175,52.672341],[6.719083,52.626759],[7.036655,52.647382],[7.072151,52.841317]]]},"properties":{"LOCATION_TYPE":"level1","ADM0_A3":"NLD","LOCATION_ID":"NLD-DR","NAME":"Drenthe","TYPE_EN":"Province"}},
{"type":"Feature","geometry":{"type":"Polygon","coordinates":[[[6.719083,52.626759],[6.624175,52.672341],[6.382588,52.619579],[6.321299,52.668258],[6.164875,52.693425],[6.206939,52.796726],[6.129476,52.853415],[5.785156,52.803702],[5.923442,52.739882],[5.926543,52.671669],[5.844233,52.605317],[5.866948,52.521791],[6.030671,52.511007],[6.132732,52.421297],[6.068033,52.321768],[6.144101,52.248801],[6.259236,52.228854],[6.411423,52.244563],[6.495242,52.177177],[6.666705,52.164465],[6.771576,52.108793],[7.02632,52.230637],[7.048231,52.365074],[6.9733,52.451373],[6.90023,52.431917],[6.695074,52.475609],[6.719083,52.626759]]]},"properties":{"LOCATION_TYPE":"level1","ADM0_A3":"NLD","LOCATION_ID":"NLD-OV","NAME":"Overijssel","TYPE_EN":"Province"}},
{"type":"Feature","geometry":{"type":"Polygon","coordinates":[[[6.771576,52.108793],[6.666705,52.164465],[6.495242,52.177177],[6.411423,52.244563],[6.259236,52.228854],[6.144101,52.248801],[6.068033,52.321768],[6.132732,52.421297],[6.030671,52.511007],[5.866948,52.521791],[5.771043,52.413804],[5.579114,52.344795],[5.532749,52.276866],[5.408922,52.267722],[5.430139,52.168599],[5.564808,52.073308],[5.50507,51.981995],[5.182557,51.966854],[5.120546,51.876214],[5.009286,51.825209],[5.134912,51.734827],[5.31795,51.747436],[5.381098,51.811618],[5.643201,51.823814],[5.759938,51.762577],[5.862774,51.759373],[5.946056,51.746288],[5.928041,51.806736],[6.043279,51.846862],[6.22518,51.862546],[6.382483,51.827587],[6.528624,51.876421],[6.716675,51.899262],[6.804008,51.984373],[6.675024,52.034809],[6.771576,52.108793]]]},"properties":{"LOCATION_TYPE":"level1","ADM0_A3":"NLD","LOCATION_ID":"NLD-GE","NAME":"Gelderland","TYPE_EN":"Province"}},
{"type":"Feature","geometry":{"type":"Polygon","coordinates":[[[5.946056,51.746288],[5.862774,51.759373],[5.959978,51.712399],[6.049275,51.566465],[5.837763,51.567034],[5.875022,51.354075],[5.675757,51.316351],[5.551407,51.216767],[5.840501,51.138921],[5.64072,50.815039],[5.793165,50.752149],[5.974756,50.74755],[6.063743,50.90754],[6.003695,50.973737],[5.982921,51.074687],[6.132369,51.139825],[6.06519,51.231629],[6.183632,51.335705],[6.193348,51.509338],[6.086481,51.595534],[6.099193,51.644472],[5.946056,51.746288]]]},"properties":{"LOCATION_TYPE":"level1","ADM0_A3":"NLD","LOCATION_ID":"NLD-LI","NAME":"Limburg","TYPE_EN":"Province"}},
{"type":"Feature","geometry":{"type":"MultiPolygon","coordinates":[[[[3.453877,51.235633],[3.635054,51.287827],[3.927026,51.206255],[4.118952,51.272401],[4.207939,51.330589],[3.984141,51.410468],[3.858165,51.345445],[3.755544,51.350084],[3.541352,51.416734],[3.349415,51.375223],[3.353211,51.288602],[3.453877,51.235633]]],[[[4.281124,51.368947],[4.263802,51.444457],[4.128754,51.441352],[4.05714,51.508368],[3.828868,51.612738],[3.560395,51.594631],[3.45753,51.55508],[3.535411,51.459215],[3.689708,51.454291],[3.827159,51.391059],[3.943126,51.450385],[4.281124,51.368947]]],[[[4.230479,51.519558],[4.206812,51.590557],[4.067719,51.610663],[4.067231,51.544013],[4.230479,51.519558]]],[[[4.186127,51.616807],[4.197784,51.637892],[4.110919,51.646987],[4.186127,51.616807]]],[[[4.036632,51.685858],[3.939626,51.741156],[3.795909,51.700141],[3.978038,51.623277],[4.036632,51.685858]]]]},"properties":{"LOCATION_TYPE":"level1","ADM0_A3":"NLD","LOCATION_ID":"NLD-ZE","NAME":"Zeeland","TYPE_EN":"Province"}},
{"type":"Feature","geometry":{"type":"Polygon","coordinates":[[[4.281124,51.368947],[4.377128,51.442882],[4.525232,51.475929],[4.653907,51.426216],[4.731215,51.485618],[4.910325,51.391903],[5.012128,51.474327],[5.068145,51.37454],[5.215423,51.258733],[5.389056,51.258707],[5.471635,51.288085],[5.551407,51.216767],[5.675757,51.316351],[5.875022,51.354075],[5.837763,51.567034],[6.049275,51.566465],[5.959978,51.712399],[5.862774,51.759373],[5.759938,51.762577],[5.643201,51.823814],[5.381098,51.811618],[5.31795,51.747436],[5.134912,51.734827],[5.009286,51.825209],[4.790385,51.802678],[4.675554,51.719374],[4.544876,51.695968],[4.403113,51.708264],[4.333678,51.656911],[4.197784,51.637892],[4.186127,51.616807],[4.206812,51.590557],[4.230479,51.519558],[4.263802,51.444457],[4.281124,51.368947]]]},"properties":{"LOCATION_TYPE":"level1","ADM0_A3":"NLD","LOCATION_ID":"NLD-NB","NAME":"Noord-Brabant","TYPE_EN":"Province"}},
{"type":"Feature","geometry":{"type":"Polygon","coordinates":[[[4.110919,51.646987],[4.197784,51.637892],[4.333678,51.656911],[4.403113,51.708264],[4.544876,51.695968],[4.675554,51.719374],[4.790385,51.802678],[5.009286,51.825209],[5.120546,51.876214],[5.182557,51.966854],[5.104888,52.003803],[4.88733,51.941171],[4.833328,51.987318],[4.820771,52.139505],[4.767854,52.221206],[4.546731,52.227768],[4.508149,52.336371],[4.284679,52.112942],[4.141856,52.005601],[4.01002,51.980129],[4.033946,51.784247],[4.110919,51.646987]]]},"properties":{"LOCATION_TYPE":"level1","ADM0_A3":"NLD","LOCATION_ID":"NLD-ZH","NAME":"Zuid-Holland","TYPE_EN":"Province"}},
{"type":"Feature","geometry":{"type":"MultiPolygon","coordinates":[[[[4.508149,52.336371],[4.546731,52.227768],[4.767854,52.221206],[5.025306,52.281564],[5.045028,52.16811],[5.202039,52.187409],[5.276195,52.279342],[5.366119,52.283151],[5.159877,52.328207],[5.10325,52.39616],[5.167967,52.472202],[5.09516,52.582221],[5.358882,52.689004],[5.370323,52.790339],[5.260189,52.865358],[5.179773,53.008995],[4.913097,52.905585],[4.745453,52.967597],[4.669444,52.796576],[4.596934,52.506578],[4.508149,52.336371]]],[[[4.892589,53.111029],[4.85434,53.18773],[4.713878,53.054633],[4.795665,53.000312],[4.892589,53.111029]]]]},"properties":{"LOCATION_TYPE":"level1","ADM0_A3":"NLD","LOCATION_ID":"NLD-NH","NAME":"Noord-Holland","TYPE_EN":"Province"}},
{"type":"Feature","geometry":{"type":"MultiPolygon","coordinates":[[[[5.179773,53.008995],[5.260189,52.865358],[5.370323,52.790339],[5.557887,52.792552],[5.740456,52.838739],[5.785156,52.803702],[6.129476,52.853415],[6.265437,52.925659],[6.429458,52.959352],[6.309517,53.092057],[6.16906,53.152932],[6.278925,53.335866],[6.186021,53.410996],[5.980805,53.406073],[5.591563,53.302802],[5.447439,53.220893],[5.379242,53.097357],[5.179773,53.008995]]],[[[5.423595,53.430365],[5.178884,53.385443],[5.208344,53.352688],[5.423595,53.430365]]]]},"properties":{"LOCATION_TYPE":"level1","ADM0_A3":"NLD","LOCATION_ID":"NLD-FR","NAME":"Friesland","TYPE_EN":"Province"}},
{"type":"Feature","geometry":{"type":"Polygon","coordinates":[[[-68.211537,12.228095],[-68.400054,12.304389],[-68.417388,12.257025],[-68.302561,12.202948],[-68.259674,12.028062],[-68.205312,12.118232],[-68.211537,12.228095]]]},"properties":{"LOCATION_TYPE":"level1","ADM0_A3":"NLD","LOCATION_ID":"NLD-BQ1","NAME":"Bonaire","TYPE_EN":"Special Municipality"}},
{"type":"Feature","geometry":{"type":"Polygon","coordinates":[[[-62.997141,17.525621],[-62.981086,17.467724],[-62.945065,17.485384],[-62.997141,17.525621]]]},"properties":{"LOCATION_TYPE":"level1","ADM0_A3":"NLD","LOCATION_ID":"NLD-BQ3","NAME":"St. Eustatius","TYPE_EN":"Special Municipality"}},
{"type":"Feature","geometry":{"type":"Polygon","coordinates":[[[-63.238433,17.646918],[-63.251332,17.623765],[-63.238393,17.614691],[-63.223704,17.629218],[-63.238433,17.646918]]]},"properties":{"LOCATION_TYPE":"level1","ADM0_A3":"NLD","LOCATION_ID":"NLD-BQ2","NAME":"Saba","TYPE_EN":"Special Municipality"}},
{"type":"Feature","geometry":{"type":"Polygon","coordinates":[[[5.785156,52.803702],[5.740456,52.838739],[5.557887,52.792552],[5.370323,52.790339],[5.358882,52.689004],[5.09516,52.582221],[5.167967,52.472202],[5.10325,52.39616],[5.159877,52.328207],[5.366119,52.283151],[5.408922,52.267722],[5.532749,52.276866],[5.579114,52.344795],[5.771043,52.413804],[5.866948,52.521791],[5.844233,52.605317],[5.926543,52.671669],[5.923442,52.739882],[5.785156,52.803702]]]},"properties":{"LOCATION_TYPE":"level1","ADM0_A3":"NLD","LOCATION_ID":"NLD-FL","NAME":"Flevoland","TYPE_EN":"Province"}},
{"type":"Feature","geometry":{"type":"Polygon","coordinates":[[[5.408922,52.267722],[5.366119,52.283151],[5.276195,52.279342],[5.202039,52.187409],[5.045028,52.16811],[5.025306,52.281564],[4.767854,52.221206],[4.820771,52.139505],[4.833328,51.987318],[4.88733,51.941171],[5.104888,52.003803],[5.182557,51.966854],[5.50507,51.981995],[5.564808,52.073308],[5.430139,52.168599],[5.408922,52.267722]]]},"properties":{"LOCATION_TYPE":"level1","ADM0_A3":"NLD","LOCATION_ID":"NLD-UT","NAME":"Utrecht","TYPE_EN":"Province"}}
]}