{"type":"FeatureCollection", "features": [
{"type":"Feature","geometry":{"type":"MultiPolygon","coordinates":[[[[18.189291,68.538425],[18.436218,68.573852],[18.644577,68.501246],[19.038145,68.505639],[19.481735,68.424042],[19.93101,68.350196],[20.010282,68.36389],[20.245927,68.477372],[19.962223,68.541192],[20.236625,68.659066],[20.356514,68.804587],[20.341115,68.910058],[20.102266,69.022145],[20.623165,69.036356],[20.744397,69.104362],[21.032545,69.041007],[21.156362,69.087619],[21.033579,69.181205],[21.098381,69.239496],[21.313562,69.291431],[21.662894,69.263215],[21.9461,69.065703],[22.440729,69.089685],[22.586456,69.161515],[22.591107,69.230555],[22.34952,69.404394],[22.351535,69.477155],[22.762105,69.512605],[22.933412,69.639936],[22.664178,69.685773],[22.526408,69.800029],[22.564856,69.909997],[22.321408,69.951596],[22.112222,70.158379],[21.860092,70.104352],[21.647961,70.180781],[21.233879,70.224286],[21.281993,70.176256],[21.436534,70.149604],[21.513357,70.091702],[21.688487,70.065131],[21.839203,70.092434],[21.940115,69.985745],[21.904552,69.825426],[21.578624,69.927924],[21.558116,69.989407],[21.392589,70.028998],[21.253103,70.002997],[21.170421,69.875637],[20.893891,69.852851],[20.785167,69.801744],[20.511974,69.769477],[20.541759,69.70539],[20.497325,69.577623],[20.277029,69.392279],[20.215587,69.468655],[20.382579,69.598782],[20.323009,69.669176],[20.417247,69.890367],[20.314952,69.963813],[20.114757,69.878404],[20.007009,69.7685],[19.872325,69.763414],[19.822765,69.688707],[19.857758,69.627265],[19.756847,69.599555],[19.674327,69.681545],[19.78419,69.804389],[19.295746,69.782904],[19.098318,69.736151],[18.944347,69.615302],[19.053396,69.552151],[19.001313,69.464342],[18.852712,69.552314],[18.497569,69.521959],[18.466645,69.445217],[18.562673,69.436957],[18.689708,69.317857],[18.495616,69.290473],[18.509288,69.355943],[18.300955,69.486762],[18.15504,69.457587],[18.180349,69.407782],[18.112559,69.333482],[18.003103,69.285712],[18.081309,69.169135],[17.679373,69.091864],[17.488292,68.995673],[17.436371,68.913398],[17.720958,68.934231],[17.694184,68.89175],[17.234386,68.756049],[17.115082,68.699042],[16.992931,68.707953],[16.629242,68.641669],[16.580821,68.534491],[16.741748,68.521709],[16.884634,68.566539],[17.370031,68.576125],[17.568003,68.607931],[18.036657,68.61961],[18.189291,68.538425]]],[[[17.052908,68.817532],[16.974294,68.845445],[16.844249,68.773261],[16.840994,68.725409],[17.104991,68.758043],[17.052908,68.817532]]],[[[17.206391,68.893256],[17.178233,68.815009],[17.299815,68.803656],[17.44044,68.865912],[17.319672,68.918443],[17.206391,68.893256]]],[[[15.907851,68.9575],[15.880974,68.876571],[15.72455,68.733376],[15.775296,68.673896],[15.679591,68.617259],[15.640627,68.536644],[15.677576,68.467966],[15.872137,68.549563],[16.24581,68.628628],[16.496104,68.579332],[16.55893,68.655219],[16.505544,68.803168],[16.314626,68.870103],[16.107432,68.836127],[16.20102,68.760728],[15.933116,68.684149],[15.976899,68.781317],[15.863292,68.782904],[15.924083,68.88642],[15.907851,68.9575]]],[[[16.566173,68.968329],[16.261729,68.968329],[16.394867,68.902004],[16.567068,68.887397],[16.566173,68.968329]]],[[[18.070811,69.437934],[18.050548,69.495917],[17.772227,69.547797],[17.617931,69.517035],[17.263438,69.47842],[17.276052,69.393541],[17.076671,69.386054],[17.058279,69.334296],[16.915294,69.317572],[16.944835,69.236518],[16.898611,69.194892],[16.988536,69.139635],[16.786469,69.10814],[16.823253,69.054429],[17.23463,69.106187],[17.472179,69.200141],[17.519054,69.157945],[17.958263,69.180487],[17.923106,69.332343],[18.084727,69.352525],[18.070811,69.437934]]],[[[18.999034,69.828599],[18.822032,69.886054],[18.653168,69.804389],[18.533214,69.780504],[18.356781,69.792873],[18.353201,69.70482],[18.291026,69.638983],[18.13502,69.636949],[17.995372,69.592108],[18.261974,69.530585],[18.822927,69.590725],[18.803477,69.681545],[19.033458,69.74372],[18.999034,69.828599]]],[[[19.619151,70.01675],[19.46811,70.046617],[19.392589,69.991889],[19.208181,70.098578],[19.043468,70.034084],[18.875824,70.024237],[18.769298,69.955268],[18.843028,69.903306],[19.04363,69.838568],[19.121593,69.787828],[19.406749,69.838568],[19.619151,70.01675]]],[[[20.791515,70.092434],[20.824229,70.194566],[20.733897,70.236721],[20.587657,70.236151],[20.415701,70.171536],[20.431651,70.068061],[20.588145,70.045966],[20.791515,70.092434]]],[[[19.982188,70.14704],[19.941173,70.195461],[19.633067,70.219306],[19.819509,70.060248],[19.978201,70.060126],[20.05421,70.101508],[19.982188,70.14704]]],[[[20.702891,69.888821],[20.562755,69.895982],[20.522634,69.839423],[20.706716,69.817288],[20.702891,69.888821]]],[[[19.813324,70.00259],[19.53297,69.919379],[19.483653,69.838324],[19.720551,69.864691],[19.856456,69.973131],[19.813324,70.00259]]],[[[18.666759,70.027574],[18.765147,70.019192],[18.975597,70.073635],[18.753673,70.111965],[18.666759,70.027574]]]]},"properties":{"LOCATION_TYPE":"level1","ADM0_A3":"NOR","LOCATION_ID":"NOR-19","NAME":"Troms","TYPE_EN":"County"}},
{"type":"Feature","geometry":{"type":"MultiPolygon","coordinates":[[[[18.189291,68.538425],[18.036657,68.61961],[17.568003,68.607931],[17.370031,68.576125],[16.884634,68.566539],[16.741748,68.521709],[16.580821,68.534491],[16.46461,68.509996],[16.534841,68.4383],[16.848643,68.448717],[16.977387,68.508205],[17.046641,68.434149],[17.260102,68.455227],[17.364594,68.502875],[17.467621,68.447577],[17.206065,68.372992],[16.847504,68.323432],[16.869884,68.372545],[16.694591,68.405463],[16.422862,68.38935],[16.220063,68.351386],[16.172374,68.317857],[16.172048,68.203681],[16.459972,68.205471],[16.319998,68.1258],[16.364757,68.029853],[16.275401,67.975287],[16.042003,68.029853],[16.104015,68.160224],[15.964041,68.247219],[15.925304,68.13227],[15.710134,68.084621],[15.968761,68.008612],[15.885509,67.93887],[15.788748,67.951361],[15.302094,67.890367],[14.998709,67.895453],[15.063243,67.838772],[14.789399,67.822821],[15.01531,67.746649],[14.726817,67.659369],[14.836111,67.642524],[15.040701,67.677558],[15.411388,67.796454],[15.336925,67.687201],[15.196462,67.644599],[15.275645,67.593573],[15.267345,67.524359],[14.990408,67.570624],[14.726817,67.488674],[14.799978,67.42182],[14.623057,67.42064],[14.601736,67.377346],[14.406912,67.278062],[14.673839,67.216702],[14.979991,67.269517],[15.13795,67.311021],[15.28297,67.247016],[15.455089,67.213568],[15.356781,67.165839],[15.094574,67.213365],[14.781423,67.214301],[14.459239,67.152818],[14.363048,67.159654],[14.22283,66.981513],[14.109386,66.990668],[13.917491,66.9289],[13.589692,66.938178],[13.688324,66.835028],[13.54184,66.803209],[13.589122,66.761786],[13.480154,66.675279],[13.283946,66.660712],[13.204845,66.556342],[13.219086,66.504828],[13.081798,66.497992],[13.170665,66.41234],[13.000011,66.357123],[13.037283,66.319973],[13.226573,66.297349],[13.031586,66.198228],[13.069347,66.174058],[13.287364,66.241034],[13.57545,66.262152],[13.699067,66.253079],[13.764334,66.293443],[13.907481,66.268378],[13.576508,66.21894],[13.527192,66.240139],[13.306,66.217922],[13.225352,66.185777],[12.868988,66.134345],[12.687185,66.074612],[12.712087,66.042426],[12.951508,66.03559],[12.917491,65.95303],[12.789073,65.964993],[12.682302,65.926663],[12.615733,65.850653],[12.66033,65.809719],[12.495372,65.733344],[12.348888,65.638373],[12.417166,65.596747],[12.404307,65.53498],[12.596528,65.488593],[12.602224,65.432318],[12.342133,65.302558],[12.502778,65.144924],[12.368826,65.090277],[12.193126,65.050482],[12.201671,64.999254],[12.310339,64.972133],[12.419893,64.98792],[12.624687,64.95017],[12.896247,64.979497],[12.951489,65.034894],[13.15835,65.119979],[13.324076,65.105277],[13.678473,65.106414],[14.227018,65.1322],[14.332074,65.113964],[14.400495,65.25545],[14.514287,65.318081],[14.510359,65.464739],[14.560692,65.701055],[14.63707,65.781206],[14.644408,65.842907],[14.540538,66.125448],[15.053375,66.153276],[15.481876,66.274871],[15.426272,66.491214],[15.669462,66.599424],[16.038845,66.887546],[16.415566,67.052704],[16.43789,67.200318],[16.127108,67.422759],[16.199559,67.508284],[16.482952,67.557841],[16.608733,67.647293],[16.761901,67.87715],[16.807997,67.910636],[17.220065,68.040086],[17.321454,68.105301],[17.895372,67.969651],[17.950769,67.991096],[18.166674,68.158476],[18.188584,68.198732],[18.135668,68.395723],[18.189291,68.538425]]],[[[14.027843,68.262641],[13.983084,68.337307],[13.873709,68.325588],[13.791189,68.268052],[13.636729,68.294338],[13.500011,68.242255],[13.479259,68.186916],[13.589122,68.159613],[13.485688,68.106838],[13.718761,68.077623],[13.845958,68.120551],[13.876313,68.180732],[14.034028,68.180732],[14.158865,68.255276],[14.027843,68.262641]]],[[[14.763031,68.494859],[14.891938,68.494859],[15.000011,68.554755],[14.713552,68.57689],[14.604177,68.558661],[14.763031,68.494859]]],[[[12.224864,65.123765],[12.271658,65.164618],[12.190929,65.213813],[12.095063,65.178412],[12.04835,65.085395],[12.156505,65.055487],[12.224864,65.123765]]],[[[12.451427,65.426093],[12.444591,65.467027],[12.324718,65.531928],[12.197439,65.473863],[12.187755,65.35456],[12.247732,65.280463],[12.491873,65.387519],[12.451427,65.426093]]],[[[12.005138,65.689602],[11.824474,65.69302],[11.759288,65.617906],[11.926606,65.59634],[12.005138,65.689602]]],[[[12.698009,65.997748],[12.601329,66.021674],[12.472423,65.980943],[12.478689,65.898383],[12.73406,65.975572],[12.698009,65.997748]]],[[[13.054698,68.098131],[12.841645,67.879096],[13.013682,67.879096],[13.13087,67.952582],[13.054698,68.098131]]],[[[13.280528,68.129136],[13.177989,68.059475],[13.269054,67.997789],[13.379893,68.05036],[13.437673,68.126044],[13.280528,68.129136]]],[[[15.000499,68.365058],[15.172374,68.454413],[14.796397,68.426703],[14.653494,68.428534],[14.303396,68.311998],[14.198497,68.152777],[14.49822,68.196723],[14.763194,68.259019],[15.000499,68.365058]]],[[[16.422862,68.491929],[16.343598,68.537014],[16.192149,68.51496],[16.0949,68.397528],[16.398611,68.413479],[16.422862,68.491929]]],[[[16.496104,68.579332],[16.24581,68.628628],[15.872137,68.549563],[15.677576,68.467966],[15.640627,68.536644],[15.679591,68.617259],[15.775296,68.673896],[15.72455,68.733376],[15.880974,68.876571],[15.907851,68.9575],[15.676606,68.962714],[15.459158,68.796129],[15.438731,68.707668],[15.513845,68.636176],[15.394705,68.584784],[15.23878,68.564276],[15.268077,68.461249],[15.009288,68.313666],[15.085785,68.271226],[15.216563,68.335395],[15.691254,68.343004],[15.747895,68.42536],[15.903982,68.369859],[16.053396,68.46483],[16.093516,68.533515],[16.496104,68.579332]]],[[[14.397227,68.660468],[14.417247,68.619534],[14.616954,68.625718],[15.068696,68.748603],[15.16505,68.701402],[14.815929,68.637763],[14.87322,68.584459],[15.062673,68.578518],[15.336192,68.652899],[15.394216,68.731106],[15.295258,68.906928],[15.192882,68.927395],[15.168224,68.988267],[15.00766,68.981024],[15.076671,68.898993],[15.049815,68.852769],[14.719981,68.762885],[14.644216,68.790229],[14.438162,68.756049],[14.397227,68.660468]]],[[[15.528656,68.913764],[15.632172,68.98664],[15.847911,69.029242],[16.060802,69.144599],[16.149913,69.290839],[16.101573,69.315253],[15.864513,69.249498],[15.791352,69.161282],[15.569672,69.105536],[15.459809,69.013088],[15.418793,68.913764],[15.528656,68.913764]]],[[[15.295665,67.945258],[14.978201,67.971869],[14.972179,67.91649],[15.163097,67.910712],[15.295665,67.945258]]],[[[-7.962554,71.174872],[-8.325673,71.14761],[-8.507436,71.020697],[-8.916331,70.932807],[-9.117421,70.874905],[-9.020131,70.806708],[-8.697418,70.938137],[-8.497548,70.976264],[-8.401357,70.962592],[-8.005971,71.032538],[-7.962554,71.174872]]]]},"properties":{"LOCATION_TYPE":"level1","ADM0_A3":"NOR","LOCATION_ID":"NOR-18","NAME":"Nordland","TYPE_EN":"County"}},
{"type":"Feature","geometry":{"type":"MultiPolygon","coordinates":[[[[14.332074,65.113964],[14.227018,65.1322],[13.678473,65.106414],[13.324076,65.105277],[13.15835,65.119979],[12.951489,65.034894],[12.896247,64.979497],[12.624687,64.95017],[12.419893,64.98792],[12.310339,64.972133],[12.201671,64.999254],[12.176338,65.01111],[12.045379,65.060134],[11.978526,65.068834],[11.81422,65.018012],[11.776378,64.976711],[11.401378,64.922268],[11.245372,64.857571],[11.346365,64.804999],[11.622081,64.843207],[11.790375,64.783637],[11.553233,64.767524],[11.421072,64.713813],[11.402029,64.663153],[11.516775,64.572943],[11.521332,64.518215],[11.362071,64.411282],[11.076182,64.523627],[11.051931,64.57982],[10.916352,64.575751],[10.94988,64.520494],[10.796641,64.432318],[10.625222,64.405309],[10.789657,64.333851],[10.964065,64.293699],[10.811826,64.143553],[10.916884,64.106423],[10.822988,64.041492],[10.782474,63.955321],[10.641604,63.897831],[10.482234,63.737712],[10.239716,63.654565],[10.165509,63.597824],[10.197921,63.542281],[10.415782,63.579413],[10.611583,63.640326],[10.642751,63.677639],[10.910004,63.731024],[11.056,63.861274],[10.934906,63.898139],[10.962738,63.947943],[11.262055,64.036119],[11.42628,64.028795],[11.43686,63.98314],[11.223318,63.945461],[11.096446,63.889635],[11.415212,63.850084],[11.463878,63.801703],[11.242198,63.765082],[11.11964,63.704495],[11.033458,63.719184],[10.755707,63.625067],[10.77768,63.487494],[10.875883,63.445908],[10.884432,63.3867],[10.96298,63.34895],[11.459074,63.336729],[11.642473,63.196866],[12.059827,63.204772],[11.992425,63.288903],[12.204919,63.454629],[12.170295,63.598135],[12.293182,63.656994],[12.681892,63.956356],[12.982442,64.05883],[13.234106,64.090869],[13.939438,64.009531],[13.98233,64.019504],[14.147797,64.169004],[14.16144,64.205436],[14.115551,64.441236],[13.642764,64.584018],[14.332074,65.113964]]],[[[11.286306,64.558987],[11.229259,64.611274],[11.042654,64.630357],[11.180186,64.507473],[11.286306,64.558987]]]]},"properties":{"LOCATION_TYPE":"level1","ADM0_A3":"NOR","LOCATION_ID":"NOR-17","NAME":"Nord-Trøndelag","TYPE_EN":"County"}},
{"type":"Feature","geometry":{"type":"MultiPolygon","coordinates":[[[[12.059827,63.204772],[11.642473,63.196866],[11.459074,63.336729],[10.96298,63.34895],[10.884432,63.3867],[10.875883,63.445908],[10.69044,63.452338],[10.576915,63.430732],[10.300466,63.466539],[9.960623,63.42772],[9.805919,63.513739],[9.81072,63.54857],[9.699067,63.644477],[9.516775,63.603705],[9.416677,63.524888],[9.342784,63.555609],[9.244314,63.513739],[9.167735,63.402004],[9.000824,63.466132],[8.96754,63.418524],[8.786388,63.429836],[8.914991,63.355565],[8.868988,63.210476],[8.849946,63.203437],[8.858664,63.138059],[9.036792,63.154957],[9.205619,63.140797],[9.279052,63.211465],[9.467102,63.191905],[9.490046,63.052947],[9.580687,63.020236],[9.441626,62.937864],[9.416201,62.833168],[8.948374,62.742269],[8.941243,62.714002],[9.168102,62.58326],[9.230631,62.571969],[9.166862,62.419394],[9.090639,62.38012],[9.597275,62.274313],[9.783052,62.285811],[9.863719,62.360742],[10.104996,62.442649],[10.07523,62.510784],[10.156827,62.654936],[10.285657,62.707387],[10.752863,62.670335],[10.896524,62.707801],[11.168859,62.666124],[11.235005,62.569308],[11.476902,62.461149],[11.541291,62.407018],[11.719264,62.368752],[11.822927,62.385908],[12.170968,62.332966],[12.279522,62.344214],[12.091231,62.58631],[12.156239,62.733691],[12.104356,62.923344],[12.222695,63.001479],[12.059827,63.204772]]],[[[10.197921,63.542281],[10.165509,63.597824],[10.239716,63.654565],[10.482234,63.737712],[10.641604,63.897831],[10.782474,63.955321],[10.822988,64.041492],[10.916884,64.106423],[10.811826,64.143553],[10.964065,64.293699],[10.789657,64.333851],[10.625222,64.405309],[10.607107,64.365546],[10.450206,64.349799],[10.462576,64.294135],[10.333507,64.260443],[10.323497,64.222235],[10.18336,64.18537],[10.107677,64.117092],[10.013682,64.118801],[9.993907,63.929389],[9.831228,63.86164],[9.545909,63.7744],[9.586762,63.671373],[10.029552,63.783515],[9.999848,63.723863],[9.799083,63.69184],[9.810802,63.627143],[9.918224,63.514716],[10.080333,63.507514],[10.197921,63.542281]]],[[[9.138682,63.567776],[8.988292,63.59276],[8.96518,63.656236],[8.545258,63.602484],[8.317231,63.51317],[8.277843,63.466539],[8.503591,63.434231],[8.718028,63.484036],[8.858572,63.487006],[9.106781,63.533271],[9.138682,63.567776]]],[[[8.360362,63.671373],[8.743419,63.687934],[8.825857,63.719794],[8.805349,63.790961],[8.360362,63.671373]]]]},"properties":{"LOCATION_TYPE":"level1","ADM0_A3":"NOR","LOCATION_ID":"NOR-16","NAME":"Sør-Trøndelag","TYPE_EN":"County"}},
{"type":"Feature","geometry":{"type":"Polygon","coordinates":[[[12.279522,62.344214],[12.170968,62.332966],[11.822927,62.385908],[11.719264,62.368752],[11.541291,62.407018],[11.476902,62.461149],[11.235005,62.569308],[11.168859,62.666124],[10.896524,62.707801],[10.752863,62.670335],[10.285657,62.707387],[10.156827,62.654936],[10.07523,62.510784],[10.104996,62.442649],[9.863719,62.360742],[9.783052,62.285811],[9.659028,62.169694],[9.888523,62.0851],[9.808322,62.017688],[9.811577,61.929864],[9.954049,61.898134],[10.085617,61.904387],[10.106701,61.848215],[10.05828,61.756334],[10.280799,61.721582],[10.399707,61.682954],[10.567138,61.74525],[10.625946,61.706776],[10.687699,61.479762],[10.853736,61.281169],[10.778133,61.258793],[10.639899,61.142573],[10.459135,61.036636],[10.601245,60.978397],[10.729971,60.884191],[10.727232,60.804325],[11.047677,60.684978],[11.163973,60.622636],[11.242911,60.512689],[11.35417,60.461323],[11.431582,60.368098],[11.582735,60.280093],[11.579635,60.189763],[11.839981,60.061812],[11.841841,59.933861],[11.874627,59.884937],[11.942196,59.90203],[12.143734,59.898412],[12.290598,59.958719],[12.446764,60.051116],[12.510946,60.117985],[12.521592,60.197619],[12.487279,60.295907],[12.593629,60.395023],[12.594352,60.514938],[12.482524,60.657332],[12.377001,60.754096],[12.256078,60.981318],[12.280986,61.015192],[12.511773,61.049117],[12.682512,61.040332],[12.746694,61.151462],[12.819661,61.204947],[12.877126,61.370984],[12.613783,61.547045],[12.416482,61.582289],[12.161717,61.724838],[12.31747,62.234032],[12.279522,62.344214]]]},"properties":{"LOCATION_TYPE":"level1","ADM0_A3":"NOR","LOCATION_ID":"NOR-04","NAME":"Hedmark","TYPE_EN":"County"}},
{"type":"Feature","geometry":{"type":"Polygon","coordinates":[[[11.874627,59.884937],[11.841841,59.933861],[11.839981,60.061812],[11.579635,60.189763],[11.582735,60.280093],[11.431582,60.368098],[11.35417,60.461323],[11.242911,60.512689],[11.163973,60.622636],[11.095323,60.532016],[10.862262,60.49021],[10.71607,60.523128],[10.681808,60.452641],[10.809346,60.436518],[10.91952,60.373886],[10.817097,60.267588],[10.754104,60.168162],[10.680103,60.153383],[10.766506,60.127906],[10.928047,59.993393],[10.934248,59.873038],[10.876215,59.830534],[10.756603,59.844156],[10.69809,59.777167],[10.614594,59.833686],[10.560232,59.726223],[10.656423,59.594672],[10.687958,59.483599],[10.766351,59.517091],[10.981893,59.71943],[11.213404,59.712428],[11.258414,59.769065],[11.355411,59.765241],[11.480778,59.686796],[11.522687,59.625792],[11.684383,59.713203],[11.715234,59.765991],[11.883742,59.805383],[11.874627,59.884937]]]},"properties":{"LOCATION_TYPE":"level1","ADM0_A3":"NOR","LOCATION_ID":"NOR-02","NAME":"Akershus","TYPE_EN":"County"}},
{"type":"Feature","geometry":{"type":"Polygon","coordinates":[[[11.883742,59.805383],[11.715234,59.765991],[11.684383,59.713203],[11.522687,59.625792],[11.480778,59.686796],[11.355411,59.765241],[11.258414,59.769065],[11.213404,59.712428],[10.981893,59.71943],[10.766351,59.517091],[10.687958,59.483599],[10.642751,59.374945],[10.674083,59.315741],[10.779145,59.312934],[10.733165,59.240912],[10.850271,59.180365],[10.948497,59.183336],[11.091075,59.127997],[11.370453,59.100653],[11.453233,58.960485],[11.451993,58.896044],[11.547078,58.884727],[11.664383,58.920074],[11.811661,59.249666],[11.783962,59.360616],[11.677406,59.559053],[11.693735,59.622305],[11.828404,59.659719],[11.891656,59.705762],[11.883742,59.805383]]]},"properties":{"LOCATION_TYPE":"level1","ADM0_A3":"NOR","LOCATION_ID":"NOR-01","NAME":"Østfold","TYPE_EN":"County"}},
{"type":"Feature","geometry":{"type":"MultiPolygon","coordinates":[[[[21.9461,69.065703],[22.160745,68.956102],[22.277224,68.857452],[22.371378,68.822622],[22.428739,68.710071],[22.596481,68.724643],[22.851659,68.675706],[23.019297,68.686713],[23.197581,68.618035],[23.481595,68.685628],[23.734809,68.715445],[23.787209,68.799781],[23.929009,68.816214],[24.131167,68.776165],[24.332499,68.708624],[24.663435,68.666094],[24.860942,68.563413],[25.117567,68.637672],[25.149607,68.764641],[25.201283,68.812648],[25.387215,68.874557],[25.651643,68.883497],[25.801091,69.013153],[25.750242,69.059248],[25.734119,69.191333],[25.786622,69.312773],[25.877366,69.370806],[25.841399,69.417779],[25.886668,69.520874],[26.00511,69.610843],[26.031982,69.696677],[26.198276,69.715436],[26.418728,69.835635],[26.500687,69.918317],[26.864592,69.938084],[27.10034,69.901755],[27.3118,69.929479],[27.612557,70.062055],[27.866908,70.07531],[28.167355,69.894339],[28.381192,69.856202],[28.40455,69.802252],[29.131224,69.674198],[29.344544,69.464392],[29.229254,69.376852],[28.86478,69.216603],[28.826953,69.106842],[28.954077,69.027261],[29.064768,69.034702],[29.240468,69.115059],[29.334519,69.277375],[29.434565,69.311843],[29.60427,69.315202],[29.751393,69.357163],[29.900686,69.358248],[30.123411,69.441912],[30.294357,69.620248],[30.511657,69.536325],[30.852979,69.527437],[30.927032,69.57839],[30.927703,69.672131],[30.843988,69.766234],[30.698741,69.808539],[30.450694,69.810289],[30.289236,69.886542],[30.165212,69.879543],[30.110606,69.756008],[29.993012,69.768012],[29.589692,69.72248],[29.775401,69.838568],[29.667247,69.901353],[29.685883,69.96955],[29.343435,70.01675],[29.158376,70.009223],[29.13795,70.057603],[28.732677,70.085598],[28.610362,70.120347],[28.753673,70.167548],[29.226736,70.120347],[30.133149,70.073188],[30.317068,70.117377],[30.398611,70.195461],[30.548839,70.248684],[30.933604,70.263739],[31.066417,70.300482],[31.063324,70.366767],[30.926036,70.456122],[30.837413,70.431708],[30.456309,70.561225],[30.326915,70.584906],[30.206798,70.681464],[29.993826,70.71308],[29.82309,70.633694],[29.778982,70.726549],[29.699555,70.74372],[29.351899,70.695299],[29.380544,70.769436],[29.221365,70.855414],[29.057465,70.884019],[28.794688,70.873236],[28.526215,70.721747],[28.397472,70.548285],[28.137218,70.446682],[27.849376,70.482856],[28.233165,70.61518],[28.30128,70.702582],[27.794688,70.613674],[27.933442,70.687079],[28.130544,70.736029],[28.483165,70.889472],[28.546072,70.979926],[28.191905,71.00495],[28.191417,71.086127],[27.87672,71.037746],[27.568696,71.097235],[27.47641,71.006659],[27.253184,71.026313],[27.122569,70.921698],[27.391287,70.87637],[27.286957,70.743557],[27.139822,70.740627],[27.129893,70.626207],[26.99171,70.582831],[26.976085,70.527411],[26.662283,70.426418],[26.513031,70.431586],[26.656993,70.64053],[26.640473,70.70661],[26.744314,70.823472],[26.669119,70.859605],[26.725352,70.927883],[26.613617,70.949123],[26.374278,70.868476],[26.070811,70.71247],[26.012218,70.626207],[25.656423,70.440619],[25.441091,70.342231],[25.5171,70.277899],[25.310395,70.17121],[25.252696,70.101304],[25.11378,70.082465],[24.94337,70.102362],[24.979828,70.229438],[25.201345,70.307074],[25.081065,70.35932],[25.264008,70.405341],[25.245942,70.527899],[25.35377,70.607164],[25.512462,70.67121],[25.825206,70.82746],[25.881602,70.895697],[25.70574,70.895575],[25.341807,70.952704],[25.392263,70.884426],[25.266124,70.825426],[25.153575,70.919501],[24.860199,70.928371],[24.666026,70.977688],[24.573985,70.798774],[24.395763,70.866889],[24.269379,70.838446],[24.292328,70.764106],[24.543956,70.746283],[24.724864,70.665229],[24.615001,70.626207],[24.498302,70.678046],[24.352387,70.690985],[24.264334,70.606269],[24.112315,70.548896],[24.315196,70.4831],[23.917979,70.509426],[23.513194,70.365546],[23.487641,70.235541],[23.275727,70.225043],[23.357758,70.115302],[23.175548,70.092434],[23.296886,70.039781],[23.488536,70.034166],[23.467296,69.985785],[23.283458,69.993394],[22.998057,70.08218],[22.967052,70.207465],[22.603689,70.218492],[22.46811,70.259914],[22.300304,70.255113],[21.986827,70.323432],[21.821788,70.268622],[21.439301,70.269477],[21.233879,70.224286],[21.647961,70.180781],[21.860092,70.104352],[22.112222,70.158379],[22.321408,69.951596],[22.564856,69.909997],[22.526408,69.800029],[22.664178,69.685773],[22.933412,69.639936],[22.762105,69.512605],[22.351535,69.477155],[22.34952,69.404394],[22.591107,69.230555],[22.586456,69.161515],[22.440729,69.089685],[21.9461,69.065703]]],[[[22.922374,70.304674],[22.780528,70.386217],[22.688975,70.39411],[22.373709,70.331977],[22.44516,70.291449],[22.7317,70.256903],[23.001475,70.249172],[22.922374,70.304674]]],[[[23.656016,70.503323],[23.601329,70.579047],[23.484548,70.624661],[23.310802,70.518744],[23.124278,70.520575],[22.897227,70.450995],[22.949555,70.35932],[23.216319,70.282782],[23.59254,70.415269],[23.656016,70.503323]]],[[[24.066905,70.660956],[23.815684,70.751166],[23.640147,70.702216],[23.697032,70.571601],[23.867931,70.512397],[24.101573,70.58869],[24.066905,70.660956]]],[[[22.42213,70.510728],[22.566091,70.503323],[22.643809,70.564154],[22.913829,70.543769],[23.088878,70.586249],[23.182384,70.68891],[23.319591,70.709377],[23.328949,70.779283],[23.128429,70.757799],[22.773692,70.650214],[22.541026,70.717475],[22.448578,70.682522],[22.26588,70.674994],[22.237071,70.579047],[22.14088,70.482856],[22.42213,70.510728]]],[[[26.135997,71.037746],[25.932872,71.055406],[25.783946,71.112209],[25.553396,71.140774],[25.293305,71.045152],[25.325531,71.007392],[25.533539,70.93183],[26.072602,70.975165],[26.135997,71.037746]]],[[[30.021169,69.832343],[29.994477,69.893785],[29.815929,69.891059],[29.795746,69.756008],[30.021169,69.832343]]]]},"properties":{"LOCATION_TYPE":"level1","ADM0_A3":"NOR","LOCATION_ID":"NOR-20","NAME":"Finnmark","TYPE_EN":"County"}},
{"type":"Feature","geometry":{"type":"Polygon","coordinates":[[[10.756603,59.844156],[10.876215,59.830534],[10.934248,59.873038],[10.928047,59.993393],[10.766506,60.127906],[10.680103,60.153383],[10.623621,60.154726],[10.533445,60.056696],[10.439394,60.033623],[10.37454,59.975461],[10.349891,59.838467],[10.486664,59.803166],[10.52947,59.88231],[10.740001,59.895168],[10.756603,59.844156]]]},"properties":{"LOCATION_TYPE":"level1","ADM0_A3":"NOR","LOCATION_ID":"NOR-03","NAME":"Oslo","TYPE_EN":"County"}},
{"type":"Feature","geometry":{"type":"Polygon","coordinates":[[[10.486664,59.803166],[10.349891,59.838467],[10.37454,59.975461],[10.439394,60.033623],[10.533445,60.056696],[10.623621,60.154726],[10.398311,60.236324],[10.237391,60.378485],[10.16799,60.532274],[10.043708,60.655394],[9.807701,60.579171],[9.831421,60.484991],[9.657633,60.514704],[9.606422,60.561213],[9.410155,60.584726],[9.407829,60.629219],[9.319514,60.714692],[9.326025,60.752933],[9.214766,60.802594],[8.893132,60.913388],[8.632269,60.964341],[8.569431,61.016948],[8.386651,61.059943],[8.279733,61.117665],[8.198084,61.072448],[8.193743,61.023046],[8.036853,60.932715],[7.873969,60.930441],[7.737544,60.860032],[7.679511,60.77965],[7.477921,60.702342],[7.589026,60.66038],[7.668659,60.547364],[7.669434,60.347609],[7.554299,60.18935],[7.467844,60.113695],[7.624269,60.145683],[7.823378,60.127751],[8.171419,60.197515],[8.408975,60.179324],[8.806522,60.16979],[8.959226,60.104574],[8.997415,60.016983],[9.117201,59.976184],[9.200968,59.915361],[9.203139,59.850042],[9.359873,59.807693],[9.357548,59.727001],[9.446018,59.650468],[9.492992,59.514714],[9.634844,59.456216],[9.782742,59.432187],[9.784912,59.491976],[10.018593,59.492545],[10.025724,59.549337],[9.929503,59.62835],[10.033011,59.684626],[10.28301,59.69584],[10.403005,59.682847],[10.423595,59.53384],[10.483735,59.514472],[10.59311,59.57038],[10.582693,59.662055],[10.518891,59.689032],[10.486664,59.803166]]]},"properties":{"LOCATION_TYPE":"level1","ADM0_A3":"NOR","LOCATION_ID":"NOR-06","NAME":"Buskerud","TYPE_EN":"County"}},
{"type":"Feature","geometry":{"type":"Polygon","coordinates":[[[10.28301,59.69584],[10.033011,59.684626],[9.929503,59.62835],[10.025724,59.549337],[10.018593,59.492545],[9.784912,59.491976],[9.782742,59.432187],[9.787393,59.336585],[9.868525,59.281291],[9.884028,59.204345],[9.832661,59.168999],[9.855192,59.108227],[9.827184,59.018401],[9.846202,58.955634],[10.014822,58.973131],[10.059418,59.018134],[10.281993,59.099677],[10.371593,59.273749],[10.469574,59.247789],[10.514171,59.302924],[10.444509,59.348944],[10.458995,59.440863],[10.331309,59.495063],[10.390147,59.558295],[10.39088,59.63817],[10.28301,59.69584]]]},"properties":{"LOCATION_TYPE":"level1","ADM0_A3":"NOR","LOCATION_ID":"NOR-07","NAME":"Vestfold","TYPE_EN":"County"}},
{"type":"Feature","geometry":{"type":"Polygon","coordinates":[[[9.827184,59.018401],[9.855192,59.108227],[9.832661,59.168999],[9.884028,59.204345],[9.868525,59.281291],[9.787393,59.336585],[9.782742,59.432187],[9.634844,59.456216],[9.492992,59.514714],[9.446018,59.650468],[9.357548,59.727001],[9.359873,59.807693],[9.203139,59.850042],[9.200968,59.915361],[9.117201,59.976184],[8.997415,60.016983],[8.959226,60.104574],[8.806522,60.16979],[8.408975,60.179324],[8.171419,60.197515],[7.823378,60.127751],[7.624269,60.145683],[7.467844,60.113695],[7.390898,60.027034],[7.261965,59.989414],[7.158302,59.903269],[7.160008,59.844823],[7.092053,59.794077],[7.113137,59.735579],[7.24393,59.691034],[7.364956,59.658581],[7.461953,59.665557],[7.530528,59.549492],[7.613572,59.50611],[7.527272,59.427484],[7.725916,59.319015],[7.779453,59.260259],[7.762865,59.171324],[7.968434,59.003117],[8.091786,58.974643],[8.168473,59.000714],[8.453986,58.920487],[8.579353,58.941364],[8.760737,58.85708],[8.832464,58.924259],[8.847037,59.003324],[8.991317,59.009938],[9.201899,58.868164],[9.20655,58.817702],[9.386587,58.784833],[9.428071,58.893134],[9.663341,58.958808],[9.781749,59.051174],[9.827184,59.018401]]]},"properties":{"LOCATION_TYPE":"level1","ADM0_A3":"NOR","LOCATION_ID":"NOR-08","NAME":"Telemark","TYPE_EN":"County"}},
{"type":"Feature","geometry":{"type":"Polygon","coordinates":[[[9.386587,58.784833],[9.20655,58.817702],[9.201899,58.868164],[8.991317,59.009938],[8.847037,59.003324],[8.832464,58.924259],[8.760737,58.85708],[8.579353,58.941364],[8.453986,58.920487],[8.168473,59.000714],[8.091786,58.974643],[7.968434,59.003117],[7.762865,59.171324],[7.779453,59.260259],[7.725916,59.319015],[7.527272,59.427484],[7.613572,59.50611],[7.530528,59.549492],[7.461953,59.665557],[7.364956,59.658581],[7.24393,59.691034],[7.122129,59.675531],[6.98436,59.595742],[7.01459,59.498823],[6.902401,59.455028],[6.815068,59.312711],[6.83026,59.211477],[6.942605,59.208583],[7.16993,59.180419],[7.118408,59.019189],[7.166829,58.961414],[7.079909,58.881781],[7.19861,58.855374],[7.422679,58.886432],[7.60179,58.872324],[7.678426,58.788014],[7.656567,58.721558],[7.590731,58.697761],[7.617293,58.607792],[7.546237,58.545832],[7.580499,58.48041],[7.765035,58.480772],[7.988329,58.342796],[8.092096,58.356542],[8.112611,58.303212],[8.210693,58.28869],[8.185527,58.202623],[8.22462,58.156928],[8.353526,58.244696],[8.513438,58.293362],[8.94388,58.525985],[8.948904,58.579657],[9.033837,58.594754],[9.200531,58.672349],[9.249278,58.733588],[9.386587,58.784833]]]},"properties":{"LOCATION_TYPE":"level1","ADM0_A3":"NOR","LOCATION_ID":"NOR-09","NAME":"Aust-Agder","TYPE_EN":"County"}},
{"type":"Feature","geometry":{"type":"Polygon","coordinates":[[[8.22462,58.156928],[8.185527,58.202623],[8.210693,58.28869],[8.112611,58.303212],[8.092096,58.356542],[7.988329,58.342796],[7.765035,58.480772],[7.580499,58.48041],[7.546237,58.545832],[7.617293,58.607792],[7.590731,58.697761],[7.656567,58.721558],[7.678426,58.788014],[7.60179,58.872324],[7.422679,58.886432],[7.19861,58.855374],[7.079909,58.881781],[7.166829,58.961414],[7.118408,59.019189],[7.16993,59.180419],[6.942605,59.208583],[6.865039,59.123937],[6.573429,58.940537],[6.577769,58.864521],[6.516636,58.785714],[6.601851,58.721739],[6.455503,58.667065],[6.584797,58.611461],[6.627275,58.366799],[6.549399,58.317371],[6.397635,58.272997],[6.626231,58.244696],[6.542003,58.107652],[6.6185,58.068305],[6.783214,58.06981],[6.731456,58.119859],[6.87379,58.134833],[6.91212,58.075019],[6.99936,58.030707],[7.155528,58.050279],[7.390636,58.017524],[7.614757,58.022121],[7.653575,58.064643],[7.915782,58.081855],[8.007498,58.144477],[8.122895,58.102037],[8.22462,58.156928]]]},"properties":{"LOCATION_TYPE":"level1","ADM0_A3":"NOR","LOCATION_ID":"NOR-10","NAME":"Vest-Agder","TYPE_EN":"County"}},
{"type":"Feature","geometry":{"type":"MultiPolygon","coordinates":[[[[6.397635,58.272997],[6.549399,58.317371],[6.627275,58.366799],[6.584797,58.611461],[6.455503,58.667065],[6.601851,58.721739],[6.516636,58.785714],[6.577769,58.864521],[6.573429,58.940537],[6.865039,59.123937],[6.942605,59.208583],[6.83026,59.211477],[6.815068,59.312711],[6.902401,59.455028],[7.01459,59.498823],[6.98436,59.595742],[7.122129,59.675531],[7.24393,59.691034],[7.113137,59.735579],[7.092053,59.794077],[6.975523,59.792475],[6.702878,59.712583],[6.653992,59.729119],[6.668565,59.845805],[6.528625,59.858569],[6.295513,59.787281],[6.170611,59.615793],[5.944216,59.616749],[5.528731,59.557913],[5.407888,59.516235],[5.189985,59.480164],[5.297211,59.344672],[5.349946,59.366441],[5.475434,59.278754],[5.646169,59.334052],[5.85963,59.350775],[5.748383,59.445787],[5.834483,59.515611],[5.924083,59.446112],[5.924164,59.35578],[6.030447,59.374945],[6.112315,59.274563],[6.0088,59.149359],[5.872732,59.086982],[5.934093,59.018134],[6.02003,59.019965],[5.969981,58.903632],[5.882498,58.959296],[5.70102,58.919135],[5.715587,58.977118],[5.550548,59.03856],[5.523204,58.9914],[5.626231,58.925605],[5.530528,58.86872],[5.526723,58.784114],[5.477951,58.754747],[5.571544,58.628323],[5.704171,58.520767],[5.796653,58.489246],[5.928477,58.483588],[5.978038,58.414496],[6.14031,58.339667],[6.397635,58.272997]]],[[[5.276866,59.299262],[5.208507,59.415961],[5.166169,59.195682],[5.297091,59.168884],[5.314098,59.273599],[5.276866,59.299262]]]]},"properties":{"LOCATION_TYPE":"level1","ADM0_A3":"NOR","LOCATION_ID":"NOR-11","NAME":"Rogaland","TYPE_EN":"County"}},
{"type":"Feature","geometry":{"type":"MultiPolygon","coordinates":[[[[5.189985,59.480164],[5.407888,59.516235],[5.485525,59.56977],[5.502126,59.71015],[5.304047,59.628241],[5.201671,59.546291],[5.189985,59.480164]]],[[[5.528731,59.557913],[5.944216,59.616749],[6.170611,59.615793],[6.295513,59.787281],[6.528625,59.858569],[6.668565,59.845805],[6.653992,59.729119],[6.702878,59.712583],[6.975523,59.792475],[7.092053,59.794077],[7.160008,59.844823],[7.158302,59.903269],[7.261965,59.989414],[7.390898,60.027034],[7.467844,60.113695],[7.554299,60.18935],[7.669434,60.347609],[7.668659,60.547364],[7.589026,60.66038],[7.477921,60.702342],[6.983894,60.748902],[6.869845,60.839465],[6.718226,60.881452],[6.816773,60.925791],[6.653527,60.971757],[6.57994,60.928271],[6.490901,60.959587],[6.269933,60.917781],[6.128546,60.954574],[6.001784,61.031624],[5.86417,60.975477],[5.630024,60.990851],[5.503985,60.95044],[5.359859,60.936643],[5.268909,60.955453],[5.163696,60.923982],[5.104784,60.837188],[5.239757,60.817125],[5.03297,60.741685],[5.161794,60.669989],[5.097667,60.649115],[5.22283,60.574164],[5.300059,60.560777],[5.526622,60.62873],[5.523204,60.686916],[5.738617,60.705146],[5.708263,60.471137],[5.617686,60.417182],[5.448741,60.446275],[5.305837,60.528266],[5.238292,60.489203],[5.265636,60.38703],[5.170665,60.278713],[5.276541,60.26496],[5.304047,60.190619],[5.729177,60.132392],[5.681407,60.03974],[5.756033,59.990668],[5.855968,60.023749],[5.852794,60.137112],[5.968923,60.217231],[6.105317,60.245185],[6.192149,60.38345],[6.351817,60.368109],[6.142345,60.215481],[6.074962,60.198391],[6.097992,60.091864],[5.947765,59.997504],[5.965099,59.95661],[5.772227,59.930732],[5.715099,59.831732],[5.831716,59.772203],[5.746104,59.675523],[5.564138,59.676663],[5.528731,59.557913]]],[[[5.30714,59.758612],[5.168305,59.850002],[5.076182,59.766303],[5.30714,59.758612]]],[[[5.489106,59.861029],[5.420665,59.938381],[5.304047,59.977688],[5.250173,59.90941],[5.310395,59.794989],[5.421886,59.758979],[5.497813,59.803412],[5.489106,59.861029]]],[[[5.619151,60.07392],[5.51295,60.060248],[5.375255,60.002509],[5.388927,59.966295],[5.571544,59.923041],[5.652843,60.000922],[5.619151,60.07392]]],[[[5.111664,60.200507],[5.070649,60.347602],[4.971934,60.383979],[4.947927,60.258857],[5.111664,60.200507]]],[[[5.687673,60.676581],[5.569672,60.625067],[5.323985,60.54682],[5.486013,60.444281],[5.608897,60.443793],[5.681407,60.481676],[5.687673,60.676581]]]]},"properties":{"LOCATION_TYPE":"level1","ADM0_A3":"NOR","LOCATION_ID":"NOR-12","NAME":"Hordaland","TYPE_EN":"County"}},
{"type":"Feature","geometry":{"type":"MultiPolygon","coordinates":[[[[5.104784,60.837188],[5.163696,60.923982],[5.268909,60.955453],[5.359859,60.936643],[5.503985,60.95044],[5.630024,60.990851],[5.86417,60.975477],[6.001784,61.031624],[6.128546,60.954574],[6.269933,60.917781],[6.490901,60.959587],[6.57994,60.928271],[6.653527,60.971757],[6.816773,60.925791],[6.718226,60.881452],[6.869845,60.839465],[6.983894,60.748902],[7.477921,60.702342],[7.679511,60.77965],[7.737544,60.860032],[7.873969,60.930441],[8.036853,60.932715],[8.193743,61.023046],[8.198084,61.072448],[8.070391,61.18779],[8.054734,61.240319],[8.20382,61.33729],[8.165373,61.436147],[8.308568,61.449764],[8.20413,61.523635],[8.005383,61.570144],[7.934793,61.628874],[7.911486,61.711479],[7.838106,61.752407],[7.520296,61.754164],[7.393534,61.878135],[7.405161,62.003683],[7.327904,62.049805],[7.137477,62.035542],[7.033556,61.999653],[6.805094,61.973039],[6.670115,62.078175],[6.423412,62.017352],[6.360263,61.980196],[6.212675,62.006991],[6.073304,61.974047],[5.927473,62.00035],[5.573851,61.963247],[5.461681,62.006741],[5.451427,62.061713],[5.317882,62.106513],[5.181814,62.212714],[5.070649,62.163764],[5.297862,62.068183],[5.238617,61.960639],[5.140391,61.967963],[5.098643,61.916693],[5.362559,61.905463],[5.244477,61.817288],[4.974457,61.738593],[4.944102,61.667182],[4.992686,61.630439],[5.229259,61.62873],[5.331391,61.561265],[5.138927,61.524115],[5.290294,61.479641],[5.05714,61.444322],[4.99879,61.376899],[5.095225,61.307196],[4.964122,61.265692],[5.020763,61.216498],[5.139659,61.224595],[5.125173,61.145087],[5.423676,61.079657],[5.557302,61.136461],[5.940929,61.169989],[6.130138,61.159329],[6.282725,61.125434],[6.434337,61.114732],[6.506196,61.146959],[6.557872,61.224595],[6.810069,61.181627],[7.009776,61.129096],[7.229503,61.183661],[7.304454,61.130276],[7.000336,61.092922],[6.861827,61.096503],[6.786794,61.150336],[6.594005,61.166653],[6.566417,61.118883],[6.383474,61.046047],[6.258067,61.093817],[6.098481,61.122219],[5.892751,61.121772],[5.52711,61.075426],[5.433849,61.026597],[5.068614,61.073554],[5.003917,61.016059],[5.04713,60.844428],[5.104784,60.837188]]],[[[4.960785,61.177436],[4.790212,61.146145],[4.893809,61.056098],[4.987315,61.119696],[4.960785,61.177436]]],[[[4.865245,61.88939],[4.91627,61.780951],[5.22283,61.848456],[4.952973,61.896959],[4.865245,61.88939]]],[[[5.120291,62.025784],[5.021495,61.93887],[5.095225,61.927436],[5.120291,62.025784]]]]},"properties":{"LOCATION_TYPE":"level1","ADM0_A3":"NOR","LOCATION_ID":"NOR-14","NAME":"Sogn og Fjordane","TYPE_EN":"County"}},
{"type":"Feature","geometry":{"type":"MultiPolygon","coordinates":[[[[5.461681,62.006741],[5.573851,61.963247],[5.927473,62.00035],[6.073304,61.974047],[6.212675,62.006991],[6.360263,61.980196],[6.423412,62.017352],[6.670115,62.078175],[6.805094,61.973039],[7.033556,61.999653],[7.137477,62.035542],[7.327904,62.049805],[7.463658,62.093213],[7.569647,62.088019],[7.728397,62.195093],[7.90513,62.18685],[8.021816,62.209847],[8.144702,62.341027],[8.409286,62.378932],[8.852463,62.389448],[9.090639,62.38012],[9.166862,62.419394],[9.230631,62.571969],[9.168102,62.58326],[8.941243,62.714002],[8.948374,62.742269],[9.416201,62.833168],[9.441626,62.937864],[9.580687,63.020236],[9.490046,63.052947],[9.467102,63.191905],[9.279052,63.211465],[9.205619,63.140797],[9.036792,63.154957],[8.858664,63.138059],[8.849946,63.203437],[8.608735,63.181098],[8.624522,63.128119],[8.236176,63.150702],[8.165538,63.115302],[8.223155,63.033352],[8.355235,63.008287],[8.479747,62.907172],[8.329275,62.880683],[8.246755,63.007961],[7.997325,63.092271],[7.877208,63.010403],[7.973888,62.976955],[7.748302,62.942084],[7.668305,62.979315],[7.50115,62.910834],[7.271169,63.014106],[7.07602,62.982856],[6.910167,62.929389],[7.016612,62.841539],[6.970388,62.725572],[7.312511,62.744045],[7.418224,62.633002],[7.365001,62.592841],[7.092296,62.650946],[6.77711,62.650336],[6.622244,62.588813],[6.537364,62.615627],[6.319591,62.608547],[6.263031,62.527493],[6.53297,62.536851],[6.304698,62.459174],[6.397716,62.425035],[6.690196,62.477525],[6.708751,62.451728],[6.500255,62.399319],[6.310802,62.372056],[6.02768,62.305732],[5.928722,62.19892],[5.622081,62.164862],[5.431163,62.186184],[5.391775,62.13288],[5.536388,62.079047],[5.461681,62.006741]]],[[[8.868988,63.210476],[8.914991,63.355565],[8.786388,63.429836],[8.638927,63.392076],[8.737559,63.334662],[8.514659,63.305894],[8.612153,63.203803],[8.868988,63.210476]]],[[[5.736095,62.280463],[5.563243,62.291409],[5.546886,62.192694],[5.778331,62.207424],[5.736095,62.280463]]],[[[5.988617,62.39647],[5.836599,62.403225],[5.804454,62.362372],[5.874034,62.255439],[6.066254,62.348212],[5.988617,62.39647]]],[[[6.852794,62.745917],[6.743988,62.722886],[6.749197,62.676459],[6.914073,62.698188],[6.852794,62.745917]]],[[[7.640391,63.05508],[7.423595,63.060981],[7.392914,62.979641],[7.526541,62.946031],[7.706309,63.006659],[7.640391,63.05508]]],[[[8.113292,63.239407],[7.928396,63.177924],[8.020193,63.137926],[8.188487,63.157457],[8.113292,63.239407]]],[[[8.483897,63.246812],[8.264171,63.232611],[8.423188,63.161078],[8.565766,63.177924],[8.483897,63.246812]]],[[[7.914724,63.342475],[8.086681,63.328803],[8.181651,63.390204],[8.100759,63.464057],[8.00408,63.472805],[7.778168,63.411322],[7.914724,63.342475]]]]},"properties":{"LOCATION_TYPE":"level1","ADM0_A3":"NOR","LOCATION_ID":"NOR-15","NAME":"Møre og Romsdal","TYPE_EN":"County"}},
{"type":"Feature","geometry":{"type":"MultiPolygon","coordinates":[[[[19.16033,74.526028],[18.874848,74.516181],[18.789806,74.478217],[19.073741,74.347357],[19.234874,74.399075],[19.297374,74.481106],[19.16033,74.526028]]],[[[24.424765,77.825936],[24.304942,77.911851],[23.941661,77.852118],[23.628266,77.870307],[23.368907,77.956366],[23.120453,77.985907],[23.0713,78.06623],[23.47047,78.151435],[23.32781,78.200141],[22.966075,78.256293],[22.53419,78.230211],[22.396251,78.199856],[21.696788,78.211086],[20.992198,78.138617],[20.880138,78.085395],[21.368175,77.965033],[21.661794,77.918036],[21.260753,77.7331],[21.189626,77.601711],[20.873546,77.56859],[20.921723,77.442369],[22.191742,77.504136],[22.446625,77.577826],[22.675304,77.493476],[22.438813,77.43891],[22.504649,77.335883],[22.429698,77.263739],[22.703947,77.23728],[23.234541,77.263683],[23.35434,77.376858],[23.734874,77.45539],[23.892833,77.508368],[23.994965,77.605292],[24.424765,77.825936]]],[[[21.024262,78.219143],[21.061209,78.200344],[22.271251,78.267524],[22.195567,78.43887],[22.235362,78.48786],[21.983897,78.569159],[21.178233,78.623236],[21.084239,78.555732],[20.87143,78.556627],[20.183116,78.495347],[20.661143,78.391059],[20.791515,78.274359],[21.024262,78.219143]]],[[[27.020763,78.69892],[26.833995,78.711249],[26.615489,78.808783],[26.396332,78.775214],[26.465994,78.709459],[26.774669,78.640692],[27.020763,78.69892]]],[[[12.142833,78.237047],[11.889171,78.395087],[11.267345,78.574164],[11.060313,78.692694],[11.183849,78.733629],[10.843761,78.878892],[10.560232,78.909125],[10.525401,78.788275],[10.916352,78.610175],[11.121837,78.43887],[11.305349,78.452216],[11.848399,78.307766],[11.923676,78.226508],[12.142833,78.237047]]],[[[29.438975,78.904975],[29.064789,78.904202],[28.78891,78.964179],[28.41863,78.966986],[27.84197,78.843492],[28.103282,78.822455],[28.369477,78.877631],[28.86964,78.911811],[29.236501,78.853217],[29.438975,78.904975]]],[[[20.098888,79.124091],[20.13502,79.060696],[20.405935,78.995917],[20.831798,79.055162],[20.467784,79.1258],[20.098888,79.124091]]],[[[20.208751,78.638088],[20.605235,78.633857],[20.691417,78.69359],[21.037364,78.644232],[21.508311,78.747016],[21.522146,78.853705],[20.450369,78.946357],[20.198741,79.00141],[19.906423,79.014228],[19.786306,79.165107],[19.420177,79.183783],[18.945079,79.156968],[18.881847,79.441107],[18.727306,79.543524],[18.346934,79.62995],[18.077322,79.569078],[18.002615,79.455797],[17.78297,79.494045],[17.736176,79.566962],[17.851085,79.647773],[18.098399,79.727362],[17.562511,79.897854],[17.269542,79.945543],[16.616466,79.985053],[16.541515,80.047512],[16.294688,80.067369],[16.021658,80.015367],[15.95574,79.945299],[16.102875,79.859849],[15.651622,79.850287],[15.685802,79.700629],[15.867686,79.548529],[15.959483,79.309638],[16.150727,79.234036],[16.209972,79.126288],[16.381358,78.983629],[16.134939,79.002346],[16.126313,79.058295],[15.881602,79.161038],[15.605724,79.311265],[15.497325,79.330024],[15.295258,79.53559],[15.26238,79.618842],[15.090668,79.661811],[14.857921,79.773668],[14.548595,79.811469],[14.403494,79.738918],[13.883149,79.542426],[14.158214,79.343166],[13.917979,79.364244],[13.579112,79.490546],[13.300548,79.471422],[13.477224,79.586493],[12.646251,79.594428],[13.010509,79.672919],[13.738292,79.706448],[13.972667,79.775214],[13.797048,79.881903],[13.060069,79.828599],[12.767589,79.773261],[12.204356,79.837226],[11.822276,79.845038],[11.523774,79.767076],[11.197602,79.721177],[11.433279,79.627509],[11.013682,79.64997],[10.708018,79.561428],[10.900076,79.470649],[10.841156,79.371039],[11.161876,79.21601],[11.279307,79.099555],[11.70045,79.168036],[11.592784,79.272773],[11.834972,79.295966],[12.115001,79.261217],[11.761241,79.085883],[12.064789,78.97427],[12.390798,79.002143],[12.506602,78.911811],[12.24879,78.901557],[11.567068,78.984931],[11.334158,78.973212],[11.564464,78.887152],[11.856619,78.855618],[11.64324,78.74726],[12.020518,78.614447],[12.347179,78.595689],[12.362559,78.48725],[12.657563,78.377346],[12.858084,78.359687],[12.911306,78.247016],[13.148611,78.228176],[13.855968,78.212877],[13.950938,78.271796],[14.281912,78.30508],[14.285981,78.387437],[14.663097,78.38109],[14.67628,78.437934],[14.383556,78.500922],[14.547618,78.575019],[14.525727,78.664293],[14.80128,78.644232],[15.209321,78.656195],[15.233897,78.784857],[15.49879,78.726304],[15.261241,78.542467],[15.439464,78.458401],[16.001964,78.482733],[16.317719,78.567776],[16.455089,78.678453],[16.828949,78.673326],[16.495291,78.545356],[16.410981,78.432603],[16.850841,78.384914],[16.936534,78.352281],[16.293793,78.340318],[16.140798,78.363511],[15.795095,78.342922],[15.557384,78.239691],[15.295177,78.222235],[15.034679,78.116645],[14.232758,78.093451],[13.866222,78.096869],[13.589122,78.055854],[13.651134,77.849799],[13.718761,77.76789],[13.957042,77.719916],[14.109874,77.774075],[14.457774,77.758043],[14.568614,77.793443],[15.090343,77.790961],[15.30893,77.856635],[15.554535,77.880113],[15.78533,77.835354],[16.682872,77.866034],[16.869965,77.811347],[16.333344,77.797593],[16.240245,77.772528],[15.115408,77.703192],[14.740489,77.664211],[14.966075,77.623236],[15.845876,77.578803],[15.853282,77.531562],[14.774181,77.548774],[14.439952,77.586086],[14.075694,77.56859],[13.910655,77.534491],[14.054535,77.452541],[13.958995,77.425238],[14.322032,77.280585],[14.373709,77.198676],[15.040212,77.134752],[15.15268,77.048245],[15.345714,77.008531],[16.091482,77.027289],[16.316173,77.004136],[15.578461,76.919582],[15.681488,76.851549],[15.94158,76.760688],[16.284028,76.707913],[16.336762,76.616441],[16.809581,76.56684],[16.992198,76.600043],[17.192068,76.696845],[16.942393,76.78026],[17.323741,76.978949],[17.321951,77.043524],[17.447276,77.150865],[17.483246,77.306098],[17.813324,77.493476],[18.194102,77.49018],[18.44516,77.756252],[18.436209,77.856757],[18.330414,77.904975],[18.582856,78.055121],[18.811209,78.028469],[19.062755,78.086859],[18.920584,78.178534],[19.078461,78.24258],[18.965994,78.274075],[19.066417,78.377875],[18.993012,78.466986],[19.681163,78.514553],[19.582774,78.581488],[19.763031,78.624213],[20.030528,78.603949],[20.208751,78.638088]]],[[[33.098643,80.227688],[32.939626,80.206244],[31.496349,80.115709],[31.611095,80.072699],[32.831065,80.133246],[33.031912,80.171088],[33.543468,80.195054],[33.298595,80.248114],[33.098643,80.227688]]],[[[18.296397,80.276068],[18.70045,80.309556],[18.316905,80.364203],[18.296397,80.276068]]],[[[27.171072,80.073432],[26.80714,80.174262],[25.939708,80.185452],[25.587576,80.229071],[24.892426,80.261298],[24.840831,80.30272],[24.375987,80.332343],[24.335623,80.286282],[23.89503,80.309556],[23.75766,80.276068],[23.804861,80.184556],[23.600597,80.142564],[23.055024,80.248358],[23.305919,80.28974],[23.267426,80.453803],[22.750336,80.504828],[22.833018,80.412584],[22.38795,80.426907],[22.333344,80.364203],[22.56422,80.310858],[22.373709,80.110989],[22.065196,80.110989],[21.763438,80.146918],[21.897634,80.213446],[21.84669,80.272121],[20.882579,80.211249],[20.523448,80.330024],[20.389822,80.423489],[20.191417,80.421373],[19.802257,80.492987],[19.46811,80.464097],[19.528819,80.388373],[19.807791,80.352851],[19.838145,80.28974],[19.612966,80.227688],[19.337169,80.32746],[19.105154,80.258043],[19.399425,80.138251],[18.570323,80.18476],[18.007823,80.190375],[18.066173,80.128363],[18.364594,80.083645],[18.375499,80.039008],[18.836681,80.031236],[18.806163,79.982611],[18.146739,79.916449],[18.480154,79.785956],[18.783865,79.72309],[19.485606,79.717963],[19.996918,79.748847],[20.172048,79.785224],[21.887706,79.823554],[22.281749,79.774115],[21.893728,79.752346],[21.850352,79.706936],[20.475597,79.686428],[20.649425,79.626532],[20.412608,79.591864],[20.208344,79.645453],[19.633311,79.611314],[19.685313,79.5539],[20.196788,79.468817],[20.729747,79.458564],[20.816905,79.378079],[21.500743,79.397284],[21.711762,79.371772],[22.416677,79.409735],[22.654959,79.364244],[22.644705,79.309638],[22.925629,79.222846],[24.053071,79.18887],[24.238536,79.231106],[24.288097,79.309882],[24.562511,79.324042],[24.771495,79.370836],[25.183279,79.336249],[25.645681,79.397691],[25.829112,79.442206],[25.965099,79.52619],[25.82602,79.626044],[26.222341,79.669501],[26.495128,79.723334],[26.919607,79.842515],[27.149669,79.854967],[27.224946,79.924872],[27.102061,79.974433],[27.171072,80.073432]]]]},"properties":{"LOCATION_TYPE":"level1","ADM0_A3":"NOR","LOCATION_ID":"NOR-21","NAME":"Svalbard","TYPE_EN":"Territory"}},
{"type":"Feature","geometry":{"type":"Polygon","coordinates":[[[3.457286,-54.390069],[3.377208,-54.391371],[3.350841,-54.455662],[3.46754,-54.441339],[3.457286,-54.390069]]]},"properties":{"LOCATION_TYPE":"level1","ADM0_A3":"NOR","LOCATION_ID":"NOR-X01~","NAME":"Bouvet Island","TYPE_EN":null}},
{"type":"Feature","geometry":{"type":"Polygon","coordinates":[[[11.163973,60.622636],[11.047677,60.684978],[10.727232,60.804325],[10.729971,60.884191],[10.601245,60.978397],[10.459135,61.036636],[10.639899,61.142573],[10.778133,61.258793],[10.853736,61.281169],[10.687699,61.479762],[10.625946,61.706776],[10.567138,61.74525],[10.399707,61.682954],[10.280799,61.721582],[10.05828,61.756334],[10.106701,61.848215],[10.085617,61.904387],[9.954049,61.898134],[9.811577,61.929864],[9.808322,62.017688],[9.888523,62.0851],[9.659028,62.169694],[9.783052,62.285811],[9.597275,62.274313],[9.090639,62.38012],[8.852463,62.389448],[8.409286,62.378932],[8.144702,62.341027],[8.021816,62.209847],[7.90513,62.18685],[7.728397,62.195093],[7.569647,62.088019],[7.463658,62.093213],[7.327904,62.049805],[7.405161,62.003683],[7.393534,61.878135],[7.520296,61.754164],[7.838106,61.752407],[7.911486,61.711479],[7.934793,61.628874],[8.005383,61.570144],[8.20413,61.523635],[8.308568,61.449764],[8.165373,61.436147],[8.20382,61.33729],[8.054734,61.240319],[8.070391,61.18779],[8.198084,61.072448],[8.279733,61.117665],[8.386651,61.059943],[8.569431,61.016948],[8.632269,60.964341],[8.893132,60.913388],[9.214766,60.802594],[9.326025,60.752933],[9.319514,60.714692],[9.407829,60.629219],[9.410155,60.584726],[9.606422,60.561213],[9.657633,60.514704],[9.831421,60.484991],[9.807701,60.579171],[10.043708,60.655394],[10.16799,60.532274],[10.237391,60.378485],[10.398311,60.236324],[10.623621,60.154726],[10.680103,60.153383],[10.754104,60.168162],[10.817097,60.267588],[10.91952,60.373886],[10.809346,60.436518],[10.681808,60.452641],[10.71607,60.523128],[10.862262,60.49021],[11.095323,60.532016],[11.163973,60.622636]]]},"properties":{"LOCATION_TYPE":"level1","ADM0_A3":"NOR","LOCATION_ID":"NOR-05","NAME":"Oppland","TYPE_EN":"County"}}
]}