{"type":"FeatureCollection", "features": [
{"type":"Feature","geometry":{"type":"Polygon","coordinates":[[[83.654992,29.160414],[83.517052,29.191708],[83.327968,29.485023],[83.162086,29.62517],[83.032895,29.620467],[82.899725,29.688422],[82.836576,29.659793],[82.541814,29.923239],[82.394433,30.003131],[82.144526,30.069432],[82.088767,30.330088],[81.779018,30.358045],[81.591588,30.414269],[81.483067,30.331896],[81.387518,30.373909],[81.357287,30.17356],[81.267903,30.072053],[81.422968,30.024808],[81.455731,29.912464],[81.573812,29.943831],[81.760467,29.913084],[81.696388,29.687491],[81.777985,29.607805],[81.708636,29.468047],[81.723829,29.348881],[81.534073,29.353222],[81.473715,29.295189],[81.485187,29.168918],[81.548645,29.125664],[81.574277,29.056831],[81.844855,28.981151],[82.014974,29.010994],[82.088664,28.983141],[82.268033,29.104787],[82.400376,29.023448],[82.568118,28.985156],[82.695087,28.91467],[82.757616,28.81775],[82.924737,28.820386],[83.147876,28.737058],[83.292777,28.720263],[83.473903,28.7769],[83.609657,28.983089],[83.654992,29.160414]]]},"properties":{"LOCATION_TYPE":"level1","ADM0_A3":"NPL","LOCATION_ID":"NPL-KA","NAME":"Karnali","TYPE_EN":"Administrative Zone"}},
{"type":"Feature","geometry":{"type":"Polygon","coordinates":[[[81.084454,30.027876],[81.006507,30.188908],[80.829825,30.117129],[80.654126,29.970575],[80.57134,29.946855],[80.476152,29.80614],[80.368975,29.757926],[80.385201,29.604835],[80.213739,29.416888],[80.278748,29.268085],[80.233066,29.139308],[80.132607,29.110214],[80.036386,28.837026],[80.233273,28.732718],[80.349751,28.620218],[80.534444,28.679555],[80.492689,28.986784],[80.556768,29.125148],[80.717688,29.24036],[80.764559,29.353842],[80.885585,29.430581],[80.802593,29.505977],[80.78585,29.674468],[81.038289,29.739374],[81.000875,29.922308],[81.084454,30.027876]]]},"properties":{"LOCATION_TYPE":"level1","ADM0_A3":"NPL","LOCATION_ID":"NPL-MA","NAME":"Mahakali","TYPE_EN":"Administrative Zone"}},
{"type":"Feature","geometry":{"type":"Polygon","coordinates":[[[81.084454,30.027876],[81.000875,29.922308],[81.038289,29.739374],[80.78585,29.674468],[80.802593,29.505977],[80.885585,29.430581],[80.764559,29.353842],[80.717688,29.24036],[80.556768,29.125148],[80.492689,28.986784],[80.534444,28.679555],[80.88667,28.452786],[81.047066,28.389088],[81.271918,28.636056],[81.207736,28.907952],[81.425759,28.903688],[81.410101,29.024017],[81.548645,29.125664],[81.485187,29.168918],[81.473715,29.295189],[81.534073,29.353222],[81.723829,29.348881],[81.708636,29.468047],[81.777985,29.607805],[81.696388,29.687491],[81.760467,29.913084],[81.573812,29.943831],[81.455731,29.912464],[81.422968,30.024808],[81.267903,30.072053],[81.194506,30.004475],[81.084454,30.027876]]]},"properties":{"LOCATION_TYPE":"level1","ADM0_A3":"NPL","LOCATION_ID":"NPL-SE","NAME":"Seti","TYPE_EN":"District"}},
{"type":"Feature","geometry":{"type":"Polygon","coordinates":[[[84.225291,28.914115],[84.231427,29.025981],[84.099135,29.247001],[83.945553,29.291831],[83.719727,29.233591],[83.654992,29.160414],[83.609657,28.983089],[83.473903,28.7769],[83.292777,28.720263],[83.147876,28.737058],[83.0993,28.648122],[82.957913,28.596446],[82.889184,28.467643],[83.089068,28.245563],[83.16772,28.258508],[83.495452,28.110352],[83.589865,28.003795],[83.670945,28.04573],[83.776468,28.261893],[83.693321,28.395502],[83.844578,28.626703],[83.795382,28.692461],[83.946949,28.822479],[84.225291,28.914115]]]},"properties":{"LOCATION_TYPE":"level1","ADM0_A3":"NPL","LOCATION_ID":"NPL-DH","NAME":"Dhawalagiri","TYPE_EN":"Administrative Zone"}},
{"type":"Feature","geometry":{"type":"Polygon","coordinates":[[[84.225291,28.914115],[83.946949,28.822479],[83.795382,28.692461],[83.844578,28.626703],[83.693321,28.395502],[83.776468,28.261893],[83.670945,28.04573],[83.589865,28.003795],[83.825509,27.876257],[83.992476,27.905971],[84.268376,27.845949],[84.321189,27.759365],[84.412657,27.758228],[84.576988,27.880598],[84.654709,27.841712],[84.841106,28.090198],[85.081867,28.331702],[85.077577,28.435681],[85.16801,28.583192],[85.054942,28.638692],[84.918723,28.535675],[84.677756,28.604405],[84.607218,28.698198],[84.450845,28.73388],[84.354003,28.861289],[84.225291,28.914115]]]},"properties":{"LOCATION_TYPE":"level1","ADM0_A3":"NPL","LOCATION_ID":"NPL-GA","NAME":"Gandaki","TYPE_EN":"District"}},
{"type":"Feature","geometry":{"type":"Polygon","coordinates":[[[85.081867,28.331702],[84.841106,28.090198],[84.654709,27.841712],[84.673364,27.741124],[84.860795,27.680765],[85.060783,27.718231],[85.202169,27.678337],[85.262527,27.489744],[85.504011,27.384711],[85.68276,27.355927],[85.818669,27.439049],[85.806732,27.500544],[85.995713,27.740788],[86.0546,27.888013],[85.98026,27.885172],[85.848279,28.158928],[85.675059,28.306387],[85.611807,28.251145],[85.43156,28.297059],[85.259581,28.266932],[85.081867,28.331702]]]},"properties":{"LOCATION_TYPE":"level1","ADM0_A3":"NPL","LOCATION_ID":"NPL-BA","NAME":"Bagmati","TYPE_EN":"District"}},
{"type":"Feature","geometry":{"type":"Polygon","coordinates":[[[86.516764,27.971432],[86.438837,27.910856],[86.203038,28.002581],[86.15596,28.156525],[86.068731,28.076763],[86.112862,27.926798],[86.0546,27.888013],[85.995713,27.740788],[85.806732,27.500544],[85.818669,27.439049],[85.68276,27.355927],[85.504011,27.384711],[85.500291,27.143201],[85.415696,27.017576],[85.355352,26.759912],[85.598578,26.854383],[85.687772,26.811853],[85.712887,26.653206],[85.821614,26.571713],[86.01137,26.654447],[86.146355,26.601356],[86.199008,26.712375],[86.146401,26.897687],[86.355122,26.988379],[86.337759,27.226866],[86.20986,27.252187],[86.274248,27.45127],[86.589733,27.744767],[86.564618,27.913671],[86.516764,27.971432]]]},"properties":{"LOCATION_TYPE":"level1","ADM0_A3":"NPL","LOCATION_ID":"NPL-JA","NAME":"Janakpur","TYPE_EN":"Administrative Zone"}},
{"type":"Feature","geometry":{"type":"Polygon","coordinates":[[[86.982093,27.950674],[86.76998,28.01209],[86.661976,28.106838],[86.544154,28.093015],[86.516764,27.971432],[86.564618,27.913671],[86.589733,27.744767],[86.274248,27.45127],[86.20986,27.252187],[86.337759,27.226866],[86.355122,26.988379],[86.146401,26.897687],[86.199008,26.712375],[86.146355,26.601356],[86.284428,26.61202],[86.713601,26.414565],[86.935153,26.520289],[87.004126,26.722994],[87.154195,26.836683],[87.171248,26.920889],[86.966816,26.906394],[86.916225,27.128112],[86.957514,27.326704],[86.942735,27.474706],[86.998442,27.698258],[86.982093,27.950674]]]},"properties":{"LOCATION_TYPE":"level1","ADM0_A3":"NPL","LOCATION_ID":"NPL-SA","NAME":"Sagarmatha","TYPE_EN":"Administrative Zone"}},
{"type":"Feature","geometry":{"type":"Polygon","coordinates":[[[87.678529,27.813351],[87.531587,27.836803],[87.38679,27.804402],[87.155796,27.825796],[86.982093,27.950674],[86.998442,27.698258],[86.942735,27.474706],[86.957514,27.326704],[86.916225,27.128112],[86.966816,26.906394],[87.171248,26.920889],[87.154195,26.836683],[87.004126,26.722994],[86.935153,26.520289],[87.041333,26.580187],[87.083294,26.432083],[87.326225,26.353328],[87.384206,26.418647],[87.586984,26.378029],[87.648745,26.409993],[87.666463,26.740513],[87.480583,26.981222],[87.701862,27.149222],[87.71845,27.236813],[87.51624,27.304199],[87.446167,27.383264],[87.479498,27.541317],[87.547866,27.6772],[87.678529,27.813351]]]},"properties":{"LOCATION_TYPE":"level1","ADM0_A3":"NPL","LOCATION_ID":"NPL-KO","NAME":"Bhojpur","TYPE_EN":"District"}},
{"type":"Feature","geometry":{"type":"Polygon","coordinates":[[[87.648745,26.409993],[87.870688,26.460712],[88.006648,26.369864],[88.074189,26.453942],[88.169067,26.744002],[88.076877,26.99179],[87.970733,27.10274],[88.035122,27.322571],[88.02334,27.494912],[88.11088,27.639503],[88.164623,27.845356],[88.029954,27.893337],[87.825884,27.906566],[87.678529,27.813351],[87.547866,27.6772],[87.479498,27.541317],[87.446167,27.383264],[87.51624,27.304199],[87.71845,27.236813],[87.701862,27.149222],[87.480583,26.981222],[87.666463,26.740513],[87.648745,26.409993]]]},"properties":{"LOCATION_TYPE":"level1","ADM0_A3":"NPL","LOCATION_ID":"NPL-ME","NAME":"Mechi","TYPE_EN":"Administrative Zone"}},
{"type":"Feature","geometry":{"type":"Polygon","coordinates":[[[85.355352,26.759912],[85.415696,27.017576],[85.500291,27.143201],[85.504011,27.384711],[85.262527,27.489744],[85.202169,27.678337],[85.060783,27.718231],[84.860795,27.680765],[84.673364,27.741124],[84.654709,27.841712],[84.576988,27.880598],[84.412657,27.758228],[84.178976,27.633042],[84.10327,27.536847],[83.959041,27.552298],[83.922043,27.449696],[84.079601,27.509536],[84.289408,27.376108],[84.577039,27.329031],[84.657654,27.203405],[84.640239,27.028377],[84.801934,27.013753],[84.924046,26.955668],[85.043987,26.843737],[85.162016,26.851024],[85.194934,26.758885],[85.355352,26.759912]]]},"properties":{"LOCATION_TYPE":"level1","ADM0_A3":"NPL","LOCATION_ID":"NPL-NA","NAME":"Narayani","TYPE_EN":"Administrative Zone"}},
{"type":"Feature","geometry":{"type":"Polygon","coordinates":[[[83.922043,27.449696],[83.959041,27.552298],[84.10327,27.536847],[84.178976,27.633042],[84.412657,27.758228],[84.321189,27.759365],[84.268376,27.845949],[83.992476,27.905971],[83.825509,27.876257],[83.589865,28.003795],[83.495452,28.110352],[83.16772,28.258508],[83.089068,28.245563],[82.972228,28.000229],[82.846034,27.902328],[82.673891,27.696458],[82.752137,27.494964],[83.010468,27.443391],[83.132786,27.444217],[83.304868,27.331925],[83.360989,27.462201],[83.590432,27.45662],[83.847988,27.351045],[83.922043,27.449696]]]},"properties":{"LOCATION_TYPE":"level1","ADM0_A3":"NPL","LOCATION_ID":"NPL-LU","NAME":"Lumbini","TYPE_EN":"Administrative Zone"}},
{"type":"Feature","geometry":{"type":"Polygon","coordinates":[[[82.673891,27.696458],[82.846034,27.902328],[82.972228,28.000229],[83.089068,28.245563],[82.889184,28.467643],[82.957913,28.596446],[83.0993,28.648122],[83.147876,28.737058],[82.924737,28.820386],[82.757616,28.81775],[82.695087,28.91467],[82.568118,28.985156],[82.484196,28.876842],[82.317384,28.76964],[82.160494,28.612621],[82.043809,28.631715],[81.963917,28.441959],[81.98066,28.345221],[82.09502,28.248457],[82.013217,28.159754],[82.167781,28.041234],[82.166231,27.957674],[82.050212,27.905586],[82.401926,27.677175],[82.673891,27.696458]]]},"properties":{"LOCATION_TYPE":"level1","ADM0_A3":"NPL","LOCATION_ID":"NPL-RA","NAME":"Rapti","TYPE_EN":"Administrative Zone"}},
{"type":"Feature","geometry":{"type":"Polygon","coordinates":[[[82.050212,27.905586],[82.166231,27.957674],[82.167781,28.041234],[82.013217,28.159754],[82.09502,28.248457],[81.98066,28.345221],[81.963917,28.441959],[82.043809,28.631715],[82.160494,28.612621],[82.317384,28.76964],[82.484196,28.876842],[82.568118,28.985156],[82.400376,29.023448],[82.268033,29.104787],[82.088664,28.983141],[82.014974,29.010994],[81.844855,28.981151],[81.574277,29.056831],[81.548645,29.125664],[81.410101,29.024017],[81.425759,28.903688],[81.207736,28.907952],[81.271918,28.636056],[81.047066,28.389088],[81.190372,28.338116],[81.307057,28.123814],[81.396044,28.160634],[81.458211,28.07728],[81.688946,27.963204],[81.855654,27.850937],[82.050212,27.905586]]]},"properties":{"LOCATION_TYPE":"level1","ADM0_A3":"NPL","LOCATION_ID":"NPL-BH","NAME":"Bheri","TYPE_EN":"District"}}
]}