{"type":"FeatureCollection", "features": [
{"type":"Feature","geometry":{"type":"Polygon","coordinates":[[[166.931197,-0.49334],[166.938987,-0.504183],[166.938813,-0.490411],[166.931197,-0.49334]]]},"properties":{"LOCATION_TYPE":"level1","ADM0_A3":"NRU","LOCATION_ID":"NRU-03","NAME":"Anetan","TYPE_EN":null}},
{"type":"Feature","geometry":{"type":"Polygon","coordinates":[[[166.925126,-0.495675],[166.938048,-0.51052],[166.938987,-0.504183],[166.931197,-0.49334],[166.925126,-0.495675]]]},"properties":{"LOCATION_TYPE":"level1","ADM0_A3":"NRU","LOCATION_ID":"NRU-09","NAME":"Ewa","TYPE_EN":null}},
{"type":"Feature","geometry":{"type":"Polygon","coordinates":[[[166.918067,-0.49839],[166.93724,-0.516516],[166.938048,-0.51052],[166.925126,-0.495675],[166.918067,-0.49839]]]},"properties":{"LOCATION_TYPE":"level1","ADM0_A3":"NRU","LOCATION_ID":"NRU-05","NAME":"Baiti","TYPE_EN":null}},
{"type":"Feature","geometry":{"type":"Polygon","coordinates":[[[166.913422,-0.500177],[166.936798,-0.520199],[166.93724,-0.516516],[166.918067,-0.49839],[166.913422,-0.500177]]]},"properties":{"LOCATION_TYPE":"level1","ADM0_A3":"NRU","LOCATION_ID":"NRU-13","NAME":"Uaboe","TYPE_EN":null}},
{"type":"Feature","geometry":{"type":"Polygon","coordinates":[[[166.910312,-0.512107],[166.920376,-0.520686],[166.936135,-0.525195],[166.936798,-0.520199],[166.913422,-0.500177],[166.910312,-0.512107]]]},"properties":{"LOCATION_TYPE":"level1","ADM0_A3":"NRU","LOCATION_ID":"NRU-12","NAME":"Nibok","TYPE_EN":null}},
{"type":"Feature","geometry":{"type":"Polygon","coordinates":[[[166.906993,-0.524835],[166.916865,-0.524198],[166.920376,-0.520686],[166.910312,-0.512107],[166.906993,-0.524835]]]},"properties":{"LOCATION_TYPE":"level1","ADM0_A3":"NRU","LOCATION_ID":"NRU-08","NAME":"Denigomodu","TYPE_EN":null}},
{"type":"Feature","geometry":{"type":"Polygon","coordinates":[[[166.911993,-0.536965],[166.917918,-0.535083],[166.916865,-0.524198],[166.906993,-0.524835],[166.911993,-0.536965]]]},"properties":{"LOCATION_TYPE":"level1","ADM0_A3":"NRU","LOCATION_ID":"NRU-01","NAME":"Aiwo","TYPE_EN":null}},
{"type":"Feature","geometry":{"type":"Polygon","coordinates":[[[166.916352,-0.54754],[166.920094,-0.538799],[166.917918,-0.535083],[166.911993,-0.536965],[166.916352,-0.54754]]]},"properties":{"LOCATION_TYPE":"level1","ADM0_A3":"NRU","LOCATION_ID":"NRU-06","NAME":"Boe","TYPE_EN":null}},
{"type":"Feature","geometry":{"type":"Polygon","coordinates":[[[166.93264,-0.550668],[166.925292,-0.534381],[166.920094,-0.538799],[166.916352,-0.54754],[166.93264,-0.550668]]]},"properties":{"LOCATION_TYPE":"level1","ADM0_A3":"NRU","LOCATION_ID":"NRU-14","NAME":"Yaren","TYPE_EN":null}},
{"type":"Feature","geometry":{"type":"Polygon","coordinates":[[[166.953205,-0.533383],[166.935475,-0.529816],[166.925292,-0.534381],[166.93264,-0.550668],[166.938813,-0.551853],[166.953205,-0.533383]]]},"properties":{"LOCATION_TYPE":"level1","ADM0_A3":"NRU","LOCATION_ID":"NRU-11","NAME":"Meneng","TYPE_EN":null}},
{"type":"Feature","geometry":{"type":"Polygon","coordinates":[[[166.957397,-0.511329],[166.938987,-0.504183],[166.938048,-0.51052],[166.93724,-0.516516],[166.936798,-0.520199],[166.936135,-0.525195],[166.935475,-0.529816],[166.953205,-0.533383],[166.957397,-0.511329]]]},"properties":{"LOCATION_TYPE":"level1","ADM0_A3":"NRU","LOCATION_ID":"NRU-04","NAME":"Anibare","TYPE_EN":null}},
{"type":"Feature","geometry":{"type":"Polygon","coordinates":[[[166.955577,-0.497979],[166.938987,-0.504183],[166.957397,-0.511329],[166.955577,-0.497979]]]},"properties":{"LOCATION_TYPE":"level1","ADM0_A3":"NRU","LOCATION_ID":"NRU-10","NAME":"Ijuw","TYPE_EN":null}},
{"type":"Feature","geometry":{"type":"Polygon","coordinates":[[[166.938813,-0.490411],[166.938987,-0.504183],[166.955577,-0.497979],[166.938813,-0.490411]]]},"properties":{"LOCATION_TYPE":"level1","ADM0_A3":"NRU","LOCATION_ID":"NRU-02","NAME":"Anabar","TYPE_EN":null}},
{"type":"Feature","geometry":{"type":"Polygon","coordinates":[[[166.936135,-0.525195],[166.920376,-0.520686],[166.916865,-0.524198],[166.917918,-0.535083],[166.920094,-0.538799],[166.925292,-0.534381],[166.935475,-0.529816],[166.936135,-0.525195]]]},"properties":{"LOCATION_TYPE":"level1","ADM0_A3":"NRU","LOCATION_ID":"NRU-07","NAME":"Buada","TYPE_EN":null}}
]}