{"type":"FeatureCollection", "features": [
{"type":"Feature","geometry":{"type":"Polygon","coordinates":[[[166.243419,-50.600763],[166.117686,-50.552423],[166.059093,-50.693536],[165.886485,-50.79461],[165.965343,-50.840102],[166.083507,-50.786798],[166.253673,-50.817071],[166.149425,-50.696873],[166.243419,-50.600763]]]},"properties":{"LOCATION_TYPE":"level1","ADM0_A3":"NZL","LOCATION_ID":"NZL-X06~","NAME":"Auckland Islands","TYPE_EN":null}},
{"type":"Feature","geometry":{"type":"Polygon","coordinates":[[[169.250421,-52.520257],[169.113593,-52.546453],[169.195296,-52.600313],[169.250421,-52.520257]]]},"properties":{"LOCATION_TYPE":"level1","ADM0_A3":"NZL","LOCATION_ID":"NZL-X05~","NAME":"Campbell Islands","TYPE_EN":null}},
{"type":"Feature","geometry":{"type":"Polygon","coordinates":[[[178.839041,-49.629164],[178.717621,-49.67254],[178.826345,-49.713149],[178.839041,-49.629164]]]},"properties":{"LOCATION_TYPE":"level1","ADM0_A3":"NZL","LOCATION_ID":"NZL-X04~","NAME":"Antipodes Islands","TYPE_EN":null}},
{"type":"Feature","geometry":{"type":"Polygon","coordinates":[[[-176.382029,-43.898614],[-176.285105,-43.769708],[-176.484446,-43.716974],[-176.601999,-43.707615],[-176.638376,-43.799574],[-176.51594,-43.922296],[-176.664377,-44.01922],[-176.607981,-44.111505],[-176.300038,-44.042576],[-176.456532,-43.949802],[-176.513051,-43.750177],[-176.372263,-43.765883],[-176.382029,-43.898614]]]},"properties":{"LOCATION_TYPE":"level1","ADM0_A3":"NZL","LOCATION_ID":"NZL-CIT","NAME":"Chatham Islands Territory","TYPE_EN":"Special Island Authority"}},
{"type":"Feature","geometry":{"type":"Polygon","coordinates":[[[-177.909535,-29.278578],[-177.889394,-29.233819],[-177.957997,-29.222752],[-177.909535,-29.278578]]]},"properties":{"LOCATION_TYPE":"level1","ADM0_A3":"NZL","LOCATION_ID":"NZL-X01~","NAME":"Kermadec Islands","TYPE_EN":null}},
{"type":"Feature","geometry":{"type":"Polygon","coordinates":[[[-172.486073,-8.565362],[-172.483022,-8.562595],[-172.491689,-8.551853],[-172.494944,-8.554783],[-172.486073,-8.565362]]]},"properties":{"LOCATION_TYPE":"level1","ADM0_A3":"NZL","LOCATION_ID":"NZL-X01~","NAME":"Tokelau","TYPE_EN":null}},
{"type":"Feature","geometry":{"type":"Polygon","coordinates":[[[166.637218,-47.993585],[166.56837,-48.034438],[166.634288,-48.039972],[166.623546,-48.020929],[166.637218,-47.993585]]]},"properties":{"LOCATION_TYPE":"level1","ADM0_A3":"NZL","LOCATION_ID":"NZL-X07~","NAME":"The Snares","TYPE_EN":null}},
{"type":"Feature","geometry":{"type":"MultiPolygon","coordinates":[[[[168.199474,-47.047621],[168.151134,-46.965753],[168.17921,-46.864435],[168.00408,-46.724705],[167.920584,-46.683038],[167.787446,-46.697198],[167.758311,-46.807387],[167.81658,-46.897393],[167.737071,-46.955173],[167.743826,-47.027276],[167.648204,-47.048028],[167.613048,-47.148614],[167.534028,-47.204034],[167.521007,-47.273045],[167.671886,-47.260512],[167.645763,-47.205173],[167.789236,-47.171157],[167.901866,-47.188409],[167.996267,-47.124444],[168.192068,-47.098891],[168.199474,-47.047621]]],[[[166.973643,-45.163263],[166.890961,-45.23561],[167.034434,-45.30047],[166.973643,-45.163263]]],[[[169.192702,-46.618012],[169.223811,-46.497368],[169.157148,-46.359134],[169.187637,-46.209686],[169.135031,-46.067317],[169.081804,-46.007786],[169.058963,-45.871153],[168.999742,-45.765423],[169.021549,-45.661554],[169.177405,-45.373613],[169.085835,-45.301679],[169.004703,-45.303643],[168.894942,-45.416297],[168.778463,-45.416659],[168.6378,-45.258167],[168.462513,-45.31558],[168.307588,-45.299509],[168.239065,-45.131767],[168.275962,-45.047069],[168.160723,-44.964439],[168.1261,-44.862998],[168.205061,-44.596657],[168.328878,-44.489997],[168.37394,-44.369746],[168.241545,-44.265618],[168.136708,-44.280795],[167.836436,-44.505304],[167.862071,-44.601983],[167.751964,-44.603204],[167.418712,-44.840916],[167.308849,-44.875258],[167.203461,-44.949965],[167.140636,-45.043145],[167.004893,-45.149591],[167.078868,-45.306329],[167.019054,-45.341241],[166.881358,-45.279555],[166.806,-45.346287],[166.702485,-45.542413],[166.770763,-45.61061],[166.797537,-45.724379],[166.889659,-45.776462],[166.489757,-45.80755],[166.469412,-45.983494],[166.629242,-45.965265],[166.616059,-46.088067],[166.715668,-46.132745],[166.761974,-46.219985],[167.085704,-46.236912],[167.174815,-46.273126],[167.405772,-46.251153],[167.460948,-46.148207],[167.697927,-46.188735],[167.850108,-46.39658],[168.073253,-46.34881],[168.216075,-46.354425],[168.365733,-46.540216],[168.591482,-46.614353],[168.8449,-46.560154],[168.877452,-46.64422],[169.035981,-46.681899],[169.192702,-46.618012]]]]},"properties":{"LOCATION_TYPE":"level1","ADM0_A3":"NZL","LOCATION_ID":"NZL-STL","NAME":"Southland","TYPE_EN":"Regional Council"}},
{"type":"Feature","geometry":{"type":"MultiPolygon","coordinates":[[[[173.784434,-40.907159],[173.897472,-40.866795],[173.963715,-40.794366],[173.826834,-40.76629],[173.784434,-40.907159]]],[[[173.590467,-41.055684],[173.565148,-41.148134],[173.390171,-41.329725],[173.285268,-41.388636],[173.242894,-41.522065],[173.173234,-41.533795],[172.872684,-41.83109],[172.841781,-41.933771],[172.740909,-42.029579],[172.706285,-42.115982],[172.817907,-42.180577],[172.853977,-42.298813],[173.064403,-42.471257],[173.15246,-42.431467],[173.200829,-42.31907],[173.312243,-42.240677],[173.43792,-42.199853],[173.498485,-42.072109],[173.703951,-41.958886],[173.913964,-41.916149],[174.081693,-41.969108],[174.197927,-41.876072],[174.286388,-41.754571],[174.225922,-41.723403],[174.172374,-41.57822],[174.058116,-41.517267],[174.055512,-41.424574],[174.133067,-41.320082],[174.154959,-41.220961],[174.260427,-41.118259],[174.211436,-40.999607],[174.094249,-41.019138],[174.01588,-40.974542],[173.929942,-41.048272],[173.590467,-41.055684]]]]},"properties":{"LOCATION_TYPE":"level1","ADM0_A3":"NZL","LOCATION_ID":"NZL-MBH","NAME":"Marlborough District","TYPE_EN":"Unitary Authority"}},
{"type":"Feature","geometry":{"type":"Polygon","coordinates":[[[173.184975,-41.310206],[173.285268,-41.388636],[173.390171,-41.329725],[173.565148,-41.148134],[173.590467,-41.055684],[173.483246,-41.149998],[173.438324,-41.136977],[173.284353,-41.261407],[173.184975,-41.310206]]]},"properties":{"LOCATION_TYPE":"level1","ADM0_A3":"NZL","LOCATION_ID":"NZL-NSN","NAME":"Nelson City","TYPE_EN":"Unitary Authority"}},
{"type":"Feature","geometry":{"type":"Polygon","coordinates":[[[172.233409,-40.777602],[172.251636,-40.853992],[172.356746,-40.962822],[172.363671,-41.048037],[172.452554,-41.044213],[172.51808,-41.114131],[172.689646,-41.194126],[172.581539,-41.269367],[172.578128,-41.378146],[172.414107,-41.427652],[172.310341,-41.625263],[172.243265,-41.699315],[172.128543,-41.737297],[172.124099,-41.824992],[172.064051,-41.954648],[172.141669,-42.099084],[172.325327,-42.162077],[172.409559,-42.312507],[172.484594,-42.285997],[172.706285,-42.115982],[172.740909,-42.029579],[172.841781,-41.933771],[172.872684,-41.83109],[173.173234,-41.533795],[173.242894,-41.522065],[173.285268,-41.388636],[173.184975,-41.310206],[173.125987,-41.3117],[173.083507,-41.189223],[173.030935,-41.149102],[173.030935,-41.017022],[173.064952,-40.886651],[173.017345,-40.797296],[172.856456,-40.843683],[172.689138,-40.734063],[172.722341,-40.551528],[172.641449,-40.509698],[172.575206,-40.612237],[172.507091,-40.589451],[172.363536,-40.715916],[172.233409,-40.777602]]]},"properties":{"LOCATION_TYPE":"level1","ADM0_A3":"NZL","LOCATION_ID":"NZL-TAS","NAME":"Tasman District","TYPE_EN":"Unitary Authority"}},
{"type":"Feature","geometry":{"type":"Polygon","coordinates":[[[168.136708,-44.280795],[168.241545,-44.265618],[168.37394,-44.369746],[168.328878,-44.489997],[168.453935,-44.48054],[168.742703,-44.393621],[168.844402,-44.25089],[168.977521,-44.144024],[169.071055,-44.101442],[169.292334,-44.076224],[169.367264,-44.102062],[169.671949,-43.975507],[169.794008,-43.875978],[169.949865,-43.782857],[170.100346,-43.605658],[170.204629,-43.532485],[170.470556,-43.436521],[170.59582,-43.423499],[170.868155,-43.242115],[171.005717,-43.185787],[171.068039,-43.106723],[171.207255,-43.072048],[171.327765,-42.964561],[171.493026,-42.918259],[171.72712,-42.890767],[171.765154,-42.797284],[171.878946,-42.757803],[171.982919,-42.652435],[172.100638,-42.613729],[172.248742,-42.469655],[172.446973,-42.369145],[172.484594,-42.285997],[172.409559,-42.312507],[172.325327,-42.162077],[172.141669,-42.099084],[172.064051,-41.954648],[172.124099,-41.824992],[172.128543,-41.737297],[172.243265,-41.699315],[172.310341,-41.625263],[172.414107,-41.427652],[172.578128,-41.378146],[172.581539,-41.269367],[172.689646,-41.194126],[172.51808,-41.114131],[172.452554,-41.044213],[172.363671,-41.048037],[172.356746,-40.962822],[172.251636,-40.853992],[172.233409,-40.777602],[172.106781,-40.886895],[172.114431,-41.250909],[172.070811,-41.414239],[171.982677,-41.465753],[171.903819,-41.606866],[171.783376,-41.696059],[171.639415,-41.757501],[171.46811,-41.76629],[171.48878,-41.830336],[171.417817,-42.00628],[171.331554,-42.147231],[171.304861,-42.29461],[171.225413,-42.450689],[171.122813,-42.59238],[170.943858,-42.733819],[170.858409,-42.843357],[170.700742,-42.954659],[170.514415,-43.006606],[170.363096,-43.103137],[170.23878,-43.237888],[170.104991,-43.258071],[170.030121,-43.345798],[169.896821,-43.394464],[169.733653,-43.565688],[169.583263,-43.60296],[169.192149,-43.758722],[169.081271,-43.846803],[168.858165,-43.972752],[168.746755,-44.010349],[168.645844,-43.964532],[168.41033,-44.027927],[168.340099,-44.118341],[168.136708,-44.280795]]]},"properties":{"LOCATION_TYPE":"level1","ADM0_A3":"NZL","LOCATION_ID":"NZL-WTC","NAME":"West Coast","TYPE_EN":"Regional Council"}},
{"type":"Feature","geometry":{"type":"Polygon","coordinates":[[[171.172539,-44.953327],[170.84202,-44.881707],[170.643569,-44.91886],[170.390044,-45.060402],[170.303745,-44.916535],[170.075335,-44.913124],[169.903252,-44.664715],[169.797316,-44.660685],[169.64363,-44.565858],[169.552576,-44.446021],[169.546995,-44.203245],[169.6797,-44.030852],[169.671949,-43.975507],[169.367264,-44.102062],[169.292334,-44.076224],[169.071055,-44.101442],[168.977521,-44.144024],[168.844402,-44.25089],[168.742703,-44.393621],[168.453935,-44.48054],[168.328878,-44.489997],[168.205061,-44.596657],[168.1261,-44.862998],[168.160723,-44.964439],[168.275962,-45.047069],[168.239065,-45.131767],[168.307588,-45.299509],[168.462513,-45.31558],[168.6378,-45.258167],[168.778463,-45.416659],[168.894942,-45.416297],[169.004703,-45.303643],[169.085835,-45.301679],[169.177405,-45.373613],[169.021549,-45.661554],[168.999742,-45.765423],[169.058963,-45.871153],[169.081804,-46.007786],[169.135031,-46.067317],[169.187637,-46.209686],[169.157148,-46.359134],[169.223811,-46.497368],[169.192702,-46.618012],[169.219737,-46.66074],[169.566905,-46.565037],[169.635102,-46.578383],[169.848969,-46.467543],[169.864757,-46.378351],[170.095714,-46.224216],[170.234874,-46.153985],[170.26002,-46.063653],[170.333751,-45.981541],[170.493419,-45.922947],[170.70045,-45.90781],[170.787283,-45.863051],[170.698416,-45.679295],[170.906261,-45.402765],[170.876964,-45.35589],[170.980317,-45.154962],[171.091156,-45.073663],[171.172539,-44.953327]]]},"properties":{"LOCATION_TYPE":"level1","ADM0_A3":"NZL","LOCATION_ID":"NZL-OTA","NAME":"Otago","TYPE_EN":"Regional Council"}},
{"type":"Feature","geometry":{"type":"Polygon","coordinates":[[[174.081693,-41.969108],[173.913964,-41.916149],[173.703951,-41.958886],[173.498485,-42.072109],[173.43792,-42.199853],[173.312243,-42.240677],[173.200829,-42.31907],[173.15246,-42.431467],[173.064403,-42.471257],[172.853977,-42.298813],[172.817907,-42.180577],[172.706285,-42.115982],[172.484594,-42.285997],[172.446973,-42.369145],[172.248742,-42.469655],[172.100638,-42.613729],[171.982919,-42.652435],[171.878946,-42.757803],[171.765154,-42.797284],[171.72712,-42.890767],[171.493026,-42.918259],[171.327765,-42.964561],[171.207255,-43.072048],[171.068039,-43.106723],[171.005717,-43.185787],[170.868155,-43.242115],[170.59582,-43.423499],[170.470556,-43.436521],[170.204629,-43.532485],[170.100346,-43.605658],[169.949865,-43.782857],[169.794008,-43.875978],[169.671949,-43.975507],[169.6797,-44.030852],[169.546995,-44.203245],[169.552576,-44.446021],[169.64363,-44.565858],[169.797316,-44.660685],[169.903252,-44.664715],[170.075335,-44.913124],[170.303745,-44.916535],[170.390044,-45.060402],[170.643569,-44.91886],[170.84202,-44.881707],[171.172539,-44.953327],[171.212413,-44.813572],[171.195974,-44.566827],[171.270681,-44.458754],[171.28004,-44.371515],[171.346002,-44.278631],[171.550636,-44.167272],[171.806666,-44.061148],[171.868337,-44.058526],[172.061209,-43.956638],[172.365571,-43.868422],[172.417328,-43.737481],[172.497081,-43.721856],[172.617686,-43.787367],[172.718516,-43.803399],[172.87672,-43.902032],[172.996837,-43.88893],[173.105479,-43.82936],[173.094737,-43.684015],[173.052908,-43.653253],[172.803966,-43.611017],[172.729659,-43.414847],[172.745453,-43.265395],[172.811209,-43.169041],[172.948253,-43.091485],[173.083263,-43.06699],[173.153656,-43.002537],[173.287283,-42.953871],[173.523204,-42.573337],[173.558604,-42.491143],[173.705821,-42.404067],[173.747081,-42.333591],[173.89088,-42.240818],[174.00408,-42.031183],[174.081693,-41.969108]]]},"properties":{"LOCATION_TYPE":"level1","ADM0_A3":"NZL","LOCATION_ID":"NZL-CAN","NAME":"Canterbury","TYPE_EN":"Regional Council"}},
{"type":"Feature","geometry":{"type":"MultiPolygon","coordinates":[[[[175.538422,-36.282403],[175.53061,-36.176365],[175.387706,-36.117934],[175.356456,-36.24391],[175.538422,-36.282403]]],[[[174.672905,-37.293773],[175.159651,-37.160211],[175.183184,-37.039634],[175.32602,-37.009454],[175.240977,-36.942315],[175.080577,-36.953058],[175.079845,-36.884535],[174.819102,-36.823663],[174.722911,-36.593683],[174.750743,-36.354425],[174.824474,-36.277032],[174.757009,-36.244887],[174.656217,-36.133469],[174.511241,-36.227797],[174.395193,-36.322686],[174.441417,-36.406508],[174.469737,-36.583429],[174.431407,-36.665623],[174.359874,-36.63128],[174.257172,-36.446954],[174.217947,-36.545099],[174.407563,-36.761489],[174.488943,-37.014581],[174.520518,-37.040704],[174.700694,-36.936293],[174.832774,-36.942804],[174.880544,-37.076349],[174.704275,-37.176039],[174.642751,-37.057061],[174.565278,-37.090509],[174.672905,-37.293773]]]]},"properties":{"LOCATION_TYPE":"level1","ADM0_A3":"NZL","LOCATION_ID":"NZL-AUK","NAME":"Auckland","TYPE_EN":"Unitary Authority"}},
{"type":"Feature","geometry":{"type":"Polygon","coordinates":[[[174.617605,-38.707371],[174.810446,-38.738824],[174.868324,-38.777064],[174.940878,-38.750141],[174.97116,-38.668751],[175.119471,-38.628391],[175.264269,-38.616351],[175.37326,-38.568394],[175.46313,-38.484612],[175.607474,-38.516115],[175.625177,-38.614439],[175.526372,-38.757686],[175.573294,-38.804194],[175.565336,-38.968474],[175.666105,-39.003717],[175.594171,-39.274502],[175.813899,-39.297291],[175.981021,-39.155749],[176.081821,-39.127654],[176.267289,-38.90652],[176.255114,-38.808178],[176.485383,-38.505556],[176.47205,-38.367839],[176.319502,-38.314405],[176.205925,-38.190847],[176.100323,-38.157191],[176.086027,-38.057418],[175.985879,-37.995717],[175.92056,-37.771751],[175.840461,-37.63517],[175.809248,-37.508046],[175.958742,-37.36866],[175.901378,-37.230645],[175.91627,-37.079767],[175.881847,-36.926039],[175.785655,-36.78281],[175.790701,-36.707615],[175.621104,-36.734959],[175.562022,-36.55169],[175.44044,-36.474705],[175.357107,-36.529555],[175.502452,-36.653904],[175.520518,-36.797947],[175.448904,-36.874119],[175.527843,-36.962498],[175.595714,-37.213149],[175.367198,-37.207208],[175.320079,-37.128676],[175.32602,-37.009454],[175.183184,-37.039634],[175.159651,-37.160211],[174.672905,-37.293773],[174.786388,-37.568536],[174.850352,-37.764907],[174.79184,-37.872003],[174.784434,-37.966892],[174.886892,-37.986261],[174.839041,-38.124688],[174.705089,-38.119724],[174.707367,-38.288507],[174.643565,-38.462823],[174.64088,-38.635431],[174.617605,-38.707371]]]},"properties":{"LOCATION_TYPE":"level1","ADM0_A3":"NZL","LOCATION_ID":"NZL-WKO","NAME":"Waikato","TYPE_EN":"Regional Council"}},
{"type":"Feature","geometry":{"type":"Polygon","coordinates":[[[172.145995,-34.144658],[172.116323,-34.152381],[172.137663,-34.16925],[172.145995,-34.144658]]]},"properties":{"LOCATION_TYPE":"level1","ADM0_A3":"NZL","LOCATION_ID":"NZL-X03~","NAME":"Three Kings Islands","TYPE_EN":null}},
{"type":"Feature","geometry":{"type":"Polygon","coordinates":[[[176.347992,-40.696547],[176.087468,-40.693246],[175.910334,-40.761228],[175.796014,-40.773077],[175.720148,-40.696988],[175.638717,-40.738525],[175.47711,-40.708997],[175.425683,-40.745338],[175.219399,-40.754291],[175.141287,-40.674412],[174.942719,-40.970636],[174.84197,-41.043715],[174.609386,-41.291925],[174.740571,-41.346612],[174.812999,-41.229913],[174.889659,-41.224542],[174.865571,-41.419529],[174.937511,-41.438084],[175.009532,-41.385675],[175.181814,-41.417901],[175.22169,-41.613702],[175.330333,-41.609796],[175.777354,-41.371515],[175.966807,-41.247003],[176.068126,-41.139825],[176.121349,-41.010837],[176.220388,-40.933282],[176.347992,-40.696547]]]},"properties":{"LOCATION_TYPE":"level1","ADM0_A3":"NZL","LOCATION_ID":"NZL-WGN","NAME":"Wellington","TYPE_EN":"Regional Council"}},
{"type":"Feature","geometry":{"type":"Polygon","coordinates":[[[175.141287,-40.674412],[175.219399,-40.754291],[175.425683,-40.745338],[175.47711,-40.708997],[175.638717,-40.738525],[175.720148,-40.696988],[175.796014,-40.773077],[175.910334,-40.761228],[176.087468,-40.693246],[176.347992,-40.696547],[176.542491,-40.486017],[176.629666,-40.45407],[176.45355,-40.406319],[176.389058,-40.362136],[176.369421,-40.151244],[176.316711,-40.073626],[176.104528,-39.979058],[176.137084,-39.835708],[176.201679,-39.674012],[176.144162,-39.581909],[176.142055,-39.478874],[176.098033,-39.36404],[176.130459,-39.302684],[176.081821,-39.127654],[175.981021,-39.155749],[175.813899,-39.297291],[175.594171,-39.274502],[175.666105,-39.003717],[175.565336,-38.968474],[175.573294,-38.804194],[175.526372,-38.757686],[175.625177,-38.614439],[175.607474,-38.516115],[175.46313,-38.484612],[175.37326,-38.568394],[175.264269,-38.616351],[175.119471,-38.628391],[174.97116,-38.668751],[174.940878,-38.750141],[174.868324,-38.777064],[174.798768,-38.834632],[174.82075,-38.991845],[174.718381,-39.14119],[174.824089,-39.325661],[174.889511,-39.358734],[174.893749,-39.435835],[174.992761,-39.556603],[174.938087,-39.728582],[174.772309,-39.859145],[174.967296,-39.916436],[175.154959,-40.085382],[175.234874,-40.336033],[175.187511,-40.56878],[175.141287,-40.674412]]]},"properties":{"LOCATION_TYPE":"level1","ADM0_A3":"NZL","LOCATION_ID":"NZL-MWT","NAME":"Manawatu-Wanganui","TYPE_EN":"Regional Council"}},
{"type":"Feature","geometry":{"type":"Polygon","coordinates":[[[174.772309,-39.859145],[174.938087,-39.728582],[174.992761,-39.556603],[174.893749,-39.435835],[174.889511,-39.358734],[174.824089,-39.325661],[174.718381,-39.14119],[174.82075,-38.991845],[174.798768,-38.834632],[174.868324,-38.777064],[174.810446,-38.738824],[174.617605,-38.707371],[174.594005,-38.818617],[174.458995,-38.93727],[174.36671,-38.975681],[174.211599,-38.973321],[173.852712,-39.134454],[173.777599,-39.207696],[173.759288,-39.301365],[173.784434,-39.393243],[173.851248,-39.463962],[173.986583,-39.54225],[174.215099,-39.578546],[174.319021,-39.613865],[174.437266,-39.736912],[174.567638,-39.826755],[174.772309,-39.859145]]]},"properties":{"LOCATION_TYPE":"level1","ADM0_A3":"NZL","LOCATION_ID":"NZL-TKI","NAME":"Taranaki","TYPE_EN":"Regional Council"}},
{"type":"Feature","geometry":{"type":"Polygon","coordinates":[[[174.511241,-36.227797],[174.656217,-36.133469],[174.63087,-36.055108],[174.496918,-35.987563],[174.476573,-35.905043],[174.579275,-35.849542],[174.586436,-35.761],[174.517426,-35.720798],[174.569509,-35.594334],[174.468923,-35.517673],[174.474783,-35.45379],[174.33253,-35.288018],[174.250662,-35.274509],[174.209727,-35.342706],[174.137543,-35.319106],[173.969981,-35.07586],[173.888194,-35.006036],[173.660655,-34.96852],[173.478282,-34.990411],[173.404063,-34.903416],[173.298188,-34.909438],[173.123057,-34.809666],[173.145518,-34.759698],[173.071788,-34.698989],[173.050792,-34.601332],[172.907481,-34.541436],[173.013357,-34.420587],[172.74171,-34.431248],[172.674083,-34.479913],[172.799327,-34.550958],[173.143565,-34.928399],[173.201996,-35.057794],[173.179373,-35.15602],[173.100271,-35.219985],[173.369965,-35.516534],[173.407237,-35.571222],[173.858246,-36.065606],[174.024099,-36.268162],[174.079845,-36.399509],[174.20281,-36.347589],[174.040863,-36.165297],[174.141368,-36.17254],[174.250662,-36.268162],[174.363536,-36.281915],[174.511241,-36.227797]]]},"properties":{"LOCATION_TYPE":"level1","ADM0_A3":"NZL","LOCATION_ID":"NZL-NTL","NAME":"Northland","TYPE_EN":"Regional Council"}},
{"type":"Feature","geometry":{"type":"Polygon","coordinates":[[[175.958742,-37.36866],[175.809248,-37.508046],[175.840461,-37.63517],[175.92056,-37.771751],[175.985879,-37.995717],[176.086027,-38.057418],[176.100323,-38.157191],[176.205925,-38.190847],[176.319502,-38.314405],[176.47205,-38.367839],[176.485383,-38.505556],[176.255114,-38.808178],[176.267289,-38.90652],[176.455302,-38.989054],[176.530344,-38.806968],[176.706041,-38.844295],[176.712346,-38.741408],[176.872853,-38.672626],[176.983957,-38.704562],[177.065399,-38.620485],[177.172783,-38.569842],[177.255155,-38.497702],[177.243993,-38.429799],[177.432199,-38.353214],[177.497104,-38.224333],[177.576686,-38.203353],[177.68438,-38.114572],[177.689237,-38.021452],[177.84406,-38.107441],[177.884781,-38.064291],[177.941831,-37.906678],[178.05893,-37.761467],[177.977488,-37.741262],[177.978212,-37.616102],[178.077329,-37.551377],[177.913585,-37.607843],[177.876638,-37.647882],[177.73878,-37.676202],[177.669281,-37.789483],[177.556814,-37.913832],[177.437511,-37.976739],[177.197032,-37.995538],[177.145518,-38.023533],[176.950206,-37.927667],[176.718272,-37.877699],[176.518565,-37.76214],[176.231212,-37.665948],[176.131358,-37.687107],[175.997244,-37.631768],[175.943126,-37.521905],[175.984874,-37.476495],[175.958742,-37.36866]]]},"properties":{"LOCATION_TYPE":"level1","ADM0_A3":"NZL","LOCATION_ID":"NZL-BOP","NAME":"Bay of Plenty","TYPE_EN":"Regional Council"}},
{"type":"Feature","geometry":{"type":"Polygon","coordinates":[[[178.077329,-37.551377],[177.978212,-37.616102],[177.977488,-37.741262],[178.05893,-37.761467],[177.941831,-37.906678],[177.884781,-38.064291],[177.84406,-38.107441],[177.689237,-38.021452],[177.68438,-38.114572],[177.576686,-38.203353],[177.497104,-38.224333],[177.432199,-38.353214],[177.243993,-38.429799],[177.255155,-38.497702],[177.172783,-38.569842],[177.458886,-38.667083],[177.554974,-38.786577],[177.695778,-38.875512],[177.912446,-38.960707],[177.997325,-38.683282],[178.062266,-38.716485],[178.294607,-38.539809],[178.299327,-38.466974],[178.362071,-38.316502],[178.318533,-38.26572],[178.3296,-38.145929],[178.381114,-38.078709],[178.351573,-38.001723],[178.42921,-37.874444],[178.564301,-37.717706],[178.512869,-37.652276],[178.341482,-37.618259],[178.27768,-37.559259],[178.077329,-37.551377]]]},"properties":{"LOCATION_TYPE":"level1","ADM0_A3":"NZL","LOCATION_ID":"NZL-GIS","NAME":"Gisborne District","TYPE_EN":"Unitary Authority"}},
{"type":"Feature","geometry":{"type":"Polygon","coordinates":[[[177.912446,-38.960707],[177.695778,-38.875512],[177.554974,-38.786577],[177.458886,-38.667083],[177.172783,-38.569842],[177.065399,-38.620485],[176.983957,-38.704562],[176.872853,-38.672626],[176.712346,-38.741408],[176.706041,-38.844295],[176.530344,-38.806968],[176.455302,-38.989054],[176.267289,-38.90652],[176.081821,-39.127654],[176.130459,-39.302684],[176.098033,-39.36404],[176.142055,-39.478874],[176.144162,-39.581909],[176.201679,-39.674012],[176.137084,-39.835708],[176.104528,-39.979058],[176.316711,-40.073626],[176.369421,-40.151244],[176.389058,-40.362136],[176.45355,-40.406319],[176.629666,-40.45407],[176.703624,-40.290216],[176.83725,-40.177911],[177.036388,-39.753595],[177.035655,-39.663832],[176.960704,-39.624444],[176.944672,-39.49505],[176.906261,-39.447524],[176.937511,-39.348728],[177.064952,-39.199395],[177.38738,-39.077407],[177.763927,-39.080987],[177.82016,-39.10589],[177.8685,-39.290216],[177.998871,-39.129815],[177.911388,-39.03631],[177.912446,-38.960707]]]},"properties":{"LOCATION_TYPE":"level1","ADM0_A3":"NZL","LOCATION_ID":"NZL-HKB","NAME":"Hawke's Bay","TYPE_EN":"Regional Council"}}
]}