{"type":"FeatureCollection", "features": [
{"type":"Feature","geometry":{"type":"Polygon","coordinates":[[[56.152496,25.657961],[56.36378,25.806871],[56.400401,25.990465],[56.301931,26.205308],[56.181814,26.245998],[56.091482,26.106513],[56.183475,26.014537],[56.152496,25.657961]]]},"properties":{"LOCATION_TYPE":"level1","ADM0_A3":"OMN","LOCATION_ID":"OMN-MU","NAME":"Musandam","TYPE_EN":"Province"}},
{"type":"Feature","geometry":{"type":"Polygon","coordinates":[[[57.532683,23.829591],[57.151541,23.953559],[56.939464,24.115912],[56.611176,24.496324],[56.383311,24.978217],[56.07627,24.729972],[56.208073,24.532327],[56.312666,24.14031],[56.468109,24.077187],[56.764732,23.836478],[56.874699,23.490711],[57.163674,23.503966],[57.416524,23.642623],[57.532683,23.829591]]]},"properties":{"LOCATION_TYPE":"level1","ADM0_A3":"OMN","LOCATION_ID":"OMN-BA","NAME":"Al Batnah North","TYPE_EN":"Region"}},
{"type":"Feature","geometry":{"type":"Polygon","coordinates":[[[56.07627,24.729972],[55.935428,24.977727],[55.788667,24.855202],[55.818226,24.643381],[55.759831,24.558528],[55.807373,24.340789],[55.997853,24.08127],[55.807063,24.007476],[55.499795,23.970605],[55.538346,23.770049],[55.445328,23.552259],[55.58259,23.539571],[55.888875,23.67183],[55.85407,23.818012],[56.014173,24.01292],[56.278692,24.040764],[56.312666,24.14031],[56.208073,24.532327],[56.07627,24.729972]]]},"properties":{"LOCATION_TYPE":"level1","ADM0_A3":"OMN","LOCATION_ID":"OMN-BU","NAME":"Al Buraymi","TYPE_EN":"Province"}},
{"type":"Feature","geometry":{"type":"Polygon","coordinates":[[[55.445328,23.552259],[55.191287,22.995368],[55.186843,22.703577],[55.626713,22.023773],[55.600171,21.86606],[56.325586,22.015272],[56.523713,22.253784],[56.682773,22.697478],[56.874699,23.490711],[56.764732,23.836478],[56.468109,24.077187],[56.312666,24.14031],[56.278692,24.040764],[56.014173,24.01292],[55.85407,23.818012],[55.888875,23.67183],[55.58259,23.539571],[55.445328,23.552259]]]},"properties":{"LOCATION_TYPE":"level1","ADM0_A3":"OMN","LOCATION_ID":"OMN-ZA","NAME":"Al Dhahira","TYPE_EN":"Region"}},
{"type":"Feature","geometry":{"type":"Polygon","coordinates":[[[55.344624,21.096909],[54.97838,19.995421],[53.630039,19.545992],[52.77438,19.260789],[51.978615,18.995638],[52.484527,17.854157],[52.730145,17.299875],[52.801562,17.267423],[53.090343,16.642401],[53.338634,16.734809],[53.582693,16.749945],[53.753184,16.867743],[53.98113,16.908759],[54.023448,16.985338],[54.389985,17.039455],[54.592052,17.038479],[54.808442,16.951483],[55.026866,17.011135],[55.254731,17.228705],[55.300792,17.416815],[55.225434,17.515448],[55.44516,17.84101],[55.653494,17.895331],[56.188487,17.957099],[56.3449,17.937812],[56.56129,18.149237],[56.659679,18.595364],[56.91505,18.810289],[57.20753,18.90998],[57.445293,18.945335],[56.57725,19.1656],[55.344624,21.096909]]]},"properties":{"LOCATION_TYPE":"level1","ADM0_A3":"OMN","LOCATION_ID":"OMN-ZU","NAME":"Dhofar","TYPE_EN":"Province"}},
{"type":"Feature","geometry":{"type":"Polygon","coordinates":[[[55.344624,21.096909],[56.57725,19.1656],[57.445293,18.945335],[57.709727,18.943996],[57.840099,19.015326],[57.750662,19.268052],[57.773936,19.409654],[57.704438,19.548733],[57.698904,19.754381],[57.847992,20.111762],[57.85613,20.260647],[58.103526,20.575141],[58.255109,20.609269],[58.396827,21.044243],[58.28991,21.09556],[57.9721,21.248109],[56.325586,22.015272],[55.600171,21.86606],[55.344624,21.096909]]]},"properties":{"LOCATION_TYPE":"level1","ADM0_A3":"OMN","LOCATION_ID":"OMN-WU","NAME":"Al Wusta","TYPE_EN":"Region"}},
{"type":"Feature","geometry":{"type":"MultiPolygon","coordinates":[[[[59.483897,22.618842],[59.429433,22.565302],[59.440245,22.3298],[59.391486,22.209824],[59.051416,22.038566],[58.082348,21.710618],[58.28991,21.09556],[58.396827,21.044243],[58.255109,20.609269],[58.224294,20.396389],[58.518565,20.416815],[58.680349,20.828355],[58.792979,20.927395],[58.9192,21.143704],[59.16627,21.362779],[59.336192,21.43773],[59.497895,21.756334],[59.645274,21.925849],[59.791759,22.198065],[59.844574,22.445258],[59.776378,22.541449],[59.483897,22.618842]]],[[[58.906261,20.626003],[58.642914,20.356106],[58.789399,20.286526],[58.906261,20.626003]]]]},"properties":{"LOCATION_TYPE":"level1","ADM0_A3":"OMN","LOCATION_ID":"OMN-SH","NAME":"Ash Sharqiyah South","TYPE_EN":"Region"}},
{"type":"Feature","geometry":{"type":"Polygon","coordinates":[[[59.259127,22.890435],[59.169753,22.79388],[58.840988,22.834085],[58.541058,23.02229],[58.162063,22.881549],[57.932826,22.714118],[57.834331,22.52307],[58.082348,21.710618],[59.051416,22.038566],[59.391486,22.209824],[59.440245,22.3298],[59.429433,22.565302],[59.483897,22.618842],[59.297537,22.792711],[59.259127,22.890435]]]},"properties":{"LOCATION_TYPE":"level1","ADM0_A3":"OMN","LOCATION_ID":"OMN-SS","NAME":"Ash Sharqiyah North","TYPE_EN":"Region"}},
{"type":"Feature","geometry":{"type":"Polygon","coordinates":[[[58.131602,23.713324],[58.118344,23.462186],[58.334972,23.488644],[58.58767,23.249434],[58.541058,23.02229],[58.840988,22.834085],[59.169753,22.79388],[59.259127,22.890435],[59.083669,23.055365],[58.786143,23.512112],[58.490896,23.656562],[58.2824,23.631415],[58.131602,23.713324]]]},"properties":{"LOCATION_TYPE":"level1","ADM0_A3":"OMN","LOCATION_ID":"OMN-MA","NAME":"Muscat","TYPE_EN":"Province"}},
{"type":"Feature","geometry":{"type":"Polygon","coordinates":[[[57.532683,23.829591],[57.416524,23.642623],[57.163674,23.503966],[57.46009,23.225249],[57.613776,23.195742],[57.870194,23.234319],[58.118344,23.462186],[58.131602,23.713324],[57.912771,23.717841],[57.532683,23.829591]]]},"properties":{"LOCATION_TYPE":"level1","ADM0_A3":"OMN","LOCATION_ID":"OMN-BJ","NAME":"Al Batnah South","TYPE_EN":"Region"}},
{"type":"Feature","geometry":{"type":"Polygon","coordinates":[[[58.082348,21.710618],[57.834331,22.52307],[57.932826,22.714118],[58.162063,22.881549],[58.541058,23.02229],[58.58767,23.249434],[58.334972,23.488644],[58.118344,23.462186],[57.870194,23.234319],[57.613776,23.195742],[57.46009,23.225249],[57.163674,23.503966],[56.874699,23.490711],[56.682773,22.697478],[56.523713,22.253784],[56.325586,22.015272],[57.9721,21.248109],[58.28991,21.09556],[58.082348,21.710618]]]},"properties":{"LOCATION_TYPE":"level1","ADM0_A3":"OMN","LOCATION_ID":"OMN-DA","NAME":"Ad Dakhliyah","TYPE_EN":"Region"}}
]}