{"type":"FeatureCollection", "features": [
{"type":"Feature","geometry":{"type":"Polygon","coordinates":[[[75.224544,34.638622],[75.348093,34.55722],[75.611643,34.49836],[75.777111,34.503812],[76.023401,34.677161],[76.262042,34.684654],[76.399915,34.750748],[76.553187,34.72584],[76.743873,34.819271],[76.782011,34.930892],[76.921123,34.920712],[77.013108,34.986393],[77.048971,35.110442],[76.777351,35.646112],[76.570757,35.751256],[76.56528,35.865461],[76.311962,35.80965],[76.166027,35.806239],[76.061434,35.991603],[75.894313,36.097384],[76.014409,36.230399],[75.96883,36.301971],[75.976582,36.462633],[75.790547,36.687839],[75.570508,36.766749],[75.410518,36.747319],[75.351297,36.915784],[75.100149,36.994125],[74.910497,36.962551],[74.677953,37.051693],[74.394043,36.994022],[74.094319,36.831241],[73.946938,36.83088],[73.711842,36.894139],[73.86901,36.784991],[73.673363,36.704531],[73.416014,36.752073],[73.078154,36.70081],[73.094484,36.603297],[72.980796,36.47085],[72.692441,36.271069],[72.564904,36.230141],[72.529247,36.102604],[72.588158,36.01279],[72.515604,35.903959],[72.792383,35.837555],[72.872172,35.874297],[73.085285,35.876519],[73.135308,35.714979],[73.504795,35.533853],[73.758422,35.527032],[73.688866,35.306735],[73.776303,35.23506],[73.924304,35.198886],[74.124701,35.099201],[74.520714,35.106007],[74.633834,34.940487],[74.927563,34.813415],[75.161399,34.861965],[75.231885,34.794579],[75.224544,34.638622]]]},"properties":{"LOCATION_TYPE":"level1","ADM0_A3":"PAK","LOCATION_ID":"PAK-GB","NAME":"Northern Areas","TYPE_EN":"Centrally Administered Area"}},
{"type":"Feature","geometry":{"type":"Polygon","coordinates":[[[73.711842,36.894139],[73.191842,36.877027],[72.867727,36.830415],[72.565214,36.820596],[72.454109,36.757964],[72.213607,36.726442],[71.736324,36.395919],[71.629147,36.459533],[71.382443,36.218566],[71.223073,36.125393],[71.170932,36.027001],[71.341567,35.947264],[71.59349,35.549356],[71.622429,35.429621],[71.529825,35.300895],[71.633694,35.203124],[71.508947,35.072021],[71.445239,34.937757],[71.59902,34.778756],[71.78366,34.781004],[71.757305,34.66021],[71.64031,34.536859],[71.652557,34.390666],[71.376501,34.119391],[71.427093,33.87199],[71.59809,33.736597],[71.729038,33.83995],[71.852855,33.753237],[71.839677,33.63309],[71.652712,33.549529],[71.602896,33.640117],[71.333042,33.633658],[71.201008,33.723265],[71.100136,33.594203],[70.992132,33.555885],[70.7538,33.581206],[70.730339,33.495682],[70.507821,33.430311],[70.584508,33.283395],[70.870951,33.182445],[70.791473,33.102037],[70.543064,33.04974],[70.376718,32.829624],[70.374547,32.723558],[70.578617,32.512951],[70.463637,32.502022],[70.283597,32.305341],[70.218123,32.305548],[70.074307,32.181447],[70.210991,31.885651],[70.207581,31.809557],[70.400592,31.247059],[70.570504,31.325711],[70.77814,31.294163],[70.870641,31.424671],[70.85457,31.552441],[70.899476,31.709719],[71.117499,32.081246],[71.229017,32.181912],[71.34994,32.501789],[71.16437,32.607157],[71.133777,32.811098],[71.179563,32.963053],[71.4674,33.060024],[71.410763,33.211126],[71.538352,33.225543],[71.700358,33.061626],[71.751414,33.205493],[71.740975,33.375715],[71.842003,33.402328],[71.953262,33.526533],[72.022147,33.746261],[72.234434,33.76613],[72.240635,33.938084],[72.525527,34.021231],[72.615857,33.885193],[72.760655,33.94351],[72.841632,33.877261],[72.844732,33.757061],[72.927466,33.727451],[73.126214,33.804345],[73.311939,33.867623],[73.382426,33.970123],[73.518644,34.00777],[73.474099,34.269176],[73.400201,34.375526],[73.447124,34.558047],[73.638947,34.585487],[73.647938,34.667808],[73.758422,34.792503],[74.012143,34.876163],[74.124701,35.099201],[73.924304,35.198886],[73.776303,35.23506],[73.688866,35.306735],[73.758422,35.527032],[73.504795,35.533853],[73.135308,35.714979],[73.085285,35.876519],[72.872172,35.874297],[72.792383,35.837555],[72.515604,35.903959],[72.588158,36.01279],[72.529247,36.102604],[72.564904,36.230141],[72.692441,36.271069],[72.980796,36.47085],[73.094484,36.603297],[73.078154,36.70081],[73.416014,36.752073],[73.673363,36.704531],[73.86901,36.784991],[73.711842,36.894139]]]},"properties":{"LOCATION_TYPE":"level1","ADM0_A3":"PAK","LOCATION_ID":"PAK-KP","NAME":"K.P.","TYPE_EN":"Province"}},
{"type":"Feature","geometry":{"type":"Polygon","coordinates":[[[71.445239,34.937757],[71.289478,34.87503],[71.203075,34.748164],[71.080601,34.672923],[71.065822,34.55846],[70.970841,34.468879],[71.122046,34.356819],[71.101789,34.151818],[71.046702,34.041877],[70.862217,33.964775],[70.521979,33.938705],[70.328193,33.957282],[70.002838,34.043789],[69.889253,34.031206],[69.841091,33.941805],[69.957518,33.752695],[70.108154,33.727296],[70.170218,33.638671],[70.154973,33.506612],[70.294448,33.318949],[70.124794,33.199034],[69.880933,33.089248],[69.771844,33.114776],[69.547517,33.075011],[69.468503,32.994292],[69.477288,32.856833],[69.387165,32.785338],[69.429126,32.667361],[69.281952,32.532796],[69.228001,32.421304],[69.264433,32.322369],[69.251049,32.13065],[69.301157,31.941282],[69.569997,31.94867],[69.708076,32.046856],[69.821661,32.057604],[69.84445,31.871182],[69.92951,31.798008],[69.914782,31.515389],[70.073067,31.414],[70.257707,31.392477],[70.239103,31.072807],[70.264218,31.15505],[70.400592,31.247059],[70.207581,31.809557],[70.210991,31.885651],[70.074307,32.181447],[70.218123,32.305548],[70.283597,32.305341],[70.463637,32.502022],[70.578617,32.512951],[70.374547,32.723558],[70.376718,32.829624],[70.543064,33.04974],[70.791473,33.102037],[70.870951,33.182445],[70.584508,33.283395],[70.507821,33.430311],[70.730339,33.495682],[70.7538,33.581206],[70.992132,33.555885],[71.100136,33.594203],[71.201008,33.723265],[71.333042,33.633658],[71.602896,33.640117],[71.652712,33.549529],[71.839677,33.63309],[71.852855,33.753237],[71.729038,33.83995],[71.59809,33.736597],[71.427093,33.87199],[71.376501,34.119391],[71.652557,34.390666],[71.64031,34.536859],[71.757305,34.66021],[71.78366,34.781004],[71.59902,34.778756],[71.445239,34.937757]]]},"properties":{"LOCATION_TYPE":"level1","ADM0_A3":"PAK","LOCATION_ID":"PAK-TA","NAME":"F.A.T.A.","TYPE_EN":"Territory"}},
{"type":"Feature","geometry":{"type":"Polygon","coordinates":[[[69.301157,31.941282],[69.004036,31.651092],[68.77728,31.618588],[68.675787,31.774702],[68.527476,31.822968],[68.356065,31.762507],[68.125743,31.811496],[68.046575,31.688403],[67.870668,31.635176],[67.726698,31.53141],[67.568981,31.52986],[67.59699,31.42568],[67.770364,31.394674],[67.749435,31.328011],[67.346204,31.20776],[67.022865,31.239386],[66.943283,31.314731],[66.696993,31.195823],[66.663093,31.083117],[66.550025,30.976973],[66.366264,30.922868],[66.267975,30.601389],[66.321822,30.437368],[66.300893,30.225598],[66.225239,30.04442],[66.340529,29.956571],[66.195628,29.835338],[65.036371,29.540162],[64.820312,29.567886],[64.477697,29.570367],[64.172599,29.4843],[64.086093,29.386605],[63.971991,29.429574],[63.568605,29.497477],[62.477509,29.407819],[62.374466,29.424872],[61.613427,29.638502],[60.876005,29.845518],[61.279184,29.40663],[61.342333,29.25452],[61.48775,29.080655],[61.566505,28.870978],[61.653012,28.756334],[61.89279,28.5426],[62.049111,28.486324],[62.362787,28.418887],[62.575643,28.229027],[62.76638,28.211483],[62.735684,27.994985],[62.780281,27.829724],[62.814698,27.494964],[62.756045,27.348099],[62.800642,27.225161],[62.919601,27.214877],[63.166976,27.258699],[63.251519,27.21896],[63.229918,27.05406],[63.264851,26.890039],[63.182272,26.83025],[63.141344,26.625404],[62.753564,26.644163],[62.595331,26.580704],[62.428003,26.564788],[62.291991,26.501226],[62.243415,26.350641],[61.857133,26.242379],[61.809901,26.167448],[61.760085,25.837597],[61.66035,25.769178],[61.620042,25.285486],[61.588227,25.202094],[61.780121,25.162543],[61.881114,25.103013],[62.075551,25.100749],[62.080031,25.197152],[62.254222,25.212032],[62.365896,25.179389],[62.477179,25.259064],[62.770518,25.261908],[63.027843,25.220364],[63.178477,25.258043],[63.500499,25.193671],[63.485199,25.284329],[63.57252,25.364976],[63.804942,25.374986],[64.066742,25.346259],[64.662771,25.229071],[64.807302,25.328518],[65.155284,25.296088],[65.23227,25.370673],[65.395356,25.392279],[65.671641,25.347398],[65.858409,25.417548],[66.251801,25.472886],[66.437022,25.597724],[66.587087,25.426215],[66.547862,25.365627],[66.71754,25.231187],[66.681326,24.910549],[66.704438,24.892035],[66.862203,25.009404],[66.966331,25.042968],[67.137639,25.276468],[67.170092,25.417157],[67.373697,25.672671],[67.439946,25.861703],[67.43731,26.111249],[67.180944,26.539285],[67.153038,26.7355],[67.142755,27.3335],[67.18575,27.512585],[67.402067,27.863881],[67.683549,27.925841],[67.925136,28.023122],[67.999343,28.114176],[68.438025,28.429299],[68.604319,28.474955],[68.775678,28.464955],[69.38515,28.486556],[69.332854,28.558696],[69.471295,28.69321],[69.531033,28.825398],[69.520336,28.938053],[69.707456,29.129824],[69.742699,29.280306],[69.569377,29.448203],[69.630045,29.686276],[69.727041,29.708575],[69.847758,29.827172],[70.039064,30.247999],[69.92982,30.289495],[69.978861,30.45411],[70.225719,30.874498],[70.239103,31.072807],[70.257707,31.392477],[70.073067,31.414],[69.914782,31.515389],[69.92951,31.798008],[69.84445,31.871182],[69.821661,32.057604],[69.708076,32.046856],[69.569997,31.94867],[69.301157,31.941282]]]},"properties":{"LOCATION_TYPE":"level1","ADM0_A3":"PAK","LOCATION_ID":"PAK-BA","NAME":"Baluchistan","TYPE_EN":"Province"}},
{"type":"Feature","geometry":{"type":"Polygon","coordinates":[[[70.189028,27.89179],[70.341939,28.01147],[70.456247,28.039788],[70.633187,27.93163],[70.710391,27.74115],[70.831573,27.701463],[71.150675,27.822411],[71.31144,27.861711],[71.560727,27.868533],[71.860864,27.950207],[71.89156,28.097097],[71.988195,28.228097],[72.149942,28.353774],[72.256499,28.645591],[72.382176,28.784006],[72.901524,29.022622],[73.050869,29.228217],[73.232873,29.536596],[73.370332,29.927322],[73.557815,30.012536],[73.739716,30.048451],[73.944354,30.188288],[73.85175,30.372669],[73.939083,30.426051],[74.057112,30.591571],[74.163669,30.664899],[74.329757,30.899614],[74.519306,30.962452],[74.600955,31.056607],[74.506387,31.175411],[74.61191,31.440201],[74.489437,31.711192],[74.565608,31.840538],[74.828641,32.025437],[74.955662,32.032206],[75.294659,32.148892],[75.359048,32.261675],[75.196164,32.3973],[75.023668,32.466262],[74.724978,32.46081],[74.629584,32.588089],[74.649738,32.723146],[74.316989,32.823067],[73.983008,32.969074],[73.822398,33.013206],[73.622513,33.124491],[73.573834,33.387395],[73.625201,33.575471],[73.56722,33.803442],[73.579829,33.910464],[73.518644,34.00777],[73.382426,33.970123],[73.311939,33.867623],[73.126214,33.804345],[73.320517,33.687091],[73.182541,33.496328],[73.046322,33.628025],[72.901835,33.575083],[72.832795,33.686032],[72.927466,33.727451],[72.844732,33.757061],[72.841632,33.877261],[72.760655,33.94351],[72.615857,33.885193],[72.525527,34.021231],[72.240635,33.938084],[72.234434,33.76613],[72.022147,33.746261],[71.953262,33.526533],[71.842003,33.402328],[71.740975,33.375715],[71.751414,33.205493],[71.700358,33.061626],[71.538352,33.225543],[71.410763,33.211126],[71.4674,33.060024],[71.179563,32.963053],[71.133777,32.811098],[71.16437,32.607157],[71.34994,32.501789],[71.229017,32.181912],[71.117499,32.081246],[70.899476,31.709719],[70.85457,31.552441],[70.870641,31.424671],[70.77814,31.294163],[70.570504,31.325711],[70.400592,31.247059],[70.264218,31.15505],[70.239103,31.072807],[70.225719,30.874498],[69.978861,30.45411],[69.92982,30.289495],[70.039064,30.247999],[69.847758,29.827172],[69.727041,29.708575],[69.630045,29.686276],[69.569377,29.448203],[69.742699,29.280306],[69.707456,29.129824],[69.520336,28.938053],[69.531033,28.825398],[69.471295,28.69321],[69.332854,28.558696],[69.38515,28.486556],[69.491449,28.527251],[69.732416,28.466196],[69.799492,28.395192],[69.899434,28.111385],[69.977155,28.001883],[70.189028,27.89179]]]},"properties":{"LOCATION_TYPE":"level1","ADM0_A3":"PAK","LOCATION_ID":"PAK-PB","NAME":"Punjab","TYPE_EN":"Province"}},
{"type":"Feature","geometry":{"type":"Polygon","coordinates":[[[70.189028,27.89179],[69.977155,28.001883],[69.899434,28.111385],[69.799492,28.395192],[69.732416,28.466196],[69.491449,28.527251],[69.38515,28.486556],[68.775678,28.464955],[68.604319,28.474955],[68.438025,28.429299],[67.999343,28.114176],[67.925136,28.023122],[67.683549,27.925841],[67.402067,27.863881],[67.18575,27.512585],[67.142755,27.3335],[67.153038,26.7355],[67.180944,26.539285],[67.43731,26.111249],[67.439946,25.861703],[67.373697,25.672671],[67.170092,25.417157],[67.137639,25.276468],[66.966331,25.042968],[66.862203,25.009404],[66.704438,24.892035],[66.779633,24.85102],[66.965099,24.843573],[67.176036,24.757717],[67.149587,24.635077],[67.246837,24.467963],[67.300304,24.186265],[67.354015,24.070868],[67.440684,24.070258],[67.520518,23.90705],[67.631602,23.803453],[67.802582,23.812812],[67.864513,23.86579],[68.024425,23.774604],[68.251937,23.904821],[68.431564,23.967143],[68.724466,23.965179],[68.725913,24.289216],[68.890296,24.319473],[68.980781,24.255394],[69.280815,24.283739],[69.563071,24.276762],[69.670558,24.188706],[69.972039,24.165219],[70.109705,24.3049],[70.416353,24.401948],[70.562907,24.424092],[70.56022,24.287253],[70.755453,24.231442],[70.917717,24.361718],[70.996679,24.356602],[70.954821,24.584521],[71.063858,24.682577],[70.893326,25.001886],[70.859891,25.139449],[70.723104,25.287295],[70.646623,25.431369],[70.657475,25.63363],[70.592259,25.708819],[70.477227,25.676315],[70.264579,25.697296],[70.064643,25.980327],[70.132029,26.18047],[70.158074,26.530113],[70.056064,26.589076],[69.815562,26.580291],[69.50416,26.735165],[69.465093,26.80777],[69.507571,27.050081],[69.575577,27.188419],[69.848015,27.410369],[70.016894,27.60059],[70.090688,27.79355],[70.189028,27.89179]]]},"properties":{"LOCATION_TYPE":"level1","ADM0_A3":"PAK","LOCATION_ID":"PAK-SD","NAME":"Sind","TYPE_EN":"Province"}},
{"type":"Feature","geometry":{"type":"Polygon","coordinates":[[[75.224544,34.638622],[75.231885,34.794579],[75.161399,34.861965],[74.927563,34.813415],[74.633834,34.940487],[74.520714,35.106007],[74.124701,35.099201],[74.012143,34.876163],[73.758422,34.792503],[73.647938,34.667808],[73.638947,34.585487],[73.447124,34.558047],[73.400201,34.375526],[73.474099,34.269176],[73.518644,34.00777],[73.579829,33.910464],[73.56722,33.803442],[73.625201,33.575471],[73.573834,33.387395],[73.622513,33.124491],[73.822398,33.013206],[73.983008,32.969074],[74.316989,32.823067],[74.322006,32.972045],[74.153851,33.040181],[74.002335,33.177692],[74.001715,33.270167],[74.105481,33.345201],[74.141552,33.549374],[73.976704,33.648387],[74.034581,33.828608],[74.23953,33.901007],[74.228368,34.012886],[73.945801,34.009786],[73.88441,34.0842],[73.998304,34.196803],[73.93774,34.304212],[73.774856,34.370952],[73.962234,34.668169],[74.120881,34.690855],[74.285832,34.768887],[74.412129,34.764494],[74.66493,34.688323],[75.017777,34.629722],[75.224544,34.638622]]]},"properties":{"LOCATION_TYPE":"level1","ADM0_A3":"PAK","LOCATION_ID":"PAK-JK","NAME":"Azad Kashmir","TYPE_EN":"Centrally Administered Area"}},
{"type":"Feature","geometry":{"type":"Polygon","coordinates":[[[72.927466,33.727451],[72.832795,33.686032],[72.901835,33.575083],[73.046322,33.628025],[73.182541,33.496328],[73.320517,33.687091],[73.126214,33.804345],[72.927466,33.727451]]]},"properties":{"LOCATION_TYPE":"level1","ADM0_A3":"PAK","LOCATION_ID":"PAK-IS","NAME":"F.C.T.","TYPE_EN":"Capital Territory"}}
]}