{"type":"FeatureCollection", "features": [
{"type":"Feature","geometry":{"type":"Polygon","coordinates":[[[-82.006747,8.946581],[-82.105377,8.935207],[-82.141754,8.988959],[-82.245961,9.014146],[-82.255483,9.182603],[-82.350575,9.207261],[-82.387603,9.286078],[-82.349599,9.402045],[-82.561879,9.569078],[-82.618854,9.486709],[-82.829022,9.602722],[-82.879252,9.559909],[-82.861294,9.484099],[-82.944286,9.437151],[-82.939377,9.059577],[-82.909457,9.072006],[-82.74913,8.974079],[-82.720157,8.920238],[-82.692751,8.894315],[-82.567694,8.899741],[-82.529711,8.862974],[-82.362952,8.808791],[-82.330886,8.904366],[-82.347759,8.949377],[-82.4284,8.988754],[-82.353391,9.061876],[-82.321507,9.009373],[-82.201514,8.954983],[-82.132139,8.90062],[-82.060877,8.90248],[-82.006747,8.946581]]]},"properties":{"LOCATION_TYPE":"level1","ADM0_A3":"PAN","LOCATION_ID":"PAN-1","NAME":"Bocas del Toro","TYPE_EN":"Province"}},
{"type":"Feature","geometry":{"type":"Polygon","coordinates":[[[-82.720157,8.920238],[-82.866927,8.838066],[-82.924158,8.741199],[-82.849796,8.629862],[-82.835973,8.529765],[-82.870415,8.438117],[-82.953511,8.402098],[-83.053246,8.315101],[-83.001105,8.269238],[-82.877187,8.219062],[-82.808705,8.295681],[-82.658925,8.322781],[-82.511708,8.276435],[-82.400136,8.287991],[-82.280059,8.343207],[-82.217559,8.278225],[-82.196523,8.202175],[-82.142405,8.160061],[-82.109364,8.233344],[-81.885365,8.173285],[-81.7742,8.123481],[-81.711456,8.130316],[-81.663575,7.997288],[-81.606124,8.134904],[-81.513107,8.251047],[-81.522486,8.379334],[-81.59212,8.371867],[-81.633616,8.297091],[-81.784305,8.264044],[-81.830013,8.318407],[-81.997134,8.339982],[-82.074003,8.467494],[-82.180172,8.457882],[-82.142913,8.557256],[-82.153223,8.762618],[-82.28169,8.77701],[-82.362952,8.808791],[-82.529711,8.862974],[-82.567694,8.899741],[-82.692751,8.894315],[-82.720157,8.920238]]]},"properties":{"LOCATION_TYPE":"level1","ADM0_A3":"PAN","LOCATION_ID":"PAN-4","NAME":"Chiriquí","TYPE_EN":"Province"}},
{"type":"Feature","geometry":{"type":"Polygon","coordinates":[[[-77.469373,8.537812],[-77.413197,8.666693],[-77.54475,8.714604],[-77.574073,8.792754],[-77.720772,8.89229],[-77.744416,8.963576],[-77.860097,9.110419],[-77.890152,9.077213],[-78.024566,9.226467],[-78.208025,9.290336],[-78.437712,9.404351],[-78.561318,9.43804],[-78.6039,9.416394],[-78.781136,9.445882],[-78.90331,9.422919],[-78.977277,9.457116],[-79.05806,9.457931],[-79.074533,9.562042],[-79.074987,9.457278],[-79.142063,9.377852],[-79.246992,9.330749],[-79.071809,9.277367],[-78.937166,9.344546],[-78.69886,9.370772],[-78.627702,9.321421],[-78.50019,9.337957],[-78.408749,9.243622],[-78.295603,9.257342],[-78.257001,9.190861],[-78.150831,9.194271],[-78.15233,9.134998],[-78.042544,9.073245],[-77.911905,8.996971],[-77.833693,8.900361],[-77.752044,8.850106],[-77.692513,8.772411],[-77.469373,8.537812]]]},"properties":{"LOCATION_TYPE":"level1","ADM0_A3":"PAN","LOCATION_ID":"PAN-KY","NAME":"Kuna Yala","TYPE_EN":"Indigenous Territory"}},
{"type":"Feature","geometry":{"type":"MultiPolygon","coordinates":[[[[-77.469373,8.537812],[-77.692513,8.772411],[-77.821808,8.732852],[-77.908598,8.62167],[-77.876016,8.525785],[-77.815167,8.455763],[-77.817363,8.401322],[-77.731684,8.258256],[-77.625541,8.199681],[-77.552573,8.08483],[-77.269434,8.167701],[-77.324345,8.261202],[-77.363206,8.27208],[-77.422324,8.45641],[-77.469373,8.537812]]],[[[-78.183439,8.093563],[-78.201991,8.001217],[-78.329322,7.959747],[-78.331079,7.892852],[-78.245063,7.730924],[-78.179564,7.665321],[-78.081223,7.644857],[-78.072438,7.601526],[-77.949707,7.618786],[-77.955908,7.739166],[-78.016214,7.931351],[-78.091869,7.97264],[-78.183439,8.093563]]]]},"properties":{"LOCATION_TYPE":"level1","ADM0_A3":"PAN","LOCATION_ID":"PAN-EM","NAME":"Emberá","TYPE_EN":"Indigenous Territory"}},
{"type":"Feature","geometry":{"type":"Polygon","coordinates":[[[-77.269434,8.167701],[-77.552573,8.08483],[-77.625541,8.199681],[-77.731684,8.258256],[-77.817363,8.401322],[-77.815167,8.455763],[-77.876016,8.525785],[-77.908598,8.62167],[-77.821808,8.732852],[-77.692513,8.772411],[-77.752044,8.850106],[-77.833693,8.900361],[-77.911905,8.996971],[-78.042544,9.073245],[-78.079182,8.943744],[-78.167084,8.877727],[-78.271289,8.852664],[-78.309013,8.806724],[-78.393039,8.845429],[-78.451175,8.819695],[-78.428773,8.714481],[-78.458461,8.560382],[-78.409698,8.353013],[-78.367258,8.424506],[-78.303334,8.454291],[-78.155588,8.39411],[-78.182932,8.297919],[-78.305776,8.253852],[-78.237457,8.153957],[-78.286448,8.080715],[-78.430816,8.077135],[-78.394521,7.917426],[-78.329416,7.843248],[-78.237701,7.649888],[-78.144154,7.49787],[-78.009755,7.38349],[-78.014394,7.34101],[-77.895839,7.235098],[-77.820181,7.476547],[-77.731245,7.530343],[-77.77052,7.66899],[-77.679931,7.670954],[-77.579989,7.528379],[-77.509347,7.594111],[-77.339745,7.707231],[-77.379897,7.77441],[-77.321606,7.881019],[-77.2012,7.981995],[-77.269434,8.167701]],[[-78.183439,8.093563],[-78.091869,7.97264],[-78.016214,7.931351],[-77.955908,7.739166],[-77.949707,7.618786],[-78.072438,7.601526],[-78.081223,7.644857],[-78.179564,7.665321],[-78.245063,7.730924],[-78.331079,7.892852],[-78.329322,7.959747],[-78.201991,8.001217],[-78.183439,8.093563]]]},"properties":{"LOCATION_TYPE":"level1","ADM0_A3":"PAN","LOCATION_ID":"PAN-5","NAME":"Darién","TYPE_EN":"Province"}},
{"type":"Feature","geometry":{"type":"MultiPolygon","coordinates":[[[[-78.409698,8.353013],[-78.458461,8.560382],[-78.428773,8.714481],[-78.451175,8.819695],[-78.393039,8.845429],[-78.309013,8.806724],[-78.271289,8.852664],[-78.167084,8.877727],[-78.079182,8.943744],[-78.042544,9.073245],[-78.15233,9.134998],[-78.150831,9.194271],[-78.257001,9.190861],[-78.295603,9.257342],[-78.408749,9.243622],[-78.50019,9.337957],[-78.627702,9.321421],[-78.69886,9.370772],[-78.937166,9.344546],[-79.071809,9.277367],[-79.246992,9.330749],[-79.256707,9.402424],[-79.371248,9.432525],[-79.440779,9.479008],[-79.522505,9.454255],[-79.573716,9.218249],[-79.635159,9.189853],[-79.669757,9.128151],[-79.778226,9.114354],[-79.889252,9.193961],[-79.962685,9.083477],[-79.955941,8.996971],[-80.022242,8.966171],[-80.092651,8.98369],[-80.137454,8.949247],[-80.16368,8.830702],[-80.10309,8.591879],[-80.092031,8.470853],[-80.040802,8.397976],[-79.970204,8.444078],[-79.864118,8.552358],[-79.774396,8.57955],[-79.756256,8.796291],[-79.703603,8.863349],[-79.601186,8.890692],[-79.482004,8.998358],[-79.38683,9.018866],[-79.176015,9.010728],[-79.005279,8.95954],[-78.873891,8.891181],[-78.82787,8.813137],[-78.757639,8.82925],[-78.612538,8.669745],[-78.504384,8.634019],[-78.491363,8.473375],[-78.409698,8.353013]]],[[[-78.892244,8.458047],[-78.974712,8.444368],[-78.969898,8.305099],[-78.858022,8.295844],[-78.834476,8.342811],[-78.892244,8.458047]]]]},"properties":{"LOCATION_TYPE":"level1","ADM0_A3":"PAN","LOCATION_ID":"PAN-8","NAME":"Panama","TYPE_EN":"Province"}},
{"type":"Feature","geometry":{"type":"Polygon","coordinates":[[[-80.040802,8.397976],[-80.092031,8.470853],[-80.10309,8.591879],[-80.16368,8.830702],[-80.137454,8.949247],[-80.178227,9.021801],[-80.355477,8.871888],[-80.515648,8.926587],[-80.542468,8.790962],[-80.651687,8.76701],[-80.739407,8.615237],[-80.82209,8.537748],[-80.756667,8.450208],[-80.693467,8.309312],[-80.734059,8.163533],[-80.687007,8.132605],[-80.609725,8.137307],[-80.478464,8.091376],[-80.470245,8.220649],[-80.380727,8.31037],[-80.334218,8.287991],[-80.224965,8.301052],[-80.040802,8.397976]]]},"properties":{"LOCATION_TYPE":"level1","ADM0_A3":"PAN","LOCATION_ID":"PAN-2","NAME":"Coclé","TYPE_EN":"Province"}},
{"type":"Feature","geometry":{"type":"MultiPolygon","coordinates":[[[[-81.664377,7.397284],[-81.718984,7.452541],[-81.705312,7.553697],[-81.73884,7.644273],[-81.829986,7.576158],[-81.858062,7.517524],[-81.841868,7.430813],[-81.746246,7.348863],[-81.649403,7.321519],[-81.664377,7.397284]]],[[[-81.213073,8.791809],[-81.204547,8.565291],[-81.265551,8.5116],[-81.328519,8.558057],[-81.410529,8.558522],[-81.488612,8.596943],[-81.522512,8.460466],[-81.522486,8.379334],[-81.513107,8.251047],[-81.606124,8.134904],[-81.663575,7.997288],[-81.60912,7.986355],[-81.622711,7.890082],[-81.567494,7.849189],[-81.574941,7.760403],[-81.525787,7.711453],[-81.396962,7.673529],[-81.19518,7.638861],[-81.183258,7.823676],[-81.085439,7.794338],[-81.02005,7.650539],[-80.946319,7.555691],[-80.966908,7.509914],[-80.915069,7.454657],[-80.895985,7.328396],[-80.929718,7.256496],[-80.873077,7.212551],[-80.713124,7.216457],[-80.604075,7.236721],[-80.668068,7.322809],[-80.715068,7.458899],[-80.719693,7.529592],[-80.802065,7.581165],[-80.946992,7.788414],[-80.943426,7.901456],[-80.857772,7.969566],[-80.853561,8.059948],[-80.742043,8.129788],[-80.687007,8.132605],[-80.734059,8.163533],[-80.693467,8.309312],[-80.756667,8.450208],[-80.82209,8.537748],[-80.739407,8.615237],[-80.728194,8.730139],[-80.851183,8.832717],[-80.862597,8.885066],[-81.087717,8.808743],[-81.213073,8.791809]]]]},"properties":{"LOCATION_TYPE":"level1","ADM0_A3":"PAN","LOCATION_ID":"PAN-9","NAME":"Veraguas","TYPE_EN":"Province"}},
{"type":"Feature","geometry":{"type":"Polygon","coordinates":[[[-79.074533,9.562042],[-79.193757,9.539602],[-79.42984,9.589545],[-79.532867,9.589545],[-79.550969,9.629292],[-79.664485,9.58337],[-79.69063,9.495799],[-79.818623,9.391032],[-79.894683,9.356431],[-79.909047,9.308417],[-80.000823,9.320516],[-80.100819,9.222317],[-80.292592,9.151353],[-80.408316,9.142262],[-80.637118,9.051672],[-80.726826,8.997222],[-80.822418,8.890692],[-80.862597,8.885066],[-80.851183,8.832717],[-80.728194,8.730139],[-80.739407,8.615237],[-80.651687,8.76701],[-80.542468,8.790962],[-80.515648,8.926587],[-80.355477,8.871888],[-80.178227,9.021801],[-80.137454,8.949247],[-80.092651,8.98369],[-80.022242,8.966171],[-79.955941,8.996971],[-79.962685,9.083477],[-79.889252,9.193961],[-79.778226,9.114354],[-79.669757,9.128151],[-79.635159,9.189853],[-79.573716,9.218249],[-79.522505,9.454255],[-79.440779,9.479008],[-79.371248,9.432525],[-79.256707,9.402424],[-79.246992,9.330749],[-79.142063,9.377852],[-79.074987,9.457278],[-79.074533,9.562042]]]},"properties":{"LOCATION_TYPE":"level1","ADM0_A3":"PAN","LOCATION_ID":"PAN-3","NAME":"Colón","TYPE_EN":"Province"}},
{"type":"Feature","geometry":{"type":"Polygon","coordinates":[[[-82.006747,8.946581],[-82.060877,8.90248],[-82.132139,8.90062],[-82.201514,8.954983],[-82.321507,9.009373],[-82.353391,9.061876],[-82.4284,8.988754],[-82.347759,8.949377],[-82.330886,8.904366],[-82.362952,8.808791],[-82.28169,8.77701],[-82.153223,8.762618],[-82.142913,8.557256],[-82.180172,8.457882],[-82.074003,8.467494],[-81.997134,8.339982],[-81.830013,8.318407],[-81.784305,8.264044],[-81.633616,8.297091],[-81.59212,8.371867],[-81.522486,8.379334],[-81.522512,8.460466],[-81.488612,8.596943],[-81.410529,8.558522],[-81.328519,8.558057],[-81.265551,8.5116],[-81.204547,8.565291],[-81.213073,8.791809],[-81.357981,8.785102],[-81.539052,8.812934],[-81.627553,8.899115],[-81.761971,9.06375],[-81.793446,8.931627],[-81.903717,8.971137],[-82.006747,8.946581]]]},"properties":{"LOCATION_TYPE":"level1","ADM0_A3":"PAN","LOCATION_ID":"PAN-NB","NAME":"Ngöbe Buglé","TYPE_EN":"Indigenous Territory"}},
{"type":"Feature","geometry":{"type":"Polygon","coordinates":[[[-80.375509,7.997223],[-80.41475,7.93396],[-80.504202,7.911223],[-80.573784,7.821461],[-80.554276,7.741156],[-80.719693,7.529592],[-80.715068,7.458899],[-80.668068,7.322809],[-80.604075,7.236721],[-80.444814,7.245876],[-80.379262,7.312771],[-80.357574,7.382025],[-80.249664,7.429633],[-80.135528,7.424628],[-80.017852,7.456814],[-79.994659,7.503445],[-80.052398,7.637112],[-80.143788,7.752753],[-80.300038,7.883328],[-80.375509,7.997223]]]},"properties":{"LOCATION_TYPE":"level1","ADM0_A3":"PAN","LOCATION_ID":"PAN-7","NAME":"Los Santos","TYPE_EN":"Province"}},
{"type":"Feature","geometry":{"type":"Polygon","coordinates":[[[-80.478464,8.091376],[-80.609725,8.137307],[-80.687007,8.132605],[-80.742043,8.129788],[-80.853561,8.059948],[-80.857772,7.969566],[-80.943426,7.901456],[-80.946992,7.788414],[-80.802065,7.581165],[-80.719693,7.529592],[-80.554276,7.741156],[-80.573784,7.821461],[-80.504202,7.911223],[-80.41475,7.93396],[-80.375509,7.997223],[-80.456085,8.0362],[-80.478464,8.091376]]]},"properties":{"LOCATION_TYPE":"level1","ADM0_A3":"PAN","LOCATION_ID":"PAN-6","NAME":"Herrera","TYPE_EN":"Province"}}
]}