{"type":"FeatureCollection", "features": [
{"type":"Feature","geometry":{"type":"Polygon","coordinates":[[[-71.175814,-17.793299],[-70.914622,-17.946547],[-70.683256,-18.161698],[-70.394703,-18.337746],[-70.134159,-18.318942],[-69.970345,-18.250625],[-69.783095,-17.981598],[-69.857561,-17.734171],[-69.683902,-17.656036],[-69.510089,-17.506588],[-69.522599,-17.36912],[-69.664416,-17.288562],[-69.912084,-17.210112],[-70.039156,-17.107948],[-70.177985,-16.870133],[-70.269297,-16.930026],[-70.433034,-16.835561],[-70.476752,-17.06025],[-70.700459,-17.249334],[-70.931763,-17.623368],[-71.175814,-17.793299]]]},"properties":{"LOCATION_TYPE":"level1","ADM0_A3":"PER","LOCATION_ID":"PER-TAC","NAME":"Tacna","TYPE_EN":"Department"}},
{"type":"Feature","geometry":{"type":"Polygon","coordinates":[[[-68.973936,-13.03176],[-68.980953,-12.867947],[-68.684252,-12.502492],[-69.13159,-11.726001],[-69.577635,-10.952302],[-69.72021,-10.964911],[-69.956113,-10.919332],[-70.2894,-11.06475],[-70.437272,-11.036741],[-70.534114,-10.938143],[-70.641342,-11.0108],[-70.63866,-9.955892],[-70.818152,-10.101554],[-70.867426,-10.37363],[-70.99424,-10.533362],[-71.206372,-10.691492],[-71.795328,-10.976022],[-71.967901,-10.989561],[-72.086473,-11.084543],[-72.180472,-11.313211],[-72.201892,-11.426641],[-72.331936,-11.666936],[-72.383561,-11.902219],[-72.338912,-12.022625],[-72.172256,-12.117296],[-72.12523,-12.258735],[-71.987409,-12.330203],[-71.890671,-12.557528],[-71.854808,-12.776532],[-71.611076,-12.868465],[-71.498964,-12.865778],[-71.174927,-12.982308],[-71.034186,-13.069435],[-70.678419,-13.125245],[-70.552536,-13.007681],[-70.355778,-13.024579],[-70.321284,-13.014502],[-69.648431,-13.341511],[-69.605229,-13.342699],[-68.973936,-13.03176]]]},"properties":{"LOCATION_TYPE":"level1","ADM0_A3":"PER","LOCATION_ID":"PER-MDD","NAME":"Madre de Dios","TYPE_EN":"Department"}},
{"type":"Feature","geometry":{"type":"Polygon","coordinates":[[[-73.984486,-7.529407],[-73.979433,-7.374536],[-73.760764,-7.337432],[-73.734539,-7.225088],[-73.812337,-7.102924],[-73.765493,-6.904177],[-73.685084,-6.811883],[-73.370685,-6.583886],[-73.198964,-6.545646],[-73.131785,-6.435265],[-73.234776,-6.077561],[-73.140001,-5.878503],[-73.001353,-5.708798],[-72.9735,-5.466125],[-72.896657,-5.271615],[-72.917948,-5.132089],[-72.627268,-5.022431],[-72.251063,-4.75883],[-72.071126,-4.605144],[-71.774348,-4.481534],[-71.665207,-4.507579],[-71.506147,-4.448565],[-70.968687,-4.385313],[-70.832235,-4.179434],[-70.585273,-4.194523],[-70.429934,-4.134165],[-70.311104,-4.170855],[-70.231316,-4.303664],[-69.962572,-4.264286],[-70.060499,-4.10719],[-70.188398,-4.028952],[-70.311104,-3.829274],[-70.544294,-3.865241],[-70.734127,-3.782042],[-70.050629,-2.71513],[-70.23607,-2.62511],[-70.357535,-2.486927],[-70.456987,-2.492715],[-70.874196,-2.229579],[-70.992716,-2.197436],[-71.21986,-2.34151],[-71.386982,-2.368898],[-71.456486,-2.255107],[-71.76794,-2.142245],[-71.966274,-2.328487],[-72.161456,-2.405692],[-72.396584,-2.446516],[-72.644321,-2.334068],[-72.943269,-2.419024],[-73.195295,-2.187204],[-73.111062,-2.073412],[-73.186252,-1.799631],[-73.340299,-1.792189],[-73.530985,-1.673747],[-73.497163,-1.477997],[-73.63656,-1.255168],[-73.880757,-1.190986],[-73.919902,-1.113781],[-74.28913,-0.943042],[-74.412663,-0.573142],[-74.824653,-0.170479],[-74.933458,-0.209443],[-75.141688,-0.043459],[-75.222096,-0.0324],[-75.484768,-0.247684],[-75.434228,-0.403023],[-75.272042,-0.525703],[-75.297027,-0.746982],[-75.227264,-0.96981],[-75.412576,-0.923922],[-75.560034,-1.502595],[-76.091242,-2.128913],[-76.684591,-2.57364],[-77.810369,-2.967149],[-77.758737,-3.286827],[-77.669621,-3.480097],[-77.625101,-3.788451],[-77.559679,-3.90188],[-77.578541,-4.438695],[-77.740908,-4.703072],[-77.776849,-4.849781],[-77.710729,-5.228104],[-77.639984,-5.384632],[-77.366874,-5.536923],[-77.175723,-5.679911],[-76.96819,-5.689885],[-76.833935,-5.765643],[-76.734096,-5.976534],[-76.529819,-6.028314],[-76.315698,-5.921344],[-76.084937,-6.118903],[-75.845494,-6.107947],[-75.668218,-6.147273],[-75.5066,-6.258842],[-75.466267,-6.356614],[-75.524609,-6.797208],[-75.682481,-6.924538],[-75.769142,-6.816173],[-75.90779,-6.752662],[-76.01122,-6.784857],[-76.109845,-7.009236],[-76.098476,-7.328441],[-76.057884,-7.500834],[-75.815083,-8.013619],[-75.798624,-8.218981],[-75.893786,-8.333289],[-75.952723,-8.568211],[-75.974143,-8.645157],[-75.58768,-8.387291],[-75.361751,-8.116507],[-75.184268,-8.116248],[-74.918496,-8.002147],[-74.691275,-7.963906],[-74.552679,-7.851148],[-74.562446,-7.573233],[-74.607689,-7.381513],[-74.519115,-7.326271],[-74.230631,-7.417066],[-73.984486,-7.529407]]]},"properties":{"LOCATION_TYPE":"level1","ADM0_A3":"PER","LOCATION_ID":"PER-LOR","NAME":"Loreto","TYPE_EN":"Department"}},
{"type":"Feature","geometry":{"type":"Polygon","coordinates":[[[-77.810369,-2.967149],[-77.941465,-3.054541],[-78.196411,-3.36367],[-78.361724,-3.408525],[-78.362938,-3.488727],[-78.501767,-3.953711],[-78.682428,-4.326918],[-78.637211,-4.435129],[-78.708935,-4.585108],[-78.584758,-4.894171],[-78.65,-5.147282],[-78.607264,-5.502093],[-78.721959,-5.672005],[-78.773093,-5.832822],[-78.619408,-6.059526],[-78.449676,-6.150374],[-78.349243,-6.350465],[-78.175326,-6.458882],[-78.024508,-6.740053],[-77.991591,-7.013215],[-77.742433,-6.994043],[-77.777547,-6.89007],[-77.738531,-6.648121],[-77.343568,-6.574224],[-77.164613,-6.307883],[-77.254685,-6.121073],[-77.525857,-6.024283],[-77.714967,-5.723423],[-77.70675,-5.457703],[-77.639984,-5.384632],[-77.710729,-5.228104],[-77.776849,-4.849781],[-77.740908,-4.703072],[-77.578541,-4.438695],[-77.559679,-3.90188],[-77.625101,-3.788451],[-77.669621,-3.480097],[-77.758737,-3.286827],[-77.810369,-2.967149]]]},"properties":{"LOCATION_TYPE":"level1","ADM0_A3":"PER","LOCATION_ID":"PER-AMA","NAME":"Amazonas","TYPE_EN":"Department"}},
{"type":"Feature","geometry":{"type":"Polygon","coordinates":[[[-78.708935,-4.585108],[-78.853063,-4.652273],[-78.900218,-4.843683],[-79.009281,-4.96011],[-79.233689,-4.965648],[-79.380627,-5.155499],[-79.329545,-5.342413],[-79.391815,-5.499302],[-79.42016,-5.726989],[-79.355254,-5.906771],[-79.451088,-5.988988],[-79.22087,-6.027952],[-79.293966,-6.27879],[-79.44114,-6.333101],[-79.446308,-6.520015],[-79.335023,-6.654787],[-79.166144,-6.765116],[-79.320269,-6.89684],[-79.347735,-7.010476],[-79.351663,-7.358104],[-79.09527,-7.492876],[-79.061835,-7.660204],[-78.772034,-7.554061],[-78.404976,-7.642892],[-78.239302,-7.756891],[-78.140651,-7.672916],[-77.934746,-7.662374],[-77.918288,-7.508895],[-77.839533,-7.377482],[-77.870461,-7.233718],[-77.991591,-7.013215],[-78.024508,-6.740053],[-78.175326,-6.458882],[-78.349243,-6.350465],[-78.449676,-6.150374],[-78.619408,-6.059526],[-78.773093,-5.832822],[-78.721959,-5.672005],[-78.607264,-5.502093],[-78.65,-5.147282],[-78.584758,-4.894171],[-78.708935,-4.585108]]]},"properties":{"LOCATION_TYPE":"level1","ADM0_A3":"PER","LOCATION_ID":"PER-CAJ","NAME":"Cajamarca","TYPE_EN":"Department"}},
{"type":"Feature","geometry":{"type":"Polygon","coordinates":[[[-80.512294,-4.065034],[-80.304628,-4.005181],[-80.165257,-3.890046],[-80.271633,-3.485523],[-80.536244,-3.505304],[-80.613108,-3.615655],[-80.771718,-3.710138],[-80.867787,-3.872735],[-81.062489,-4.085707],[-80.928,-4.169306],[-80.689979,-4.21044],[-80.512294,-4.065034]]]},"properties":{"LOCATION_TYPE":"level1","ADM0_A3":"PER","LOCATION_ID":"PER-TUM","NAME":"Tumbes","TYPE_EN":"Department"}},
{"type":"Feature","geometry":{"type":"Polygon","coordinates":[[[-80.512294,-4.065034],[-80.689979,-4.21044],[-80.928,-4.169306],[-81.062489,-4.085707],[-81.252797,-4.238702],[-81.328928,-4.476658],[-81.337558,-4.678304],[-81.063355,-5.022043],[-81.1714,-5.087299],[-81.198476,-5.208103],[-80.931824,-5.463815],[-80.856212,-5.650462],[-80.939931,-5.850844],[-81.150216,-5.883073],[-81.101457,-6.072068],[-80.790528,-6.299692],[-80.630736,-6.377723],[-80.449838,-6.099627],[-80.304008,-5.942583],[-79.950101,-5.822022],[-79.94483,-5.548292],[-79.749985,-5.745385],[-79.756392,-5.847963],[-79.451088,-5.988988],[-79.355254,-5.906771],[-79.42016,-5.726989],[-79.391815,-5.499302],[-79.329545,-5.342413],[-79.380627,-5.155499],[-79.233689,-4.965648],[-79.450572,-4.810196],[-79.527854,-4.618063],[-79.507209,-4.531557],[-79.657975,-4.438746],[-79.795745,-4.484738],[-80.079655,-4.309038],[-80.408498,-4.477503],[-80.488545,-4.395958],[-80.469605,-4.21323],[-80.512294,-4.065034]]]},"properties":{"LOCATION_TYPE":"level1","ADM0_A3":"PER","LOCATION_ID":"PER-PIU","NAME":"Piura","TYPE_EN":"Department"}},
{"type":"Feature","geometry":{"type":"Polygon","coordinates":[[[-73.984486,-7.529407],[-74.230631,-7.417066],[-74.519115,-7.326271],[-74.607689,-7.381513],[-74.562446,-7.573233],[-74.552679,-7.851148],[-74.691275,-7.963906],[-74.918496,-8.002147],[-75.184268,-8.116248],[-75.361751,-8.116507],[-75.58768,-8.387291],[-75.974143,-8.645157],[-75.899729,-8.814087],[-75.884742,-8.988857],[-75.798908,-9.092003],[-75.775447,-9.245275],[-75.648684,-9.40542],[-75.295915,-9.230547],[-75.039135,-8.83791],[-74.802302,-8.658748],[-74.56428,-8.632289],[-74.518314,-8.758225],[-74.616525,-8.834086],[-74.67908,-9.069007],[-74.701559,-9.415032],[-74.538287,-9.64985],[-74.440489,-9.847151],[-74.359952,-10.138296],[-74.369254,-10.315184],[-74.279957,-10.512743],[-74.291816,-10.661106],[-74.508521,-10.848226],[-74.474467,-10.991422],[-74.384886,-11.050281],[-73.886363,-10.940107],[-73.759291,-10.757224],[-73.633975,-10.794431],[-73.496103,-10.998036],[-73.516127,-11.17353],[-73.435202,-11.324063],[-73.133541,-11.295021],[-72.975359,-11.215801],[-72.8225,-11.370365],[-72.709846,-11.355637],[-72.543112,-11.424367],[-72.409192,-11.331659],[-72.180472,-11.313211],[-72.086473,-11.084543],[-71.967901,-10.989561],[-71.795328,-10.976022],[-71.206372,-10.691492],[-70.99424,-10.533362],[-70.867426,-10.37363],[-70.818152,-10.101554],[-70.63866,-9.955892],[-70.629017,-9.811596],[-70.543415,-9.72695],[-70.680849,-9.527686],[-70.875488,-9.660494],[-71.015428,-9.817487],[-71.196502,-9.939857],[-71.391426,-10.00683],[-72.195666,-10.00559],[-72.160423,-9.887664],[-72.265223,-9.762194],[-72.261657,-9.667419],[-72.430225,-9.482211],[-72.813303,-9.410897],[-73.214984,-9.409037],[-72.959392,-9.085646],[-72.976084,-8.985394],[-73.174573,-8.720707],[-73.350583,-8.598337],[-73.356422,-8.479791],[-73.526541,-8.372408],[-73.668031,-8.013773],[-73.778799,-7.954139],[-73.712163,-7.788154],[-73.838796,-7.720561],[-73.984486,-7.529407]]]},"properties":{"LOCATION_TYPE":"level1","ADM0_A3":"PER","LOCATION_ID":"PER-UCA","NAME":"Ucayali","TYPE_EN":"Department"}},
{"type":"Feature","geometry":{"type":"Polygon","coordinates":[[[-68.973936,-13.03176],[-69.605229,-13.342699],[-69.648431,-13.341511],[-70.321284,-13.014502],[-70.355778,-13.024579],[-70.377172,-13.281256],[-70.570416,-13.53938],[-70.664441,-13.760245],[-70.817455,-13.826288],[-70.849908,-14.011806],[-70.809032,-14.094747],[-70.889363,-14.41018],[-70.995196,-14.580712],[-71.123121,-14.682463],[-70.999898,-14.768039],[-71.029406,-15.334102],[-71.010105,-15.567732],[-70.905356,-15.679973],[-70.937292,-15.786271],[-70.849959,-15.988223],[-70.686791,-16.057056],[-70.567625,-16.01096],[-70.430657,-16.049924],[-70.330973,-16.249912],[-70.291647,-16.47858],[-70.028149,-16.70699],[-70.177985,-16.870133],[-70.039156,-17.107948],[-69.912084,-17.210112],[-69.664416,-17.288562],[-69.6228,-17.185565],[-69.427437,-17.086863],[-69.407154,-17.015653],[-69.191663,-16.743008],[-69.037073,-16.670247],[-69.001727,-16.422821],[-68.843648,-16.302001],[-68.982038,-16.210017],[-69.144689,-16.223453],[-69.219646,-16.15276],[-69.424337,-15.656253],[-69.291166,-15.350845],[-69.1481,-15.233333],[-69.390669,-14.964408],[-69.36142,-14.787985],[-69.267628,-14.750675],[-69.2475,-14.593682],[-68.990254,-14.379018],[-69.01015,-14.245899],[-68.883724,-14.211483],[-68.916176,-14.024931],[-68.982968,-13.972221],[-69.015964,-13.753113],[-69.08105,-13.695442],[-68.985655,-13.550231],[-68.973936,-13.03176]]]},"properties":{"LOCATION_TYPE":"level1","ADM0_A3":"PER","LOCATION_ID":"PER-PUN","NAME":"Puno","TYPE_EN":"Department"}},
{"type":"Feature","geometry":{"type":"Polygon","coordinates":[[[-71.175814,-17.793299],[-70.931763,-17.623368],[-70.700459,-17.249334],[-70.476752,-17.06025],[-70.433034,-16.835561],[-70.269297,-16.930026],[-70.177985,-16.870133],[-70.028149,-16.70699],[-70.291647,-16.47858],[-70.330973,-16.249912],[-70.430657,-16.049924],[-70.567625,-16.01096],[-70.686791,-16.057056],[-70.849959,-15.988223],[-70.875358,-16.263451],[-70.967652,-16.470209],[-71.14299,-16.46964],[-71.309311,-16.636555],[-71.306469,-16.735154],[-71.428709,-16.815046],[-71.369152,-17.158849],[-71.488478,-17.317987],[-71.400258,-17.400323],[-71.359609,-17.633071],[-71.175814,-17.793299]]]},"properties":{"LOCATION_TYPE":"level1","ADM0_A3":"PER","LOCATION_ID":"PER-MOQ","NAME":"Moquegua","TYPE_EN":"Department"}},
{"type":"Feature","geometry":{"type":"Polygon","coordinates":[[[-71.488478,-17.317987],[-71.369152,-17.158849],[-71.428709,-16.815046],[-71.306469,-16.735154],[-71.309311,-16.636555],[-71.14299,-16.46964],[-70.967652,-16.470209],[-70.875358,-16.263451],[-70.849959,-15.988223],[-70.937292,-15.786271],[-70.905356,-15.679973],[-71.010105,-15.567732],[-71.029406,-15.334102],[-71.180559,-15.208735],[-71.23513,-15.071483],[-71.393285,-15.056807],[-71.667015,-15.113599],[-71.862688,-15.043164],[-71.877804,-14.84235],[-71.99051,-14.678639],[-72.129985,-14.812326],[-72.422266,-14.814599],[-72.486061,-14.673988],[-72.762685,-14.659157],[-72.847977,-14.731555],[-72.997683,-14.825348],[-73.033728,-15.129515],[-73.282834,-15.394926],[-73.457164,-15.364902],[-73.574392,-15.416475],[-73.910909,-15.46009],[-74.056637,-15.606644],[-74.104851,-15.456627],[-74.228745,-15.494299],[-74.401835,-15.360923],[-74.468498,-15.195506],[-74.726622,-15.087916],[-74.96206,-15.238139],[-75.075746,-15.437662],[-74.84756,-15.566294],[-74.463068,-15.726724],[-74.441721,-15.798028],[-74.04662,-15.960138],[-74.032826,-16.012302],[-73.700278,-16.220696],[-73.420318,-16.293145],[-73.280141,-16.38836],[-72.692353,-16.660654],[-72.587758,-16.659356],[-72.362213,-16.761326],[-72.293365,-16.880629],[-71.948598,-17.0735],[-71.807607,-17.191339],[-71.488478,-17.317987]]]},"properties":{"LOCATION_TYPE":"level1","ADM0_A3":"PER","LOCATION_ID":"PER-ARE","NAME":"Arequipa","TYPE_EN":"Department"}},
{"type":"Feature","geometry":{"type":"Polygon","coordinates":[[[-75.075746,-15.437662],[-74.96206,-15.238139],[-74.726622,-15.087916],[-74.69342,-14.915833],[-74.772045,-14.729953],[-74.900332,-14.555545],[-75.053579,-14.60748],[-75.131868,-14.398242],[-75.066911,-14.142909],[-75.3494,-13.962972],[-75.521354,-13.899306],[-75.547864,-13.584235],[-75.483087,-13.466051],[-75.800872,-13.388795],[-75.704495,-13.216557],[-75.634654,-12.98205],[-75.864899,-13.031194],[-75.9451,-12.999206],[-76.249188,-13.320443],[-76.181264,-13.539483],[-76.277429,-13.945103],[-76.282056,-14.140924],[-76.149159,-14.223891],[-76.092152,-14.373142],[-75.980636,-14.461099],[-75.930653,-14.649347],[-75.550649,-14.884942],[-75.361806,-15.144789],[-75.241119,-15.205336],[-75.160797,-15.393324],[-75.075746,-15.437662]]]},"properties":{"LOCATION_TYPE":"level1","ADM0_A3":"PER","LOCATION_ID":"PER-ICA","NAME":"Ica","TYPE_EN":"Department"}},
{"type":"Feature","geometry":{"type":"Polygon","coordinates":[[[-76.249188,-13.320443],[-75.9451,-12.999206],[-75.864899,-13.031194],[-75.634654,-12.98205],[-75.467197,-12.686564],[-75.568741,-12.620625],[-75.53758,-12.416865],[-75.688837,-12.078746],[-75.889807,-11.98826],[-76.012383,-12.014667],[-76.209761,-11.736493],[-76.221931,-11.594744],[-76.377736,-11.503742],[-76.475766,-11.312126],[-76.488297,-11.097669],[-76.570179,-10.971733],[-76.572556,-10.829468],[-76.749961,-10.443755],[-76.931629,-10.286814],[-77.150143,-10.384792],[-77.197427,-10.518169],[-77.509165,-10.748284],[-77.595956,-10.593565],[-77.802145,-10.517652],[-77.890601,-10.602543],[-77.670539,-10.92752],[-77.594684,-11.165117],[-77.647257,-11.292316],[-77.320465,-11.493748],[-77.19761,-11.680774],[-77.080897,-11.554953],[-76.965994,-11.735976],[-76.93827,-11.939323],[-76.767169,-11.859948],[-76.751976,-12.026036],[-76.644593,-12.241991],[-76.799079,-12.509342],[-76.681467,-12.619317],[-76.516233,-12.869919],[-76.483347,-13.036296],[-76.249188,-13.320443]]]},"properties":{"LOCATION_TYPE":"level1","ADM0_A3":"PER","LOCATION_ID":"PER-LIM","NAME":"Lima","TYPE_EN":"Department"}},
{"type":"Feature","geometry":{"type":"Polygon","coordinates":[[[-76.799079,-12.509342],[-76.644593,-12.241991],[-76.751976,-12.026036],[-76.767169,-11.859948],[-76.93827,-11.939323],[-76.965994,-11.735976],[-77.080897,-11.554953],[-77.19761,-11.680774],[-77.140749,-11.999033],[-77.114434,-12.081305],[-77.038319,-12.20436],[-76.853646,-12.302644],[-76.799079,-12.509342]]]},"properties":{"LOCATION_TYPE":"level1","ADM0_A3":"PER","LOCATION_ID":"PER-LIM","NAME":"Lima Province","TYPE_EN":"Captial District"}},
{"type":"Feature","geometry":{"type":"Polygon","coordinates":[[[-77.114434,-12.081305],[-77.140749,-11.999033],[-77.174916,-12.071873],[-77.114434,-12.081305]]]},"properties":{"LOCATION_TYPE":"level1","ADM0_A3":"PER","LOCATION_ID":"PER-CAL","NAME":"Callao","TYPE_EN":"Departamento"}},
{"type":"Feature","geometry":{"type":"Polygon","coordinates":[[[-77.890601,-10.602543],[-77.802145,-10.517652],[-77.595956,-10.593565],[-77.509165,-10.748284],[-77.197427,-10.518169],[-77.150143,-10.384792],[-76.931629,-10.286814],[-76.904783,-10.125376],[-76.981781,-10.069876],[-77.072525,-9.790358],[-76.974366,-9.64184],[-76.78045,-9.135669],[-77.136087,-8.89894],[-77.290186,-8.684586],[-77.322536,-8.534052],[-77.483689,-8.249264],[-77.605387,-8.152112],[-77.652361,-8.02907],[-77.897694,-8.06421],[-78.111325,-8.300733],[-78.236072,-8.541752],[-78.254391,-8.658438],[-78.537242,-8.755279],[-78.648953,-8.963743],[-78.641722,-9.056428],[-78.497411,-9.189538],[-78.483957,-9.330255],[-78.369904,-9.615432],[-78.229422,-9.793784],[-78.23463,-9.952549],[-78.166596,-10.141411],[-77.890601,-10.602543]]]},"properties":{"LOCATION_TYPE":"level1","ADM0_A3":"PER","LOCATION_ID":"PER-ANC","NAME":"Áncash","TYPE_EN":"Department"}},
{"type":"Feature","geometry":{"type":"Polygon","coordinates":[[[-78.648953,-8.963743],[-78.537242,-8.755279],[-78.254391,-8.658438],[-78.236072,-8.541752],[-78.111325,-8.300733],[-77.897694,-8.06421],[-77.652361,-8.02907],[-77.605387,-8.152112],[-77.483689,-8.249264],[-77.322536,-8.534052],[-77.036145,-8.499067],[-76.994623,-8.602317],[-76.856311,-8.555705],[-76.911036,-8.247093],[-77.027567,-8.138004],[-77.359071,-8.067363],[-77.470692,-7.762678],[-77.450202,-7.572406],[-77.593346,-7.40146],[-77.619546,-7.16933],[-77.742433,-6.994043],[-77.991591,-7.013215],[-77.870461,-7.233718],[-77.839533,-7.377482],[-77.918288,-7.508895],[-77.934746,-7.662374],[-78.140651,-7.672916],[-78.239302,-7.756891],[-78.404976,-7.642892],[-78.772034,-7.554061],[-79.061835,-7.660204],[-79.09527,-7.492876],[-79.351663,-7.358104],[-79.347735,-7.010476],[-79.498915,-6.968308],[-79.692078,-7.161357],[-79.61276,-7.266392],[-79.582509,-7.463637],[-79.435287,-7.674387],[-79.465942,-7.715929],[-79.299713,-7.938653],[-78.98574,-8.217421],[-78.940262,-8.435526],[-78.759328,-8.608327],[-78.7643,-8.775112],[-78.648953,-8.963743]]]},"properties":{"LOCATION_TYPE":"level1","ADM0_A3":"PER","LOCATION_ID":"PER-LAL","NAME":"La Libertad","TYPE_EN":"Department"}},
{"type":"Feature","geometry":{"type":"Polygon","coordinates":[[[-79.692078,-7.161357],[-79.498915,-6.968308],[-79.347735,-7.010476],[-79.320269,-6.89684],[-79.166144,-6.765116],[-79.335023,-6.654787],[-79.446308,-6.520015],[-79.44114,-6.333101],[-79.293966,-6.27879],[-79.22087,-6.027952],[-79.451088,-5.988988],[-79.756392,-5.847963],[-79.749985,-5.745385],[-79.94483,-5.548292],[-79.950101,-5.822022],[-80.304008,-5.942583],[-80.449838,-6.099627],[-80.630736,-6.377723],[-80.118916,-6.650611],[-79.96468,-6.787355],[-79.931549,-6.883477],[-79.692078,-7.161357]]]},"properties":{"LOCATION_TYPE":"level1","ADM0_A3":"PER","LOCATION_ID":"PER-LAM","NAME":"Lambayeque","TYPE_EN":"Department"}},
{"type":"Feature","geometry":{"type":"Polygon","coordinates":[[[-73.961475,-12.277183],[-73.762572,-12.628118],[-73.676893,-12.677882],[-73.549407,-13.063698],[-73.220977,-13.421764],[-73.096592,-13.458145],[-72.96399,-13.397632],[-72.803277,-13.434787],[-72.604994,-13.561859],[-72.430225,-13.597723],[-72.165202,-13.784223],[-72.082597,-13.937237],[-72.112001,-14.217065],[-72.278554,-14.416897],[-72.503269,-14.567534],[-72.486061,-14.673988],[-72.422266,-14.814599],[-72.129985,-14.812326],[-71.99051,-14.678639],[-71.877804,-14.84235],[-71.862688,-15.043164],[-71.667015,-15.113599],[-71.393285,-15.056807],[-71.23513,-15.071483],[-71.180559,-15.208735],[-71.029406,-15.334102],[-70.999898,-14.768039],[-71.123121,-14.682463],[-70.995196,-14.580712],[-70.889363,-14.41018],[-70.809032,-14.094747],[-70.849908,-14.011806],[-70.817455,-13.826288],[-70.664441,-13.760245],[-70.570416,-13.53938],[-70.377172,-13.281256],[-70.355778,-13.024579],[-70.552536,-13.007681],[-70.678419,-13.125245],[-71.034186,-13.069435],[-71.174927,-12.982308],[-71.498964,-12.865778],[-71.611076,-12.868465],[-71.854808,-12.776532],[-71.890671,-12.557528],[-71.987409,-12.330203],[-72.12523,-12.258735],[-72.172256,-12.117296],[-72.338912,-12.022625],[-72.383561,-11.902219],[-72.331936,-11.666936],[-72.201892,-11.426641],[-72.180472,-11.313211],[-72.409192,-11.331659],[-72.543112,-11.424367],[-72.709846,-11.355637],[-72.8225,-11.370365],[-72.975359,-11.215801],[-73.133541,-11.295021],[-73.435202,-11.324063],[-73.54566,-11.532629],[-73.673043,-11.628127],[-73.499487,-11.723729],[-73.504681,-11.868164],[-73.601368,-12.009706],[-73.657436,-12.215688],[-73.961475,-12.277183]]]},"properties":{"LOCATION_TYPE":"level1","ADM0_A3":"PER","LOCATION_ID":"PER-CUS","NAME":"Cusco","TYPE_EN":"Department"}},
{"type":"Feature","geometry":{"type":"Polygon","coordinates":[[[-73.961475,-12.277183],[-74.174873,-12.313667],[-74.387469,-12.147114],[-74.503612,-12.25243],[-74.553971,-12.391956],[-74.430593,-12.467301],[-74.299077,-12.759944],[-74.413669,-13.040754],[-74.40044,-13.145399],[-74.685203,-13.289214],[-74.899686,-13.350916],[-74.927927,-13.445019],[-74.79393,-13.595397],[-74.731815,-13.850007],[-74.734993,-14.019764],[-75.066911,-14.142909],[-75.131868,-14.398242],[-75.053579,-14.60748],[-74.900332,-14.555545],[-74.772045,-14.729953],[-74.69342,-14.915833],[-74.726622,-15.087916],[-74.468498,-15.195506],[-74.401835,-15.360923],[-74.228745,-15.494299],[-74.104851,-15.456627],[-74.056637,-15.606644],[-73.910909,-15.46009],[-73.574392,-15.416475],[-73.457164,-15.364902],[-73.282834,-15.394926],[-73.033728,-15.129515],[-72.997683,-14.825348],[-72.847977,-14.731555],[-73.054476,-14.660655],[-73.36394,-14.70551],[-73.519357,-14.820335],[-73.572765,-14.700084],[-73.539743,-14.22678],[-73.74477,-13.791819],[-73.690509,-13.733322],[-73.817039,-13.583822],[-73.85006,-13.377943],[-73.80766,-13.216609],[-73.463986,-13.440678],[-73.220977,-13.421764],[-73.549407,-13.063698],[-73.676893,-12.677882],[-73.762572,-12.628118],[-73.961475,-12.277183]]]},"properties":{"LOCATION_TYPE":"level1","ADM0_A3":"PER","LOCATION_ID":"PER-AYA","NAME":"Ayacucho","TYPE_EN":"Department"}},
{"type":"Feature","geometry":{"type":"Polygon","coordinates":[[[-72.486061,-14.673988],[-72.503269,-14.567534],[-72.278554,-14.416897],[-72.112001,-14.217065],[-72.082597,-13.937237],[-72.165202,-13.784223],[-72.430225,-13.597723],[-72.604994,-13.561859],[-72.803277,-13.434787],[-72.96399,-13.397632],[-73.096592,-13.458145],[-73.220977,-13.421764],[-73.463986,-13.440678],[-73.80766,-13.216609],[-73.85006,-13.377943],[-73.817039,-13.583822],[-73.690509,-13.733322],[-73.74477,-13.791819],[-73.539743,-14.22678],[-73.572765,-14.700084],[-73.519357,-14.820335],[-73.36394,-14.70551],[-73.054476,-14.660655],[-72.847977,-14.731555],[-72.762685,-14.659157],[-72.486061,-14.673988]]]},"properties":{"LOCATION_TYPE":"level1","ADM0_A3":"PER","LOCATION_ID":"PER-APU","NAME":"Apurímac","TYPE_EN":"Department"}},
{"type":"Feature","geometry":{"type":"Polygon","coordinates":[[[-74.387469,-12.147114],[-74.513663,-12.038645],[-74.67908,-11.982627],[-74.784344,-12.040195],[-75.120836,-12.062002],[-75.06195,-12.18892],[-75.124091,-12.374903],[-75.383223,-12.553084],[-75.467197,-12.686564],[-75.634654,-12.98205],[-75.704495,-13.216557],[-75.800872,-13.388795],[-75.483087,-13.466051],[-75.547864,-13.584235],[-75.521354,-13.899306],[-75.3494,-13.962972],[-75.066911,-14.142909],[-74.734993,-14.019764],[-74.731815,-13.850007],[-74.79393,-13.595397],[-74.927927,-13.445019],[-74.899686,-13.350916],[-74.685203,-13.289214],[-74.40044,-13.145399],[-74.413669,-13.040754],[-74.299077,-12.759944],[-74.430593,-12.467301],[-74.553971,-12.391956],[-74.503612,-12.25243],[-74.387469,-12.147114]]]},"properties":{"LOCATION_TYPE":"level1","ADM0_A3":"PER","LOCATION_ID":"PER-HUV","NAME":"Huancavelica","TYPE_EN":"Department"}},
{"type":"Feature","geometry":{"type":"Polygon","coordinates":[[[-77.639984,-5.384632],[-77.70675,-5.457703],[-77.714967,-5.723423],[-77.525857,-6.024283],[-77.254685,-6.121073],[-77.164613,-6.307883],[-77.343568,-6.574224],[-77.738531,-6.648121],[-77.777547,-6.89007],[-77.742433,-6.994043],[-77.619546,-7.16933],[-77.593346,-7.40146],[-77.450202,-7.572406],[-77.470692,-7.762678],[-77.359071,-8.067363],[-77.027567,-8.138004],[-76.911036,-8.247093],[-76.856311,-8.555705],[-76.771613,-8.538032],[-76.457524,-8.600405],[-76.364351,-8.550279],[-76.204516,-8.574722],[-76.079485,-8.714662],[-75.952723,-8.568211],[-75.893786,-8.333289],[-75.798624,-8.218981],[-75.815083,-8.013619],[-76.057884,-7.500834],[-76.098476,-7.328441],[-76.109845,-7.009236],[-76.01122,-6.784857],[-75.90779,-6.752662],[-75.769142,-6.816173],[-75.682481,-6.924538],[-75.524609,-6.797208],[-75.466267,-6.356614],[-75.5066,-6.258842],[-75.668218,-6.147273],[-75.845494,-6.107947],[-76.084937,-6.118903],[-76.315698,-5.921344],[-76.529819,-6.028314],[-76.734096,-5.976534],[-76.833935,-5.765643],[-76.96819,-5.689885],[-77.175723,-5.679911],[-77.366874,-5.536923],[-77.639984,-5.384632]]]},"properties":{"LOCATION_TYPE":"level1","ADM0_A3":"PER","LOCATION_ID":"PER-SAM","NAME":"San Martín","TYPE_EN":"Department"}},
{"type":"Feature","geometry":{"type":"Polygon","coordinates":[[[-74.538287,-9.64985],[-74.701559,-9.415032],[-74.67908,-9.069007],[-74.616525,-8.834086],[-74.518314,-8.758225],[-74.56428,-8.632289],[-74.802302,-8.658748],[-75.039135,-8.83791],[-75.295915,-9.230547],[-75.648684,-9.40542],[-75.775447,-9.245275],[-75.798908,-9.092003],[-75.884742,-8.988857],[-75.899729,-8.814087],[-75.974143,-8.645157],[-75.952723,-8.568211],[-76.079485,-8.714662],[-76.204516,-8.574722],[-76.364351,-8.550279],[-76.457524,-8.600405],[-76.771613,-8.538032],[-76.856311,-8.555705],[-76.994623,-8.602317],[-77.036145,-8.499067],[-77.322536,-8.534052],[-77.290186,-8.684586],[-77.136087,-8.89894],[-76.78045,-9.135669],[-76.974366,-9.64184],[-77.072525,-9.790358],[-76.981781,-10.069876],[-76.904783,-10.125376],[-76.931629,-10.286814],[-76.749961,-10.443755],[-76.59165,-10.289501],[-76.310453,-10.285263],[-76.228572,-10.364018],[-75.945772,-10.425978],[-75.806427,-10.36438],[-75.828415,-10.097058],[-75.732064,-9.913245],[-75.323924,-9.866271],[-75.132747,-9.775992],[-74.763105,-9.754236],[-74.538287,-9.64985]]]},"properties":{"LOCATION_TYPE":"level1","ADM0_A3":"PER","LOCATION_ID":"PER-HUC","NAME":"Huánuco","TYPE_EN":"Department"}},
{"type":"Feature","geometry":{"type":"Polygon","coordinates":[[[-74.538287,-9.64985],[-74.763105,-9.754236],[-75.132747,-9.775992],[-75.323924,-9.866271],[-75.732064,-9.913245],[-75.828415,-10.097058],[-75.806427,-10.36438],[-75.945772,-10.425978],[-76.228572,-10.364018],[-76.310453,-10.285263],[-76.59165,-10.289501],[-76.749961,-10.443755],[-76.572556,-10.829468],[-76.570179,-10.971733],[-76.488297,-11.097669],[-76.278543,-11.082527],[-76.280687,-10.939229],[-75.993211,-10.889826],[-75.753898,-10.885227],[-75.445699,-10.793449],[-75.123549,-10.732161],[-75.025105,-10.68126],[-74.780469,-10.824249],[-74.508521,-10.848226],[-74.291816,-10.661106],[-74.279957,-10.512743],[-74.369254,-10.315184],[-74.359952,-10.138296],[-74.440489,-9.847151],[-74.538287,-9.64985]]]},"properties":{"LOCATION_TYPE":"level1","ADM0_A3":"PER","LOCATION_ID":"PER-PAS","NAME":"Pasco","TYPE_EN":"Department"}},
{"type":"Feature","geometry":{"type":"Polygon","coordinates":[[[-73.435202,-11.324063],[-73.516127,-11.17353],[-73.496103,-10.998036],[-73.633975,-10.794431],[-73.759291,-10.757224],[-73.886363,-10.940107],[-74.384886,-11.050281],[-74.474467,-10.991422],[-74.508521,-10.848226],[-74.780469,-10.824249],[-75.025105,-10.68126],[-75.123549,-10.732161],[-75.445699,-10.793449],[-75.753898,-10.885227],[-75.993211,-10.889826],[-76.280687,-10.939229],[-76.278543,-11.082527],[-76.488297,-11.097669],[-76.475766,-11.312126],[-76.377736,-11.503742],[-76.221931,-11.594744],[-76.209761,-11.736493],[-76.012383,-12.014667],[-75.889807,-11.98826],[-75.688837,-12.078746],[-75.53758,-12.416865],[-75.568741,-12.620625],[-75.467197,-12.686564],[-75.383223,-12.553084],[-75.124091,-12.374903],[-75.06195,-12.18892],[-75.120836,-12.062002],[-74.784344,-12.040195],[-74.67908,-11.982627],[-74.513663,-12.038645],[-74.387469,-12.147114],[-74.174873,-12.313667],[-73.961475,-12.277183],[-73.657436,-12.215688],[-73.601368,-12.009706],[-73.504681,-11.868164],[-73.499487,-11.723729],[-73.673043,-11.628127],[-73.54566,-11.532629],[-73.435202,-11.324063]]]},"properties":{"LOCATION_TYPE":"level1","ADM0_A3":"PER","LOCATION_ID":"PER-JUN","NAME":"Junín","TYPE_EN":"Department"}}
]}