{"type":"FeatureCollection", "features": [
{"type":"Feature","geometry":{"type":"MultiPolygon","coordinates":[[[[114.365408,10.175482],[114.371267,10.180487],[114.365977,10.187201],[114.358897,10.183417],[114.365408,10.175482]]],[[[115.830577,10.734605],[115.814626,10.73432],[115.812836,10.727688],[115.81837,10.720852],[115.830577,10.734605]]],[[[115.018403,11.107123],[115.020763,11.117987],[115.009125,11.113227],[115.018403,11.107123]]]]},"properties":{"LOCATION_TYPE":"level1","ADM0_A3":"PGA","LOCATION_ID":"PGA-99","NAME":"Spratly Islands","TYPE_EN":null}}
]}