{"type":"FeatureCollection", "features": [
{"type":"Feature","geometry":{"type":"Polygon","coordinates":[[[121.381602,6.005683],[121.042247,6.097113],[120.905528,6.015041],[120.871837,5.961005],[120.934093,5.885688],[121.008311,5.923774],[121.081065,5.88817],[121.227794,5.942125],[121.281423,5.859036],[121.419444,5.947984],[121.381602,6.005683]]]},"properties":{"LOCATION_TYPE":"level1","ADM0_A3":"PHL","LOCATION_ID":"PHL-SLU","NAME":"Sulu","TYPE_EN":"Province"}},
{"type":"Feature","geometry":{"type":"MultiPolygon","coordinates":[[[[125.79127,6.948188],[125.781912,7.135199],[125.706554,7.19184],[125.674083,7.070217],[125.79127,6.948188]]],[[[125.830715,7.354266],[125.833901,7.455592],[125.916893,7.541995],[125.904801,7.68749],[125.817778,7.68227],[125.702746,7.793685],[125.675441,7.996716],[125.374291,7.997755],[125.444106,7.778595],[125.400336,7.666612],[125.317033,7.674209],[125.288921,7.595816],[125.501622,7.59163],[125.497022,7.257852],[125.676768,7.264635],[125.830715,7.354266]]]]},"properties":{"LOCATION_TYPE":"level1","ADM0_A3":"PHL","LOCATION_ID":"PHL-DAV","NAME":"Davao del Norte","TYPE_EN":"Province"}},
{"type":"Feature","geometry":{"type":"MultiPolygon","coordinates":[[[[122.97169,7.383612],[122.90504,7.43773],[122.7942,7.383938],[122.816661,7.294908],[122.97169,7.383612]]],[[[123.096446,7.714301],[123.085645,7.807586],[122.922554,7.831357],[122.915843,7.918415],[122.791968,7.945355],[122.572808,7.88107],[122.364139,7.700822],[122.260682,7.471017],[122.359874,7.472846],[122.485606,7.578518],[122.443858,7.608588],[122.59669,7.76142],[122.704275,7.788316],[122.814708,7.743354],[122.793712,7.671047],[122.83074,7.549791],[122.995616,7.467271],[123.050304,7.655097],[123.096446,7.714301]]]]},"properties":{"LOCATION_TYPE":"level1","ADM0_A3":"PHL","LOCATION_ID":"PHL-ZSI","NAME":"Zamboanga Sibugay","TYPE_EN":"Province"}},
{"type":"Feature","geometry":{"type":"MultiPolygon","coordinates":[[[[117.084972,8.057847],[116.961681,8.061998],[116.954926,7.926011],[117.001638,7.823676],[117.067149,7.8487],[117.084972,8.057847]]],[[[119.950206,10.603746],[119.849864,10.644761],[119.778331,10.535468],[119.806488,10.446112],[119.993175,10.539984],[119.950206,10.603746]]],[[[118.638782,9.521117],[118.382335,9.657782],[118.216319,9.477973],[118.126964,9.337836],[118.003184,9.233303],[117.90447,9.261217],[117.79656,9.163275],[117.768077,9.086412],[117.655528,9.057929],[117.450369,8.791164],[117.375987,8.746812],[117.291515,8.640815],[117.222341,8.50023],[117.198009,8.334784],[117.318614,8.45185],[117.512869,8.506781],[117.565603,8.661078],[117.773692,8.70307],[117.910411,8.829739],[118.013682,8.8876],[118.132091,9.126654],[118.335785,9.179267],[118.497895,9.313666],[118.638782,9.521117]]],[[[118.993419,10.300279],[119.083358,10.164422],[119.1963,10.056342],[119.237153,10.179348],[119.355968,10.328843],[119.472667,10.378119],[119.563243,10.373481],[119.709972,10.494534],[119.634451,10.652167],[119.590831,10.672431],[119.593435,10.837144],[119.519298,10.837714],[119.504568,10.970893],[119.561778,11.059027],[119.520518,11.138414],[119.569021,11.261664],[119.51295,11.397773],[119.420584,11.297553],[119.406098,11.049547],[119.319998,11.000881],[119.223399,10.850816],[119.344981,10.723578],[119.278087,10.508205],[119.152843,10.398505],[119.072032,10.391506],[118.993419,10.300279]]],[[[120.02475,11.892971],[119.92921,11.961168],[119.868012,11.906562],[120.014171,11.682115],[120.067068,11.741767],[120.02475,11.892971]]],[[[120.347504,12.029486],[120.286388,12.135443],[120.196056,12.112006],[120.021495,12.253119],[119.935883,12.276516],[119.867198,12.231838],[119.98406,12.025702],[120.134613,11.97484],[120.347504,12.029486]]]]},"properties":{"LOCATION_TYPE":"level1","ADM0_A3":"PHL","LOCATION_ID":"PHL-PLW","NAME":"Palawan","TYPE_EN":"Province"}},
{"type":"Feature","geometry":{"type":"MultiPolygon","coordinates":[[[[125.465259,9.4447],[125.58389,9.462679],[125.677838,9.437099],[125.729205,9.313282],[125.934093,9.492336],[125.620128,9.629788],[125.569021,9.756659],[125.45574,9.812812],[125.398692,9.681057],[125.465259,9.4447]]],[[[126.165863,9.829169],[126.08074,10.05565],[125.983409,9.901801],[126.019216,9.781684],[126.120128,9.758938],[126.165863,9.829169]]],[[[125.719574,9.911689],[125.681488,9.958075],[125.706554,10.069322],[125.658051,10.261705],[125.684825,10.399888],[125.556163,10.370754],[125.538829,10.215155],[125.497081,10.103461],[125.610362,9.966946],[125.719574,9.911689]]]]},"properties":{"LOCATION_TYPE":"level1","ADM0_A3":"PHL","LOCATION_ID":"PHL-SUN","NAME":"Surigao del Norte","TYPE_EN":"Province"}},
{"type":"Feature","geometry":{"type":"Polygon","coordinates":[[[125.934093,9.492336],[125.729205,9.313282],[125.766992,9.212429],[125.802533,9.11102],[125.802068,8.966688],[126.023967,8.688411],[125.998232,8.531779],[126.100448,8.372926],[126.224678,8.317942],[126.217547,8.153973],[126.291186,7.995843],[126.383474,7.899563],[126.453136,7.980129],[126.431488,8.0456],[126.463064,8.229926],[126.388438,8.292914],[126.356944,8.534369],[126.22047,8.555487],[126.138438,8.654039],[126.300059,8.768297],[126.34547,8.853258],[126.312755,8.956244],[126.178966,9.093004],[126.2199,9.30565],[126.075857,9.239488],[126.011729,9.29385],[125.934093,9.492336]]]},"properties":{"LOCATION_TYPE":"level1","ADM0_A3":"PHL","LOCATION_ID":"PHL-SUR","NAME":"Surigao del Sur","TYPE_EN":"Province"}},
{"type":"Feature","geometry":{"type":"MultiPolygon","coordinates":[[[[125.516612,9.015937],[125.70962,9.014831],[125.766992,9.212429],[125.729205,9.313282],[125.677838,9.437099],[125.58389,9.462679],[125.465259,9.4447],[125.542003,9.189195],[125.516612,9.015937]]],[[[125.20362,9.081947],[125.233628,8.987772],[125.32333,8.885575],[125.291017,8.782495],[125.320699,8.589837],[125.40509,8.588107],[125.534694,8.699728],[125.662277,8.687326],[125.6737,8.80087],[125.513274,8.79702],[125.441173,8.980414],[125.311778,8.99433],[125.20362,9.081947]]]]},"properties":{"LOCATION_TYPE":"level1","ADM0_A3":"PHL","LOCATION_ID":"PHL-AGN","NAME":"Agusan del Norte","TYPE_EN":"Province"}},
{"type":"Feature","geometry":{"type":"Polygon","coordinates":[[[125.441173,8.980414],[125.513274,8.79702],[125.6737,8.80087],[125.662149,8.876591],[125.70962,9.014831],[125.516612,9.015937],[125.441173,8.980414]]]},"properties":{"LOCATION_TYPE":"level1","ADM0_A3":"PHL","LOCATION_ID":"PHL-AGN","NAME":"Butuan","TYPE_EN":"Highly Urbanized City"}},
{"type":"Feature","geometry":{"type":"MultiPolygon","coordinates":[[[[124.753184,8.561713],[124.82559,8.515553],[124.929563,8.596375],[125.320699,8.589837],[125.291017,8.782495],[125.32333,8.885575],[125.233628,8.987772],[125.20362,9.081947],[125.187348,8.875922],[125.115733,8.830552],[124.915294,8.994127],[124.820811,9.014553],[124.780772,8.949123],[124.787852,8.733629],[124.751231,8.692776],[124.753184,8.561713]]],[[[124.261693,8.324176],[124.377142,8.375613],[124.436648,8.349528],[124.537768,8.438631],[124.571544,8.528144],[124.405772,8.607896],[124.321788,8.514553],[124.261693,8.324176]]]]},"properties":{"LOCATION_TYPE":"level1","ADM0_A3":"PHL","LOCATION_ID":"PHL-MSR","NAME":"Misamis Oriental","TYPE_EN":"Province"}},
{"type":"Feature","geometry":{"type":"Polygon","coordinates":[[[124.571544,8.528144],[124.537768,8.438631],[124.436648,8.349528],[124.572479,8.237224],[124.619815,8.413595],[124.785179,8.40295],[124.82559,8.515553],[124.753184,8.561713],[124.712169,8.472968],[124.571544,8.528144]]]},"properties":{"LOCATION_TYPE":"level1","ADM0_A3":"PHL","LOCATION_ID":"PHL-MSR","NAME":"Cagayan de Oro","TYPE_EN":"Highly Urbanized City"}},
{"type":"Feature","geometry":{"type":"Polygon","coordinates":[[[124.23227,8.212877],[124.29911,8.215566],[124.358125,8.225131],[124.629737,8.00747],[124.559767,8.118885],[124.572479,8.237224],[124.436648,8.349528],[124.377142,8.375613],[124.261693,8.324176],[124.23227,8.212877]]]},"properties":{"LOCATION_TYPE":"level1","ADM0_A3":"PHL","LOCATION_ID":"PHL-LAN","NAME":"Iligan","TYPE_EN":"Highly Urbanized City"}},
{"type":"Feature","geometry":{"type":"Polygon","coordinates":[[[123.688967,7.968299],[123.69367,7.890836],[123.614682,7.83349],[123.703949,7.809394],[123.7942,7.710517],[123.861819,7.703472],[123.993393,7.701856],[124.058816,7.904014],[124.127959,7.932488],[124.162582,8.016824],[124.243507,8.032688],[124.297767,8.111185],[124.29911,8.215566],[124.23227,8.212877],[123.968923,8.167792],[123.688967,7.968299]]]},"properties":{"LOCATION_TYPE":"level1","ADM0_A3":"PHL","LOCATION_ID":"PHL-LAN","NAME":"Lanao del Norte","TYPE_EN":"Province"}},
{"type":"Feature","geometry":{"type":"Polygon","coordinates":[[[123.677582,8.010606],[123.555022,8.070619],[123.556107,8.231953],[123.188894,8.230609],[123.171686,8.04199],[122.915843,7.918415],[122.922554,7.831357],[123.085645,7.807586],[123.096446,7.714301],[123.186778,7.626207],[123.140636,7.513129],[123.225841,7.515611],[123.419444,7.37226],[123.451671,7.452541],[123.353526,7.572089],[123.485688,7.66356],[123.444672,7.801337],[123.614682,7.83349],[123.69367,7.890836],[123.688967,7.968299],[123.677582,8.010606]]]},"properties":{"LOCATION_TYPE":"level1","ADM0_A3":"PHL","LOCATION_ID":"PHL-ZAS","NAME":"Zamboanga del Sur","TYPE_EN":"Province"}},
{"type":"Feature","geometry":{"type":"Polygon","coordinates":[[[123.549001,8.618842],[123.556107,8.231953],[123.555022,8.070619],[123.677582,8.010606],[123.873302,8.153266],[123.844737,8.452216],[123.7588,8.607489],[123.615489,8.651068],[123.549001,8.618842]]]},"properties":{"LOCATION_TYPE":"level1","ADM0_A3":"PHL","LOCATION_ID":"PHL-MSC","NAME":"Misamis Occidental","TYPE_EN":"Province"}},
{"type":"Feature","geometry":{"type":"Polygon","coordinates":[[[121.904276,7.154397],[122.102449,7.139823],[122.166425,7.217441],[122.186372,7.345392],[122.260682,7.471017],[122.364139,7.700822],[122.572808,7.88107],[122.791968,7.945355],[122.915843,7.918415],[123.171686,8.04199],[123.188894,8.230609],[123.556107,8.231953],[123.549001,8.618842],[123.51295,8.698879],[123.363536,8.623277],[123.331065,8.546617],[123.055431,8.50495],[122.992198,8.397203],[122.964366,8.274359],[123.013682,8.232408],[122.924571,8.150133],[122.649669,8.116034],[122.437999,8.066555],[122.292247,8.009914],[122.128917,7.815009],[122.113536,7.603258],[122.045584,7.442532],[122.046886,7.301093],[121.933442,7.217922],[121.904276,7.154397]]]},"properties":{"LOCATION_TYPE":"level1","ADM0_A3":"PHL","LOCATION_ID":"PHL-ZAN","NAME":"Zamboanga del Norte","TYPE_EN":"Province"}},
{"type":"Feature","geometry":{"type":"Polygon","coordinates":[[[122.359874,7.472846],[122.260682,7.471017],[122.186372,7.345392],[122.166425,7.217441],[122.102449,7.139823],[121.904276,7.154397],[121.937022,6.978949],[122.037934,6.917385],[122.15447,6.928127],[122.2435,7.09927],[122.26588,7.249091],[122.37908,7.391588],[122.359874,7.472846]]]},"properties":{"LOCATION_TYPE":"level1","ADM0_A3":"PHL","LOCATION_ID":"PHL-ZAN","NAME":"Zamboanga","TYPE_EN":"Highly Urbanized City"}},
{"type":"Feature","geometry":{"type":"Polygon","coordinates":[[[124.167313,7.431846],[124.382878,7.620517],[124.464579,7.669558],[124.591755,7.624755],[124.808641,7.611112],[124.604467,7.910215],[124.629737,8.00747],[124.358125,8.225131],[124.29911,8.215566],[124.297767,8.111185],[124.243507,8.032688],[124.162582,8.016824],[124.127959,7.932488],[124.058816,7.904014],[123.993393,7.701856],[123.861819,7.703472],[124.065196,7.602729],[124.167313,7.431846]]]},"properties":{"LOCATION_TYPE":"level1","ADM0_A3":"PHL","LOCATION_ID":"PHL-LAS","NAME":"Lanao del Sur","TYPE_EN":"Province"}},
{"type":"Feature","geometry":{"type":"Polygon","coordinates":[[[124.219249,7.32095],[124.305451,7.222324],[124.280995,7.165261],[124.183767,7.226386],[124.02947,7.115139],[123.974864,6.965318],[123.965505,6.821275],[124.037219,6.758551],[124.222423,6.76181],[124.266762,6.726928],[124.472434,6.725895],[124.558217,6.754162],[124.57868,6.84041],[124.711075,6.845887],[124.720067,6.771938],[124.836029,6.641765],[124.896491,6.728892],[124.837166,6.767649],[124.833032,6.975285],[124.797892,7.074504],[124.667047,6.950429],[124.448456,7.105871],[124.49021,7.227931],[124.333114,7.200853],[124.492691,7.43319],[124.448766,7.539488],[124.464579,7.669558],[124.382878,7.620517],[124.167313,7.431846],[124.246755,7.40412],[124.219249,7.32095]]]},"properties":{"LOCATION_TYPE":"level1","ADM0_A3":"PHL","LOCATION_ID":"PHL-MAG","NAME":"Maguindanao","TYPE_EN":"Province"}},
{"type":"Feature","geometry":{"type":"Polygon","coordinates":[[[124.183767,7.226386],[124.280995,7.165261],[124.305451,7.222324],[124.219249,7.32095],[124.183767,7.226386]]]},"properties":{"LOCATION_TYPE":"level1","ADM0_A3":"PHL","LOCATION_ID":"PHL-NCO","NAME":"Cotabato","TYPE_EN":"Independent Component City"}},
{"type":"Feature","geometry":{"type":"Polygon","coordinates":[[[124.370282,6.13265],[124.382878,6.162208],[124.249295,6.292484],[124.636248,6.290056],[124.626481,6.580787],[124.751693,6.636701],[124.830241,6.536759],[125.010282,6.569935],[125.176501,6.56333],[125.193578,6.662539],[125.149705,6.782222],[124.896491,6.728892],[124.836029,6.641765],[124.720067,6.771938],[124.711075,6.845887],[124.57868,6.84041],[124.558217,6.754162],[124.472434,6.725895],[124.266762,6.726928],[124.222423,6.76181],[124.037219,6.758551],[124.054942,6.43769],[124.245779,6.18651],[124.370282,6.13265]]]},"properties":{"LOCATION_TYPE":"level1","ADM0_A3":"PHL","LOCATION_ID":"PHL-SUK","NAME":"Sultan Kudarat","TYPE_EN":"Province"}},
{"type":"Feature","geometry":{"type":"MultiPolygon","coordinates":[[[[125.112234,5.953355],[125.048213,6.004853],[124.789417,6.011675],[124.486696,6.176884],[124.382878,6.162208],[124.370282,6.13265],[124.708018,5.946601],[124.938731,5.863959],[125.069102,5.861721],[125.112234,5.953355]]],[[[125.306476,5.583576],[125.376565,5.633662],[125.462037,5.830135],[125.525186,6.051569],[125.51113,6.216933],[125.426071,6.316876],[125.286441,6.319046],[125.140808,6.434871],[125.137424,6.32071],[125.247787,6.28202],[125.240082,6.094224],[125.280772,6.019355],[125.181163,5.798326],[125.300141,5.671332],[125.306476,5.583576]]]]},"properties":{"LOCATION_TYPE":"level1","ADM0_A3":"PHL","LOCATION_ID":"PHL-SAR","NAME":"Sarangani","TYPE_EN":"Province"}},
{"type":"Feature","geometry":{"type":"Polygon","coordinates":[[[125.240082,6.094224],[125.247787,6.28202],[125.137424,6.32071],[125.036049,6.196365],[125.048213,6.004853],[125.112234,5.953355],[125.168956,6.111965],[125.240082,6.094224]]]},"properties":{"LOCATION_TYPE":"level1","ADM0_A3":"PHL","LOCATION_ID":"PHL-SCO","NAME":"General Santos","TYPE_EN":"Highly Urbanized City"}},
{"type":"Feature","geometry":{"type":"Polygon","coordinates":[[[125.509939,7.01557],[125.302771,7.01735],[125.166448,6.844647],[125.149705,6.782222],[125.193578,6.662539],[125.176501,6.56333],[125.140808,6.434871],[125.286441,6.319046],[125.426071,6.316876],[125.51113,6.216933],[125.525186,6.051569],[125.462037,5.830135],[125.376565,5.633662],[125.306476,5.583576],[125.387543,5.573798],[125.667328,5.950141],[125.706554,6.149726],[125.573578,6.516913],[125.465099,6.594672],[125.397472,6.598456],[125.388927,6.768297],[125.480642,6.913235],[125.509939,7.01557]]]},"properties":{"LOCATION_TYPE":"level1","ADM0_A3":"PHL","LOCATION_ID":"PHL-DAS","NAME":"Davao del Sur","TYPE_EN":"Province"}},
{"type":"Feature","geometry":{"type":"Polygon","coordinates":[[[125.676768,7.264635],[125.497022,7.257852],[125.501622,7.59163],[125.288921,7.595816],[125.26597,7.578429],[125.222517,7.183334],[125.303081,7.10613],[125.302771,7.01735],[125.509939,7.01557],[125.658051,7.129136],[125.676768,7.264635]]]},"properties":{"LOCATION_TYPE":"level1","ADM0_A3":"PHL","LOCATION_ID":"PHL-DAV","NAME":"Davao","TYPE_EN":"Highly Urbanized City"}},
{"type":"Feature","geometry":{"type":"Polygon","coordinates":[[[125.954275,7.047406],[126.241774,7.240245],[126.293615,7.298883],[126.223386,7.427351],[126.241215,7.594886],[126.176722,7.84872],[126.183027,7.994965],[125.675441,7.996716],[125.702746,7.793685],[125.817778,7.68227],[125.904801,7.68749],[125.916893,7.541995],[125.833901,7.455592],[125.830715,7.354266],[125.902599,7.101142],[125.954275,7.047406]]]},"properties":{"LOCATION_TYPE":"level1","ADM0_A3":"PHL","LOCATION_ID":"PHL-COM","NAME":"Compostela Valley","TYPE_EN":"Province"}},
{"type":"Feature","geometry":{"type":"Polygon","coordinates":[[[126.383474,7.899563],[126.291186,7.995843],[126.183027,7.994965],[126.176722,7.84872],[126.241215,7.594886],[126.223386,7.427351],[126.293615,7.298883],[126.241774,7.240245],[125.954275,7.047406],[125.976817,6.939602],[126.079112,6.842515],[126.095063,6.514106],[126.175548,6.362616],[126.226899,6.46894],[126.254568,6.766669],[126.167979,6.882554],[126.212901,6.934027],[126.301768,6.893256],[126.349457,7.000067],[126.466156,7.003119],[126.47641,7.06623],[126.612315,7.25788],[126.569184,7.301093],[126.608653,7.465318],[126.569184,7.62637],[126.582856,7.719428],[126.487478,7.746731],[126.383474,7.899563]]]},"properties":{"LOCATION_TYPE":"level1","ADM0_A3":"PHL","LOCATION_ID":"PHL-DAO","NAME":"Davao Oriental","TYPE_EN":"Province"}},
{"type":"Feature","geometry":{"type":"MultiPolygon","coordinates":[[[[125.295095,9.970649],[125.239268,10.103909],[125.145763,10.070705],[125.295095,9.970649]]],[[[125.167784,10.622137],[125.080459,10.543491],[124.923466,10.505664],[124.883881,10.434867],[124.905999,10.301594],[124.766012,10.185444],[124.882823,10.134955],[125.01531,10.026109],[125.000173,10.199693],[125.159353,10.281806],[125.229259,10.25434],[125.266612,10.368394],[125.198741,10.433051],[125.167784,10.622137]]]]},"properties":{"LOCATION_TYPE":"level1","ADM0_A3":"PHL","LOCATION_ID":"PHL-SLE","NAME":"Southern Leyte","TYPE_EN":"Province"}},
{"type":"Feature","geometry":{"type":"Polygon","coordinates":[[[124.549571,10.983303],[124.48765,11.065892],[124.604206,11.156765],[124.670121,11.064484],[124.622325,11.002021],[124.778819,10.821438],[124.798106,10.659125],[124.743988,10.49372],[124.738943,10.395453],[124.794119,10.30272],[124.766012,10.185444],[124.905999,10.301594],[124.883881,10.434867],[124.923466,10.505664],[125.080459,10.543491],[125.167784,10.622137],[125.124034,10.695136],[125.006114,10.797349],[125.053071,10.968207],[125.038748,11.197943],[124.932691,11.236539],[124.975597,11.334418],[124.929698,11.421291],[124.845714,11.43301],[124.744395,11.328559],[124.629893,11.304429],[124.503266,11.443834],[124.443126,11.446926],[124.329112,11.557115],[124.311371,11.466783],[124.404307,11.30268],[124.415375,11.019965],[124.396821,10.953803],[124.507335,10.874416],[124.549571,10.983303]]]},"properties":{"LOCATION_TYPE":"level1","ADM0_A3":"PHL","LOCATION_ID":"PHL-LEY","NAME":"Leyte","TYPE_EN":"Province"}},
{"type":"Feature","geometry":{"type":"Polygon","coordinates":[[[125.31601,12.302069],[125.231664,12.364052],[125.161797,12.315683],[125.106607,12.129648],[125.122627,11.997873],[125.203655,12.015443],[125.253471,11.927903],[125.280033,11.559863],[125.349176,11.414497],[125.241384,11.094387],[125.317068,11.149563],[125.440196,11.097561],[125.707367,11.177436],[125.566173,11.268134],[125.637706,11.368476],[125.558604,11.424791],[125.470876,11.602607],[125.500499,11.701117],[125.457286,11.840522],[125.451996,11.964057],[125.524425,12.04621],[125.457367,12.107082],[125.500499,12.248603],[125.31601,12.302069]]]},"properties":{"LOCATION_TYPE":"level1","ADM0_A3":"PHL","LOCATION_ID":"PHL-EAS","NAME":"Eastern Samar","TYPE_EN":"Province"}},
{"type":"Feature","geometry":{"type":"Polygon","coordinates":[[[124.59962,11.563381],[124.49586,11.69477],[124.368663,11.678941],[124.458832,11.494452],[124.609141,11.486558],[124.59962,11.563381]]]},"properties":{"LOCATION_TYPE":"level1","ADM0_A3":"PHL","LOCATION_ID":"PHL-BIL","NAME":"Biliran","TYPE_EN":"Province"}},
{"type":"Feature","geometry":{"type":"Polygon","coordinates":[[[125.241384,11.094387],[125.349176,11.414497],[125.280033,11.559863],[125.253471,11.927903],[125.203655,12.015443],[125.122627,11.997873],[125.106607,12.129648],[125.161797,12.315683],[125.002117,12.253051],[124.821766,12.226231],[124.692059,12.229641],[124.48711,12.330514],[124.370549,12.290049],[124.407237,12.193793],[124.569347,12.050849],[124.679861,12.029731],[124.794119,11.85814],[124.928233,11.741441],[125.034434,11.727851],[125.000173,11.624823],[124.828298,11.508734],[125.00294,11.419745],[125.000987,11.289781],[125.132823,11.282131],[125.198741,11.227525],[125.241384,11.094387]]]},"properties":{"LOCATION_TYPE":"level1","ADM0_A3":"PHL","LOCATION_ID":"PHL-WSA","NAME":"Samar","TYPE_EN":"Province"}},
{"type":"Feature","geometry":{"type":"Polygon","coordinates":[[[122.24464,16.510565],[122.037544,16.507623],[121.872386,16.281901],[121.447709,15.9243],[121.267255,15.77759],[121.361099,15.507943],[121.36575,15.435441],[121.302601,15.181451],[121.330093,15.032364],[121.446178,15.207934],[121.379161,15.308173],[121.636567,15.72248],[121.554861,15.828925],[121.57781,15.932074],[121.752289,16.07689],[121.954763,16.139146],[122.203868,16.263821],[122.205333,16.423896],[122.24464,16.510565]]]},"properties":{"LOCATION_TYPE":"level1","ADM0_A3":"PHL","LOCATION_ID":"PHL-AUR","NAME":"Aurora","TYPE_EN":"Province"}},
{"type":"Feature","geometry":{"type":"MultiPolygon","coordinates":[[[[121.446178,15.207934],[121.330093,15.032364],[121.342082,14.889272],[121.374018,14.703444],[121.460525,14.571514],[121.590336,14.313287],[121.59447,14.219494],[121.503726,14.074542],[121.416496,14.050977],[121.264464,13.961525],[121.454581,13.819219],[121.549327,13.87816],[121.498413,13.957229],[121.581948,13.996386],[121.636892,13.909613],[121.724864,13.969143],[121.98585,13.812079],[122.118419,13.752102],[122.20753,13.614325],[122.319021,13.592231],[122.50115,13.368069],[122.505056,13.239203],[122.588145,13.174018],[122.690684,13.228664],[122.672699,13.379299],[122.598888,13.508287],[122.621755,13.55272],[122.497569,13.652045],[122.509613,13.820014],[122.450857,13.906195],[122.558003,13.933281],[122.615079,13.963954],[122.815894,13.99372],[122.47979,14.150816],[122.309986,14.09628],[122.259288,14.188218],[122.170177,14.139635],[122.290782,14.023098],[122.202403,13.994574],[122.231944,13.90644],[121.93629,13.995185],[121.731619,14.188218],[121.758962,14.246568],[121.662446,14.417385],[121.610688,14.612616],[121.629161,14.702826],[121.726085,14.72016],[121.594493,14.859198],[121.560069,14.989651],[121.446178,15.207934]]],[[[122.005382,15.010688],[121.844249,15.045396],[121.81837,14.946031],[121.881847,14.883694],[121.933849,14.76496],[121.908702,14.670966],[122.004161,14.673651],[122.02589,14.736314],[121.978038,14.838772],[122.005382,15.010688]]]]},"properties":{"LOCATION_TYPE":"level1","ADM0_A3":"PHL","LOCATION_ID":"PHL-QUE","NAME":"Quezon","TYPE_EN":"Province"}},
{"type":"Feature","geometry":{"type":"Polygon","coordinates":[[[122.309986,14.09628],[122.47979,14.150816],[122.815894,13.99372],[122.923691,13.964936],[123.048839,13.821967],[123.078136,13.988105],[123.012218,14.105699],[122.853282,14.278551],[122.752696,14.332221],[122.604666,14.301256],[122.470958,14.345893],[122.366222,14.261461],[122.309986,14.09628]]]},"properties":{"LOCATION_TYPE":"level1","ADM0_A3":"PHL","LOCATION_ID":"PHL-CAN","NAME":"Camarines Norte","TYPE_EN":"Province"}},
{"type":"Feature","geometry":{"type":"Polygon","coordinates":[[[123.048839,13.821967],[122.923691,13.964936],[122.815894,13.99372],[122.615079,13.963954],[122.558003,13.933281],[122.739024,13.818305],[122.862559,13.69477],[122.814708,13.653795],[122.972016,13.527533],[123.168793,13.449205],[123.190929,13.359036],[123.292459,13.244725],[123.446967,13.378305],[123.552903,13.365438],[123.594658,13.421558],[123.593581,13.529467],[123.528494,13.626776],[123.588145,13.728949],[123.797374,13.687974],[123.937755,13.784003],[123.477794,13.950507],[123.3296,14.070299],[123.252289,14.068101],[123.21811,13.992743],[123.28061,13.936103],[123.314952,13.820543],[123.266612,13.749416],[123.108246,13.722113],[123.048839,13.821967]],[[123.234248,13.568648],[123.139619,13.619905],[123.293391,13.663277],[123.234248,13.568648]]]},"properties":{"LOCATION_TYPE":"level1","ADM0_A3":"PHL","LOCATION_ID":"PHL-CAS","NAME":"Camarines Sur","TYPE_EN":"Province"}},
{"type":"Feature","geometry":{"type":"Polygon","coordinates":[[[123.593581,13.529467],[123.594658,13.421558],[123.552903,13.365438],[123.446967,13.378305],[123.292459,13.244725],[123.278982,13.120185],[123.310069,13.012356],[123.441254,13.036851],[123.49616,12.9744],[123.656876,13.044682],[123.788651,13.030781],[123.908024,13.054139],[123.935381,13.118511],[123.870942,13.14289],[123.818126,13.07099],[123.749522,13.154731],[123.794607,13.308417],[123.731456,13.362535],[123.667247,13.485582],[123.593581,13.529467]]]},"properties":{"LOCATION_TYPE":"level1","ADM0_A3":"PHL","LOCATION_ID":"PHL-ALB","NAME":"Albay","TYPE_EN":"Province"}},
{"type":"Feature","geometry":{"type":"Polygon","coordinates":[[[123.935381,13.118511],[123.908024,13.054139],[123.788651,13.030781],[123.656876,13.044682],[123.49616,12.9744],[123.598399,12.896552],[123.668468,12.92414],[123.725352,12.84512],[123.823009,12.877021],[123.893403,12.974799],[124.025157,12.955308],[124.002452,12.879706],[123.819102,12.831855],[123.878591,12.645209],[123.983165,12.54678],[124.095225,12.557074],[124.143077,12.797309],[124.081554,13.009508],[123.935381,13.118511]]]},"properties":{"LOCATION_TYPE":"level1","ADM0_A3":"PHL","LOCATION_ID":"PHL-SOR","NAME":"Sorsogon","TYPE_EN":"Province"}},
{"type":"Feature","geometry":{"type":"Polygon","coordinates":[[[121.636892,13.909613],[121.581948,13.996386],[121.498413,13.957229],[121.549327,13.87816],[121.636892,13.909613]]]},"properties":{"LOCATION_TYPE":"level1","ADM0_A3":"PHL","LOCATION_ID":"PHL-QUE","NAME":"Lucena","TYPE_EN":"Highly Urbanized City"}},
{"type":"Feature","geometry":{"type":"Polygon","coordinates":[[[121.454581,13.819219],[121.264464,13.961525],[121.20545,14.111645],[121.032954,14.143995],[120.868933,14.076092],[120.717624,14.139551],[120.59668,14.218797],[120.619477,14.104234],[120.601329,13.969143],[120.620128,13.846625],[120.722911,13.855414],[120.745942,13.933783],[120.89503,13.90644],[120.90919,13.804633],[121.053477,13.722113],[121.033946,13.641832],[121.158702,13.639472],[121.278819,13.595038],[121.464122,13.69477],[121.454581,13.819219]]]},"properties":{"LOCATION_TYPE":"level1","ADM0_A3":"PHL","LOCATION_ID":"PHL-BTG","NAME":"Batangas","TYPE_EN":"Province"}},
{"type":"Feature","geometry":{"type":"Polygon","coordinates":[[[120.59668,14.218797],[120.717624,14.139551],[120.868933,14.076092],[121.032954,14.143995],[121.074708,14.315871],[121.014842,14.359142],[121.014196,14.39706],[120.960804,14.49523],[120.87794,14.458889],[120.713145,14.298529],[120.59668,14.218797]]]},"properties":{"LOCATION_TYPE":"level1","ADM0_A3":"PHL","LOCATION_ID":"PHL-CAV","NAME":"Cavite","TYPE_EN":"Province"}},
{"type":"Feature","geometry":{"type":"Polygon","coordinates":[[[120.960804,14.49523],[121.014196,14.39706],[121.032972,14.438567],[120.973393,14.505999],[120.960804,14.49523]]]},"properties":{"LOCATION_TYPE":"level1","ADM0_A3":"PHL","LOCATION_ID":"PHL-MNL","NAME":"Las Pinas","TYPE_EN":"Highly Urbanized City"}},
{"type":"Feature","geometry":{"type":"Polygon","coordinates":[[[120.973393,14.505999],[121.032972,14.438567],[121.05585,14.464899],[121.044627,14.507201],[120.984386,14.534003],[120.973393,14.505999]]]},"properties":{"LOCATION_TYPE":"level1","ADM0_A3":"PHL","LOCATION_ID":"PHL-MNL","NAME":"Paranaque","TYPE_EN":"Highly Urbanized City"}},
{"type":"Feature","geometry":{"type":"Polygon","coordinates":[[[120.984386,14.534003],[121.044627,14.507201],[121.032108,14.527489],[121.006209,14.557705],[120.980154,14.55744],[120.984386,14.534003]]]},"properties":{"LOCATION_TYPE":"level1","ADM0_A3":"PHL","LOCATION_ID":"PHL-MNL","NAME":"Pasay","TYPE_EN":"Highly Urbanized City"}},
{"type":"Feature","geometry":{"type":"Polygon","coordinates":[[[120.980154,14.55744],[121.006209,14.557705],[121.026497,14.574972],[121.037288,14.588785],[121.02995,14.597418],[121.001029,14.627418],[120.976856,14.628281],[120.947584,14.627864],[120.980154,14.55744]]]},"properties":{"LOCATION_TYPE":"level1","ADM0_A3":"PHL","LOCATION_ID":"PHL-MNL","NAME":"Manila","TYPE_EN":"Highly Urbanized City"}},
{"type":"Feature","geometry":{"type":"Polygon","coordinates":[[[120.947584,14.627864],[120.976856,14.628281],[120.968655,14.636483],[120.933964,14.693431],[120.916214,14.694389],[120.947584,14.627864]]]},"properties":{"LOCATION_TYPE":"level1","ADM0_A3":"PHL","LOCATION_ID":"PHL-MNL","NAME":"Navotas","TYPE_EN":"Highly Urbanized City"}},
{"type":"Feature","geometry":{"type":"Polygon","coordinates":[[[120.916214,14.694389],[120.933964,14.693431],[120.953268,14.688949],[121.009031,14.739478],[121.115849,14.752828],[121.154268,14.758427],[121.20576,14.826382],[121.342082,14.889272],[121.330093,15.032364],[121.302601,15.181451],[121.076465,15.256692],[120.937662,15.220673],[120.913271,15.028592],[120.829865,14.93666],[120.717624,14.880591],[120.663829,14.778957],[120.830089,14.763617],[120.916214,14.694389]]]},"properties":{"LOCATION_TYPE":"level1","ADM0_A3":"PHL","LOCATION_ID":"PHL-BUL","NAME":"Bulacan","TYPE_EN":"Province"}},
{"type":"Feature","geometry":{"type":"Polygon","coordinates":[[[120.663829,14.778957],[120.717624,14.880591],[120.829865,14.93666],[120.913271,15.028592],[120.937662,15.220673],[120.845368,15.166516],[120.776329,15.259534],[120.556187,15.254211],[120.38059,15.168997],[120.371392,15.095513],[120.460069,14.941517],[120.545421,14.827094],[120.663829,14.778957]],[[120.59258,15.103226],[120.569086,15.176319],[120.636958,15.178929],[120.636958,15.116278],[120.59258,15.103226]]]},"properties":{"LOCATION_TYPE":"level1","ADM0_A3":"PHL","LOCATION_ID":"PHL-PAM","NAME":"Pampanga","TYPE_EN":"Province"}},
{"type":"Feature","geometry":{"type":"Polygon","coordinates":[[[120.545421,14.827094],[120.460069,14.941517],[120.454901,14.914129],[120.422448,14.864003],[120.28248,14.806081],[120.243907,14.767035],[120.285411,14.653754],[120.367361,14.620754],[120.40211,14.455756],[120.564626,14.44123],[120.597911,14.505601],[120.57838,14.65941],[120.539317,14.702826],[120.545421,14.827094]]]},"properties":{"LOCATION_TYPE":"level1","ADM0_A3":"PHL","LOCATION_ID":"PHL-BAN","NAME":"Bataan","TYPE_EN":"Province"}},
{"type":"Feature","geometry":{"type":"Polygon","coordinates":[[[120.28248,14.806081],[120.422448,14.864003],[120.454901,14.914129],[120.279324,14.933545],[120.209321,14.880032],[120.28248,14.806081]]]},"properties":{"LOCATION_TYPE":"level1","ADM0_A3":"PHL","LOCATION_ID":"PHL-ZMB","NAME":"Olongapo","TYPE_EN":"Highly Urbanized City"}},
{"type":"Feature","geometry":{"type":"Polygon","coordinates":[[[120.209321,14.880032],[120.279324,14.933545],[120.454901,14.914129],[120.460069,14.941517],[120.371392,15.095513],[120.38059,15.168997],[120.30814,15.273745],[120.163653,15.343198],[120.143809,15.40645],[120.246955,15.614034],[120.138435,15.820947],[120.008313,15.852521],[119.888798,15.801418],[119.919688,15.690334],[119.904307,15.597073],[119.963878,15.51435],[119.888194,15.429023],[120.005138,15.269436],[120.052989,15.062445],[120.049815,14.93122],[120.090099,14.794338],[120.187266,14.77497],[120.209321,14.880032]]]},"properties":{"LOCATION_TYPE":"level1","ADM0_A3":"PHL","LOCATION_ID":"PHL-ZMB","NAME":"Zambales","TYPE_EN":"Province"}},
{"type":"Feature","geometry":{"type":"Polygon","coordinates":[[[119.888798,15.801418],[120.008313,15.852521],[120.138435,15.820947],[120.246955,15.614034],[120.395163,15.752889],[120.490661,15.715682],[120.627294,15.818725],[120.737158,15.84508],[120.838754,15.804669],[120.925984,15.97763],[120.886503,16.100671],[120.847022,16.174775],[120.756588,16.200665],[120.670495,16.186919],[120.526008,16.232084],[120.401362,16.209502],[120.365245,16.10871],[120.402284,16.042239],[120.296284,15.982704],[120.25766,16.052191],[120.105642,16.069648],[120.091156,16.153469],[119.901866,16.2508],[119.925792,16.34512],[119.812511,16.367499],[119.755707,16.203437],[119.778331,16.137844],[119.75587,15.944566],[119.878917,15.91474],[119.888798,15.801418]]]},"properties":{"LOCATION_TYPE":"level1","ADM0_A3":"PHL","LOCATION_ID":"PHL-PAN","NAME":"Pangasinan","TYPE_EN":"Province"}},
{"type":"Feature","geometry":{"type":"Polygon","coordinates":[[[120.25766,16.052191],[120.296284,15.982704],[120.402284,16.042239],[120.365245,16.10871],[120.25766,16.052191]]]},"properties":{"LOCATION_TYPE":"level1","ADM0_A3":"PHL","LOCATION_ID":"PHL-PAN","NAME":"Dagupan","TYPE_EN":"Independent Component City"}},
{"type":"Feature","geometry":{"type":"Polygon","coordinates":[[[120.401362,16.209502],[120.526008,16.232084],[120.471954,16.46375],[120.514329,16.566483],[120.595048,16.652627],[120.547092,16.715207],[120.515569,16.917366],[120.397908,16.919186],[120.326427,16.830959],[120.325938,16.712592],[120.276134,16.611884],[120.306651,16.544989],[120.336274,16.292182],[120.401362,16.209502]]]},"properties":{"LOCATION_TYPE":"level1","ADM0_A3":"PHL","LOCATION_ID":"PHL-LUN","NAME":"La Union","TYPE_EN":"Province"}},
{"type":"Feature","geometry":{"type":"Polygon","coordinates":[[[120.397908,16.919186],[120.515569,16.917366],[120.547092,16.715207],[120.595048,16.652627],[120.637836,16.860108],[120.773538,16.920983],[120.780979,17.070586],[120.87379,17.182052],[120.754004,17.158488],[120.666051,17.267732],[120.533759,17.367312],[120.57262,17.491904],[120.4672,17.499242],[120.53903,17.703726],[120.539857,17.866507],[120.426139,17.894036],[120.353201,17.678127],[120.333832,17.556383],[120.40211,17.518866],[120.441742,17.367987],[120.403087,17.221625],[120.43629,17.008002],[120.397908,16.919186]]]},"properties":{"LOCATION_TYPE":"level1","ADM0_A3":"PHL","LOCATION_ID":"PHL-ILS","NAME":"Ilocos Sur","TYPE_EN":"Province"}},
{"type":"Feature","geometry":{"type":"Polygon","coordinates":[[[120.426139,17.894036],[120.539857,17.866507],[120.53903,17.703726],[120.618199,17.819016],[120.827798,17.943453],[120.938489,17.967069],[120.970839,18.193463],[120.957093,18.446781],[120.99511,18.60606],[120.926931,18.56623],[120.850841,18.638861],[120.770844,18.561469],[120.611095,18.53856],[120.561778,18.469672],[120.586192,18.364488],[120.470063,18.09101],[120.477224,18.004828],[120.426139,17.894036]]]},"properties":{"LOCATION_TYPE":"level1","ADM0_A3":"PHL","LOCATION_ID":"PHL-ILN","NAME":"Ilocos Norte","TYPE_EN":"Province"}},
{"type":"Feature","geometry":{"type":"MultiPolygon","coordinates":[[[[120.99511,18.60606],[120.957093,18.446781],[121.086801,18.53029],[121.125455,18.466832],[121.27852,18.411331],[121.457011,18.301932],[121.484709,18.185919],[121.461558,18.098327],[121.318414,17.84258],[121.428795,17.717627],[121.566358,17.563424],[121.652864,17.518156],[121.887579,17.54265],[122.184631,17.541314],[122.140147,17.798285],[122.183442,17.984361],[122.180024,18.120754],[122.306977,18.251288],[122.317149,18.377427],[122.220225,18.522406],[122.152843,18.518785],[122.111583,18.392768],[121.97462,18.286038],[121.852794,18.287991],[121.613292,18.35932],[121.424083,18.47724],[121.106781,18.642727],[120.99511,18.60606]]],[[[121.526134,19.320705],[121.526134,19.38227],[121.395763,19.403266],[121.406016,19.298529],[121.526134,19.320705]]]]},"properties":{"LOCATION_TYPE":"level1","ADM0_A3":"PHL","LOCATION_ID":"PHL-CAG","NAME":"Cagayan","TYPE_EN":"Province"}},
{"type":"Feature","geometry":{"type":"MultiPolygon","coordinates":[[[[122.184631,17.541314],[121.887579,17.54265],[121.652864,17.518156],[121.570595,17.250058],[121.563464,17.086554],[121.571009,16.910958],[121.479025,16.830653],[121.608053,16.713886],[121.569872,16.610614],[121.738234,16.403857],[121.765829,16.396984],[122.037544,16.507623],[122.24464,16.510565],[122.34547,16.642524],[122.464692,16.895087],[122.472911,16.989691],[122.529063,17.090522],[122.410411,17.175523],[122.435395,17.292426],[122.365408,17.353746],[122.25115,17.360175],[122.184631,17.541314]]],[[[121.39965,16.651232],[121.487989,16.62947],[121.476326,16.722618],[121.390072,16.694343],[121.39965,16.651232]]]]},"properties":{"LOCATION_TYPE":"level1","ADM0_A3":"PHL","LOCATION_ID":"PHL-ISA","NAME":"Isabela","TYPE_EN":"Province"}},
{"type":"Feature","geometry":{"type":"Polygon","coordinates":[[[120.251964,5.266506],[120.198578,5.349595],[120.086925,5.258979],[119.964854,5.222602],[119.829438,5.134955],[119.819347,5.059801],[119.954112,5.075507],[120.025401,5.160549],[120.189626,5.196519],[120.251964,5.266506]]]},"properties":{"LOCATION_TYPE":"level1","ADM0_A3":"PHL","LOCATION_ID":"PHL-TAW","NAME":"Tawi-Tawi","TYPE_EN":"Province"}},
{"type":"Feature","geometry":{"type":"Polygon","coordinates":[[[122.049224,6.739797],[122.099023,6.586712],[121.965248,6.579204],[121.920183,6.675653],[121.839203,6.668931],[121.880056,6.503241],[121.96225,6.404853],[122.18865,6.451077],[122.235362,6.571194],[122.329275,6.613837],[122.049224,6.739797]]]},"properties":{"LOCATION_TYPE":"level1","ADM0_A3":"PHL","LOCATION_ID":"PHL-BAS","NAME":"Basilan","TYPE_EN":"Province"}},
{"type":"Feature","geometry":{"type":"Polygon","coordinates":[[[124.78419,9.199774],[124.708507,9.25019],[124.646739,9.218899],[124.67213,9.125393],[124.787852,9.083075],[124.78419,9.199774]]]},"properties":{"LOCATION_TYPE":"level1","ADM0_A3":"PHL","LOCATION_ID":"PHL-CAM","NAME":"Camiguin","TYPE_EN":"Province"}},
{"type":"Feature","geometry":{"type":"Polygon","coordinates":[[[123.698009,9.165025],[123.655447,9.28913],[123.479503,9.17182],[123.639985,9.098578],[123.698009,9.165025]]]},"properties":{"LOCATION_TYPE":"level1","ADM0_A3":"PHL","LOCATION_ID":"PHL-SIG","NAME":"Siquijor","TYPE_EN":"Province"}},
{"type":"Feature","geometry":{"type":"Polygon","coordinates":[[[124.565278,9.870754],[124.588634,10.023871],[124.331309,10.161526],[124.184581,10.144477],[124.075206,10.048326],[124.050792,9.979315],[123.886078,9.914862],[123.809093,9.80268],[123.807872,9.739976],[123.937511,9.617499],[124.065196,9.595404],[124.2942,9.606757],[124.410492,9.658433],[124.499848,9.768297],[124.585216,9.732082],[124.624034,9.801825],[124.565278,9.870754]]]},"properties":{"LOCATION_TYPE":"level1","ADM0_A3":"PHL","LOCATION_ID":"PHL-BOH","NAME":"Bohol","TYPE_EN":"Province"}},
{"type":"Feature","geometry":{"type":"Polygon","coordinates":[[[122.711111,10.734687],[122.574555,10.665839],[122.528575,10.591213],[122.530528,10.423245],[122.634451,10.444241],[122.737071,10.640041],[122.711111,10.734687]]]},"properties":{"LOCATION_TYPE":"level1","ADM0_A3":"PHL","LOCATION_ID":"PHL-GUI","NAME":"Guimaras","TYPE_EN":"Province"}},
{"type":"Feature","geometry":{"type":"Polygon","coordinates":[[[122.919899,10.618316],[123.024867,10.592609],[123.067764,10.680928],[122.975841,10.742418],[122.919899,10.618316]]]},"properties":{"LOCATION_TYPE":"level1","ADM0_A3":"PHL","LOCATION_ID":"PHL-BCD","NAME":"Bacolod","TYPE_EN":"Highly Urbanized City"}},
{"type":"Feature","geometry":{"type":"Polygon","coordinates":[[[122.597097,9.437649],[123.012574,9.964405],[123.163263,10.240047],[123.143936,10.421845],[123.21897,10.445099],[123.365728,10.392513],[123.485688,10.54914],[123.575531,10.825588],[123.521821,10.919908],[123.3296,10.951402],[123.213552,10.996405],[122.966319,10.87637],[122.975841,10.742418],[123.067764,10.680928],[123.024867,10.592609],[122.919899,10.618316],[122.821788,10.47248],[122.869395,10.350531],[122.855317,10.228013],[122.878917,10.118069],[122.707774,9.986396],[122.47462,9.974351],[122.395193,9.836615],[122.496593,9.561713],[122.597097,9.437649]]]},"properties":{"LOCATION_TYPE":"level1","ADM0_A3":"PHL","LOCATION_ID":"PHL-NEC","NAME":"Negros Occidental","TYPE_EN":"Province"}},
{"type":"Feature","geometry":{"type":"Polygon","coordinates":[[[123.365728,10.392513],[123.21897,10.445099],[123.143936,10.421845],[123.163263,10.240047],[123.012574,9.964405],[122.597097,9.437649],[122.869395,9.322659],[122.933604,9.121487],[123.033214,9.035305],[123.230154,9.107611],[123.298595,9.215033],[123.321137,9.343166],[123.197602,9.487128],[123.156749,9.867621],[123.290375,10.093573],[123.365728,10.392513]]]},"properties":{"LOCATION_TYPE":"level1","ADM0_A3":"PHL","LOCATION_ID":"PHL-NER","NAME":"Negros Oriental","TYPE_EN":"Province"}},
{"type":"Feature","geometry":{"type":"Polygon","coordinates":[[[123.934435,10.309299],[123.935157,10.401066],[123.837164,10.353511],[123.868663,10.248196],[123.934435,10.309299]]]},"properties":{"LOCATION_TYPE":"level1","ADM0_A3":"PHL","LOCATION_ID":"PHL-CEB","NAME":"Cebu","TYPE_EN":"Highly Urbanized City"}},
{"type":"Feature","geometry":{"type":"Polygon","coordinates":[[[123.979666,10.377183],[123.935157,10.401066],[123.934435,10.309299],[123.979666,10.377183]]]},"properties":{"LOCATION_TYPE":"level1","ADM0_A3":"PHL","LOCATION_ID":"PHL-MDE","NAME":"Mandaue","TYPE_EN":"Highly Urbanized City"}},
{"type":"Feature","geometry":{"type":"Polygon","coordinates":[[[123.868663,10.248196],[123.837164,10.353511],[123.935157,10.401066],[123.979666,10.377183],[124.04005,10.484361],[124.050792,10.627387],[124.020763,10.747748],[124.066905,10.889065],[124.018321,11.25849],[123.951915,11.156724],[123.972911,11.077338],[123.917735,11.028957],[123.915782,10.939765],[123.849294,10.752631],[123.764985,10.640041],[123.706798,10.461982],[123.596853,10.317776],[123.507986,10.122219],[123.422537,10.037502],[123.383311,9.942694],[123.404959,9.878404],[123.365245,9.785346],[123.314301,9.507636],[123.36964,9.425727],[123.488292,9.566474],[123.509451,9.65351],[123.643321,9.96011],[123.643321,10.038967],[123.719493,10.156806],[123.868663,10.248196]]]},"properties":{"LOCATION_TYPE":"level1","ADM0_A3":"PHL","LOCATION_ID":"PHL-CEB","NAME":"Cebu","TYPE_EN":"Province"}},
{"type":"Feature","geometry":{"type":"Polygon","coordinates":[[[118.382335,9.657782],[118.638782,9.521117],[118.695323,9.57807],[118.784679,9.788235],[118.750499,9.887519],[118.874766,9.971869],[119.072032,10.007961],[119.1963,10.056342],[119.083358,10.164422],[118.993419,10.300279],[118.949718,10.22016],[118.822276,10.194525],[118.722504,10.035834],[118.530528,9.774237],[118.382335,9.657782]]]},"properties":{"LOCATION_TYPE":"level1","ADM0_A3":"PHL","LOCATION_ID":"PHL-PLW","NAME":"Puerto Princesa","TYPE_EN":"Highly Urbanized City"}},
{"type":"Feature","geometry":{"type":"Polygon","coordinates":[[[124.975597,11.334418],[124.932691,11.236539],[125.038748,11.197943],[124.975597,11.334418]]]},"properties":{"LOCATION_TYPE":"level1","ADM0_A3":"PHL","LOCATION_ID":"PHL-LEY","NAME":"Tacloban","TYPE_EN":"Highly Urbanized City"}},
{"type":"Feature","geometry":{"type":"Polygon","coordinates":[[[124.622325,11.002021],[124.670121,11.064484],[124.604206,11.156765],[124.48765,11.065892],[124.549571,10.983303],[124.622325,11.002021]]]},"properties":{"LOCATION_TYPE":"level1","ADM0_A3":"PHL","LOCATION_ID":"PHL-LEY","NAME":"Ormoc","TYPE_EN":"Independent Component City"}},
{"type":"Feature","geometry":{"type":"Polygon","coordinates":[[[121.853852,11.769436],[121.955171,11.82765],[122.035477,11.822379],[122.163737,11.710758],[122.124257,11.482607],[122.17986,11.321221],[122.332203,11.344011],[122.384396,11.460696],[122.514207,11.46235],[122.592202,11.554295],[122.427989,11.668769],[122.38795,11.727444],[122.117931,11.823554],[121.963715,11.933905],[121.896821,11.893785],[121.853852,11.769436]]]},"properties":{"LOCATION_TYPE":"level1","ADM0_A3":"PHL","LOCATION_ID":"PHL-AKL","NAME":"Aklan","TYPE_EN":"Province"}},
{"type":"Feature","geometry":{"type":"Polygon","coordinates":[[[122.033214,10.460924],[122.006021,10.492125],[122.034753,10.637129],[122.191126,10.789781],[122.330859,11.052659],[122.240322,11.156787],[122.17986,11.321221],[122.124257,11.482607],[122.163737,11.710758],[122.035477,11.822379],[121.955171,11.82765],[121.853852,11.769436],[122.084483,11.724677],[122.107188,11.657945],[122.053071,11.233791],[122.045095,11.017401],[121.978038,10.905463],[121.937022,10.775702],[121.984874,10.624905],[121.929698,10.46662],[122.033214,10.460924]]]},"properties":{"LOCATION_TYPE":"level1","ADM0_A3":"PHL","LOCATION_ID":"PHL-ANT","NAME":"Antique","TYPE_EN":"Province"}},
{"type":"Feature","geometry":{"type":"Polygon","coordinates":[[[122.472105,10.687134],[122.532804,10.799528],[122.614757,10.761461],[122.761485,10.810736],[122.78004,10.956936],[122.839122,11.018052],[123.014903,11.09162],[123.04127,11.163398],[123.131358,11.182685],[123.113536,11.266669],[123.174815,11.467475],[123.08961,11.52969],[123.031901,11.393982],[122.951183,11.350574],[122.862403,11.193064],[122.586657,11.23611],[122.505009,11.183865],[122.342641,11.216008],[122.240322,11.156787],[122.330859,11.052659],[122.191126,10.789781],[122.034753,10.637129],[122.006021,10.492125],[122.033214,10.460924],[122.101817,10.569322],[122.226573,10.642239],[122.472105,10.687134]]]},"properties":{"LOCATION_TYPE":"level1","ADM0_A3":"PHL","LOCATION_ID":"PHL-ILI","NAME":"Iloilo","TYPE_EN":"Province"}},
{"type":"Feature","geometry":{"type":"Polygon","coordinates":[[[122.614757,10.761461],[122.532804,10.799528],[122.472105,10.687134],[122.589854,10.698717],[122.614757,10.761461]]]},"properties":{"LOCATION_TYPE":"level1","ADM0_A3":"PHL","LOCATION_ID":"PHL-ILI","NAME":"Iloilo","TYPE_EN":"Highly Urbanized City"}},
{"type":"Feature","geometry":{"type":"Polygon","coordinates":[[[122.592202,11.554295],[122.514207,11.46235],[122.384396,11.460696],[122.332203,11.344011],[122.17986,11.321221],[122.240322,11.156787],[122.342641,11.216008],[122.505009,11.183865],[122.586657,11.23611],[122.862403,11.193064],[122.951183,11.350574],[123.031901,11.393982],[123.08961,11.52969],[122.900727,11.437934],[122.854991,11.591254],[122.730805,11.592231],[122.622325,11.508734],[122.592202,11.554295]]]},"properties":{"LOCATION_TYPE":"level1","ADM0_A3":"PHL","LOCATION_ID":"PHL-CAP","NAME":"Capiz","TYPE_EN":"Province"}},
{"type":"Feature","geometry":{"type":"MultiPolygon","coordinates":[[[[122.687511,12.402818],[122.649181,12.473212],[122.48113,12.493354],[122.431895,12.409735],[122.511974,12.377631],[122.611827,12.276516],[122.687511,12.402818]]],[[[122.115245,12.666327],[121.990896,12.571194],[121.993175,12.441799],[121.920746,12.302883],[121.999766,12.210639],[122.080821,12.315497],[122.135753,12.560777],[122.115245,12.666327]]]]},"properties":{"LOCATION_TYPE":"level1","ADM0_A3":"PHL","LOCATION_ID":"PHL-ROM","NAME":"Romblon","TYPE_EN":"Province"}},
{"type":"Feature","geometry":{"type":"Polygon","coordinates":[[[124.370549,12.290049],[124.48711,12.330514],[124.692059,12.229641],[124.821766,12.226231],[125.002117,12.253051],[125.161797,12.315683],[125.231664,12.364052],[125.31601,12.302069],[125.34962,12.3994],[125.272146,12.49901],[125.16627,12.578111],[125.061697,12.529731],[124.979747,12.560777],[124.867931,12.530341],[124.67921,12.515937],[124.358409,12.544908],[124.276215,12.533271],[124.370549,12.290049]]]},"properties":{"LOCATION_TYPE":"level1","ADM0_A3":"PHL","LOCATION_ID":"PHL-NSA","NAME":"Northern Samar","TYPE_EN":"Province"}},
{"type":"Feature","geometry":{"type":"MultiPolygon","coordinates":[[[[124.054942,11.799791],[124.040294,11.988105],[123.882335,12.212795],[123.767345,12.214057],[123.704356,12.320746],[123.54713,12.460883],[123.44809,12.512397],[123.355968,12.495592],[123.321137,12.570746],[123.231944,12.580634],[123.273448,12.423651],[123.217784,12.265448],[123.277192,12.164293],[123.210216,12.114976],[123.181407,11.930854],[123.354747,12.095404],[123.424164,12.200832],[123.539724,12.193996],[123.711681,11.954413],[124.054942,11.799791]]],[[[123.787364,12.375556],[123.725841,12.601467],[123.609223,12.687445],[123.583181,12.623928],[123.732677,12.406236],[123.787364,12.375556]]],[[[123.280284,12.864936],[123.160167,12.937567],[123.039806,13.128079],[122.944509,13.111314],[122.950694,13.043687],[123.035492,13.004381],[123.185313,12.858466],[123.280284,12.864936]]]]},"properties":{"LOCATION_TYPE":"level1","ADM0_A3":"PHL","LOCATION_ID":"PHL-MAS","NAME":"Masbate","TYPE_EN":"Province"}},
{"type":"Feature","geometry":{"type":"Polygon","coordinates":[[[120.893386,13.504687],[120.891774,13.402903],[120.779222,13.255109],[121.195011,13.077497],[121.247514,13.031195],[121.247813,12.219916],[121.27296,12.269029],[121.425304,12.384223],[121.437836,12.521633],[121.546397,12.64411],[121.485606,12.768459],[121.489513,13.03677],[121.430512,13.22427],[121.217784,13.40412],[121.042735,13.413031],[120.950206,13.530341],[120.893386,13.504687]]]},"properties":{"LOCATION_TYPE":"level1","ADM0_A3":"PHL","LOCATION_ID":"PHL-MDR","NAME":"Mindoro Oriental","TYPE_EN":"Province"}},
{"type":"Feature","geometry":{"type":"MultiPolygon","coordinates":[[[[121.247813,12.219916],[121.247514,13.031195],[121.195011,13.077497],[120.779222,13.255109],[120.891774,13.402903],[120.893386,13.504687],[120.754568,13.466742],[120.56544,13.513129],[120.356619,13.518378],[120.306651,13.444322],[120.368175,13.383368],[120.439952,13.427232],[120.479991,13.3015],[120.642345,13.183254],[120.758311,13.002387],[120.797862,12.729438],[120.912446,12.634711],[120.916352,12.512397],[121.131684,12.241767],[121.247813,12.219916]]],[[[120.260916,13.711575],[120.237641,13.804633],[120.103689,13.866278],[120.092296,13.794501],[120.260916,13.711575]]]]},"properties":{"LOCATION_TYPE":"level1","ADM0_A3":"PHL","LOCATION_ID":"PHL-MDC","NAME":"Mindoro Occidental","TYPE_EN":"Province"}},
{"type":"Feature","geometry":{"type":"Polygon","coordinates":[[[122.101573,13.416693],[122.115245,13.464993],[121.989024,13.530463],[121.90919,13.522895],[121.814301,13.450507],[121.817231,13.341946],[121.993175,13.201606],[122.120291,13.356635],[122.101573,13.416693]]]},"properties":{"LOCATION_TYPE":"level1","ADM0_A3":"PHL","LOCATION_ID":"PHL-MAD","NAME":"Marinduque","TYPE_EN":"Province"}},
{"type":"Feature","geometry":{"type":"Polygon","coordinates":[[[124.417979,13.872952],[124.277354,13.955512],[124.200938,14.092231],[124.124522,14.049384],[124.121837,13.779771],[124.026052,13.669623],[124.170177,13.529771],[124.293468,13.604071],[124.389985,13.711575],[124.417979,13.872952]]]},"properties":{"LOCATION_TYPE":"level1","ADM0_A3":"PHL","LOCATION_ID":"PHL-CAT","NAME":"Catanduanes","TYPE_EN":"Province"}},
{"type":"Feature","geometry":{"type":"Polygon","coordinates":[[[122.009776,20.488471],[121.980235,20.472968],[121.963715,20.406643],[122.026541,20.455797],[122.009776,20.488471]]]},"properties":{"LOCATION_TYPE":"level1","ADM0_A3":"PHL","LOCATION_ID":"PHL-BTN","NAME":"Batanes","TYPE_EN":"Province"}},
{"type":"Feature","geometry":{"type":"Polygon","coordinates":[[[123.991649,10.324284],[123.947809,10.306539],[123.933196,10.254348],[123.975992,10.255392],[123.991649,10.324284]]]},"properties":{"LOCATION_TYPE":"level1","ADM0_A3":"PHL","LOCATION_ID":"PHL-LAP","NAME":"Lapu-Lapu","TYPE_EN":"Highly Urbanized City"}},
{"type":"Feature","geometry":{"type":"Polygon","coordinates":[[[126.291186,7.995843],[126.217547,8.153973],[126.224678,8.317942],[126.100448,8.372926],[125.998232,8.531779],[126.023967,8.688411],[125.802068,8.966688],[125.802533,9.11102],[125.766992,9.212429],[125.70962,9.014831],[125.662149,8.876591],[125.6737,8.80087],[125.662277,8.687326],[125.534694,8.699728],[125.40509,8.588107],[125.320699,8.589837],[125.304079,8.441516],[125.323855,8.213349],[125.374291,7.997755],[125.675441,7.996716],[126.183027,7.994965],[126.291186,7.995843]]]},"properties":{"LOCATION_TYPE":"level1","ADM0_A3":"PHL","LOCATION_ID":"PHL-AGS","NAME":"Agusan del Sur","TYPE_EN":"Province"}},
{"type":"Feature","geometry":{"type":"Polygon","coordinates":[[[125.320699,8.589837],[124.929563,8.596375],[124.82559,8.515553],[124.785179,8.40295],[124.619815,8.413595],[124.572479,8.237224],[124.559767,8.118885],[124.629737,8.00747],[124.604467,7.910215],[124.808641,7.611112],[124.877577,7.437479],[124.98248,7.391642],[125.060046,7.424767],[125.230114,7.585274],[125.26597,7.578429],[125.288921,7.595816],[125.317033,7.674209],[125.400336,7.666612],[125.444106,7.778595],[125.374291,7.997755],[125.323855,8.213349],[125.304079,8.441516],[125.320699,8.589837]]]},"properties":{"LOCATION_TYPE":"level1","ADM0_A3":"PHL","LOCATION_ID":"PHL-BUK","NAME":"Bukidnon","TYPE_EN":"Province"}},
{"type":"Feature","geometry":{"type":"Polygon","coordinates":[[[124.808641,7.611112],[124.591755,7.624755],[124.464579,7.669558],[124.448766,7.539488],[124.492691,7.43319],[124.333114,7.200853],[124.49021,7.227931],[124.448456,7.105871],[124.667047,6.950429],[124.797892,7.074504],[124.833032,6.975285],[124.837166,6.767649],[124.896491,6.728892],[125.149705,6.782222],[125.166448,6.844647],[125.302771,7.01735],[125.303081,7.10613],[125.222517,7.183334],[125.26597,7.578429],[125.230114,7.585274],[125.060046,7.424767],[124.98248,7.391642],[124.877577,7.437479],[124.808641,7.611112]]]},"properties":{"LOCATION_TYPE":"level1","ADM0_A3":"PHL","LOCATION_ID":"PHL-NCO","NAME":"Cotabato","TYPE_EN":"Province"}},
{"type":"Feature","geometry":{"type":"Polygon","coordinates":[[[125.176501,6.56333],[125.010282,6.569935],[124.830241,6.536759],[124.751693,6.636701],[124.626481,6.580787],[124.636248,6.290056],[124.249295,6.292484],[124.382878,6.162208],[124.486696,6.176884],[124.789417,6.011675],[125.048213,6.004853],[125.036049,6.196365],[125.137424,6.32071],[125.140808,6.434871],[125.176501,6.56333]]]},"properties":{"LOCATION_TYPE":"level1","ADM0_A3":"PHL","LOCATION_ID":"PHL-SCO","NAME":"South Cotabato","TYPE_EN":"Province"}},
{"type":"Feature","geometry":{"type":"Polygon","coordinates":[[[121.014842,14.359142],[121.143438,14.388166],[121.134708,14.454146],[121.05585,14.464899],[121.032972,14.438567],[121.014196,14.39706],[121.014842,14.359142]]]},"properties":{"LOCATION_TYPE":"level1","ADM0_A3":"PHL","LOCATION_ID":"PHL-MNL","NAME":"Muntinlupa","TYPE_EN":"Highly Urbanized City"}},
{"type":"Feature","geometry":{"type":"MultiPolygon","coordinates":[[[[121.115849,14.752828],[121.009031,14.739478],[121.025634,14.694757],[121.115849,14.752828]]],[[[120.968655,14.636483],[120.976856,14.628281],[121.001029,14.627418],[121.035562,14.679217],[121.004482,14.664541],[120.968655,14.636483]]]]},"properties":{"LOCATION_TYPE":"level1","ADM0_A3":"PHL","LOCATION_ID":"PHL-MNL","NAME":"Caloocan","TYPE_EN":"Highly Urbanized City"}},
{"type":"Feature","geometry":{"type":"Polygon","coordinates":[[[120.933964,14.693431],[120.968655,14.636483],[121.004482,14.664541],[120.953268,14.688949],[120.933964,14.693431]]]},"properties":{"LOCATION_TYPE":"level1","ADM0_A3":"PHL","LOCATION_ID":"PHL-MNL","NAME":"Malabon","TYPE_EN":"Highly Urbanized City"}},
{"type":"Feature","geometry":{"type":"Polygon","coordinates":[[[121.009031,14.739478],[120.953268,14.688949],[121.004482,14.664541],[121.035562,14.679217],[121.025634,14.694757],[121.009031,14.739478]]]},"properties":{"LOCATION_TYPE":"level1","ADM0_A3":"PHL","LOCATION_ID":"PHL-MNL","NAME":"Valenzuela","TYPE_EN":"Highly Urbanized City"}},
{"type":"Feature","geometry":{"type":"Polygon","coordinates":[[[121.154268,14.758427],[121.115849,14.752828],[121.025634,14.694757],[121.035562,14.679217],[121.001029,14.627418],[121.02995,14.597418],[121.071389,14.593965],[121.071389,14.583605],[121.092109,14.608641],[121.12621,14.663462],[121.154268,14.758427]]]},"properties":{"LOCATION_TYPE":"level1","ADM0_A3":"PHL","LOCATION_ID":"PHL-MNL","NAME":"Quezon City","TYPE_EN":"Highly Urbanized City"}},
{"type":"Feature","geometry":{"type":"Polygon","coordinates":[[[120.776329,15.259534],[120.845368,15.166516],[120.937662,15.220673],[121.076465,15.256692],[121.302601,15.181451],[121.36575,15.435441],[121.361099,15.507943],[121.267255,15.77759],[121.207413,15.898203],[121.184779,16.049822],[121.094965,16.117828],[120.94438,16.132917],[120.886503,16.100671],[120.925984,15.97763],[120.838754,15.804669],[120.737158,15.84508],[120.627294,15.818725],[120.642487,15.710773],[120.73323,15.538018],[120.750697,15.325938],[120.776329,15.259534]]]},"properties":{"LOCATION_TYPE":"level1","ADM0_A3":"PHL","LOCATION_ID":"PHL-NUE","NAME":"Nueva Ecija","TYPE_EN":"Province"}},
{"type":"Feature","geometry":{"type":"Polygon","coordinates":[[[121.264464,13.961525],[121.416496,14.050977],[121.503726,14.074542],[121.59447,14.219494],[121.590336,14.313287],[121.460525,14.571514],[121.323169,14.465939],[121.125347,14.524899],[121.134708,14.454146],[121.143438,14.388166],[121.014842,14.359142],[121.074708,14.315871],[121.032954,14.143995],[121.20545,14.111645],[121.264464,13.961525]]]},"properties":{"LOCATION_TYPE":"level1","ADM0_A3":"PHL","LOCATION_ID":"PHL-LAG","NAME":"Laguna","TYPE_EN":"Province"}},
{"type":"Feature","geometry":{"type":"Polygon","coordinates":[[[121.342082,14.889272],[121.20576,14.826382],[121.154268,14.758427],[121.12621,14.663462],[121.11844,14.609073],[121.125347,14.524899],[121.323169,14.465939],[121.460525,14.571514],[121.374018,14.703444],[121.342082,14.889272]]]},"properties":{"LOCATION_TYPE":"level1","ADM0_A3":"PHL","LOCATION_ID":"PHL-RIZ","NAME":"Rizal","TYPE_EN":"Province"}},
{"type":"Feature","geometry":{"type":"Polygon","coordinates":[[[121.125347,14.524899],[121.091677,14.543029],[121.077433,14.534827],[121.032108,14.527489],[121.044627,14.507201],[121.05585,14.464899],[121.134708,14.454146],[121.125347,14.524899]]]},"properties":{"LOCATION_TYPE":"level1","ADM0_A3":"PHL","LOCATION_ID":"PHL-MNL","NAME":"Taguig","TYPE_EN":"Highly Urbanized City"}},
{"type":"Feature","geometry":{"type":"Polygon","coordinates":[[[121.12621,14.663462],[121.092109,14.608641],[121.11844,14.609073],[121.12621,14.663462]]]},"properties":{"LOCATION_TYPE":"level1","ADM0_A3":"PHL","LOCATION_ID":"PHL-MNL","NAME":"Marikina","TYPE_EN":"Highly Urbanized City"}},
{"type":"Feature","geometry":{"type":"Polygon","coordinates":[[[121.11844,14.609073],[121.092109,14.608641],[121.071389,14.583605],[121.064483,14.564612],[121.080454,14.547777],[121.091677,14.543029],[121.125347,14.524899],[121.11844,14.609073]]]},"properties":{"LOCATION_TYPE":"level1","ADM0_A3":"PHL","LOCATION_ID":"PHL-MNL","NAME":"Pasig","TYPE_EN":"Highly Urbanized City"}},
{"type":"Feature","geometry":{"type":"Polygon","coordinates":[[[122.037544,16.507623],[121.765829,16.396984],[121.738234,16.403857],[121.569872,16.610614],[121.487989,16.62947],[121.39965,16.651232],[121.357688,16.446955],[121.430656,16.402617],[121.411329,16.33399],[121.287615,16.259628],[121.336088,16.076332],[121.447709,15.9243],[121.872386,16.281901],[122.037544,16.507623]]]},"properties":{"LOCATION_TYPE":"level1","ADM0_A3":"PHL","LOCATION_ID":"PHL-QUI","NAME":"Quirino","TYPE_EN":"Province"}},
{"type":"Feature","geometry":{"type":"Polygon","coordinates":[[[121.569872,16.610614],[121.608053,16.713886],[121.479025,16.830653],[121.335364,16.7643],[121.390072,16.694343],[121.476326,16.722618],[121.487989,16.62947],[121.569872,16.610614]]]},"properties":{"LOCATION_TYPE":"level1","ADM0_A3":"PHL","LOCATION_ID":"PHL-ISA","NAME":"Santiago","TYPE_EN":"Independent Component City"}},
{"type":"Feature","geometry":{"type":"Polygon","coordinates":[[[121.447709,15.9243],[121.336088,16.076332],[121.287615,16.259628],[121.411329,16.33399],[121.430656,16.402617],[121.357688,16.446955],[121.39965,16.651232],[121.390072,16.694343],[121.335364,16.7643],[121.236869,16.652886],[120.902626,16.597385],[120.903763,16.431504],[120.85653,16.325412],[120.776949,16.290634],[120.756588,16.200665],[120.847022,16.174775],[120.886503,16.100671],[120.94438,16.132917],[121.094965,16.117828],[121.184779,16.049822],[121.207413,15.898203],[121.267255,15.77759],[121.447709,15.9243]]]},"properties":{"LOCATION_TYPE":"level1","ADM0_A3":"PHL","LOCATION_ID":"PHL-NUV","NAME":"Nueva Vizcaya","TYPE_EN":"Province"}},
{"type":"Feature","geometry":{"type":"Polygon","coordinates":[[[120.526008,16.232084],[120.670495,16.186919],[120.756588,16.200665],[120.776949,16.290634],[120.85653,16.325412],[120.903763,16.431504],[120.902626,16.597385],[120.879371,16.798717],[120.850949,16.846259],[120.773538,16.920983],[120.637836,16.860108],[120.595048,16.652627],[120.514329,16.566483],[120.471954,16.46375],[120.526008,16.232084]],[[120.652621,16.353641],[120.584748,16.358862],[120.563865,16.434565],[120.644789,16.431955],[120.652621,16.353641]]]},"properties":{"LOCATION_TYPE":"level1","ADM0_A3":"PHL","LOCATION_ID":"PHL-BEN","NAME":"Benguet","TYPE_EN":"Province"}},
{"type":"Feature","geometry":{"type":"Polygon","coordinates":[[[121.563464,17.086554],[121.434996,17.086038],[121.248031,17.016378],[121.09879,17.014207],[120.974456,16.950955],[120.919369,16.844709],[120.850949,16.846259],[120.879371,16.798717],[120.902626,16.597385],[121.236869,16.652886],[121.335364,16.7643],[121.479025,16.830653],[121.571009,16.910958],[121.563464,17.086554]]]},"properties":{"LOCATION_TYPE":"level1","ADM0_A3":"PHL","LOCATION_ID":"PHL-IFU","NAME":"Ifugao","TYPE_EN":"Province"}},
{"type":"Feature","geometry":{"type":"Polygon","coordinates":[[[121.570595,17.250058],[121.424248,17.298324],[121.269218,17.191871],[121.194494,17.1681],[120.914821,17.249335],[120.87379,17.182052],[120.780979,17.070586],[120.773538,16.920983],[120.850949,16.846259],[120.919369,16.844709],[120.974456,16.950955],[121.09879,17.014207],[121.248031,17.016378],[121.434996,17.086038],[121.563464,17.086554],[121.570595,17.250058]]]},"properties":{"LOCATION_TYPE":"level1","ADM0_A3":"PHL","LOCATION_ID":"PHL-MOU","NAME":"Mountain Province","TYPE_EN":"Province"}},
{"type":"Feature","geometry":{"type":"Polygon","coordinates":[[[120.38059,15.168997],[120.556187,15.254211],[120.776329,15.259534],[120.750697,15.325938],[120.73323,15.538018],[120.642487,15.710773],[120.627294,15.818725],[120.490661,15.715682],[120.395163,15.752889],[120.246955,15.614034],[120.143809,15.40645],[120.163653,15.343198],[120.30814,15.273745],[120.38059,15.168997]]]},"properties":{"LOCATION_TYPE":"level1","ADM0_A3":"PHL","LOCATION_ID":"PHL-TAR","NAME":"Tarlac","TYPE_EN":"Province"}},
{"type":"Feature","geometry":{"type":"Polygon","coordinates":[[[120.938489,17.967069],[121.025616,17.838808],[121.084734,17.834726],[121.126798,17.68352],[121.428795,17.717627],[121.318414,17.84258],[121.461558,18.098327],[121.484709,18.185919],[121.457011,18.301932],[121.27852,18.411331],[121.125455,18.466832],[121.086801,18.53029],[120.957093,18.446781],[120.970839,18.193463],[120.938489,17.967069]]]},"properties":{"LOCATION_TYPE":"level1","ADM0_A3":"PHL","LOCATION_ID":"PHL-APA","NAME":"Apayao","TYPE_EN":"Province"}},
{"type":"Feature","geometry":{"type":"Polygon","coordinates":[[[121.428795,17.717627],[121.126798,17.68352],[121.1176,17.57562],[120.996884,17.461518],[120.983034,17.365969],[120.914821,17.249335],[121.194494,17.1681],[121.269218,17.191871],[121.424248,17.298324],[121.570595,17.250058],[121.652864,17.518156],[121.566358,17.563424],[121.428795,17.717627]]]},"properties":{"LOCATION_TYPE":"level1","ADM0_A3":"PHL","LOCATION_ID":"PHL-KAL","NAME":"Kalinga","TYPE_EN":"Province"}},
{"type":"Feature","geometry":{"type":"Polygon","coordinates":[[[120.938489,17.967069],[120.827798,17.943453],[120.618199,17.819016],[120.53903,17.703726],[120.4672,17.499242],[120.57262,17.491904],[120.533759,17.367312],[120.666051,17.267732],[120.754004,17.158488],[120.87379,17.182052],[120.914821,17.249335],[120.983034,17.365969],[120.996884,17.461518],[121.1176,17.57562],[121.126798,17.68352],[121.084734,17.834726],[121.025616,17.838808],[120.938489,17.967069]]]},"properties":{"LOCATION_TYPE":"level1","ADM0_A3":"PHL","LOCATION_ID":"PHL-ABR","NAME":"Abra","TYPE_EN":"Province"}},
{"type":"Feature","geometry":{"type":"Polygon","coordinates":[[[123.234248,13.568648],[123.293391,13.663277],[123.139619,13.619905],[123.234248,13.568648]]]},"properties":{"LOCATION_TYPE":"level1","ADM0_A3":"PHL","LOCATION_ID":"PHL-CAS","NAME":"Naga","TYPE_EN":"Independent Component City"}},
{"type":"Feature","geometry":{"type":"Polygon","coordinates":[[[120.59258,15.103226],[120.636958,15.116278],[120.636958,15.178929],[120.569086,15.176319],[120.59258,15.103226]]]},"properties":{"LOCATION_TYPE":"level1","ADM0_A3":"PHL","LOCATION_ID":"PHL-PAM","NAME":"Angeles","TYPE_EN":"Highly Urbanized City"}},
{"type":"Feature","geometry":{"type":"Polygon","coordinates":[[[120.652621,16.353641],[120.644789,16.431955],[120.563865,16.434565],[120.584748,16.358862],[120.652621,16.353641]]]},"properties":{"LOCATION_TYPE":"level1","ADM0_A3":"PHL","LOCATION_ID":"PHL-BEN","NAME":"Baguio","TYPE_EN":"Highly Urbanized City"}},
{"type":"Feature","geometry":{"type":"Polygon","coordinates":[[[121.032108,14.527489],[121.077433,14.534827],[121.080454,14.547777],[121.064483,14.564612],[121.026497,14.574972],[121.006209,14.557705],[121.032108,14.527489]]]},"properties":{"LOCATION_TYPE":"level1","ADM0_A3":"PHL","LOCATION_ID":"PHL-MNL","NAME":"Makati","TYPE_EN":"Highly Urbanized City"}},
{"type":"Feature","geometry":{"type":"Polygon","coordinates":[[[121.077433,14.534827],[121.091677,14.543029],[121.080454,14.547777],[121.077433,14.534827]]]},"properties":{"LOCATION_TYPE":"level1","ADM0_A3":"PHL","LOCATION_ID":"PHL-MNL","NAME":"Pateros","TYPE_EN":"Independent Municipality"}},
{"type":"Feature","geometry":{"type":"Polygon","coordinates":[[[121.026497,14.574972],[121.064483,14.564612],[121.071389,14.583605],[121.071389,14.593965],[121.037288,14.588785],[121.026497,14.574972]]]},"properties":{"LOCATION_TYPE":"level1","ADM0_A3":"PHL","LOCATION_ID":"PHL-MNL","NAME":"Mandaluyong City","TYPE_EN":"Province"}},
{"type":"Feature","geometry":{"type":"Polygon","coordinates":[[[121.071389,14.593965],[121.02995,14.597418],[121.037288,14.588785],[121.071389,14.593965]]]},"properties":{"LOCATION_TYPE":"level1","ADM0_A3":"PHL","LOCATION_ID":"PHL-MNL","NAME":"San Juan","TYPE_EN":"Highly Urbanized City"}}
]}