{"type":"FeatureCollection", "features": [
{"type":"Feature","geometry":{"type":"Polygon","coordinates":[[[134.271495,7.07453],[134.235688,7.00849],[134.279959,7.020494],[134.271495,7.07453]]]},"properties":{"LOCATION_TYPE":"level1","ADM0_A3":"PLW","LOCATION_ID":"PLW-350","NAME":"Peleliu","TYPE_EN":null}},
{"type":"Feature","geometry":{"type":"MultiPolygon","coordinates":[[[[134.463878,7.294257],[134.443858,7.287421],[134.401703,7.246487],[134.463878,7.263577],[134.463878,7.294257]]],[[[134.471365,7.362494],[134.511892,7.30858],[134.527354,7.331529],[134.471365,7.362494]]]]},"properties":{"LOCATION_TYPE":"level1","ADM0_A3":"PLW","LOCATION_ID":"PLW-150","NAME":"Koror","TYPE_EN":null}},
{"type":"Feature","geometry":{"type":"Polygon","coordinates":[[[134.528331,7.516099],[134.544254,7.523527],[134.580679,7.474026],[134.594689,7.51232],[134.607765,7.542207],[134.619907,7.573029],[134.54713,7.58039],[134.511567,7.527655],[134.528331,7.516099]]]},"properties":{"LOCATION_TYPE":"level1","ADM0_A3":"PLW","LOCATION_ID":"PLW-227","NAME":"Ngeremlengui","TYPE_EN":null}},
{"type":"Feature","geometry":{"type":"Polygon","coordinates":[[[134.487559,7.469916],[134.542386,7.46095],[134.565735,7.431996],[134.580679,7.474026],[134.544254,7.523527],[134.528331,7.516099],[134.538829,7.499701],[134.487559,7.469916]]]},"properties":{"LOCATION_TYPE":"level1","ADM0_A3":"PLW","LOCATION_ID":"PLW-224","NAME":"Ngatpang","TYPE_EN":null}},
{"type":"Feature","geometry":{"type":"Polygon","coordinates":[[[134.510531,7.404173],[134.530244,7.397439],[134.565735,7.431996],[134.542386,7.46095],[134.487559,7.469916],[134.510531,7.404173]]]},"properties":{"LOCATION_TYPE":"level1","ADM0_A3":"PLW","LOCATION_ID":"PLW-002","NAME":"Aimeliik","TYPE_EN":null}},
{"type":"Feature","geometry":{"type":"Polygon","coordinates":[[[134.594249,7.421129],[134.565735,7.431996],[134.530244,7.397439],[134.510531,7.404173],[134.523774,7.361029],[134.601085,7.383612],[134.594249,7.421129]]]},"properties":{"LOCATION_TYPE":"level1","ADM0_A3":"PLW","LOCATION_ID":"PLW-004","NAME":"Airai","TYPE_EN":null}},
{"type":"Feature","geometry":{"type":"Polygon","coordinates":[[[134.628194,7.489009],[134.594689,7.51232],[134.580679,7.474026],[134.565735,7.431996],[134.594249,7.421129],[134.628194,7.489009]]]},"properties":{"LOCATION_TYPE":"level1","ADM0_A3":"PLW","LOCATION_ID":"PLW-226","NAME":"Ngchesar","TYPE_EN":null}},
{"type":"Feature","geometry":{"type":"Polygon","coordinates":[[[134.625743,7.530504],[134.607765,7.542207],[134.594689,7.51232],[134.628194,7.489009],[134.625743,7.530504]]]},"properties":{"LOCATION_TYPE":"level1","ADM0_A3":"PLW","LOCATION_ID":"PLW-212","NAME":"Melekeok","TYPE_EN":null}},
{"type":"Feature","geometry":{"type":"Polygon","coordinates":[[[134.658214,7.591051],[134.623643,7.600115],[134.619907,7.573029],[134.607765,7.542207],[134.625743,7.530504],[134.658214,7.591051]]]},"properties":{"LOCATION_TYPE":"level1","ADM0_A3":"PLW","LOCATION_ID":"PLW-228","NAME":"Ngiwal","TYPE_EN":null}},
{"type":"Feature","geometry":{"type":"Polygon","coordinates":[[[134.660167,7.686021],[134.635142,7.684075],[134.640961,7.645982],[134.622949,7.6259],[134.623643,7.600115],[134.658214,7.591051],[134.660167,7.686021]]]},"properties":{"LOCATION_TYPE":"level1","ADM0_A3":"PLW","LOCATION_ID":"PLW-214","NAME":"Ngaraard","TYPE_EN":null}},
{"type":"Feature","geometry":{"type":"Polygon","coordinates":[[[134.635142,7.684075],[134.660167,7.686021],[134.643321,7.726467],[134.623709,7.717963],[134.635142,7.684075]]]},"properties":{"LOCATION_TYPE":"level1","ADM0_A3":"PLW","LOCATION_ID":"PLW-218","NAME":"Ngarchelong","TYPE_EN":null}},
{"type":"Feature","geometry":{"type":"Polygon","coordinates":[[[134.54713,7.58039],[134.619907,7.573029],[134.623643,7.600115],[134.622949,7.6259],[134.569102,7.613715],[134.54713,7.58039]]]},"properties":{"LOCATION_TYPE":"level1","ADM0_A3":"PLW","LOCATION_ID":"PLW-222","NAME":"Ngardmau","TYPE_EN":null}},
{"type":"Feature","geometry":{"type":"Polygon","coordinates":[[[131.1421,3.047309],[131.138438,3.018948],[131.180431,3.033271],[131.183604,3.060289],[131.1421,3.047309]]]},"properties":{"LOCATION_TYPE":"level1","ADM0_A3":"PLW","LOCATION_ID":"PLW-050","NAME":"Hatobohei","TYPE_EN":null}},
{"type":"Feature","geometry":{"type":"Polygon","coordinates":[[[132.220388,5.292222],[132.226736,5.304348],[132.213878,5.307115],[132.220388,5.292222]]]},"properties":{"LOCATION_TYPE":"level1","ADM0_A3":"PLW","LOCATION_ID":"PLW-370","NAME":"Sonsorol","TYPE_EN":null}},
{"type":"Feature","geometry":{"type":"Polygon","coordinates":[[[134.159679,6.884467],[134.173188,6.924872],[134.136729,6.919094],[134.159679,6.884467]]]},"properties":{"LOCATION_TYPE":"level1","ADM0_A3":"PLW","LOCATION_ID":"PLW-010","NAME":"Angaur","TYPE_EN":null}},
{"type":"Feature","geometry":{"type":"Polygon","coordinates":[[[134.709676,8.096618],[134.692814,8.075539],[134.718108,8.058676],[134.727343,8.082879],[134.709676,8.096618]]]},"properties":{"LOCATION_TYPE":"level1","ADM0_A3":"PLW","LOCATION_ID":"PLW-100","NAME":"Kayangel","TYPE_EN":null}}
]}