{"type":"FeatureCollection", "features": [
{"type":"Feature","geometry":{"type":"Polygon","coordinates":[[[140.976871,-4.988486],[142.208922,-5.406853],[142.292845,-5.351973],[142.357234,-5.16294],[142.323592,-4.96781],[142.298736,-4.677699],[142.19621,-4.618322],[141.494857,-4.613206],[141.367837,-4.587988],[141.338278,-4.499002],[141.33559,-4.332138],[141.364323,-4.258861],[141.715619,-4.021563],[141.848324,-4.085177],[142.457486,-4.075306],[142.512728,-4.062129],[142.638767,-3.826588],[142.604609,-3.71569],[142.602593,-3.555493],[142.663726,-3.439738],[142.756072,-3.410024],[142.997194,-3.513894],[143.078326,-3.488779],[143.085134,-3.353123],[143.029307,-3.355564],[142.501964,-3.196059],[142.181895,-3.080173],[142.000011,-2.955987],[141.905528,-2.967218],[141.576182,-2.794041],[141.338227,-2.701837],[141.27589,-2.642348],[141.042979,-2.589776],[140.974457,-2.600518],[140.973545,-3.800025],[140.976871,-4.988486]]]},"properties":{"LOCATION_TYPE":"level1","ADM0_A3":"PNG","LOCATION_ID":"PNG-SAN","NAME":"Sandaun","TYPE_EN":"Province"}},
{"type":"Feature","geometry":{"type":"MultiPolygon","coordinates":[[[[140.976871,-4.988486],[140.976904,-5.621154],[140.976904,-6.335116],[140.943469,-6.507509],[140.859288,-6.608381],[140.849211,-6.702846],[140.916029,-6.862732],[140.977162,-6.896632],[140.976904,-7.962097],[140.97698,-9.106134],[141.115001,-9.218438],[141.231944,-9.21266],[141.310069,-9.152114],[141.421723,-9.150323],[141.51002,-9.21502],[141.634939,-9.232029],[141.78297,-9.199884],[141.868419,-9.220392],[142.223399,-9.161228],[142.465099,-9.240492],[142.577322,-9.323826],[142.652599,-9.330255],[142.940603,-9.179376],[143.052745,-9.093357],[143.17335,-9.042901],[143.314789,-9.023533],[143.405528,-8.962172],[143.399913,-8.782159],[143.261567,-8.59238],[143.131602,-8.486017],[142.899669,-8.412856],[142.980479,-8.335626],[143.337901,-8.247735],[143.592052,-8.241957],[143.627615,-8.186293],[143.548025,-8.031671],[143.65089,-7.981378],[143.767345,-8.040216],[143.942877,-7.991556],[143.00231,-7.038226],[142.998745,-6.836998],[142.813795,-6.83705],[142.68016,-6.8093],[142.655045,-6.711631],[142.649464,-5.991985],[142.537584,-5.857162],[142.200706,-5.531083],[142.208922,-5.406853],[140.976871,-4.988486]]],[[[143.608409,-8.638116],[143.474864,-8.525323],[143.412283,-8.595636],[143.608409,-8.638116]]],[[[143.379405,-8.425958],[143.530121,-8.485528],[143.573741,-8.373712],[143.37322,-8.37127],[143.379405,-8.425958]]]]},"properties":{"LOCATION_TYPE":"level1","ADM0_A3":"PNG","LOCATION_ID":"PNG-WPD","NAME":"Western","TYPE_EN":"Province"}},
{"type":"Feature","geometry":{"type":"Polygon","coordinates":[[[143.085134,-3.353123],[143.078326,-3.488779],[142.997194,-3.513894],[142.756072,-3.410024],[142.663726,-3.439738],[142.602593,-3.555493],[142.604609,-3.71569],[142.638767,-3.826588],[142.512728,-4.062129],[142.457486,-4.075306],[141.848324,-4.085177],[141.715619,-4.021563],[141.364323,-4.258861],[141.33559,-4.332138],[141.338278,-4.499002],[141.367837,-4.587988],[141.494857,-4.613206],[142.19621,-4.618322],[142.298736,-4.677699],[142.323592,-4.96781],[142.708737,-4.985535],[142.763204,-5.019693],[142.900818,-5.060724],[143.063909,-5.07199],[143.182144,-5.043981],[143.968556,-4.980729],[144.046949,-4.966312],[144.445581,-4.668862],[144.563507,-4.480243],[144.581706,-3.995777],[144.513438,-3.81756],[144.354991,-3.798028],[144.203624,-3.837823],[143.99586,-3.793145],[143.818044,-3.621677],[143.618663,-3.544854],[143.477875,-3.420587],[143.085134,-3.353123]]]},"properties":{"LOCATION_TYPE":"level1","ADM0_A3":"PNG","LOCATION_ID":"PNG-ESW","NAME":"East Sepik","TYPE_EN":"Province"}},
{"type":"Feature","geometry":{"type":"MultiPolygon","coordinates":[[[[144.581706,-3.995777],[144.563507,-4.480243],[144.445581,-4.668862],[144.046949,-4.966312],[143.968556,-4.980729],[143.981941,-5.022484],[144.160689,-5.138704],[144.247247,-5.262676],[144.358662,-5.246708],[144.504544,-5.29978],[144.724428,-5.483954],[144.82344,-5.53377],[145.038,-5.787657],[145.166364,-5.874525],[145.349609,-5.858247],[145.437149,-5.950438],[145.563911,-5.919845],[145.818521,-5.961186],[145.867872,-5.996326],[146.480341,-5.998755],[146.793386,-5.816176],[146.656586,-5.749119],[146.460948,-5.599298],[146.284923,-5.582615],[145.956309,-5.474705],[145.759613,-5.476983],[145.727387,-5.422459],[145.784516,-5.239353],[145.810802,-5.066502],[145.785411,-4.968683],[145.81186,-4.861017],[145.690196,-4.768243],[145.345714,-4.390232],[145.181326,-4.390232],[145.050955,-4.341892],[144.867849,-4.099216],[144.730317,-4.026056],[144.581706,-3.995777]]],[[[147.209646,-5.269952],[147.133962,-5.190851],[147.018077,-5.24391],[147.010427,-5.334893],[147.127208,-5.443292],[147.227306,-5.409601],[147.209646,-5.269952]]],[[[145.996837,-4.534275],[145.906505,-4.590509],[145.875743,-4.686782],[145.93922,-4.760919],[146.044688,-4.701104],[146.048106,-4.585138],[145.996837,-4.534275]]]]},"properties":{"LOCATION_TYPE":"level1","ADM0_A3":"PNG","LOCATION_ID":"PNG-MPM","NAME":"Madang","TYPE_EN":"Province"}},
{"type":"Feature","geometry":{"type":"MultiPolygon","coordinates":[[[[146.793386,-5.816176],[146.480341,-5.998755],[145.867872,-5.996326],[145.935051,-6.089602],[146.113387,-6.199001],[146.128735,-6.249127],[146.039179,-6.674993],[145.991069,-6.749872],[146.015305,-6.883766],[145.932261,-6.984741],[145.846323,-7.236819],[146.033133,-7.441148],[146.095507,-7.536439],[146.410991,-7.626718],[146.625603,-7.771153],[146.708131,-7.826757],[146.742134,-7.958739],[146.991783,-8.000183],[147.977379,-8.004058],[147.876475,-7.937188],[147.726817,-7.932061],[147.68336,-7.810724],[147.606944,-7.816502],[147.581309,-7.703709],[147.354503,-7.515313],[147.230154,-7.486912],[147.161876,-7.390558],[147.141368,-7.213067],[147.069102,-7.146173],[147.058279,-7.054864],[146.956228,-6.954685],[146.942149,-6.835707],[146.977306,-6.740411],[147.132091,-6.711033],[147.194835,-6.738539],[147.775645,-6.717869],[147.854015,-6.691013],[147.867524,-6.476332],[147.826671,-6.335382],[147.726248,-6.272231],[147.621755,-6.106622],[147.449067,-5.961602],[147.289073,-5.931329],[147.243826,-5.966078],[147.042247,-5.938653],[146.932872,-5.841974],[146.793386,-5.816176]]],[[[148.049164,-5.606134],[147.781912,-5.495294],[147.769054,-5.611749],[147.895763,-5.770685],[148.024587,-5.841974],[148.067638,-5.74684],[148.049164,-5.606134]]]]},"properties":{"LOCATION_TYPE":"level1","ADM0_A3":"PNG","LOCATION_ID":"PNG-MPL","NAME":"Morobe","TYPE_EN":"Province"}},
{"type":"Feature","geometry":{"type":"Polygon","coordinates":[[[147.977379,-8.004058],[146.991783,-8.000183],[147.300704,-8.286781],[147.466276,-8.372667],[147.556761,-8.449923],[147.618824,-8.561596],[147.510201,-8.753367],[147.50586,-8.84871],[147.695047,-9.069782],[147.749049,-9.167657],[147.812921,-9.16559],[148.02898,-9.423094],[148.027895,-9.539883],[148.297543,-9.74726],[148.390199,-9.754908],[148.542437,-9.858519],[148.820508,-9.960064],[148.982566,-9.909266],[148.956262,-9.785501],[148.993211,-9.69269],[149.10199,-9.704369],[149.461355,-9.594089],[149.334239,-9.515802],[149.226573,-9.486749],[149.182872,-9.368097],[149.306651,-9.117446],[149.318044,-9.022556],[149.243663,-8.997166],[148.891612,-9.051039],[148.758311,-9.103692],[148.621104,-9.083754],[148.559255,-9.032485],[148.496349,-8.882989],[148.486827,-8.747247],[148.436778,-8.666192],[148.237559,-8.569268],[148.210785,-8.306085],[148.114024,-8.055352],[147.977379,-8.004058]]]},"properties":{"LOCATION_TYPE":"level1","ADM0_A3":"PNG","LOCATION_ID":"PNG-NPP","NAME":"Northern","TYPE_EN":"Province"}},
{"type":"Feature","geometry":{"type":"MultiPolygon","coordinates":[[[[149.461355,-9.594089],[149.10199,-9.704369],[148.993211,-9.69269],[148.956262,-9.785501],[149.068762,-9.773563],[149.267096,-9.838107],[149.329108,-9.923425],[149.653636,-10.090547],[149.678286,-10.336452],[149.748383,-10.338311],[149.940278,-10.440606],[150.067393,-10.639907],[150.211274,-10.701349],[150.319347,-10.662042],[150.415701,-10.681899],[150.692882,-10.556736],[150.647309,-10.476983],[150.346934,-10.36533],[150.399913,-10.300226],[150.615408,-10.344496],[150.587657,-10.244724],[150.457774,-10.197035],[150.301036,-10.179295],[150.196788,-10.095147],[149.939464,-10.062433],[149.725352,-9.847833],[149.730968,-9.80934],[150.055919,-9.71502],[150.012218,-9.642185],[149.730968,-9.597833],[149.619884,-9.620864],[149.461355,-9.594089]]],[[[153.761567,-11.58587],[153.695649,-11.521254],[153.547862,-11.484633],[153.257823,-11.353448],[153.271739,-11.453302],[153.390636,-11.504978],[153.435557,-11.578383],[153.608246,-11.612563],[153.761567,-11.58587]]],[[[154.281749,-11.34824],[154.216319,-11.310805],[154.091156,-11.320571],[154.096202,-11.429132],[154.281749,-11.34824]]],[[[151.177013,-9.954685],[151.127615,-10.042169],[151.035411,-9.984552],[150.917003,-9.830499],[150.882335,-9.903009],[150.958018,-10.104913],[151.156586,-10.146417],[151.211925,-10.1867],[151.300629,-9.967706],[151.177013,-9.954685]]],[[[150.800955,-9.652439],[150.930919,-9.652439],[150.888357,-9.521417],[150.759451,-9.399184],[150.673839,-9.438653],[150.505544,-9.33766],[150.426931,-9.418715],[150.549327,-9.623224],[150.656993,-9.659275],[150.800955,-9.652439]]],[[[150.368907,-9.37184],[150.334239,-9.282485],[150.214529,-9.205824],[150.142345,-9.247735],[150.108246,-9.361017],[150.171641,-9.435642],[150.335216,-9.471287],[150.368907,-9.37184]]],[[[152.995469,-9.141299],[152.794171,-9.003497],[152.599356,-8.988879],[152.598097,-9.068639],[152.811554,-9.254673],[152.894272,-9.250229],[152.995469,-9.141299]]],[[[151.112559,-8.76865],[151.138357,-8.59059],[151.04363,-8.443292],[150.999034,-8.518162],[151.122406,-8.58294],[151.045421,-8.732843],[151.112559,-8.76865]]]]},"properties":{"LOCATION_TYPE":"level1","ADM0_A3":"PNG","LOCATION_ID":"PNG-MBA","NAME":"Milne Bay","TYPE_EN":"Province"}},
{"type":"Feature","geometry":{"type":"Polygon","coordinates":[[[149.678286,-10.336452],[149.653636,-10.090547],[149.329108,-9.923425],[149.267096,-9.838107],[149.068762,-9.773563],[148.956262,-9.785501],[148.982566,-9.909266],[148.820508,-9.960064],[148.542437,-9.858519],[148.390199,-9.754908],[148.297543,-9.74726],[148.027895,-9.539883],[148.02898,-9.423094],[147.812921,-9.16559],[147.749049,-9.167657],[147.695047,-9.069782],[147.50586,-8.84871],[147.510201,-8.753367],[147.618824,-8.561596],[147.556761,-8.449923],[147.466276,-8.372667],[147.300704,-8.286781],[146.991783,-8.000183],[146.742134,-7.958739],[146.708131,-7.826757],[146.625603,-7.771153],[146.408046,-7.937396],[146.393576,-7.99083],[146.389751,-8.584398],[146.435313,-8.61061],[146.575857,-8.821954],[146.558442,-8.940525],[146.626801,-9.023045],[146.778331,-9.056573],[146.914887,-9.1242],[146.915863,-9.260349],[146.966075,-9.279067],[147.052745,-9.460219],[147.099946,-9.481703],[147.172857,-9.381029],[147.258071,-9.409503],[147.286778,-9.521265],[147.490977,-9.767673],[147.517589,-9.879002],[147.621267,-9.988865],[147.761729,-10.059747],[147.879649,-10.052179],[147.977387,-10.166274],[148.018321,-10.12477],[148.231293,-10.105645],[148.402029,-10.200453],[148.537852,-10.172296],[148.978038,-10.276137],[149.067393,-10.234633],[149.460623,-10.352309],[149.678286,-10.336452]]]},"properties":{"LOCATION_TYPE":"level1","ADM0_A3":"PNG","LOCATION_ID":"PNG-CPM","NAME":"Central","TYPE_EN":"Province"}},
{"type":"Feature","geometry":{"type":"Polygon","coordinates":[[[147.286778,-9.521265],[147.258071,-9.409503],[147.172857,-9.381029],[147.099946,-9.481703],[147.286778,-9.521265]]]},"properties":{"LOCATION_TYPE":"level1","ADM0_A3":"PNG","LOCATION_ID":"PNG-NCD","NAME":"National Capital District","TYPE_EN":"Province"}},
{"type":"Feature","geometry":{"type":"Polygon","coordinates":[[[146.389751,-8.584398],[146.393576,-7.99083],[146.408046,-7.937396],[146.625603,-7.771153],[146.410991,-7.626718],[146.095507,-7.536439],[146.033133,-7.441148],[145.846323,-7.236819],[145.302428,-6.875239],[144.927516,-6.737521],[144.714609,-6.738555],[143.684594,-6.835758],[142.998745,-6.836998],[143.00231,-7.038226],[143.942877,-7.991556],[143.856212,-7.808282],[143.840831,-7.720147],[143.924327,-7.694268],[144.214854,-7.795994],[144.242198,-7.726332],[144.355317,-7.686782],[144.431326,-7.612237],[144.555186,-7.606866],[144.629405,-7.656345],[144.699474,-7.616795],[144.866222,-7.705743],[144.879568,-7.781671],[145.321625,-7.861993],[145.465587,-7.945489],[145.613292,-7.93255],[145.880707,-8.041681],[145.996837,-8.049086],[146.102794,-8.100274],[146.116547,-8.200128],[146.221934,-8.260431],[146.277192,-8.435235],[146.389751,-8.584398]]]},"properties":{"LOCATION_TYPE":"level1","ADM0_A3":"PNG","LOCATION_ID":"PNG-GPK","NAME":"Gulf","TYPE_EN":"Province"}},
{"type":"Feature","geometry":{"type":"MultiPolygon","coordinates":[[[[155.933442,-6.640802],[155.916759,-6.517511],[155.813324,-6.364841],[155.713878,-6.279229],[155.452159,-6.13714],[155.403819,-6.006036],[155.278982,-5.883559],[155.203949,-5.853611],[155.192149,-5.765883],[155.069347,-5.552179],[154.770356,-5.55877],[154.700206,-5.76686],[154.74879,-5.834731],[154.75587,-5.947849],[154.959646,-6.130629],[154.978689,-6.192966],[155.181651,-6.291681],[155.23463,-6.363377],[155.187266,-6.554457],[155.36085,-6.745864],[155.523611,-6.839125],[155.717784,-6.872817],[155.816417,-6.782159],[155.878184,-6.801528],[155.933442,-6.640802]]],[[[154.727387,-5.211358],[154.679047,-5.046563],[154.582693,-5.140313],[154.573904,-5.290704],[154.631847,-5.45908],[154.688731,-5.427341],[154.727387,-5.211358]]]]},"properties":{"LOCATION_TYPE":"level1","ADM0_A3":"PNG","LOCATION_ID":"PNG-NSB","NAME":"North Solomons","TYPE_EN":"Province"}},
{"type":"Feature","geometry":{"type":"Polygon","coordinates":[[[150.771289,-6.129787],[150.757496,-6.080455],[150.598591,-5.89101],[150.603759,-5.803676],[150.973193,-5.703217],[150.990608,-5.603275],[151.080267,-5.621517],[151.246768,-5.464886],[151.166515,-5.422769],[151.248474,-5.236838],[151.356788,-5.068321],[151.4589,-5.017678],[151.673977,-5.009461],[151.647716,-4.948989],[151.388031,-4.914483],[151.252778,-4.992852],[151.082856,-5.163832],[151.033376,-5.258884],[151.022227,-5.390313],[150.875499,-5.493097],[150.809581,-5.443292],[150.719005,-5.534112],[150.633962,-5.556736],[150.59254,-5.486993],[150.42335,-5.456638],[150.306895,-5.561456],[150.142345,-5.534112],[150.058116,-5.342869],[150.06186,-5.181085],[150.181977,-5.102472],[150.156586,-5.020196],[150.034923,-5.034356],[150.014415,-5.247491],[149.916515,-5.349216],[149.980235,-5.438084],[149.872813,-5.527602],[149.799815,-5.506931],[149.718435,-5.568943],[149.614919,-5.513604],[149.390473,-5.587335],[149.224376,-5.599298],[149.199962,-5.565199],[148.978038,-5.465265],[148.832774,-5.533868],[148.651866,-5.48089],[148.556407,-5.539972],[148.429942,-5.444757],[148.342052,-5.533298],[148.324718,-5.646417],[148.386241,-5.775079],[148.551524,-5.837009],[148.621104,-5.807875],[148.771983,-5.873305],[148.853852,-5.97975],[149.012055,-6.027602],[149.141856,-6.14422],[149.30421,-6.058689],[149.464041,-6.102634],[149.629405,-6.299249],[149.911388,-6.294854],[150.054047,-6.257745],[150.27296,-6.295017],[150.465099,-6.274021],[150.588064,-6.178399],[150.771289,-6.129787]]]},"properties":{"LOCATION_TYPE":"level1","ADM0_A3":"PNG","LOCATION_ID":"PNG-WBK","NAME":"West New Britain","TYPE_EN":"Province"}},
{"type":"Feature","geometry":{"type":"Polygon","coordinates":[[[151.647716,-4.948989],[151.673977,-5.009461],[151.4589,-5.017678],[151.356788,-5.068321],[151.248474,-5.236838],[151.166515,-5.422769],[151.246768,-5.464886],[151.080267,-5.621517],[150.990608,-5.603275],[150.973193,-5.703217],[150.603759,-5.803676],[150.598591,-5.89101],[150.757496,-6.080455],[150.771289,-6.129787],[150.880382,-6.053888],[151.208507,-5.942804],[151.355479,-5.834161],[151.465099,-5.684991],[151.479015,-5.52988],[151.739431,-5.534112],[151.785981,-5.584893],[151.97169,-5.534112],[152.098888,-5.455743],[152.150401,-5.369724],[152.123057,-5.290785],[151.987966,-5.163995],[151.992686,-4.971775],[152.136729,-4.999119],[152.29184,-4.935479],[152.386404,-4.791192],[152.411632,-4.68377],[152.365245,-4.472101],[152.414561,-4.360447],[152.177908,-4.296808],[152.136729,-4.204685],[151.964692,-4.331231],[151.882091,-4.305108],[151.817149,-4.213962],[151.540294,-4.17669],[151.507335,-4.229181],[151.553884,-4.396417],[151.609141,-4.451755],[151.695649,-4.81878],[151.647716,-4.948989]]]},"properties":{"LOCATION_TYPE":"level1","ADM0_A3":"PNG","LOCATION_ID":"PNG-EBR","NAME":"East New Britain","TYPE_EN":"Province"}},
{"type":"Feature","geometry":{"type":"MultiPolygon","coordinates":[[[[153.137218,-4.269464],[153.066661,-4.189874],[152.956309,-3.99863],[152.871104,-3.990899],[152.777599,-3.897393],[152.575206,-3.818129],[152.492931,-3.642836],[152.424653,-3.656508],[152.363292,-3.543227],[152.217459,-3.456964],[152.052501,-3.246677],[151.828136,-3.190362],[151.686778,-3.06699],[151.437348,-2.908868],[151.216319,-2.869236],[151.170421,-2.785089],[151.022309,-2.699151],[150.893321,-2.675226],[150.794932,-2.729099],[151.090587,-2.832696],[151.430431,-3.053318],[151.473888,-3.117608],[151.612478,-3.166192],[151.809093,-3.361098],[151.98406,-3.458917],[152.171072,-3.490167],[152.288585,-3.569757],[152.359874,-3.694106],[152.518891,-3.854669],[152.687836,-4.163832],[152.703868,-4.289972],[152.671153,-4.451755],[152.732595,-4.649591],[152.87379,-4.788832],[152.980235,-4.759454],[153.075206,-4.601821],[153.054047,-4.452325],[153.137218,-4.375909],[153.137218,-4.269464]]],[[[150.465099,-2.532485],[150.447276,-2.48447],[150.207856,-2.37477],[149.99464,-2.466485],[150.186778,-2.679457],[150.451345,-2.65838],[150.465099,-2.532485]]],[[[149.735037,-1.473565],[149.627615,-1.35711],[149.541026,-1.464451],[149.667003,-1.57586],[149.78419,-1.560235],[149.735037,-1.473565]]]]},"properties":{"LOCATION_TYPE":"level1","ADM0_A3":"PNG","LOCATION_ID":"PNG-NIK","NAME":"New Ireland","TYPE_EN":"Province"}},
{"type":"Feature","geometry":{"type":"Polygon","coordinates":[[[147.432791,-1.983819],[147.422618,-2.045831],[147.110037,-1.963311],[146.869802,-1.947035],[146.78061,-1.980564],[146.65211,-1.964451],[146.580089,-2.020278],[146.64796,-2.169366],[146.954926,-2.194757],[147.130707,-2.16253],[147.216482,-2.183038],[147.281993,-2.08115],[147.431163,-2.060805],[147.432791,-1.983819]]]},"properties":{"LOCATION_TYPE":"level1","ADM0_A3":"PNG","LOCATION_ID":"PNG-MRL","NAME":"Manus","TYPE_EN":"Province"}},
{"type":"Feature","geometry":{"type":"Polygon","coordinates":[[[145.038,-5.787657],[144.795948,-5.801144],[144.80649,-5.942118],[144.720552,-6.001597],[144.741016,-6.12252],[144.696936,-6.25228],[144.605055,-6.394441],[144.539943,-6.367776],[144.464185,-6.464411],[144.457157,-6.571795],[144.544077,-6.589262],[144.59627,-6.673132],[144.714609,-6.738555],[144.927516,-6.737521],[145.302428,-6.875239],[145.341392,-6.741035],[145.207912,-6.677732],[144.986324,-6.461259],[145.060324,-6.411598],[145.163677,-6.409893],[145.254318,-6.31579],[145.236334,-6.143759],[145.150035,-6.063867],[145.166364,-5.874525],[145.038,-5.787657]]]},"properties":{"LOCATION_TYPE":"level1","ADM0_A3":"PNG","LOCATION_ID":"PNG-CPK","NAME":"Chimbu","TYPE_EN":"Province"}},
{"type":"Feature","geometry":{"type":"Polygon","coordinates":[[[143.968556,-4.980729],[143.182144,-5.043981],[143.063909,-5.07199],[142.900818,-5.060724],[142.763204,-5.019693],[142.788628,-5.5054],[142.894152,-5.640637],[143.248135,-5.777528],[143.441922,-5.934263],[143.521193,-5.96253],[143.699787,-5.922171],[143.804845,-5.936433],[143.771979,-5.867704],[143.977703,-5.783471],[144.083226,-5.715],[144.109943,-5.567308],[144.056716,-5.41724],[144.215466,-5.334609],[144.247247,-5.262676],[144.160689,-5.138704],[143.981941,-5.022484],[143.968556,-4.980729]]]},"properties":{"LOCATION_TYPE":"level1","ADM0_A3":"PNG","LOCATION_ID":"PNG-EPW","NAME":"Enga","TYPE_EN":"Province"}},
{"type":"Feature","geometry":{"type":"Polygon","coordinates":[[[145.038,-5.787657],[144.82344,-5.53377],[144.724428,-5.483954],[144.504544,-5.29978],[144.358662,-5.246708],[144.247247,-5.262676],[144.215466,-5.334609],[144.056716,-5.41724],[144.109943,-5.567308],[144.083226,-5.715],[143.977703,-5.783471],[143.771979,-5.867704],[143.804845,-5.936433],[143.928507,-6.015601],[144.013256,-6.017772],[144.539943,-6.367776],[144.605055,-6.394441],[144.696936,-6.25228],[144.741016,-6.12252],[144.720552,-6.001597],[144.80649,-5.942118],[144.795948,-5.801144],[145.038,-5.787657]]]},"properties":{"LOCATION_TYPE":"level1","ADM0_A3":"PNG","LOCATION_ID":"PNG-WHM","NAME":"Western Highlands","TYPE_EN":"Province"}},
{"type":"Feature","geometry":{"type":"Polygon","coordinates":[[[142.323592,-4.96781],[142.357234,-5.16294],[142.292845,-5.351973],[142.208922,-5.406853],[142.200706,-5.531083],[142.537584,-5.857162],[142.649464,-5.991985],[142.655045,-6.711631],[142.68016,-6.8093],[142.813795,-6.83705],[142.998745,-6.836998],[143.684594,-6.835758],[144.714609,-6.738555],[144.59627,-6.673132],[144.544077,-6.589262],[144.457157,-6.571795],[144.464185,-6.464411],[144.539943,-6.367776],[144.013256,-6.017772],[143.928507,-6.015601],[143.804845,-5.936433],[143.699787,-5.922171],[143.521193,-5.96253],[143.441922,-5.934263],[143.248135,-5.777528],[142.894152,-5.640637],[142.788628,-5.5054],[142.763204,-5.019693],[142.708737,-4.985535],[142.323592,-4.96781]]]},"properties":{"LOCATION_TYPE":"level1","ADM0_A3":"PNG","LOCATION_ID":"PNG-SHM","NAME":"Southern Highlands","TYPE_EN":"Province"}},
{"type":"Feature","geometry":{"type":"Polygon","coordinates":[[[145.867872,-5.996326],[145.818521,-5.961186],[145.563911,-5.919845],[145.437149,-5.950438],[145.349609,-5.858247],[145.166364,-5.874525],[145.150035,-6.063867],[145.236334,-6.143759],[145.254318,-6.31579],[145.163677,-6.409893],[145.060324,-6.411598],[144.986324,-6.461259],[145.207912,-6.677732],[145.341392,-6.741035],[145.302428,-6.875239],[145.846323,-7.236819],[145.932261,-6.984741],[146.015305,-6.883766],[145.991069,-6.749872],[146.039179,-6.674993],[146.128735,-6.249127],[146.113387,-6.199001],[145.935051,-6.089602],[145.867872,-5.996326]]]},"properties":{"LOCATION_TYPE":"level1","ADM0_A3":"PNG","LOCATION_ID":"PNG-EHG","NAME":"Eastern Highlands","TYPE_EN":"Province"}}
]}