{"type":"FeatureCollection", "features": [
{"type":"Feature","geometry":{"type":"Polygon","coordinates":[[[19.44887,49.600358],[19.436364,49.709886],[19.298905,49.748282],[19.112353,49.920209],[19.405048,50.175026],[19.501683,50.361138],[19.839234,50.394289],[19.956333,50.484464],[19.750557,50.804289],[19.507885,50.842323],[19.354302,50.971359],[19.108012,50.968517],[18.911435,51.037118],[18.655637,50.995234],[18.357464,50.419455],[18.362838,50.210915],[18.079961,50.1357],[18.019074,50.044087],[18.481797,49.896645],[18.637343,49.700327],[18.773458,49.675832],[18.962284,49.389183],[19.172504,49.402257],[19.248675,49.516255],[19.44887,49.600358]]]},"properties":{"LOCATION_TYPE":"level1","ADM0_A3":"POL","LOCATION_ID":"POL-SL","NAME":"Silesian","TYPE_EN":"Voivodeship|Province"}},
{"type":"Feature","geometry":{"type":"Polygon","coordinates":[[[19.44887,49.600358],[19.627044,49.401868],[19.769263,49.39311],[19.751797,49.219064],[20.07002,49.183097],[20.130171,49.303917],[20.329539,49.391767],[20.689517,49.4005],[20.942422,49.295855],[21.053526,49.414453],[21.274391,49.447267],[21.514422,49.417213],[21.42632,49.69968],[21.258579,49.771536],[21.345498,49.863546],[21.227986,49.948244],[21.216204,50.2382],[21.295269,50.410799],[21.181271,50.337496],[20.771063,50.274399],[20.633501,50.174405],[20.428655,50.204998],[20.284581,50.398629],[19.956333,50.484464],[19.839234,50.394289],[19.501683,50.361138],[19.405048,50.175026],[19.112353,49.920209],[19.298905,49.748282],[19.436364,49.709886],[19.44887,49.600358]]]},"properties":{"LOCATION_TYPE":"level1","ADM0_A3":"POL","LOCATION_ID":"POL-MA","NAME":"Lesser Poland","TYPE_EN":"Voivodeship|Province"}},
{"type":"Feature","geometry":{"type":"Polygon","coordinates":[[[21.514422,49.417213],[21.819577,49.377246],[22.012434,49.211054],[22.390085,49.093025],[22.744482,49.045535],[22.724225,49.367065],[22.640922,49.528761],[23.101463,49.957107],[23.658677,50.327005],[23.462579,50.42147],[23.305482,50.415838],[23.158411,50.322691],[22.858068,50.317136],[22.594931,50.362068],[22.612088,50.568102],[22.221517,50.659647],[22.262445,50.759899],[21.976364,50.772819],[21.844279,50.829766],[21.840455,50.739901],[21.594889,50.524539],[21.295269,50.410799],[21.216204,50.2382],[21.227986,49.948244],[21.345498,49.863546],[21.258579,49.771536],[21.42632,49.69968],[21.514422,49.417213]]]},"properties":{"LOCATION_TYPE":"level1","ADM0_A3":"POL","LOCATION_ID":"POL-PK","NAME":"Subcarpathian","TYPE_EN":"Voivodeship|Province"}},
{"type":"Feature","geometry":{"type":"Polygon","coordinates":[[[14.950648,51.396539],[15.019476,51.271678],[14.955293,51.064042],[15.227111,50.977406],[15.349688,50.783723],[15.76744,50.744191],[15.848159,50.675151],[16.331644,50.644042],[16.382596,50.514179],[16.334227,50.371862],[16.701233,50.094928],[16.960339,50.231974],[16.944005,50.420267],[17.133352,50.578722],[17.579734,51.12675],[17.714609,51.15016],[17.644329,51.369423],[17.495191,51.450271],[17.556582,51.535046],[17.346776,51.594009],[16.942977,51.51267],[16.676119,51.609512],[16.611834,51.71488],[16.371125,51.749193],[16.181989,51.655788],[15.944795,51.769889],[15.614686,51.480424],[15.403329,51.517838],[15.246233,51.42265],[14.950648,51.396539]]]},"properties":{"LOCATION_TYPE":"level1","ADM0_A3":"POL","LOCATION_ID":"POL-DS","NAME":"Lower Silesian","TYPE_EN":"Voivodeship|Province"}},
{"type":"Feature","geometry":{"type":"Polygon","coordinates":[[[16.944005,50.420267],[17.185442,50.375686],[17.334786,50.270008],[17.606398,50.258225],[17.584177,50.145881],[17.839355,49.973643],[18.019074,50.044087],[18.079961,50.1357],[18.362838,50.210915],[18.357464,50.419455],[18.655637,50.995234],[18.150138,51.13613],[17.917387,51.065824],[17.714609,51.15016],[17.579734,51.12675],[17.133352,50.578722],[16.944005,50.420267]]]},"properties":{"LOCATION_TYPE":"level1","ADM0_A3":"POL","LOCATION_ID":"POL-OP","NAME":"Opole","TYPE_EN":"Voivodeship|Province"}},
{"type":"Feature","geometry":{"type":"Polygon","coordinates":[[[23.176084,52.285129],[23.392298,52.509638],[23.868961,52.670042],[23.922498,52.742596],[23.893663,53.151951],[23.782972,53.270936],[23.590942,53.611251],[23.45927,53.992313],[23.432502,54.169305],[22.973305,54.37539],[22.811344,54.392633],[22.665315,54.275344],[22.442176,54.256999],[22.348125,54.178605],[22.622113,53.924797],[22.543048,53.773901],[21.937297,53.499319],[21.522955,53.443508],[21.692764,53.095261],[21.84676,53.051646],[21.977605,52.861993],[22.223068,52.856877],[22.37789,52.794116],[22.411893,52.60064],[22.582942,52.394528],[22.922767,52.372256],[23.086994,52.292338],[23.176084,52.285129]]]},"properties":{"LOCATION_TYPE":"level1","ADM0_A3":"POL","LOCATION_ID":"POL-PD","NAME":"Podlachian","TYPE_EN":"Voivodeship|Province"}},
{"type":"Feature","geometry":{"type":"Polygon","coordinates":[[[22.811344,54.392633],[22.698387,54.342937],[20.929606,54.397818],[19.758256,54.434256],[19.434711,54.2971],[19.273894,54.281597],[19.209298,54.0721],[19.490418,53.769328],[19.275857,53.719254],[19.128269,53.555879],[19.285469,53.364547],[19.681311,53.262951],[19.74787,53.093142],[19.92481,53.1273],[20.240553,53.098],[20.703987,53.275947],[21.097865,53.325608],[21.173726,53.379636],[21.522955,53.443508],[21.937297,53.499319],[22.543048,53.773901],[22.622113,53.924797],[22.348125,54.178605],[22.442176,54.256999],[22.665315,54.275344],[22.811344,54.392633]]]},"properties":{"LOCATION_TYPE":"level1","ADM0_A3":"POL","LOCATION_ID":"POL-WN","NAME":"Warmian-Masurian","TYPE_EN":"Voivodeship|Province"}},
{"type":"Feature","geometry":{"type":"Polygon","coordinates":[[[14.950648,51.396539],[15.246233,51.42265],[15.403329,51.517838],[15.614686,51.480424],[15.944795,51.769889],[16.181989,51.655788],[16.371125,51.749193],[16.274697,51.86823],[16.113156,51.864948],[15.857048,52.103745],[15.90118,52.28699],[15.831106,52.693321],[16.021896,52.885299],[16.038536,53.006739],[15.925778,53.105338],[15.733128,52.988936],[15.357544,52.954184],[15.195796,52.841969],[14.931936,52.842563],[14.78993,52.691099],[14.607965,52.596463],[14.539815,52.421866],[14.686369,52.121032],[14.761403,52.076667],[14.585807,51.803893],[14.719546,51.675632],[14.732155,51.515823],[14.950648,51.396539]]]},"properties":{"LOCATION_TYPE":"level1","ADM0_A3":"POL","LOCATION_ID":"POL-LB","NAME":"Lubusz","TYPE_EN":"Voivodeship|Province"}},
{"type":"Feature","geometry":{"type":"Polygon","coordinates":[[[14.607965,52.596463],[14.78993,52.691099],[14.931936,52.842563],[15.195796,52.841969],[15.357544,52.954184],[15.733128,52.988936],[15.925778,53.105338],[16.038536,53.006739],[16.278831,52.9932],[16.456185,53.124716],[16.674672,53.189312],[16.720354,53.306359],[16.545068,53.366045],[16.551062,53.460639],[16.765313,53.461207],[16.947731,53.588151],[17.001784,53.753308],[16.811305,54.188837],[16.950728,54.209043],[16.970055,54.386603],[16.78521,54.576697],[16.501313,54.532416],[16.220063,54.276597],[15.859711,54.249986],[14.781912,54.034613],[14.367035,53.916978],[14.575857,53.854804],[14.544932,53.704047],[14.263863,53.699876],[14.409384,53.272434],[14.343341,53.048624],[14.14449,52.959921],[14.21601,52.817992],[14.607965,52.596463]]]},"properties":{"LOCATION_TYPE":"level1","ADM0_A3":"POL","LOCATION_ID":"POL-ZP","NAME":"West Pomeranian","TYPE_EN":"Voivodeship|Province"}},
{"type":"Feature","geometry":{"type":"Polygon","coordinates":[[[23.176084,52.285129],[23.086994,52.292338],[22.898272,52.102143],[22.701178,52.136094],[22.599685,52.062301],[21.988353,52.004526],[21.841282,51.958379],[21.946805,51.782059],[21.821232,51.562589],[21.852444,51.350406],[21.771622,51.151452],[21.815444,51.055075],[21.844279,50.829766],[21.976364,50.772819],[22.262445,50.759899],[22.221517,50.659647],[22.612088,50.568102],[22.594931,50.362068],[22.858068,50.317136],[23.158411,50.322691],[23.305482,50.415838],[23.462579,50.42147],[23.658677,50.327005],[23.747522,50.38938],[23.981306,50.40478],[24.106466,50.538622],[23.969937,50.825168],[24.130237,50.868937],[23.911749,51.00681],[23.874749,51.13613],[23.63404,51.339296],[23.697602,51.404435],[23.539886,51.607109],[23.56035,51.754542],[23.676415,51.994088],[23.637451,52.084471],[23.176084,52.285129]]]},"properties":{"LOCATION_TYPE":"level1","ADM0_A3":"POL","LOCATION_ID":"POL-LU","NAME":"Lublin","TYPE_EN":"Voivodeship|Province"}},
{"type":"Feature","geometry":{"type":"Polygon","coordinates":[[[19.758256,54.434256],[19.59254,54.452379],[19.377208,54.377631],[19.002126,54.344916],[18.588064,54.433661],[18.42921,54.781684],[18.316905,54.838324],[17.885427,54.824123],[17.337413,54.74901],[16.78521,54.576697],[16.970055,54.386603],[16.950728,54.209043],[16.811305,54.188837],[17.001784,53.753308],[16.947731,53.588151],[17.095732,53.488053],[17.397212,53.433793],[17.507593,53.561589],[17.68319,53.542365],[17.924105,53.695638],[18.255661,53.694191],[18.58298,53.605255],[18.759403,53.625228],[18.960114,53.537533],[19.128269,53.555879],[19.275857,53.719254],[19.490418,53.769328],[19.209298,54.0721],[19.273894,54.281597],[19.434711,54.2971],[19.758256,54.434256]]]},"properties":{"LOCATION_TYPE":"level1","ADM0_A3":"POL","LOCATION_ID":"POL-PM","NAME":"Pomeranian","TYPE_EN":"Voivodeship|Province"}},
{"type":"Feature","geometry":{"type":"Polygon","coordinates":[[[21.522955,53.443508],[21.173726,53.379636],[21.097865,53.325608],[20.703987,53.275947],[20.240553,53.098],[19.92481,53.1273],[19.74787,53.093142],[19.507264,52.894472],[19.497033,52.704794],[19.295908,52.33417],[19.641416,52.219242],[19.918195,52.267689],[20.216162,51.974296],[20.612933,51.796012],[20.658099,51.617108],[20.421627,51.587239],[20.505446,51.384125],[20.432066,51.289945],[20.751736,51.116751],[21.011669,51.114942],[21.495567,51.013166],[21.815444,51.055075],[21.771622,51.151452],[21.852444,51.350406],[21.821232,51.562589],[21.946805,51.782059],[21.841282,51.958379],[21.988353,52.004526],[22.599685,52.062301],[22.701178,52.136094],[22.898272,52.102143],[23.086994,52.292338],[22.922767,52.372256],[22.582942,52.394528],[22.411893,52.60064],[22.37789,52.794116],[22.223068,52.856877],[21.977605,52.861993],[21.84676,53.051646],[21.692764,53.095261],[21.522955,53.443508]]]},"properties":{"LOCATION_TYPE":"level1","ADM0_A3":"POL","LOCATION_ID":"POL-MZ","NAME":"Masovian","TYPE_EN":"Voivodeship|Province"}},
{"type":"Feature","geometry":{"type":"Polygon","coordinates":[[[19.295908,52.33417],[19.040213,52.278411],[18.846633,52.018686],[18.713514,52.009694],[18.659254,51.785728],[18.457199,51.778726],[18.359117,51.626927],[18.365732,51.452622],[18.054847,51.30245],[18.150138,51.13613],[18.655637,50.995234],[18.911435,51.037118],[19.108012,50.968517],[19.354302,50.971359],[19.507885,50.842323],[19.750557,50.804289],[20.056275,51.159513],[20.366644,51.219613],[20.432066,51.289945],[20.505446,51.384125],[20.421627,51.587239],[20.658099,51.617108],[20.612933,51.796012],[20.216162,51.974296],[19.918195,52.267689],[19.641416,52.219242],[19.295908,52.33417]]]},"properties":{"LOCATION_TYPE":"level1","ADM0_A3":"POL","LOCATION_ID":"POL-LD","NAME":"Łódź","TYPE_EN":"Voivodeship|Province"}},
{"type":"Feature","geometry":{"type":"Polygon","coordinates":[[[19.74787,53.093142],[19.681311,53.262951],[19.285469,53.364547],[19.128269,53.555879],[18.960114,53.537533],[18.759403,53.625228],[18.58298,53.605255],[18.255661,53.694191],[17.924105,53.695638],[17.68319,53.542365],[17.507593,53.561589],[17.397212,53.433793],[17.297477,53.34031],[17.442067,53.205487],[17.331273,52.956225],[17.537462,52.838894],[17.518239,52.653996],[17.813208,52.595705],[18.158613,52.451786],[18.352296,52.486616],[18.741523,52.328951],[19.040213,52.278411],[19.295908,52.33417],[19.497033,52.704794],[19.507264,52.894472],[19.74787,53.093142]]]},"properties":{"LOCATION_TYPE":"level1","ADM0_A3":"POL","LOCATION_ID":"POL-KP","NAME":"Kuyavian-Pomeranian","TYPE_EN":"Voivodeship|Province"}},
{"type":"Feature","geometry":{"type":"Polygon","coordinates":[[[19.040213,52.278411],[18.741523,52.328951],[18.352296,52.486616],[18.158613,52.451786],[17.813208,52.595705],[17.518239,52.653996],[17.537462,52.838894],[17.331273,52.956225],[17.442067,53.205487],[17.297477,53.34031],[17.397212,53.433793],[17.095732,53.488053],[16.947731,53.588151],[16.765313,53.461207],[16.551062,53.460639],[16.545068,53.366045],[16.720354,53.306359],[16.674672,53.189312],[16.456185,53.124716],[16.278831,52.9932],[16.038536,53.006739],[16.021896,52.885299],[15.831106,52.693321],[15.90118,52.28699],[15.857048,52.103745],[16.113156,51.864948],[16.274697,51.86823],[16.371125,51.749193],[16.611834,51.71488],[16.676119,51.609512],[16.942977,51.51267],[17.346776,51.594009],[17.556582,51.535046],[17.495191,51.450271],[17.644329,51.369423],[17.714609,51.15016],[17.917387,51.065824],[18.150138,51.13613],[18.054847,51.30245],[18.365732,51.452622],[18.359117,51.626927],[18.457199,51.778726],[18.659254,51.785728],[18.713514,52.009694],[18.846633,52.018686],[19.040213,52.278411]]]},"properties":{"LOCATION_TYPE":"level1","ADM0_A3":"POL","LOCATION_ID":"POL-WP","NAME":"Greater Poland","TYPE_EN":"Voivodeship|Province"}},
{"type":"Feature","geometry":{"type":"Polygon","coordinates":[[[20.432066,51.289945],[20.366644,51.219613],[20.056275,51.159513],[19.750557,50.804289],[19.956333,50.484464],[20.284581,50.398629],[20.428655,50.204998],[20.633501,50.174405],[20.771063,50.274399],[21.181271,50.337496],[21.295269,50.410799],[21.594889,50.524539],[21.840455,50.739901],[21.844279,50.829766],[21.815444,51.055075],[21.495567,51.013166],[21.011669,51.114942],[20.751736,51.116751],[20.432066,51.289945]]]},"properties":{"LOCATION_TYPE":"level1","ADM0_A3":"POL","LOCATION_ID":"POL-SK","NAME":"Świętokrzyskie","TYPE_EN":"Voivodeship|Province"}}
]}