{"type":"FeatureCollection", "features": [
{"type":"Feature","geometry":{"type":"MultiPolygon","coordinates":[[[[-65.347727,18.114691],[-65.398549,18.169338],[-65.478505,18.15705],[-65.468577,18.094428],[-65.347727,18.114691]]],[[[-65.628814,18.279202],[-65.6632,18.366414],[-65.848297,18.437893],[-65.988881,18.46308],[-66.118081,18.443027],[-66.258127,18.481513],[-66.467437,18.475287],[-66.640859,18.496405],[-66.907316,18.485325],[-67.101715,18.522773],[-67.170007,18.48602],[-67.159451,18.420911],[-67.270842,18.361826],[-67.196512,18.291339],[-67.151858,18.203392],[-67.183778,18.139945],[-67.214771,17.966335],[-67.067006,17.972561],[-66.924224,17.949612],[-66.76594,17.984361],[-66.592519,17.963568],[-66.469146,17.992662],[-66.416493,17.949612],[-66.163238,17.929145],[-66.004994,17.977525],[-65.939117,17.970526],[-65.830269,18.026907],[-65.737538,18.182685],[-65.591764,18.230885],[-65.628814,18.279202]]]]},"properties":{"LOCATION_TYPE":"level1","ADM0_A3":"PRI","LOCATION_ID":"PRI-PR","NAME":"Puerto Rico","TYPE_EN":null}}
]}