{"type":"FeatureCollection", "features": [
{"type":"Feature","geometry":{"type":"Polygon","coordinates":[[[126.940134,38.174173],[126.971919,38.218909],[127.157489,38.307224],[127.377113,38.318515],[127.47194,38.295906],[127.753731,38.325362],[127.800757,38.293917],[128.039864,38.304278],[128.172362,38.355954],[128.268067,38.45352],[128.274785,38.571497],[128.364919,38.624335],[128.35963,38.678656],[128.282807,38.755072],[128.210216,38.727729],[128.091156,38.843736],[128.014659,38.85814],[127.851573,39.00141],[127.769623,39.109198],[127.606944,39.152045],[127.45224,39.165961],[127.37203,39.240426],[127.438075,39.405172],[127.130669,39.403616],[127.085814,39.288842],[127.025249,39.204403],[126.981738,39.069114],[127.000238,38.935221],[126.874148,38.879203],[126.866913,38.777323],[126.791052,38.675753],[126.67788,38.617643],[126.701445,38.498348],[126.789295,38.355179],[126.867636,38.293813],[126.870634,38.239863],[126.940134,38.174173]]]},"properties":{"LOCATION_TYPE":"level1","ADM0_A3":"PRK","LOCATION_ID":"PRK-07","NAME":"Kangwŏn-do","TYPE_EN":"Province"}},
{"type":"Feature","geometry":{"type":"Polygon","coordinates":[[[126.940134,38.174173],[126.870634,38.239863],[126.867636,38.293813],[126.789295,38.355179],[126.701445,38.498348],[126.67788,38.617643],[126.791052,38.675753],[126.866913,38.777323],[126.874148,38.879203],[127.000238,38.935221],[126.981738,39.069114],[126.904327,39.066169],[126.729867,39.145802],[126.563676,39.114822],[126.659587,38.985838],[126.521714,39.000385],[126.457739,38.911966],[126.387252,38.930518],[126.186748,38.989429],[126.125149,38.903801],[126.211242,38.83564],[126.2192,38.783369],[126.114917,38.715854],[126.03792,38.709136],[125.943042,38.745749],[125.91772,38.794273],[125.735819,38.841247],[125.575105,38.780501],[125.630089,38.659009],[125.647231,38.628559],[125.663265,38.537364],[125.749462,38.332131],[125.832971,38.31655],[125.970327,38.170099],[126.079261,38.183949],[126.272117,38.240767],[126.388182,38.201131],[126.401638,37.889015],[126.436615,37.848375],[126.576182,37.777533],[126.667459,37.82781],[126.665787,37.937634],[126.761906,37.979001],[126.940134,38.174173]]]},"properties":{"LOCATION_TYPE":"level1","ADM0_A3":"PRK","LOCATION_ID":"PRK-06","NAME":"Hwanghae-bukto","TYPE_EN":"Province"}},
{"type":"Feature","geometry":{"type":"Polygon","coordinates":[[[130.452154,42.549559],[130.420494,42.604274],[130.324789,42.650292],[130.243037,42.743361],[130.239006,42.90224],[130.140407,42.907124],[130.121494,42.981848],[129.981347,42.966732],[129.879751,42.996033],[129.761309,42.746048],[129.786527,42.684734],[129.741569,42.629001],[129.728856,42.475858],[129.703328,42.442372],[129.517086,42.390954],[129.36309,42.445007],[129.243098,42.378706],[129.211162,42.219956],[129.119798,42.149366],[128.963838,42.088517],[128.883172,42.030409],[128.768502,41.920956],[128.70494,41.918992],[128.729435,41.817706],[128.783178,41.806544],[128.775737,41.632963],[128.897797,41.573819],[128.914747,41.517208],[128.839402,41.452716],[128.851288,41.35528],[128.93304,41.269213],[128.905445,41.19777],[128.923325,41.088293],[128.955054,41.015223],[128.916917,40.924014],[128.924462,40.815442],[129.062231,40.592225],[129.160605,40.564601],[129.233482,40.705714],[129.303233,40.673651],[129.351687,40.745343],[129.50624,40.792074],[129.571773,40.839716],[129.716558,40.834586],[129.752997,40.90994],[129.711925,41.122626],[129.759125,41.292873],[129.799897,41.368598],[129.659403,41.464647],[129.690823,41.649716],[129.77476,41.759417],[129.884532,41.824164],[129.89674,41.904263],[129.964692,41.898749],[130.073041,42.078459],[130.199311,42.101304],[130.202274,42.173551],[130.191739,42.234785],[130.273456,42.332068],[130.261782,42.417676],[130.432999,42.452697],[130.452154,42.549559]]]},"properties":{"LOCATION_TYPE":"level1","ADM0_A3":"PRK","LOCATION_ID":"PRK-09","NAME":"Hamgyŏng-bukto","TYPE_EN":"Province"}},
{"type":"Feature","geometry":{"type":"Polygon","coordinates":[[[130.202274,42.173551],[130.386241,42.270657],[130.480684,42.339752],[130.662753,42.32057],[130.656655,42.383254],[130.575626,42.445731],[130.52519,42.549239],[130.452154,42.549559],[130.432999,42.452697],[130.261782,42.417676],[130.273456,42.332068],[130.191739,42.234785],[130.202274,42.173551]]]},"properties":{"LOCATION_TYPE":"level1","ADM0_A3":"PRK","LOCATION_ID":"PRK-13","NAME":"Rasŏn","TYPE_EN":"Province"}},
{"type":"Feature","geometry":{"type":"Polygon","coordinates":[[[128.883172,42.030409],[128.720959,42.04759],[128.502368,41.996094],[128.261969,42.032862],[128.034593,41.993743],[128.039967,41.87959],[128.159133,41.711822],[128.25091,41.66012],[128.303,41.583406],[128.185695,41.404451],[128.064152,41.388431],[127.944211,41.470855],[127.848868,41.431322],[127.638338,41.429875],[127.47411,41.498812],[127.427343,41.483102],[127.269058,41.504961],[127.113977,41.610355],[126.999618,41.752025],[126.962824,41.693993],[126.95962,41.572502],[126.827742,41.447341],[126.929131,41.447677],[126.966442,41.297531],[127.064524,41.145034],[127.204877,41.101962],[127.32673,41.175704],[127.377269,41.163741],[127.391739,41.071292],[127.474524,41.06199],[127.55793,41.153561],[127.66149,41.129221],[127.654772,41.008918],[127.598961,40.995379],[127.601132,40.899261],[127.539327,40.862157],[127.580874,40.757848],[127.666657,40.67328],[127.704381,40.590236],[127.77156,40.580004],[127.722468,40.460373],[127.758641,40.405544],[127.914291,40.489234],[127.972582,40.567007],[128.05051,40.588169],[128.17567,40.552125],[128.303414,40.662583],[128.35354,40.76945],[128.38372,40.90771],[128.358708,40.992356],[128.478908,41.007213],[128.607168,41.090826],[128.630216,41.172319],[128.738427,41.170278],[128.923325,41.088293],[128.905445,41.19777],[128.93304,41.269213],[128.851288,41.35528],[128.839402,41.452716],[128.914747,41.517208],[128.897797,41.573819],[128.775737,41.632963],[128.783178,41.806544],[128.729435,41.817706],[128.70494,41.918992],[128.768502,41.920956],[128.883172,42.030409]]]},"properties":{"LOCATION_TYPE":"level1","ADM0_A3":"PRK","LOCATION_ID":"PRK-10","NAME":"Ryanggang","TYPE_EN":"Province"}},
{"type":"Feature","geometry":{"type":"Polygon","coordinates":[[[126.999618,41.752025],[126.887118,41.784918],[126.788622,41.695906],[126.617883,41.665933],[126.501301,41.434371],[126.522127,41.377631],[126.440892,41.348382],[126.260696,41.143123],[126.147421,41.092273],[126.007843,40.899313],[125.760933,40.885671],[125.560067,40.778339],[125.41516,40.652685],[125.612209,40.519568],[125.575829,40.423812],[125.657168,40.301701],[125.807029,40.223617],[125.96888,40.219587],[126.14427,40.073627],[126.36007,40.017454],[126.438515,39.995311],[126.538871,40.032854],[126.570497,40.089026],[126.807485,40.207288],[126.911975,40.334748],[126.985149,40.466083],[126.979774,40.531118],[127.075892,40.594293],[127.165913,40.613671],[127.22038,40.718135],[127.377166,40.802419],[127.303889,40.870839],[127.323009,40.967861],[127.391739,41.071292],[127.377269,41.163741],[127.32673,41.175704],[127.204877,41.101962],[127.064524,41.145034],[126.966442,41.297531],[126.929131,41.447677],[126.827742,41.447341],[126.95962,41.572502],[126.962824,41.693993],[126.999618,41.752025]]]},"properties":{"LOCATION_TYPE":"level1","ADM0_A3":"PRK","LOCATION_ID":"PRK-04","NAME":"Chagang-do","TYPE_EN":"Province"}},
{"type":"Feature","geometry":{"type":"Polygon","coordinates":[[[125.41516,40.652685],[125.256106,40.615041],[125.025112,40.534374],[125.026301,40.457377],[124.895508,40.483628],[124.71247,40.310305],[124.642603,40.294286],[124.369965,40.098293],[124.391449,40.048285],[124.369965,39.940009],[124.321544,39.912665],[124.434418,39.830756],[124.554942,39.817084],[124.584809,39.723578],[124.674929,39.622069],[124.753045,39.672459],[124.76039,39.748008],[124.866303,39.713853],[125.047699,39.604193],[125.22519,39.591213],[125.285981,39.521186],[125.451752,39.571275],[125.687863,39.633163],[125.813851,39.686596],[126.027067,39.857025],[126.100655,39.820438],[126.259405,39.852658],[126.368752,39.899219],[126.36007,40.017454],[126.14427,40.073627],[125.96888,40.219587],[125.807029,40.223617],[125.657168,40.301701],[125.575829,40.423812],[125.612209,40.519568],[125.41516,40.652685]]]},"properties":{"LOCATION_TYPE":"level1","ADM0_A3":"PRK","LOCATION_ID":"PRK-03","NAME":"P'yŏngan-bukto","TYPE_EN":"Province"}},
{"type":"Feature","geometry":{"type":"Polygon","coordinates":[[[125.630089,38.659009],[125.575105,38.780501],[125.52777,38.822256],[125.603941,38.938476],[125.582547,39.069631],[125.637427,39.143167],[125.630813,39.247243],[125.721866,39.283184],[125.84496,39.202801],[125.972807,39.204429],[126.059107,39.231197],[126.287517,39.060484],[126.344257,39.045085],[126.387252,38.930518],[126.457739,38.911966],[126.521714,39.000385],[126.659587,38.985838],[126.563676,39.114822],[126.729867,39.145802],[126.904327,39.066169],[126.981738,39.069114],[127.025249,39.204403],[126.936366,39.212697],[126.915075,39.282099],[126.810276,39.313983],[126.709093,39.309074],[126.736688,39.450848],[126.672816,39.529293],[126.713227,39.599676],[126.719325,39.728712],[126.788261,39.844132],[126.935332,39.865706],[127.0083,39.826122],[127.112893,39.88586],[127.058529,40.019625],[127.162192,40.115485],[127.115993,40.187211],[127.104728,40.284802],[127.003029,40.336582],[126.911975,40.334748],[126.807485,40.207288],[126.570497,40.089026],[126.538871,40.032854],[126.438515,39.995311],[126.36007,40.017454],[126.368752,39.899219],[126.259405,39.852658],[126.100655,39.820438],[126.027067,39.857025],[125.813851,39.686596],[125.687863,39.633163],[125.451752,39.571275],[125.346039,39.459621],[125.431895,39.300727],[125.287364,39.15233],[125.290612,39.104531],[125.198643,38.986056],[125.137218,38.803534],[125.262462,38.707913],[125.363048,38.734565],[125.527599,38.720933],[125.630089,38.659009]]]},"properties":{"LOCATION_TYPE":"level1","ADM0_A3":"PRK","LOCATION_ID":"PRK-02","NAME":"P'yŏngan-namdo","TYPE_EN":"Province"}},
{"type":"Feature","geometry":{"type":"Polygon","coordinates":[[[126.401638,37.889015],[126.388182,38.201131],[126.272117,38.240767],[126.079261,38.183949],[125.970327,38.170099],[125.832971,38.31655],[125.749462,38.332131],[125.663265,38.537364],[125.647231,38.628559],[125.462657,38.707261],[125.259614,38.669739],[125.137218,38.624742],[125.058241,38.568468],[124.985199,38.451361],[124.883881,38.355292],[124.872325,38.257636],[124.793793,38.097805],[124.904877,38.124823],[125.01352,38.062405],[125.140636,38.097805],[125.013194,37.905992],[125.158214,37.86758],[125.240082,37.929592],[125.300629,37.895209],[125.348643,37.737982],[125.47462,37.731187],[125.50351,37.778795],[125.609223,37.806301],[125.71933,37.952541],[125.803966,37.988959],[125.895518,37.864814],[126.062836,37.802232],[126.401638,37.889015]]]},"properties":{"LOCATION_TYPE":"level1","ADM0_A3":"PRK","LOCATION_ID":"PRK-05","NAME":"Hwanghae-namdo","TYPE_EN":"Province"}},
{"type":"Feature","geometry":{"type":"Polygon","coordinates":[[[129.160605,40.564601],[129.062231,40.592225],[128.924462,40.815442],[128.916917,40.924014],[128.955054,41.015223],[128.923325,41.088293],[128.738427,41.170278],[128.630216,41.172319],[128.607168,41.090826],[128.478908,41.007213],[128.358708,40.992356],[128.38372,40.90771],[128.35354,40.76945],[128.303414,40.662583],[128.17567,40.552125],[128.05051,40.588169],[127.972582,40.567007],[127.914291,40.489234],[127.758641,40.405544],[127.722468,40.460373],[127.77156,40.580004],[127.704381,40.590236],[127.666657,40.67328],[127.580874,40.757848],[127.539327,40.862157],[127.601132,40.899261],[127.598961,40.995379],[127.654772,41.008918],[127.66149,41.129221],[127.55793,41.153561],[127.474524,41.06199],[127.391739,41.071292],[127.323009,40.967861],[127.303889,40.870839],[127.377166,40.802419],[127.22038,40.718135],[127.165913,40.613671],[127.075892,40.594293],[126.979774,40.531118],[126.985149,40.466083],[126.911975,40.334748],[127.003029,40.336582],[127.104728,40.284802],[127.115993,40.187211],[127.162192,40.115485],[127.058529,40.019625],[127.112893,39.88586],[127.0083,39.826122],[126.935332,39.865706],[126.788261,39.844132],[126.719325,39.728712],[126.713227,39.599676],[126.672816,39.529293],[126.736688,39.450848],[126.709093,39.309074],[126.810276,39.313983],[126.915075,39.282099],[126.936366,39.212697],[127.025249,39.204403],[127.085814,39.288842],[127.130669,39.403616],[127.438075,39.405172],[127.482921,39.436998],[127.574555,39.595038],[127.512218,39.649482],[127.520844,39.746975],[127.623749,39.830935],[127.874604,39.892808],[127.891038,39.961225],[128.006847,40.045152],[128.164317,40.017971],[128.302094,40.033433],[128.364765,40.09689],[128.510189,40.135456],[128.664561,40.201239],[128.65534,40.320177],[128.860532,40.371848],[128.975812,40.459933],[129.077564,40.472565],[129.160605,40.564601]]]},"properties":{"LOCATION_TYPE":"level1","ADM0_A3":"PRK","LOCATION_ID":"PRK-08","NAME":"Hamgyŏng-namdo","TYPE_EN":"Province"}},
{"type":"Feature","geometry":{"type":"Polygon","coordinates":[[[126.387252,38.930518],[126.344257,39.045085],[126.287517,39.060484],[126.059107,39.231197],[125.972807,39.204429],[125.84496,39.202801],[125.721866,39.283184],[125.630813,39.247243],[125.637427,39.143167],[125.582547,39.069631],[125.603941,38.938476],[125.52777,38.822256],[125.575105,38.780501],[125.735819,38.841247],[125.91772,38.794273],[125.943042,38.745749],[126.03792,38.709136],[126.114917,38.715854],[126.2192,38.783369],[126.211242,38.83564],[126.125149,38.903801],[126.186748,38.989429],[126.387252,38.930518]]]},"properties":{"LOCATION_TYPE":"level1","ADM0_A3":"PRK","LOCATION_ID":"PRK-01","NAME":"P'yŏngyang","TYPE_EN":"Special City"}}
]}