{"type":"FeatureCollection", "features": [
{"type":"Feature","geometry":{"type":"Polygon","coordinates":[[[-7.225878,38.766134],[-7.218314,38.832695],[-7.369131,38.801456],[-7.459746,38.955865],[-7.521887,38.990902],[-7.632836,38.921139],[-7.838457,38.900158],[-7.911605,38.96341],[-7.981833,38.944393],[-8.102833,39.022063],[-8.19691,39.000901],[-8.257811,38.905998],[-8.546579,38.76704],[-8.507821,38.712831],[-8.651585,38.606171],[-8.638124,38.55036],[-8.516555,38.519406],[-8.368502,38.535736],[-8.293571,38.432771],[-8.30835,38.377038],[-8.162132,38.317558],[-7.931216,38.302546],[-7.669371,38.207487],[-7.517133,38.196325],[-7.400473,38.299756],[-7.281023,38.330839],[-7.172967,38.190331],[-7.117068,38.183633],[-7.167181,38.272084],[-7.35921,38.446362],[-7.275856,38.60382],[-7.284073,38.713245],[-7.225878,38.766134]]]},"properties":{"LOCATION_TYPE":"level1","ADM0_A3":"PRT","LOCATION_ID":"PRT-07","NAME":"Évora","TYPE_EN":"District"}},
{"type":"Feature","geometry":{"type":"Polygon","coordinates":[[[-7.225878,38.766134],[-7.056076,38.855149],[-7.06605,38.904603],[-6.973291,39.013951],[-7.038816,39.109138],[-7.167491,39.113479],[-7.244127,39.195645],[-7.250845,39.270627],[-7.326654,39.341321],[-7.313528,39.457438],[-7.399414,39.493663],[-7.515841,39.59376],[-7.555872,39.677207],[-7.695468,39.652696],[-7.804712,39.557121],[-7.93659,39.553348],[-8.010229,39.468702],[-7.949199,39.414804],[-8.085418,39.285251],[-8.291245,39.163811],[-8.33362,39.116967],[-8.19691,39.000901],[-8.102833,39.022063],[-7.981833,38.944393],[-7.911605,38.96341],[-7.838457,38.900158],[-7.632836,38.921139],[-7.521887,38.990902],[-7.459746,38.955865],[-7.369131,38.801456],[-7.218314,38.832695],[-7.225878,38.766134]]]},"properties":{"LOCATION_TYPE":"level1","ADM0_A3":"PRT","LOCATION_ID":"PRT-12","NAME":"Portalegre","TYPE_EN":"District"}},
{"type":"Feature","geometry":{"type":"Polygon","coordinates":[[[-8.179265,41.812613],[-8.231715,41.886049],[-8.108028,42.010899],[-8.191304,42.062085],[-8.222362,42.15363],[-8.346747,42.101695],[-8.626885,42.051026],[-8.867502,41.859117],[-8.880306,41.736862],[-8.8198,41.617802],[-8.636806,41.650895],[-8.552056,41.628881],[-8.511232,41.727117],[-8.179265,41.812613]]]},"properties":{"LOCATION_TYPE":"level1","ADM0_A3":"PRT","LOCATION_ID":"PRT-16","NAME":"Viana do Castelo","TYPE_EN":"District"}},
{"type":"Feature","geometry":{"type":"Polygon","coordinates":[[[-6.942101,40.254978],[-6.9975,40.285552],[-7.246555,40.267258],[-7.320297,40.285397],[-7.271153,40.409782],[-7.390939,40.382755],[-7.453519,40.413425],[-7.526719,40.337642],[-7.782129,40.232041],[-7.806882,40.185041],[-7.740116,40.094478],[-7.894861,40.046858],[-7.917315,40.004484],[-8.126346,39.921233],[-8.279102,39.794781],[-8.227709,39.751941],[-8.22019,39.646495],[-8.061544,39.624223],[-8.046842,39.73649],[-7.866801,39.635927],[-7.804712,39.557121],[-7.695468,39.652696],[-7.555872,39.677207],[-7.18289,39.675099],[-7.035767,39.689258],[-7.000266,39.802533],[-6.92425,39.871573],[-6.879705,40.009187],[-7.015769,40.119051],[-7.02476,40.216203],[-6.942101,40.254978]]]},"properties":{"LOCATION_TYPE":"level1","ADM0_A3":"PRT","LOCATION_ID":"PRT-05","NAME":"Castelo Branco","TYPE_EN":"District"}},
{"type":"Feature","geometry":{"type":"Polygon","coordinates":[[[-6.942101,40.254978],[-6.878051,40.265244],[-6.794438,40.356401],[-6.857122,40.442132],[-6.814282,40.647184],[-6.836658,40.840247],[-6.927448,41.048098],[-7.075325,41.086691],[-7.126278,41.164309],[-7.30066,41.159348],[-7.370526,41.014138],[-7.341484,40.93776],[-7.412514,40.870581],[-7.581676,40.856835],[-7.617436,40.788105],[-7.539896,40.685372],[-7.577697,40.572304],[-7.824633,40.497838],[-7.769985,40.327306],[-7.782129,40.232041],[-7.526719,40.337642],[-7.453519,40.413425],[-7.390939,40.382755],[-7.271153,40.409782],[-7.320297,40.285397],[-7.246555,40.267258],[-6.9975,40.285552],[-6.942101,40.254978]]]},"properties":{"LOCATION_TYPE":"level1","ADM0_A3":"PRT","LOCATION_ID":"PRT-09","NAME":"Guarda","TYPE_EN":"District"}},
{"type":"Feature","geometry":{"type":"Polygon","coordinates":[[[-6.927448,41.048098],[-6.818003,41.054136],[-6.646644,41.267611],[-6.495852,41.294948],[-6.321031,41.419592],[-6.205947,41.57028],[-6.365937,41.663608],[-6.55528,41.674899],[-6.577397,41.739727],[-6.524222,41.86742],[-6.656772,41.933075],[-7.145373,41.98749],[-7.209316,41.889161],[-7.172657,41.747375],[-7.252523,41.604283],[-7.236194,41.530282],[-7.36231,41.441915],[-7.351742,41.331664],[-7.43228,41.215986],[-7.30066,41.159348],[-7.126278,41.164309],[-7.075325,41.086691],[-6.927448,41.048098]]]},"properties":{"LOCATION_TYPE":"level1","ADM0_A3":"PRT","LOCATION_ID":"PRT-04","NAME":"Bragança","TYPE_EN":"District"}},
{"type":"Feature","geometry":{"type":"Polygon","coordinates":[[[-8.050446,41.815986],[-8.095133,41.712028],[-7.988189,41.677921],[-7.998499,41.611207],[-7.813549,41.582578],[-7.923568,41.485582],[-7.975502,41.370085],[-7.875457,41.246785],[-7.89605,41.159116],[-7.550154,41.182758],[-7.43228,41.215986],[-7.351742,41.331664],[-7.36231,41.441915],[-7.236194,41.530282],[-7.252523,41.604283],[-7.172657,41.747375],[-7.209316,41.889161],[-7.405409,41.835199],[-7.588395,41.824218],[-7.72203,41.899252],[-8.050446,41.815986]]]},"properties":{"LOCATION_TYPE":"level1","ADM0_A3":"PRT","LOCATION_ID":"PRT-17","NAME":"Vila Real","TYPE_EN":"District"}},
{"type":"Feature","geometry":{"type":"Polygon","coordinates":[[[-8.179265,41.812613],[-8.511232,41.727117],[-8.552056,41.628881],[-8.636806,41.650895],[-8.8198,41.617802],[-8.775097,41.467563],[-8.484774,41.372617],[-8.322277,41.366829],[-8.169754,41.400781],[-8.036145,41.325023],[-7.975502,41.370085],[-7.923568,41.485582],[-7.813549,41.582578],[-7.998499,41.611207],[-7.988189,41.677921],[-8.095133,41.712028],[-8.050446,41.815986],[-8.179265,41.812613]]]},"properties":{"LOCATION_TYPE":"level1","ADM0_A3":"PRT","LOCATION_ID":"PRT-03","NAME":"Braga","TYPE_EN":"District"}},
{"type":"Feature","geometry":{"type":"Polygon","coordinates":[[[-7.514613,37.528334],[-7.707328,37.500399],[-7.982401,37.401387],[-8.07069,37.32674],[-8.170788,37.337049],[-8.280703,37.42831],[-8.413977,37.413944],[-8.465964,37.375393],[-8.636702,37.38361],[-8.807617,37.449419],[-8.882768,37.309931],[-8.881365,37.23248],[-8.985585,37.063381],[-8.878919,37.047209],[-8.62678,37.121161],[-8.438834,37.082734],[-8.179152,37.088099],[-7.981353,37.001695],[-7.78661,37.022691],[-7.51179,37.17178],[-7.414418,37.192816],[-7.475947,37.49425],[-7.514613,37.528334]]]},"properties":{"LOCATION_TYPE":"level1","ADM0_A3":"PRT","LOCATION_ID":"PRT-08","NAME":"Faro","TYPE_EN":"District"}},
{"type":"Feature","geometry":{"type":"Polygon","coordinates":[[[-7.514613,37.528334],[-7.426338,37.750617],[-7.334405,37.811931],[-7.268621,37.949235],[-7.123256,38.040005],[-7.023985,38.022564],[-6.947504,38.196636],[-7.117068,38.183633],[-7.172967,38.190331],[-7.281023,38.330839],[-7.400473,38.299756],[-7.517133,38.196325],[-7.669371,38.207487],[-7.931216,38.302546],[-8.162132,38.317558],[-8.135079,38.223249],[-8.347805,38.143202],[-8.401342,38.075997],[-8.293364,37.981532],[-8.328556,37.846734],[-8.521671,37.853013],[-8.595801,37.759039],[-8.683547,37.757541],[-8.801369,37.826759],[-8.826527,37.600572],[-8.807617,37.449419],[-8.636702,37.38361],[-8.465964,37.375393],[-8.413977,37.413944],[-8.280703,37.42831],[-8.170788,37.337049],[-8.07069,37.32674],[-7.982401,37.401387],[-7.707328,37.500399],[-7.514613,37.528334]]]},"properties":{"LOCATION_TYPE":"level1","ADM0_A3":"PRT","LOCATION_ID":"PRT-02","NAME":"Beja","TYPE_EN":"District"}},
{"type":"Feature","geometry":{"type":"Polygon","coordinates":[[[-8.801369,37.826759],[-8.683547,37.757541],[-8.595801,37.759039],[-8.521671,37.853013],[-8.328556,37.846734],[-8.293364,37.981532],[-8.401342,38.075997],[-8.347805,38.143202],[-8.135079,38.223249],[-8.162132,38.317558],[-8.30835,38.377038],[-8.293571,38.432771],[-8.368502,38.535736],[-8.516555,38.519406],[-8.638124,38.55036],[-8.651585,38.606171],[-8.507821,38.712831],[-8.546579,38.76704],[-8.703158,38.8344],[-8.785556,38.734199],[-8.923093,38.777763],[-8.942616,38.77558],[-9.052398,38.693671],[-9.252675,38.665484],[-9.183793,38.551537],[-9.200357,38.412481],[-9.048595,38.440671],[-8.905832,38.512397],[-8.795071,38.359227],[-8.774396,38.186949],[-8.867502,37.973619],[-8.804815,37.901873],[-8.801369,37.826759]]]},"properties":{"LOCATION_TYPE":"level1","ADM0_A3":"PRT","LOCATION_ID":"PRT-15","NAME":"Setúbal","TYPE_EN":"District"}},
{"type":"Feature","geometry":{"type":"MultiPolygon","coordinates":[[[[-8.942616,38.77558],[-8.923093,38.777763],[-8.955753,38.840911],[-8.790354,39.070624],[-8.943227,39.015204],[-9.011545,38.913398],[-8.942616,38.77558]]],[[[-8.791754,39.082415],[-8.902629,39.177764],[-8.874647,39.254245],[-8.994148,39.298997],[-9.067038,39.311658],[-9.169357,39.221198],[-9.249378,39.317032],[-9.347591,39.292478],[-9.35086,39.197309],[-9.436635,39.029486],[-9.422725,38.931404],[-9.491933,38.819241],[-9.491689,38.707587],[-9.321777,38.670325],[-9.112503,38.714182],[-9.106557,38.813788],[-8.922719,39.049262],[-8.791754,39.082415]]]]},"properties":{"LOCATION_TYPE":"level1","ADM0_A3":"PRT","LOCATION_ID":"PRT-11","NAME":"Lisboa","TYPE_EN":"District"}},
{"type":"Feature","geometry":{"type":"Polygon","coordinates":[[[-8.790354,39.070624],[-8.955753,38.840911],[-8.923093,38.777763],[-8.785556,38.734199],[-8.703158,38.8344],[-8.546579,38.76704],[-8.257811,38.905998],[-8.19691,39.000901],[-8.33362,39.116967],[-8.291245,39.163811],[-8.085418,39.285251],[-7.949199,39.414804],[-8.010229,39.468702],[-7.93659,39.553348],[-7.804712,39.557121],[-7.866801,39.635927],[-8.046842,39.73649],[-8.061544,39.624223],[-8.22019,39.646495],[-8.227709,39.751941],[-8.279102,39.794781],[-8.442916,39.742277],[-8.470769,39.83731],[-8.6767,39.758142],[-8.672204,39.565105],[-8.751114,39.479554],[-8.865138,39.479373],[-8.998722,39.361422],[-8.994148,39.298997],[-8.874647,39.254245],[-8.902629,39.177764],[-8.791754,39.082415],[-8.790354,39.070624]]]},"properties":{"LOCATION_TYPE":"level1","ADM0_A3":"PRT","LOCATION_ID":"PRT-14","NAME":"Santarém","TYPE_EN":"District"}},
{"type":"Feature","geometry":{"type":"Polygon","coordinates":[[[-9.347591,39.292478],[-9.249378,39.317032],[-9.169357,39.221198],[-9.067038,39.311658],[-8.994148,39.298997],[-8.998722,39.361422],[-8.865138,39.479373],[-8.751114,39.479554],[-8.672204,39.565105],[-8.6767,39.758142],[-8.470769,39.83731],[-8.442916,39.742277],[-8.279102,39.794781],[-8.126346,39.921233],[-8.107975,39.965313],[-8.17456,40.086339],[-8.235073,40.063989],[-8.349123,39.944487],[-8.412737,40.010271],[-8.544176,39.964899],[-8.677165,40.0281],[-8.815425,40.021072],[-8.902476,40.04741],[-9.071692,39.680437],[-9.090434,39.579275],[-9.240315,39.419997],[-9.352922,39.367934],[-9.347591,39.292478]]]},"properties":{"LOCATION_TYPE":"level1","ADM0_A3":"PRT","LOCATION_ID":"PRT-10","NAME":"Leiria","TYPE_EN":"District"}},
{"type":"Feature","geometry":{"type":"Polygon","coordinates":[[[-8.902476,40.04741],[-8.815425,40.021072],[-8.677165,40.0281],[-8.544176,39.964899],[-8.412737,40.010271],[-8.349123,39.944487],[-8.235073,40.063989],[-8.17456,40.086339],[-8.107975,39.965313],[-8.126346,39.921233],[-7.917315,40.004484],[-7.894861,40.046858],[-7.740116,40.094478],[-7.806882,40.185041],[-7.782129,40.232041],[-7.769985,40.327306],[-7.824633,40.497838],[-8.116217,40.338908],[-8.229337,40.320562],[-8.350208,40.372006],[-8.457204,40.285655],[-8.486479,40.376425],[-8.675382,40.43469],[-8.787903,40.522958],[-8.865387,40.275458],[-8.908437,40.20067],[-8.853261,40.139228],[-8.902476,40.04741]]]},"properties":{"LOCATION_TYPE":"level1","ADM0_A3":"PRT","LOCATION_ID":"PRT-06","NAME":"Coimbra","TYPE_EN":"District"}},
{"type":"Feature","geometry":{"type":"Polygon","coordinates":[[[-8.787903,40.522958],[-8.675382,40.43469],[-8.486479,40.376425],[-8.457204,40.285655],[-8.350208,40.372006],[-8.331346,40.484351],[-8.253237,40.51453],[-8.301374,40.58698],[-8.315585,40.740253],[-8.199261,40.853657],[-8.109758,40.872079],[-8.149264,40.982047],[-8.290186,41.083384],[-8.415682,41.022561],[-8.655201,41.016652],[-8.700551,40.777981],[-8.641591,40.694159],[-8.72468,40.644517],[-8.787903,40.522958]]]},"properties":{"LOCATION_TYPE":"level1","ADM0_A3":"PRT","LOCATION_ID":"PRT-01","NAME":"Aveiro","TYPE_EN":"District"}},
{"type":"Feature","geometry":{"type":"Polygon","coordinates":[[[-8.655201,41.016652],[-8.415682,41.022561],[-8.290186,41.083384],[-8.062061,41.105863],[-7.89605,41.159116],[-7.875457,41.246785],[-7.975502,41.370085],[-8.036145,41.325023],[-8.169754,41.400781],[-8.322277,41.366829],[-8.484774,41.372617],[-8.775097,41.467563],[-8.783803,41.393866],[-8.737172,41.249661],[-8.666127,41.132758],[-8.655201,41.016652]]]},"properties":{"LOCATION_TYPE":"level1","ADM0_A3":"PRT","LOCATION_ID":"PRT-13","NAME":"Porto","TYPE_EN":"District"}},
{"type":"Feature","geometry":{"type":"Polygon","coordinates":[[[-16.788686,32.686672],[-16.749989,32.730618],[-16.919749,32.841213],[-17.067983,32.814154],[-17.200266,32.868476],[-17.252105,32.814521],[-17.142974,32.705552],[-16.976796,32.647203],[-16.847808,32.644029],[-16.788686,32.686672]]]},"properties":{"LOCATION_TYPE":"level1","ADM0_A3":"PRT","LOCATION_ID":"PRT-30","NAME":"Madeira","TYPE_EN":"Autonomous region"}},
{"type":"Feature","geometry":{"type":"MultiPolygon","coordinates":[[[[-25.066803,37.02147],[-25.170318,37.01553],[-25.169097,36.94599],[-25.027089,36.934312],[-25.066803,37.02147]]],[[[-25.197825,37.864407],[-25.339752,37.861802],[-25.458485,37.829657],[-25.680735,37.843329],[-25.764556,37.911566],[-25.841461,37.905992],[-25.825063,37.815416],[-25.704254,37.744045],[-25.505686,37.706732],[-25.194732,37.740709],[-25.132314,37.7862],[-25.197825,37.864407]]],[[[-28.109486,38.446601],[-28.374501,38.550482],[-28.48526,38.557807],[-28.548899,38.484442],[-28.459543,38.405666],[-28.296783,38.411322],[-28.241851,38.37759],[-28.109486,38.446601]]],[[[-28.609731,38.597398],[-28.719594,38.645209],[-28.842397,38.599433],[-28.749582,38.523505],[-28.596059,38.55272],[-28.609731,38.597398]]],[[[-27.020131,38.693671],[-27.144276,38.796088],[-27.298207,38.803534],[-27.391713,38.758857],[-27.327626,38.666327],[-27.228383,38.641099],[-27.060292,38.641425],[-27.020131,38.693671]]],[[[-31.207916,39.508612],[-31.284657,39.397895],[-31.177235,39.355618],[-31.131581,39.423],[-31.207916,39.508612]]]]},"properties":{"LOCATION_TYPE":"level1","ADM0_A3":"PRT","LOCATION_ID":"PRT-20","NAME":"Azores","TYPE_EN":"Autonomous region"}},
{"type":"Feature","geometry":{"type":"Polygon","coordinates":[[[-7.43228,41.215986],[-7.550154,41.182758],[-7.89605,41.159116],[-8.062061,41.105863],[-8.290186,41.083384],[-8.149264,40.982047],[-8.109758,40.872079],[-8.199261,40.853657],[-8.315585,40.740253],[-8.301374,40.58698],[-8.253237,40.51453],[-8.331346,40.484351],[-8.350208,40.372006],[-8.229337,40.320562],[-8.116217,40.338908],[-7.824633,40.497838],[-7.577697,40.572304],[-7.539896,40.685372],[-7.617436,40.788105],[-7.581676,40.856835],[-7.412514,40.870581],[-7.341484,40.93776],[-7.370526,41.014138],[-7.30066,41.159348],[-7.43228,41.215986]]]},"properties":{"LOCATION_TYPE":"level1","ADM0_A3":"PRT","LOCATION_ID":"PRT-18","NAME":"Viseu","TYPE_EN":"District"}}
]}