{"type":"FeatureCollection", "features": [
{"type":"Feature","geometry":{"type":"Polygon","coordinates":[[[-61.92474,-20.065128],[-62.277305,-20.579776],[-62.275703,-21.066568],[-62.650357,-22.234456],[-62.632684,-22.295951],[-62.287227,-22.483949],[-62.1708,-22.71732],[-62.035821,-22.884855],[-61.956446,-23.034407],[-61.84498,-23.097245],[-61.744263,-23.234808],[-61.60515,-23.289275],[-61.491849,-23.413195],[-61.296951,-23.481408],[-61.109857,-23.606982],[-61.118849,-23.66641],[-61.006349,-23.805471],[-60.787776,-23.873445],[-60.765071,-23.663775],[-60.553999,-23.586002],[-60.230168,-23.569362],[-60.063615,-23.499857],[-60.032687,-23.335836],[-59.973388,-23.205198],[-59.96096,-22.91364],[-59.93445,-22.795766],[-59.740973,-22.529012],[-59.739087,-22.450567],[-59.616485,-22.412017],[-59.594522,-22.295641],[-59.464065,-22.230219],[-59.304204,-22.195647],[-59.34229,-22.083045],[-59.420424,-22.046509],[-59.781591,-22.033539],[-59.929179,-22.043822],[-59.958169,-21.907706],[-59.851768,-21.469645],[-59.695756,-21.325365],[-59.736891,-21.068688],[-59.829728,-20.918309],[-59.875849,-20.776044],[-59.855462,-20.698168],[-59.951038,-20.651607],[-61.818702,-20.131897],[-61.92474,-20.065128]]]},"properties":{"LOCATION_TYPE":"level1","ADM0_A3":"PRY","LOCATION_ID":"PRY-19","NAME":"Boquerón","TYPE_EN":"Department"}},
{"type":"Feature","geometry":{"type":"Polygon","coordinates":[[[-60.787776,-23.873445],[-60.593584,-23.912234],[-60.484882,-23.977347],[-60.328018,-24.017964],[-60.033669,-24.007009],[-59.459725,-24.358512],[-59.340973,-24.4876],[-59.000916,-24.644179],[-58.809196,-24.776781],[-58.473403,-24.851299],[-58.311966,-24.993615],[-58.224064,-24.941216],[-57.969764,-25.078468],[-57.890493,-25.078675],[-57.754067,-25.180891],[-57.671976,-25.289831],[-57.583456,-25.234428],[-57.52377,-25.109165],[-57.454989,-25.112472],[-57.213427,-24.988965],[-57.181905,-24.769496],[-57.09067,-24.67746],[-57.170949,-24.298],[-57.219732,-24.197903],[-57.163017,-24.117442],[-57.278049,-24.005098],[-57.280348,-23.72341],[-57.450415,-23.573806],[-57.446178,-23.474484],[-57.48031,-23.278992],[-57.624617,-23.165304],[-57.632058,-23.111147],[-57.789413,-23.021385],[-57.789413,-22.877983],[-57.940205,-22.716339],[-57.78471,-22.665283],[-57.84897,-22.423024],[-58.194091,-22.280914],[-58.263234,-22.198025],[-58.998435,-22.156838],[-59.152611,-22.162213],[-59.34229,-22.083045],[-59.304204,-22.195647],[-59.464065,-22.230219],[-59.594522,-22.295641],[-59.616485,-22.412017],[-59.739087,-22.450567],[-59.740973,-22.529012],[-59.93445,-22.795766],[-59.96096,-22.91364],[-59.973388,-23.205198],[-60.032687,-23.335836],[-60.063615,-23.499857],[-60.230168,-23.569362],[-60.553999,-23.586002],[-60.765071,-23.663775],[-60.787776,-23.873445]]]},"properties":{"LOCATION_TYPE":"level1","ADM0_A3":"PRY","LOCATION_ID":"PRY-15","NAME":"Presidente Hayes","TYPE_EN":"Department"}},
{"type":"Feature","geometry":{"type":"Polygon","coordinates":[[[-57.597542,-25.403364],[-57.556921,-25.45984],[-57.623067,-25.615386],[-57.753705,-25.672747],[-57.819662,-25.849779],[-57.703837,-25.809742],[-57.559608,-25.913095],[-57.50359,-26.011073],[-57.405044,-25.858421],[-57.425998,-25.738119],[-57.238335,-25.479685],[-57.161751,-25.425321],[-57.23309,-25.397364],[-57.318227,-25.255926],[-57.454989,-25.112472],[-57.52377,-25.109165],[-57.583456,-25.234428],[-57.549115,-25.358456],[-57.597542,-25.403364]]]},"properties":{"LOCATION_TYPE":"level1","ADM0_A3":"PRY","LOCATION_ID":"PRY-11","NAME":"Central","TYPE_EN":"Department"}},
{"type":"Feature","geometry":{"type":"Polygon","coordinates":[[[-57.597542,-25.403364],[-57.549115,-25.358456],[-57.583456,-25.234428],[-57.671976,-25.289831],[-57.597542,-25.403364]]]},"properties":{"LOCATION_TYPE":"level1","ADM0_A3":"PRY","LOCATION_ID":"PRY-ASU","NAME":"Asunción","TYPE_EN":"Capital District"}},
{"type":"Feature","geometry":{"type":"Polygon","coordinates":[[[-54.664974,-26.238863],[-54.587904,-25.810827],[-54.643146,-25.68794],[-54.583356,-25.644842],[-54.609814,-25.432762],[-54.429722,-25.130558],[-54.462278,-25.03723],[-54.358429,-24.731422],[-54.626531,-24.68919],[-54.668363,-24.638806],[-54.885404,-24.620202],[-54.992323,-24.539587],[-55.227528,-24.502173],[-55.291581,-24.583719],[-55.328452,-24.768565],[-55.327522,-24.965918],[-55.015009,-25.184509],[-55.024155,-25.3399],[-55.22683,-25.231276],[-55.489243,-25.555597],[-55.399533,-25.608876],[-55.526295,-25.860747],[-55.513118,-25.962756],[-55.429014,-26.010298],[-55.305275,-25.990661],[-55.291452,-26.083317],[-55.2575,-26.180314],[-55.067253,-26.216849],[-54.907056,-26.148946],[-54.664974,-26.238863]]]},"properties":{"LOCATION_TYPE":"level1","ADM0_A3":"PRY","LOCATION_ID":"PRY-10","NAME":"Alto Paraná","TYPE_EN":"Department"}},
{"type":"Feature","geometry":{"type":"Polygon","coordinates":[[[-54.664974,-26.238863],[-54.907056,-26.148946],[-55.067253,-26.216849],[-55.2575,-26.180314],[-55.291452,-26.083317],[-55.323181,-26.165173],[-55.465705,-26.287439],[-55.739874,-26.356892],[-55.864621,-26.471976],[-55.984071,-26.498021],[-56.118352,-26.671292],[-56.411667,-26.775626],[-56.572252,-26.7224],[-56.53197,-27.086408],[-56.65496,-27.189244],[-56.688472,-27.293993],[-56.638016,-27.452912],[-56.54644,-27.455067],[-56.461484,-27.553873],[-56.367537,-27.580641],[-56.279842,-27.389645],[-56.124554,-27.298901],[-55.913094,-27.32784],[-55.754732,-27.443698],[-55.591331,-27.328357],[-55.598979,-27.182629],[-55.461855,-27.097983],[-55.414003,-26.979851],[-55.2806,-26.934272],[-55.138361,-26.953702],[-55.125778,-26.863579],[-54.97527,-26.787821],[-54.903337,-26.65987],[-54.793059,-26.644987],[-54.789829,-26.528509],[-54.706475,-26.441796],[-54.664974,-26.238863]]]},"properties":{"LOCATION_TYPE":"level1","ADM0_A3":"PRY","LOCATION_ID":"PRY-7","NAME":"Itapúa","TYPE_EN":"Department"}},
{"type":"Feature","geometry":{"type":"Polygon","coordinates":[[[-57.819662,-25.849779],[-57.875352,-25.876146],[-57.872716,-26.010298],[-58.086501,-26.12719],[-58.169959,-26.270333],[-58.206184,-26.402728],[-58.247939,-26.758159],[-58.459812,-26.928174],[-58.51154,-27.060156],[-58.653289,-27.156274],[-58.510765,-27.278437],[-58.021958,-27.259834],[-57.697791,-27.333524],[-57.535682,-27.407215],[-57.310116,-27.429208],[-57.202058,-27.133847],[-57.232186,-27.072714],[-57.421735,-27.044292],[-57.634823,-26.780846],[-57.70549,-26.412496],[-57.48124,-26.174319],[-57.50359,-26.011073],[-57.559608,-25.913095],[-57.703837,-25.809742],[-57.819662,-25.849779]]]},"properties":{"LOCATION_TYPE":"level1","ADM0_A3":"PRY","LOCATION_ID":"PRY-12","NAME":"Ñeembucú","TYPE_EN":"Department"}},
{"type":"Feature","geometry":{"type":"Polygon","coordinates":[[[-57.310116,-27.429208],[-57.180097,-27.487313],[-57.076227,-27.484006],[-56.904351,-27.418687],[-56.771155,-27.506744],[-56.638016,-27.452912],[-56.688472,-27.293993],[-56.65496,-27.189244],[-56.53197,-27.086408],[-56.572252,-26.7224],[-56.783428,-26.540757],[-56.819343,-26.489804],[-57.039304,-26.403969],[-57.200844,-26.589436],[-57.340551,-26.623233],[-57.548782,-26.550627],[-57.70549,-26.412496],[-57.634823,-26.780846],[-57.421735,-27.044292],[-57.232186,-27.072714],[-57.202058,-27.133847],[-57.310116,-27.429208]]]},"properties":{"LOCATION_TYPE":"level1","ADM0_A3":"PRY","LOCATION_ID":"PRY-8","NAME":"Misiones","TYPE_EN":"Department"}},
{"type":"Feature","geometry":{"type":"Polygon","coordinates":[[[-57.973134,-22.081048],[-57.925374,-21.904967],[-57.955915,-21.85112],[-57.895609,-21.688442],[-57.939017,-21.623744],[-57.929922,-21.453108],[-57.855559,-21.330738],[-57.82538,-20.998562],[-57.908683,-20.881567],[-57.86021,-20.730258],[-57.990952,-20.620601],[-57.989401,-20.433119],[-58.082987,-20.376171],[-58.156316,-20.261656],[-58.145154,-19.969581],[-58.175282,-19.821373],[-59.089541,-19.286729],[-60.006384,-19.298097],[-60.833931,-19.467906],[-61.761213,-19.657765],[-61.92474,-20.065128],[-61.818702,-20.131897],[-59.951038,-20.651607],[-59.855462,-20.698168],[-59.875849,-20.776044],[-59.829728,-20.918309],[-59.736891,-21.068688],[-59.695756,-21.325365],[-59.851768,-21.469645],[-59.958169,-21.907706],[-59.929179,-22.043822],[-59.781591,-22.033539],[-59.420424,-22.046509],[-59.34229,-22.083045],[-59.152611,-22.162213],[-58.998435,-22.156838],[-58.263234,-22.198025],[-58.194091,-22.280914],[-57.84897,-22.423024],[-57.896719,-22.27926],[-57.965733,-22.256832],[-57.973134,-22.081048]]]},"properties":{"LOCATION_TYPE":"level1","ADM0_A3":"PRY","LOCATION_ID":"PRY-16","NAME":"Alto Paraguay","TYPE_EN":"Department"}},
{"type":"Feature","geometry":{"type":"Polygon","coordinates":[[[-57.973134,-22.081048],[-57.965733,-22.256832],[-57.896719,-22.27926],[-57.84897,-22.423024],[-57.78471,-22.665283],[-57.940205,-22.716339],[-57.789413,-22.877983],[-57.789413,-23.021385],[-57.632058,-23.111147],[-57.624617,-23.165304],[-57.48031,-23.278992],[-57.446178,-23.474484],[-57.350473,-23.504767],[-56.838515,-23.421723],[-56.605351,-23.452315],[-56.404898,-23.411387],[-56.301028,-23.33966],[-56.190544,-23.208919],[-56.128145,-23.052494],[-56.271573,-22.707089],[-56.500783,-22.798195],[-56.595429,-22.886716],[-56.721597,-22.643785],[-56.709324,-22.479609],[-56.622611,-22.347163],[-56.842856,-22.289026],[-57.21379,-22.188154],[-57.384994,-22.213268],[-57.614075,-22.176991],[-57.654486,-22.104541],[-57.843881,-22.143712],[-57.973134,-22.081048]]]},"properties":{"LOCATION_TYPE":"level1","ADM0_A3":"PRY","LOCATION_ID":"PRY-1","NAME":"Concepción","TYPE_EN":"Department"}},
{"type":"Feature","geometry":{"type":"Polygon","coordinates":[[[-55.533796,-23.530444],[-55.513868,-23.379399],[-55.535236,-23.229124],[-55.637814,-23.000714],[-55.659001,-22.818296],[-55.631199,-22.626783],[-55.74127,-22.537176],[-55.751579,-22.416253],[-55.89294,-22.306803],[-56.196798,-22.279311],[-56.316842,-22.207687],[-56.421797,-22.074465],[-56.5113,-22.091415],[-56.654703,-22.23735],[-56.842856,-22.289026],[-56.622611,-22.347163],[-56.709324,-22.479609],[-56.721597,-22.643785],[-56.595429,-22.886716],[-56.500783,-22.798195],[-56.271573,-22.707089],[-56.128145,-23.052494],[-56.190544,-23.208919],[-56.301028,-23.33966],[-56.084297,-23.324209],[-56.042956,-23.423376],[-56.144242,-23.514843],[-56.11414,-23.59458],[-55.936244,-23.530191],[-55.981461,-23.768213],[-56.059079,-23.848518],[-55.906582,-23.837356],[-55.720624,-23.701137],[-55.579909,-23.63556],[-55.533796,-23.530444]]]},"properties":{"LOCATION_TYPE":"level1","ADM0_A3":"PRY","LOCATION_ID":"PRY-13","NAME":"Amambay","TYPE_EN":"Department"}},
{"type":"Feature","geometry":{"type":"Polygon","coordinates":[[[-55.533796,-23.530444],[-55.579909,-23.63556],[-55.720624,-23.701137],[-55.906582,-23.837356],[-56.059079,-23.848518],[-55.992365,-24.022719],[-56.153544,-24.160799],[-56.156593,-24.26162],[-56.0443,-24.408691],[-55.902448,-24.648986],[-55.750829,-24.782673],[-55.522807,-24.55571],[-55.227528,-24.502173],[-54.992323,-24.539587],[-54.885404,-24.620202],[-54.668363,-24.638806],[-54.626531,-24.68919],[-54.358429,-24.731422],[-54.334792,-24.527287],[-54.26105,-24.32947],[-54.334637,-24.148912],[-54.245289,-24.050624],[-54.422901,-23.913785],[-54.612553,-23.811155],[-54.827424,-23.887016],[-54.943644,-23.969182],[-55.200864,-24.019515],[-55.398035,-23.97683],[-55.445319,-23.735449],[-55.533796,-23.530444]]]},"properties":{"LOCATION_TYPE":"level1","ADM0_A3":"PRY","LOCATION_ID":"PRY-14","NAME":"Canindeyú","TYPE_EN":"Department"}},
{"type":"Feature","geometry":{"type":"Polygon","coordinates":[[[-55.750829,-24.782673],[-55.902448,-24.648986],[-56.0443,-24.408691],[-56.156593,-24.26162],[-56.153544,-24.160799],[-55.992365,-24.022719],[-56.059079,-23.848518],[-55.981461,-23.768213],[-55.936244,-23.530191],[-56.11414,-23.59458],[-56.144242,-23.514843],[-56.042956,-23.423376],[-56.084297,-23.324209],[-56.301028,-23.33966],[-56.404898,-23.411387],[-56.605351,-23.452315],[-56.838515,-23.421723],[-57.350473,-23.504767],[-57.446178,-23.474484],[-57.450415,-23.573806],[-57.280348,-23.72341],[-57.278049,-24.005098],[-57.163017,-24.117442],[-57.219732,-24.197903],[-57.170949,-24.298],[-57.09067,-24.67746],[-57.181905,-24.769496],[-57.213427,-24.988965],[-57.058708,-25.037593],[-56.984811,-24.963747],[-56.689273,-24.91698],[-56.494505,-25.021728],[-56.24713,-24.788667],[-56.210775,-24.855692],[-56.054428,-24.967881],[-55.94937,-24.841946],[-55.750829,-24.782673]]]},"properties":{"LOCATION_TYPE":"level1","ADM0_A3":"PRY","LOCATION_ID":"PRY-2","NAME":"San Pedro","TYPE_EN":"Department"}},
{"type":"Feature","geometry":{"type":"Polygon","coordinates":[[[-55.750829,-24.782673],[-55.94937,-24.841946],[-56.054428,-24.967881],[-56.210775,-24.855692],[-56.24713,-24.788667],[-56.494505,-25.021728],[-56.563803,-25.349253],[-56.809266,-25.506143],[-56.746324,-25.653473],[-56.646795,-25.710368],[-56.512488,-25.628099],[-56.359061,-25.577767],[-55.938776,-25.607119],[-55.828189,-25.67683],[-55.624635,-25.65032],[-55.489243,-25.555597],[-55.22683,-25.231276],[-55.024155,-25.3399],[-55.015009,-25.184509],[-55.327522,-24.965918],[-55.328452,-24.768565],[-55.291581,-24.583719],[-55.227528,-24.502173],[-55.522807,-24.55571],[-55.750829,-24.782673]]]},"properties":{"LOCATION_TYPE":"level1","ADM0_A3":"PRY","LOCATION_ID":"PRY-5","NAME":"Caaguazú","TYPE_EN":"Department"}},
{"type":"Feature","geometry":{"type":"Polygon","coordinates":[[[-56.494505,-25.021728],[-56.689273,-24.91698],[-56.984811,-24.963747],[-57.058708,-25.037593],[-57.213427,-24.988965],[-57.454989,-25.112472],[-57.318227,-25.255926],[-57.23309,-25.397364],[-57.161751,-25.425321],[-57.088164,-25.52609],[-56.902594,-25.539423],[-56.847093,-25.660242],[-56.746324,-25.653473],[-56.809266,-25.506143],[-56.563803,-25.349253],[-56.494505,-25.021728]]]},"properties":{"LOCATION_TYPE":"level1","ADM0_A3":"PRY","LOCATION_ID":"PRY-3","NAME":"Cordillera","TYPE_EN":"Department"}},
{"type":"Feature","geometry":{"type":"Polygon","coordinates":[[[-55.489243,-25.555597],[-55.624635,-25.65032],[-55.669439,-25.730057],[-56.033499,-25.894026],[-56.074117,-26.003425],[-56.155249,-26.043991],[-56.253822,-25.991902],[-56.482568,-26.087813],[-56.586515,-26.17587],[-56.728237,-26.485515],[-56.783428,-26.540757],[-56.572252,-26.7224],[-56.411667,-26.775626],[-56.118352,-26.671292],[-55.984071,-26.498021],[-55.864621,-26.471976],[-55.739874,-26.356892],[-55.465705,-26.287439],[-55.323181,-26.165173],[-55.291452,-26.083317],[-55.305275,-25.990661],[-55.429014,-26.010298],[-55.513118,-25.962756],[-55.526295,-25.860747],[-55.399533,-25.608876],[-55.489243,-25.555597]]]},"properties":{"LOCATION_TYPE":"level1","ADM0_A3":"PRY","LOCATION_ID":"PRY-6","NAME":"Caazapá","TYPE_EN":"Department"}},
{"type":"Feature","geometry":{"type":"Polygon","coordinates":[[[-56.746324,-25.653473],[-56.847093,-25.660242],[-56.902594,-25.539423],[-57.088164,-25.52609],[-57.161751,-25.425321],[-57.238335,-25.479685],[-57.425998,-25.738119],[-57.405044,-25.858421],[-57.50359,-26.011073],[-57.48124,-26.174319],[-57.70549,-26.412496],[-57.548782,-26.550627],[-57.340551,-26.623233],[-57.200844,-26.589436],[-57.039304,-26.403969],[-56.819343,-26.489804],[-56.783428,-26.540757],[-56.728237,-26.485515],[-56.586515,-26.17587],[-56.669998,-25.99154],[-56.603852,-25.960792],[-56.655218,-25.838319],[-56.646795,-25.710368],[-56.746324,-25.653473]]]},"properties":{"LOCATION_TYPE":"level1","ADM0_A3":"PRY","LOCATION_ID":"PRY-9","NAME":"Paraguarí","TYPE_EN":"Department"}},
{"type":"Feature","geometry":{"type":"Polygon","coordinates":[[[-55.624635,-25.65032],[-55.828189,-25.67683],[-55.938776,-25.607119],[-56.359061,-25.577767],[-56.512488,-25.628099],[-56.646795,-25.710368],[-56.655218,-25.838319],[-56.603852,-25.960792],[-56.669998,-25.99154],[-56.586515,-26.17587],[-56.482568,-26.087813],[-56.253822,-25.991902],[-56.155249,-26.043991],[-56.074117,-26.003425],[-56.033499,-25.894026],[-55.669439,-25.730057],[-55.624635,-25.65032]]]},"properties":{"LOCATION_TYPE":"level1","ADM0_A3":"PRY","LOCATION_ID":"PRY-4","NAME":"Guairá","TYPE_EN":"Department"}}
]}