{"type":"FeatureCollection", "features": [
{"type":"Feature","geometry":{"type":"Polygon","coordinates":[[[34.481204,31.583141],[34.200269,31.314267],[34.248351,31.211449],[34.350905,31.289254],[34.367339,31.392814],[34.556032,31.539825],[34.481204,31.583141]]]},"properties":{"LOCATION_TYPE":"level1","ADM0_A3":"PSX","LOCATION_ID":"PSX-GZZ","NAME":"Gaza Strip","TYPE_EN":null}},
{"type":"Feature","geometry":{"type":"Polygon","coordinates":[[[35.210359,32.541868],[35.06435,32.463136],[34.958223,32.186454],[35.034323,31.861114],[35.173922,31.807551],[35.148952,31.737349],[34.973606,31.63037],[34.867153,31.396431],[34.927408,31.34491],[35.223307,31.381031],[35.390118,31.487071],[35.458125,31.491929],[35.480139,31.641119],[35.55941,31.765349],[35.522824,32.057838],[35.572536,32.237594],[35.560961,32.384717],[35.406862,32.414793],[35.392909,32.494478],[35.210359,32.541868]]]},"properties":{"LOCATION_TYPE":"level1","ADM0_A3":"PSX","LOCATION_ID":"PSX-WBK","NAME":"West Bank","TYPE_EN":null}}
]}