{"type":"FeatureCollection", "features": [
{"type":"Feature","geometry":{"type":"MultiPolygon","coordinates":[[[[-140.671946,-21.658949],[-140.675771,-21.688897],[-140.630523,-21.721612],[-140.603668,-21.706801],[-140.634185,-21.660821],[-140.671946,-21.658949]]],[[[-140.678782,-17.780369],[-140.628489,-17.728448],[-140.652089,-17.684177],[-140.78246,-17.751642],[-140.822743,-17.807061],[-140.827789,-17.860121],[-140.785227,-17.858575],[-140.727162,-17.807061],[-140.678782,-17.780369]]],[[[-146.387278,-16.108168],[-146.391754,-16.147231],[-146.338857,-16.162774],[-146.328765,-16.137628],[-146.359364,-16.100193],[-146.387278,-16.108168]]]]},"properties":{"LOCATION_TYPE":"level1","ADM0_A3":"PYF","LOCATION_ID":"PYF-X03~","NAME":"Tuamotu-Gambier","TYPE_EN":null}},
{"type":"Feature","geometry":{"type":"MultiPolygon","coordinates":[[[[-149.183461,-17.731215],[-149.303944,-17.712091],[-149.327463,-17.684177],[-149.327463,-17.597833],[-149.354115,-17.540134],[-149.429514,-17.50156],[-149.519236,-17.498468],[-149.604319,-17.525811],[-149.632761,-17.553399],[-149.642161,-17.600844],[-149.605051,-17.671808],[-149.587514,-17.731215],[-149.450388,-17.75921],[-149.343455,-17.724867],[-149.334299,-17.75921],[-149.27595,-17.844903],[-149.190297,-17.869073],[-149.156443,-17.846287],[-149.149119,-17.802016],[-149.183461,-17.731215]]],[[[-149.796702,-17.464451],[-149.885854,-17.491795],[-149.944407,-17.492364],[-149.914052,-17.535333],[-149.842763,-17.56756],[-149.804758,-17.52337],[-149.796702,-17.464451]]]]},"properties":{"LOCATION_TYPE":"level1","ADM0_A3":"PYF","LOCATION_ID":"PYF-X01~","NAME":"Windward Islands","TYPE_EN":null}},
{"type":"Feature","geometry":{"type":"MultiPolygon","coordinates":[[[[-151.478749,-16.738214],[-151.49474,-16.764581],[-151.488108,-16.856378],[-151.458241,-16.902602],[-151.352488,-16.858575],[-151.446523,-16.740492],[-151.478749,-16.738214]]],[[[-151.458241,-16.629002],[-151.472605,-16.580499],[-151.536122,-16.594903],[-151.534657,-16.641697],[-151.463246,-16.674086],[-151.458241,-16.629002]]]]},"properties":{"LOCATION_TYPE":"level1","ADM0_A3":"PYF","LOCATION_ID":"PYF-X02~","NAME":"Leeward Islands","TYPE_EN":null}},
{"type":"Feature","geometry":{"type":"Polygon","coordinates":[[[-144.283762,-27.579197],[-144.339426,-27.559259],[-144.346588,-27.61533],[-144.304433,-27.63242],[-144.283762,-27.579197]]]},"properties":{"LOCATION_TYPE":"level1","ADM0_A3":"PYF","LOCATION_ID":"PYF-X04~","NAME":"Austral Islands","TYPE_EN":null}},
{"type":"Feature","geometry":{"type":"MultiPolygon","coordinates":[[[[-138.698801,-10.426446],[-138.679596,-10.473565],[-138.685618,-10.542087],[-138.636952,-10.542169],[-138.620229,-10.510837],[-138.636708,-10.440606],[-138.698801,-10.426446]]],[[[-139.082387,-9.899509],[-139.103831,-9.888279],[-139.144439,-9.940362],[-139.14387,-9.997817],[-139.04776,-9.92254],[-139.082387,-9.899509]]],[[[-138.836578,-9.741143],[-138.866689,-9.755466],[-138.961293,-9.733819],[-138.984527,-9.699477],[-139.051381,-9.70143],[-139.169423,-9.761],[-139.15689,-9.815199],[-139.126291,-9.840102],[-139.06192,-9.853936],[-139.055043,-9.806329],[-138.955678,-9.809991],[-138.869252,-9.791599],[-138.836578,-9.741143]]],[[[-140.076731,-9.323419],[-140.101633,-9.326267],[-140.158599,-9.37184],[-140.111399,-9.437758],[-140.062896,-9.435968],[-140.041412,-9.351007],[-140.076731,-9.323419]]],[[[-139.514394,-8.883966],[-139.596913,-8.858005],[-139.630442,-8.89544],[-139.612701,-8.939223],[-139.508412,-8.912042],[-139.514394,-8.883966]]],[[[-140.049428,-8.823175],[-140.089711,-8.802016],[-140.216705,-8.78102],[-140.247792,-8.786879],[-140.249582,-8.838637],[-140.227691,-8.927016],[-140.096018,-8.919041],[-140.014027,-8.881117],[-140.049428,-8.823175]]]]},"properties":{"LOCATION_TYPE":"level1","ADM0_A3":"PYF","LOCATION_ID":"PYF-X05~","NAME":"Marquesas Islands","TYPE_EN":null}}
]}