{"type":"FeatureCollection", "features": [
{"type":"Feature","geometry":{"type":"Polygon","coordinates":[[[50.949555,25.775295],[50.87615,25.631781],[50.778005,25.527045],[50.750987,25.419623],[50.775727,25.091864],[50.851085,24.890815],[50.881008,24.636404],[50.978883,24.567726],[51.147451,24.576279],[51.220958,24.644232],[51.221037,25.009577],[51.332953,25.009577],[51.4616,25.157133],[51.493581,25.179956],[51.543293,25.218151],[51.445057,25.359693],[51.304324,25.384367],[51.287443,25.565778],[51.213628,25.73238],[51.104702,25.775216],[50.949555,25.775295]]]},"properties":{"LOCATION_TYPE":"level1","ADM0_A3":"QAT","LOCATION_ID":"QAT-RA","NAME":"Ar Rayyān","TYPE_EN":"Municipality"}},
{"type":"Feature","geometry":{"type":"Polygon","coordinates":[[[51.611095,25.237535],[51.543293,25.218151],[51.493581,25.179956],[51.4616,25.157133],[51.332953,25.009577],[51.221037,25.009577],[51.220958,24.644232],[51.381521,24.635077],[51.443614,24.679755],[51.500255,24.855373],[51.586925,24.953437],[51.611095,25.237535]]]},"properties":{"LOCATION_TYPE":"level1","ADM0_A3":"QAT","LOCATION_ID":"QAT-WA","NAME":"Al Wakrah","TYPE_EN":"Municipality"}},
{"type":"Feature","geometry":{"type":"Polygon","coordinates":[[[51.515717,25.382839],[51.445057,25.359693],[51.543293,25.218151],[51.611095,25.237535],[51.513194,25.308254],[51.515717,25.382839]]]},"properties":{"LOCATION_TYPE":"level1","ADM0_A3":"QAT","LOCATION_ID":"QAT-DA","NAME":"Ad Dawhah","TYPE_EN":"Municipality"}},
{"type":"Feature","geometry":{"type":"Polygon","coordinates":[[[51.535899,25.622382],[51.400631,25.550885],[51.445057,25.359693],[51.515717,25.382839],[51.471934,25.521389],[51.535899,25.622382]]]},"properties":{"LOCATION_TYPE":"level1","ADM0_A3":"QAT","LOCATION_ID":"QAT-ZA","NAME":"Al Daayen","TYPE_EN":"Municipality"}},
{"type":"Feature","geometry":{"type":"Polygon","coordinates":[[[51.416515,25.952094],[51.416841,25.82969],[51.244461,25.928332],[51.103915,25.928332],[51.103915,25.824224],[50.972397,25.825107],[50.949555,25.775295],[51.104702,25.775216],[51.213628,25.73238],[51.287443,25.565778],[51.400631,25.550885],[51.535899,25.622382],[51.577485,25.880845],[51.416515,25.952094]]]},"properties":{"LOCATION_TYPE":"level1","ADM0_A3":"QAT","LOCATION_ID":"QAT-KH","NAME":"Al Khawr","TYPE_EN":"Municipality"}},
{"type":"Feature","geometry":{"type":"Polygon","coordinates":[[[50.972397,25.825107],[51.103915,25.824224],[51.103915,25.928332],[51.244461,25.928332],[51.416841,25.82969],[51.416515,25.952094],[51.346853,26.104885],[51.251231,26.160102],[51.047374,26.053046],[50.972397,25.825107]]]},"properties":{"LOCATION_TYPE":"level1","ADM0_A3":"QAT","LOCATION_ID":"QAT-MS","NAME":"Madinat ach Shamal","TYPE_EN":"Municipality"}},
{"type":"Feature","geometry":{"type":"Polygon","coordinates":[[[51.287443,25.565778],[51.304324,25.384367],[51.445057,25.359693],[51.400631,25.550885],[51.287443,25.565778]]]},"properties":{"LOCATION_TYPE":"level1","ADM0_A3":"QAT","LOCATION_ID":"QAT-US","NAME":"Umm Salal","TYPE_EN":"Municipality"}}
]}