{"type":"FeatureCollection", "features": [
{"type":"Feature","geometry":{"type":"Polygon","coordinates":[[[23.485476,47.974234],[23.360052,47.993144],[23.231377,48.079728],[23.118619,48.091536],[23.063119,48.007458],[22.915841,47.959193],[22.745826,47.824989],[22.562994,47.757215],[22.261721,47.715848],[22.167608,47.594862],[22.360217,47.401035],[22.472251,47.412352],[22.58072,47.321401],[22.754663,47.387935],[22.911863,47.372044],[23.051027,47.316053],[23.090457,47.40429],[22.96881,47.444495],[23.116812,47.576476],[23.267965,47.538081],[23.359536,47.64257],[23.271841,47.74923],[23.479167,47.743029],[23.620657,47.816203],[23.485476,47.974234]]]},"properties":{"LOCATION_TYPE":"level1","ADM0_A3":"ROU","LOCATION_ID":"ROU-SM","NAME":"Satu Mare","TYPE_EN":"County"}},
{"type":"Feature","geometry":{"type":"Polygon","coordinates":[[[21.423539,46.658231],[21.316249,46.616639],[21.17879,46.384457],[21.164527,46.318259],[21.051459,46.236094],[20.819638,46.271699],[20.704368,46.168526],[20.919581,46.037139],[21.36865,45.972905],[21.431023,46.034038],[21.584192,45.992025],[21.670337,45.901746],[21.736741,45.94965],[21.888618,45.935491],[21.955229,45.982155],[22.131342,45.905157],[22.228959,45.892755],[22.354946,45.949857],[22.419645,46.025331],[22.433597,46.176148],[22.600719,46.210926],[22.755283,46.333813],[22.706707,46.368746],[22.420265,46.390218],[22.209373,46.494914],[22.14545,46.582738],[21.825779,46.658083],[21.492001,46.645215],[21.423539,46.658231]]]},"properties":{"LOCATION_TYPE":"level1","ADM0_A3":"ROU","LOCATION_ID":"ROU-AR","NAME":"Arad","TYPE_EN":"County"}},
{"type":"Feature","geometry":{"type":"Polygon","coordinates":[[[21.423539,46.658231],[21.492001,46.645215],[21.825779,46.658083],[22.14545,46.582738],[22.209373,46.494914],[22.420265,46.390218],[22.706707,46.368746],[22.702522,46.532147],[22.802774,46.5569],[22.803394,46.627361],[22.668829,46.775311],[22.76567,46.884374],[22.71942,46.979355],[22.590487,47.058575],[22.494266,47.194174],[22.58072,47.321401],[22.472251,47.412352],[22.360217,47.401035],[22.167608,47.594862],[21.988869,47.492942],[22.001582,47.393827],[21.862159,47.297424],[21.825985,47.185054],[21.632819,47.022686],[21.648528,46.942976],[21.502904,46.80531],[21.483577,46.684852],[21.423539,46.658231]]]},"properties":{"LOCATION_TYPE":"level1","ADM0_A3":"ROU","LOCATION_ID":"ROU-BH","NAME":"Bihor","TYPE_EN":"County"}},
{"type":"Feature","geometry":{"type":"Polygon","coordinates":[[[20.704368,46.168526],[20.607558,46.129485],[20.283237,46.1438],[20.242826,46.108091],[20.338634,45.992801],[20.572108,45.887691],[20.713392,45.733334],[20.760727,45.493348],[20.981489,45.33279],[21.206075,45.245922],[21.405546,45.199671],[21.484388,45.152702],[21.53205,45.195123],[21.541817,45.323332],[21.48549,45.449526],[21.591788,45.548719],[21.810741,45.528126],[22.166224,45.603677],[22.270197,45.589259],[22.33505,45.648144],[22.44538,45.662898],[22.486049,45.785991],[22.354946,45.949857],[22.228959,45.892755],[22.131342,45.905157],[21.955229,45.982155],[21.888618,45.935491],[21.736741,45.94965],[21.670337,45.901746],[21.584192,45.992025],[21.431023,46.034038],[21.36865,45.972905],[20.919581,46.037139],[20.704368,46.168526]]]},"properties":{"LOCATION_TYPE":"level1","ADM0_A3":"ROU","LOCATION_ID":"ROU-TM","NAME":"Timis","TYPE_EN":"County"}},
{"type":"Feature","geometry":{"type":"Polygon","coordinates":[[[23.008307,44.100446],[23.090612,44.162292],[23.218924,44.451551],[23.366977,44.526533],[23.489399,44.550304],[23.318866,44.664199],[23.145389,44.699649],[22.937443,44.84163],[22.917754,44.972992],[22.641078,45.09239],[22.566613,45.023919],[22.441814,44.769412],[22.387812,44.753651],[22.221931,44.806154],[22.149946,44.597692],[22.034243,44.596168],[22.104314,44.509636],[22.185136,44.515113],[22.319702,44.685336],[22.483723,44.72399],[22.621182,44.637432],[22.621182,44.569219],[22.484136,44.499766],[22.505117,44.404061],[22.582838,44.328406],[22.68154,44.305307],[22.690739,44.228878],[22.906436,44.122889],[23.008307,44.100446]]]},"properties":{"LOCATION_TYPE":"level1","ADM0_A3":"ROU","LOCATION_ID":"ROU-MH","NAME":"Mehedinti","TYPE_EN":"County"}},
{"type":"Feature","geometry":{"type":"Polygon","coordinates":[[[23.008307,44.100446],[23.023018,44.031629],[22.885869,43.994525],[22.850522,43.896986],[22.919562,43.834225],[23.131849,43.847945],[23.325151,43.886592],[23.484695,43.880604],[23.592699,43.837429],[23.799922,43.818463],[24.149606,43.75472],[24.271935,43.919852],[24.250851,44.219523],[24.159435,44.264043],[24.038254,44.383648],[23.905704,44.465452],[23.958156,44.52966],[23.775531,44.722542],[23.736722,44.629395],[23.489399,44.550304],[23.366977,44.526533],[23.218924,44.451551],[23.090612,44.162292],[23.008307,44.100446]]]},"properties":{"LOCATION_TYPE":"level1","ADM0_A3":"ROU","LOCATION_ID":"ROU-DJ","NAME":"Dolj","TYPE_EN":"County"}},
{"type":"Feature","geometry":{"type":"Polygon","coordinates":[[[26.415791,44.063789],[26.789455,44.115965],[27.027476,44.177046],[27.252662,44.121519],[27.444868,44.134128],[27.607959,44.205467],[27.732912,44.20986],[27.933985,44.266032],[28.022765,44.354709],[27.780248,44.417754],[27.702475,44.464573],[27.465848,44.506457],[27.073418,44.492142],[26.78372,44.526275],[26.434077,44.523277],[26.438314,44.442921],[26.342403,44.401424],[26.280029,44.321455],[26.459708,44.185055],[26.415791,44.063789]]]},"properties":{"LOCATION_TYPE":"level1","ADM0_A3":"ROU","LOCATION_ID":"ROU-CL","NAME":"Calarasi","TYPE_EN":"County"}},
{"type":"Feature","geometry":{"type":"Polygon","coordinates":[[[25.732948,43.718781],[25.674227,43.883523],[25.642394,44.073848],[25.719392,44.159811],[25.70947,44.282259],[25.5501,44.329491],[25.493617,44.406592],[25.513616,44.505863],[25.395846,44.527954],[25.27854,44.437288],[25.19007,44.453463],[24.981246,44.391089],[24.851331,44.389926],[24.841254,44.115757],[24.657699,44.044754],[24.631603,43.990984],[24.745188,43.807145],[24.661763,43.755657],[24.963675,43.749605],[25.252339,43.704646],[25.35962,43.654287],[25.556558,43.670359],[25.732948,43.718781]]]},"properties":{"LOCATION_TYPE":"level1","ADM0_A3":"ROU","LOCATION_ID":"ROU-TR","NAME":"Teleorman","TYPE_EN":"County"}},
{"type":"Feature","geometry":{"type":"Polygon","coordinates":[[[25.732948,43.718781],[26.150734,44.012405],[26.415791,44.063789],[26.459708,44.185055],[26.280029,44.321455],[26.131356,44.263242],[25.905117,44.369282],[25.907132,44.565911],[25.599141,44.55294],[25.513616,44.505863],[25.493617,44.406592],[25.5501,44.329491],[25.70947,44.282259],[25.719392,44.159811],[25.642394,44.073848],[25.674227,43.883523],[25.732948,43.718781]]]},"properties":{"LOCATION_TYPE":"level1","ADM0_A3":"ROU","LOCATION_ID":"ROU-GR","NAME":"Giurgiu","TYPE_EN":"County"}},
{"type":"Feature","geometry":{"type":"Polygon","coordinates":[[[27.252662,44.121519],[27.383837,44.015092],[27.656275,44.023877],[27.721698,43.94874],[27.85647,43.988634],[27.935845,43.964398],[27.98101,43.84934],[28.221254,43.761981],[28.434574,43.735213],[28.57838,43.741278],[28.671235,44.003323],[28.63087,44.154486],[28.665212,44.199286],[28.64088,44.328559],[28.844005,44.49372],[28.774181,44.552314],[28.785411,44.679674],[28.670932,44.710533],[28.526901,44.69613],[28.404475,44.760944],[28.282049,44.710533],[28.19563,44.768146],[28.054805,44.777009],[27.910886,44.775303],[27.916364,44.694456],[28.034548,44.630971],[28.007211,44.531985],[28.109013,44.457803],[28.022765,44.354709],[27.933985,44.266032],[27.732912,44.20986],[27.607959,44.205467],[27.444868,44.134128],[27.252662,44.121519]]]},"properties":{"LOCATION_TYPE":"level1","ADM0_A3":"ROU","LOCATION_ID":"ROU-CT","NAME":"Constanta","TYPE_EN":"County"}},
{"type":"Feature","geometry":{"type":"Polygon","coordinates":[[[24.149606,43.75472],[24.358234,43.760017],[24.500137,43.799498],[24.661763,43.755657],[24.745188,43.807145],[24.631603,43.990984],[24.657699,44.044754],[24.841254,44.115757],[24.851331,44.389926],[24.765393,44.416462],[24.717747,44.741559],[24.621681,44.768482],[24.545975,44.888346],[24.437816,44.850028],[24.353377,44.86026],[24.286353,44.7459],[24.333223,44.58317],[24.095667,44.520616],[23.958156,44.52966],[23.905704,44.465452],[24.038254,44.383648],[24.159435,44.264043],[24.250851,44.219523],[24.271935,43.919852],[24.149606,43.75472]]]},"properties":{"LOCATION_TYPE":"level1","ADM0_A3":"ROU","LOCATION_ID":"ROU-OT","NAME":"Olt","TYPE_EN":"County"}},
{"type":"Feature","geometry":{"type":"Polygon","coordinates":[[[21.484388,45.152702],[21.368545,44.86486],[21.41216,44.784813],[21.558405,44.78166],[21.65628,44.687661],[21.855441,44.698461],[22.004269,44.651539],[22.034243,44.596168],[22.149946,44.597692],[22.221931,44.806154],[22.387812,44.753651],[22.441814,44.769412],[22.566613,45.023919],[22.641078,45.09239],[22.572659,45.170757],[22.669139,45.240469],[22.706862,45.322324],[22.653326,45.520219],[22.542376,45.570035],[22.44538,45.662898],[22.33505,45.648144],[22.270197,45.589259],[22.166224,45.603677],[21.810741,45.528126],[21.591788,45.548719],[21.48549,45.449526],[21.541817,45.323332],[21.53205,45.195123],[21.484388,45.152702]]]},"properties":{"LOCATION_TYPE":"level1","ADM0_A3":"ROU","LOCATION_ID":"ROU-CS","NAME":"Caras-Severin","TYPE_EN":"County"}},
{"type":"Feature","geometry":{"type":"Polygon","coordinates":[[[27.431342,47.572638],[27.272009,47.71497],[27.212375,47.889507],[27.059206,48.05805],[27.048044,48.122232],[26.804906,48.25827],[26.665741,48.274212],[26.30349,48.212045],[26.286953,48.124712],[26.173058,47.993144],[26.10253,47.978267],[26.141588,47.896276],[26.283285,47.826254],[26.526733,47.614045],[26.567557,47.468059],[26.658456,47.426666],[26.74367,47.492657],[26.956887,47.476689],[27.092486,47.51834],[27.232013,47.491107],[27.307098,47.557511],[27.431342,47.572638]]]},"properties":{"LOCATION_TYPE":"level1","ADM0_A3":"ROU","LOCATION_ID":"ROU-BT","NAME":"Botosani","TYPE_EN":"County"}},
{"type":"Feature","geometry":{"type":"Polygon","coordinates":[[[27.431342,47.572638],[27.307098,47.557511],[27.232013,47.491107],[27.092486,47.51834],[26.956887,47.476689],[26.74367,47.492657],[26.658456,47.426666],[26.572673,47.285745],[26.482343,47.253602],[26.602645,47.156373],[26.648379,47.076352],[26.872448,47.011291],[27.148038,47.07506],[27.239454,46.991706],[27.144318,46.934138],[27.204831,46.859569],[27.47577,46.85081],[27.628629,46.878689],[27.709606,46.937316],[27.821331,46.853936],[27.955741,46.817143],[28.122615,46.84227],[28.037027,47.016459],[27.80655,47.144617],[27.722835,47.283317],[27.572353,47.375197],[27.563154,47.468344],[27.473134,47.491779],[27.431342,47.572638]]]},"properties":{"LOCATION_TYPE":"level1","ADM0_A3":"ROU","LOCATION_ID":"ROU-IS","NAME":"Iasi","TYPE_EN":"County"}},
{"type":"Feature","geometry":{"type":"Polygon","coordinates":[[[28.122615,46.84227],[27.955741,46.817143],[27.821331,46.853936],[27.709606,46.937316],[27.628629,46.878689],[27.47577,46.85081],[27.204831,46.859569],[27.225501,46.742832],[27.335831,46.654749],[27.337691,46.584857],[27.479026,46.397478],[27.51985,46.162609],[27.533183,46.116514],[27.918172,46.124885],[28.107823,46.096103],[28.246058,46.427865],[28.219032,46.503726],[28.234121,46.662424],[28.122615,46.84227]]]},"properties":{"LOCATION_TYPE":"level1","ADM0_A3":"ROU","LOCATION_ID":"ROU-VS","NAME":"Vaslui","TYPE_EN":"County"}},
{"type":"Feature","geometry":{"type":"Polygon","coordinates":[[[28.107823,46.096103],[27.918172,46.124885],[27.533183,46.116514],[27.349008,46.072899],[27.261003,46.012334],[27.259143,45.942571],[27.38482,45.71845],[27.514114,45.610653],[27.580053,45.493347],[27.70263,45.477018],[27.820245,45.412371],[28.030207,45.395421],[28.215146,45.450365],[28.140949,45.560218],[28.154953,45.761807],[28.08612,46.000552],[28.107823,46.096103]]]},"properties":{"LOCATION_TYPE":"level1","ADM0_A3":"ROU","LOCATION_ID":"ROU-GL","NAME":"Galati","TYPE_EN":"County"}},
{"type":"Feature","geometry":{"type":"Polygon","coordinates":[[[26.10253,47.978267],[25.752516,47.934595],[25.261744,47.898576],[25.079947,47.742927],[24.94238,47.715563],[25.021863,47.632235],[24.956234,47.58229],[25.09049,47.47147],[25.004035,47.379176],[25.076485,47.228332],[25.068579,47.102965],[25.204694,47.076429],[25.406853,47.134849],[25.583586,47.047309],[25.671281,47.057903],[25.696241,47.123015],[25.819437,47.224611],[25.982063,47.257478],[26.222927,47.253705],[26.3531,47.293186],[26.482343,47.253602],[26.572673,47.285745],[26.658456,47.426666],[26.567557,47.468059],[26.526733,47.614045],[26.283285,47.826254],[26.141588,47.896276],[26.10253,47.978267]]]},"properties":{"LOCATION_TYPE":"level1","ADM0_A3":"ROU","LOCATION_ID":"ROU-SV","NAME":"Suceava","TYPE_EN":"County"}},
{"type":"Feature","geometry":{"type":"Polygon","coordinates":[[[24.94238,47.715563],[24.661471,47.853876],[24.561632,47.940537],[24.428514,47.952526],[24.231006,47.897026],[23.977275,47.962293],[23.876609,47.93444],[23.780078,47.987511],[23.563243,48.005753],[23.485476,47.974234],[23.620657,47.816203],[23.479167,47.743029],[23.271841,47.74923],[23.359536,47.64257],[23.267965,47.538081],[23.116812,47.576476],[22.96881,47.444495],[23.090457,47.40429],[23.245331,47.416434],[23.457101,47.365171],[23.633524,47.367445],[23.812945,47.316518],[24.007507,47.324605],[24.120936,47.451548],[24.224909,47.473201],[24.383349,47.56211],[24.570935,47.532164],[24.759192,47.536504],[24.956234,47.58229],[25.021863,47.632235],[24.94238,47.715563]]]},"properties":{"LOCATION_TYPE":"level1","ADM0_A3":"ROU","LOCATION_ID":"ROU-MM","NAME":"Maramures","TYPE_EN":"County"}},
{"type":"Feature","geometry":{"type":"Polygon","coordinates":[[[28.785411,44.679674],[28.923839,44.757799],[28.880056,44.954779],[29.045177,45.004828],[29.044119,44.865546],[29.098155,44.775377],[29.510997,44.820502],[29.611176,44.849311],[29.676524,45.144599],[29.650262,45.346122],[29.569699,45.394956],[29.322117,45.443842],[28.96648,45.319871],[28.816308,45.326072],[28.710061,45.226956],[28.330239,45.322919],[28.215146,45.450365],[28.030207,45.395421],[27.986747,45.292326],[28.130769,45.237704],[28.125033,44.891601],[28.054805,44.777009],[28.19563,44.768146],[28.282049,44.710533],[28.404475,44.760944],[28.526901,44.69613],[28.670932,44.710533],[28.785411,44.679674]]]},"properties":{"LOCATION_TYPE":"level1","ADM0_A3":"ROU","LOCATION_ID":"ROU-TL","NAME":"Tulcea","TYPE_EN":"County"}},
{"type":"Feature","geometry":{"type":"Polygon","coordinates":[[[24.007507,47.324605],[23.812945,47.316518],[23.81186,47.227402],[23.509552,47.126891],[23.409662,46.984316],[23.205592,46.878069],[23.010823,46.879103],[22.889177,46.962612],[22.71942,46.979355],[22.76567,46.884374],[22.668829,46.775311],[22.803394,46.627361],[22.802774,46.5569],[23.010668,46.525016],[23.063275,46.463262],[23.403719,46.527083],[23.618176,46.414299],[23.778942,46.445537],[23.995414,46.449672],[24.04554,46.617723],[24.196849,46.784535],[24.238707,46.899256],[24.160831,46.954964],[24.126982,47.08232],[23.985802,47.132369],[23.936296,47.245721],[24.007507,47.324605]]]},"properties":{"LOCATION_TYPE":"level1","ADM0_A3":"ROU","LOCATION_ID":"ROU-CJ","NAME":"Cluj","TYPE_EN":"County"}},
{"type":"Feature","geometry":{"type":"Polygon","coordinates":[[[24.196849,46.784535],[24.383504,46.746604],[24.497864,46.773579],[24.561168,46.875847],[24.724104,46.890136],[24.815984,47.021781],[25.068579,47.102965],[25.076485,47.228332],[25.004035,47.379176],[25.09049,47.47147],[24.956234,47.58229],[24.759192,47.536504],[24.570935,47.532164],[24.383349,47.56211],[24.224909,47.473201],[24.120936,47.451548],[24.007507,47.324605],[23.936296,47.245721],[23.985802,47.132369],[24.126982,47.08232],[24.160831,46.954964],[24.238707,46.899256],[24.196849,46.784535]]]},"properties":{"LOCATION_TYPE":"level1","ADM0_A3":"ROU","LOCATION_ID":"ROU-BN","NAME":"Bistrita-Nasaud","TYPE_EN":"County"}},
{"type":"Feature","geometry":{"type":"Polygon","coordinates":[[[23.812945,47.316518],[23.633524,47.367445],[23.457101,47.365171],[23.245331,47.416434],[23.090457,47.40429],[23.051027,47.316053],[22.911863,47.372044],[22.754663,47.387935],[22.58072,47.321401],[22.494266,47.194174],[22.590487,47.058575],[22.71942,46.979355],[22.889177,46.962612],[23.010823,46.879103],[23.205592,46.878069],[23.409662,46.984316],[23.509552,47.126891],[23.81186,47.227402],[23.812945,47.316518]]]},"properties":{"LOCATION_TYPE":"level1","ADM0_A3":"ROU","LOCATION_ID":"ROU-SJ","NAME":"Salaj","TYPE_EN":"County"}},
{"type":"Feature","geometry":{"type":"Polygon","coordinates":[[[26.028934,44.738148],[25.817474,44.846979],[25.813856,44.92178],[25.695155,44.980588],[25.681358,45.048],[25.525708,45.223752],[25.429797,45.452316],[25.309236,45.388496],[25.333937,45.349429],[25.270944,45.192022],[25.194876,45.193986],[25.174102,45.090271],[25.231049,44.997822],[25.19069,44.654846],[25.313008,44.573068],[25.27854,44.437288],[25.395846,44.527954],[25.513616,44.505863],[25.599141,44.55294],[25.907132,44.565911],[26.028934,44.738148]]]},"properties":{"LOCATION_TYPE":"level1","ADM0_A3":"ROU","LOCATION_ID":"ROU-DB","NAME":"Dâmbovita","TYPE_EN":"County"}},
{"type":"Feature","geometry":{"type":"Polygon","coordinates":[[[25.907132,44.565911],[25.905117,44.369282],[26.131356,44.263242],[26.280029,44.321455],[26.342403,44.401424],[26.438314,44.442921],[26.434077,44.523277],[26.367518,44.56467],[26.430976,44.650867],[26.269642,44.759801],[26.028934,44.738148],[25.907132,44.565911]],[[26.195705,44.402671],[26.096987,44.371261],[25.975832,44.43109],[26.037157,44.574681],[26.11344,44.525321],[26.195705,44.402671]]]},"properties":{"LOCATION_TYPE":"level1","ADM0_A3":"ROU","LOCATION_ID":"ROU-IF","NAME":"Ilfov","TYPE_EN":"County"}},
{"type":"Feature","geometry":{"type":"Polygon","coordinates":[[[25.309236,45.388496],[25.220817,45.503373],[25.09514,45.569622],[24.831022,45.56616],[24.709066,45.598767],[24.527216,45.561819],[24.493833,45.424075],[24.493213,45.22848],[24.537448,45.136108],[24.437816,44.850028],[24.545975,44.888346],[24.621681,44.768482],[24.717747,44.741559],[24.765393,44.416462],[24.851331,44.389926],[24.981246,44.391089],[25.19007,44.453463],[25.27854,44.437288],[25.313008,44.573068],[25.19069,44.654846],[25.231049,44.997822],[25.174102,45.090271],[25.194876,45.193986],[25.270944,45.192022],[25.333937,45.349429],[25.309236,45.388496]]]},"properties":{"LOCATION_TYPE":"level1","ADM0_A3":"ROU","LOCATION_ID":"ROU-AG","NAME":"Arges","TYPE_EN":"County"}},
{"type":"Feature","geometry":{"type":"Polygon","coordinates":[[[23.585775,45.352581],[23.430436,45.303798],[23.35752,45.321498],[23.189469,45.271759],[23.026998,45.259667],[22.881425,45.294936],[22.669139,45.240469],[22.572659,45.170757],[22.641078,45.09239],[22.917754,44.972992],[22.937443,44.84163],[23.145389,44.699649],[23.318866,44.664199],[23.489399,44.550304],[23.736722,44.629395],[23.775531,44.722542],[23.778787,44.948239],[23.843331,45.189102],[23.835734,45.306641],[23.585775,45.352581]]]},"properties":{"LOCATION_TYPE":"level1","ADM0_A3":"ROU","LOCATION_ID":"ROU-GJ","NAME":"Gorj","TYPE_EN":"County"}},
{"type":"Feature","geometry":{"type":"Polygon","coordinates":[[[23.585775,45.352581],[23.584225,45.447304],[23.573786,45.504096],[23.422994,45.589931],[23.316076,45.876838],[23.22559,45.999673],[23.074489,46.104576],[23.053663,46.19656],[22.966795,46.219376],[22.904266,46.317277],[22.755283,46.333813],[22.600719,46.210926],[22.433597,46.176148],[22.419645,46.025331],[22.354946,45.949857],[22.486049,45.785991],[22.44538,45.662898],[22.542376,45.570035],[22.653326,45.520219],[22.706862,45.322324],[22.669139,45.240469],[22.881425,45.294936],[23.026998,45.259667],[23.189469,45.271759],[23.35752,45.321498],[23.430436,45.303798],[23.585775,45.352581]]]},"properties":{"LOCATION_TYPE":"level1","ADM0_A3":"ROU","LOCATION_ID":"ROU-HD","NAME":"Hunedoara","TYPE_EN":"County"}},
{"type":"Feature","geometry":{"type":"Polygon","coordinates":[[[23.585775,45.352581],[23.835734,45.306641],[23.843331,45.189102],[23.778787,44.948239],[23.775531,44.722542],[23.958156,44.52966],[24.095667,44.520616],[24.333223,44.58317],[24.286353,44.7459],[24.353377,44.86026],[24.437816,44.850028],[24.537448,45.136108],[24.493213,45.22848],[24.493833,45.424075],[24.527216,45.561819],[24.321751,45.563033],[24.06833,45.496396],[23.79398,45.508024],[23.626083,45.451929],[23.584225,45.447304],[23.585775,45.352581]]]},"properties":{"LOCATION_TYPE":"level1","ADM0_A3":"ROU","LOCATION_ID":"ROU-VL","NAME":"Vâlcea","TYPE_EN":"County"}},
{"type":"Feature","geometry":{"type":"Polygon","coordinates":[[[26.028934,44.738148],[26.269642,44.759801],[26.353875,44.795922],[26.520221,44.807188],[26.603886,44.865065],[26.577944,44.97741],[26.489474,45.024746],[26.469165,45.117608],[26.334031,45.212899],[26.262149,45.218222],[26.174041,45.386532],[26.045987,45.482263],[25.945786,45.510194],[25.862742,45.441568],[25.627821,45.484743],[25.429797,45.452316],[25.525708,45.223752],[25.681358,45.048],[25.695155,44.980588],[25.813856,44.92178],[25.817474,44.846979],[26.028934,44.738148]]]},"properties":{"LOCATION_TYPE":"level1","ADM0_A3":"ROU","LOCATION_ID":"ROU-PH","NAME":"Prahova","TYPE_EN":"County"}},
{"type":"Feature","geometry":{"type":"Polygon","coordinates":[[[26.484823,46.021248],[26.32504,46.179352],[26.251607,46.150284],[25.991727,46.110907],[25.795873,46.17558],[25.678102,46.291128],[25.497493,46.165399],[25.454498,46.105868],[25.554751,46.045665],[25.554027,45.869733],[25.669007,45.785009],[25.89473,45.717778],[26.100454,45.564403],[26.234554,45.625562],[26.328605,45.618094],[26.395009,45.749818],[26.380437,45.802941],[26.404776,45.917508],[26.484823,46.021248]]]},"properties":{"LOCATION_TYPE":"level1","ADM0_A3":"ROU","LOCATION_ID":"ROU-CV","NAME":"Covasna","TYPE_EN":"County"}},
{"type":"Feature","geometry":{"type":"Polygon","coordinates":[[[26.380437,45.802941],[26.568952,45.624761],[26.66936,45.621195],[26.831469,45.528384],[26.975801,45.533319],[27.063806,45.450689],[27.137806,45.467819],[27.423474,45.386532],[27.580053,45.493347],[27.514114,45.610653],[27.38482,45.71845],[27.259143,45.942571],[27.261003,46.012334],[27.349008,46.072899],[27.533183,46.116514],[27.51985,46.162609],[27.233098,46.162971],[27.099773,46.079358],[26.972545,46.060651],[26.76708,46.08096],[26.642488,46.065948],[26.600423,46.009233],[26.484823,46.021248],[26.404776,45.917508],[26.380437,45.802941]]]},"properties":{"LOCATION_TYPE":"level1","ADM0_A3":"ROU","LOCATION_ID":"ROU-VN","NAME":"Vrancea","TYPE_EN":"County"}},
{"type":"Feature","geometry":{"type":"Polygon","coordinates":[[[26.380437,45.802941],[26.395009,45.749818],[26.328605,45.618094],[26.234554,45.625562],[26.100454,45.564403],[26.045987,45.482263],[26.174041,45.386532],[26.262149,45.218222],[26.334031,45.212899],[26.469165,45.117608],[26.489474,45.024746],[26.577944,44.97741],[26.603886,44.865065],[26.660213,44.835972],[27.000347,44.802537],[27.200645,44.819409],[27.27015,45.039163],[27.205916,45.068671],[27.167159,45.237963],[27.304773,45.234449],[27.423474,45.386532],[27.137806,45.467819],[27.063806,45.450689],[26.975801,45.533319],[26.831469,45.528384],[26.66936,45.621195],[26.568952,45.624761],[26.380437,45.802941]]]},"properties":{"LOCATION_TYPE":"level1","ADM0_A3":"ROU","LOCATION_ID":"ROU-BZ","NAME":"Buzau","TYPE_EN":"County"}},
{"type":"Feature","geometry":{"type":"Polygon","coordinates":[[[25.429797,45.452316],[25.627821,45.484743],[25.862742,45.441568],[25.945786,45.510194],[26.045987,45.482263],[26.100454,45.564403],[25.89473,45.717778],[25.669007,45.785009],[25.554027,45.869733],[25.554751,46.045665],[25.454498,46.105868],[25.330217,46.164624],[25.188055,46.143437],[25.046255,46.132662],[24.981866,46.063597],[24.721623,45.913451],[24.741002,45.813018],[24.649948,45.766535],[24.709066,45.598767],[24.831022,45.56616],[25.09514,45.569622],[25.220817,45.503373],[25.309236,45.388496],[25.429797,45.452316]]]},"properties":{"LOCATION_TYPE":"level1","ADM0_A3":"ROU","LOCATION_ID":"ROU-BV","NAME":"Brasov","TYPE_EN":"County"}},
{"type":"Feature","geometry":{"type":"Polygon","coordinates":[[[24.709066,45.598767],[24.649948,45.766535],[24.741002,45.813018],[24.721623,45.913451],[24.981866,46.063597],[24.894481,46.100907],[24.689946,46.100236],[24.66297,46.241984],[24.585507,46.26436],[24.376218,46.232243],[24.191836,46.244154],[24.191836,46.159586],[24.040424,46.055794],[23.852839,46.002774],[23.763439,45.854927],[23.6559,45.785939],[23.609495,45.693284],[23.626083,45.451929],[23.79398,45.508024],[24.06833,45.496396],[24.321751,45.563033],[24.527216,45.561819],[24.709066,45.598767]]]},"properties":{"LOCATION_TYPE":"level1","ADM0_A3":"ROU","LOCATION_ID":"ROU-SB","NAME":"Sibiu","TYPE_EN":"County"}},
{"type":"Feature","geometry":{"type":"Polygon","coordinates":[[[23.995414,46.449672],[24.026472,46.369005],[24.143312,46.312858],[24.191836,46.244154],[24.376218,46.232243],[24.585507,46.26436],[24.66297,46.241984],[24.689946,46.100236],[24.894481,46.100907],[24.981866,46.063597],[25.046255,46.132662],[25.188055,46.143437],[24.876652,46.316346],[24.967241,46.371201],[25.034782,46.505947],[25.272184,46.657385],[25.257404,46.994341],[25.204694,47.076429],[25.068579,47.102965],[24.815984,47.021781],[24.724104,46.890136],[24.561168,46.875847],[24.497864,46.773579],[24.383504,46.746604],[24.196849,46.784535],[24.04554,46.617723],[23.995414,46.449672]]]},"properties":{"LOCATION_TYPE":"level1","ADM0_A3":"ROU","LOCATION_ID":"ROU-MS","NAME":"Mures","TYPE_EN":"County"}},
{"type":"Feature","geometry":{"type":"Polygon","coordinates":[[[25.454498,46.105868],[25.497493,46.165399],[25.678102,46.291128],[25.795873,46.17558],[25.991727,46.110907],[26.251607,46.150284],[26.292742,46.319705],[26.0387,46.403292],[26.069138,46.498609],[26.00878,46.667953],[25.828171,46.69361],[25.816543,46.859181],[25.865843,46.912847],[25.737065,47.03899],[25.671281,47.057903],[25.583586,47.047309],[25.406853,47.134849],[25.204694,47.076429],[25.257404,46.994341],[25.272184,46.657385],[25.034782,46.505947],[24.967241,46.371201],[24.876652,46.316346],[25.188055,46.143437],[25.330217,46.164624],[25.454498,46.105868]]]},"properties":{"LOCATION_TYPE":"level1","ADM0_A3":"ROU","LOCATION_ID":"ROU-HR","NAME":"Harghita","TYPE_EN":"County"}},
{"type":"Feature","geometry":{"type":"Polygon","coordinates":[[[25.671281,47.057903],[25.737065,47.03899],[25.865843,46.912847],[25.816543,46.859181],[25.828171,46.69361],[26.00878,46.667953],[26.275378,46.695238],[26.31119,46.633097],[26.58182,46.666997],[26.733438,46.741256],[26.882732,46.779987],[26.97115,46.743659],[27.225501,46.742832],[27.204831,46.859569],[27.144318,46.934138],[27.239454,46.991706],[27.148038,47.07506],[26.872448,47.011291],[26.648379,47.076352],[26.602645,47.156373],[26.482343,47.253602],[26.3531,47.293186],[26.222927,47.253705],[25.982063,47.257478],[25.819437,47.224611],[25.696241,47.123015],[25.671281,47.057903]]]},"properties":{"LOCATION_TYPE":"level1","ADM0_A3":"ROU","LOCATION_ID":"ROU-NT","NAME":"Neamt","TYPE_EN":"County"}},
{"type":"Feature","geometry":{"type":"Polygon","coordinates":[[[26.484823,46.021248],[26.600423,46.009233],[26.642488,46.065948],[26.76708,46.08096],[26.972545,46.060651],[27.099773,46.079358],[27.233098,46.162971],[27.51985,46.162609],[27.479026,46.397478],[27.337691,46.584857],[27.335831,46.654749],[27.225501,46.742832],[26.97115,46.743659],[26.882732,46.779987],[26.733438,46.741256],[26.58182,46.666997],[26.31119,46.633097],[26.275378,46.695238],[26.00878,46.667953],[26.069138,46.498609],[26.0387,46.403292],[26.292742,46.319705],[26.251607,46.150284],[26.32504,46.179352],[26.484823,46.021248]]]},"properties":{"LOCATION_TYPE":"level1","ADM0_A3":"ROU","LOCATION_ID":"ROU-BC","NAME":"Bacau","TYPE_EN":"County"}},
{"type":"Feature","geometry":{"type":"Polygon","coordinates":[[[22.755283,46.333813],[22.904266,46.317277],[22.966795,46.219376],[23.053663,46.19656],[23.074489,46.104576],[23.22559,45.999673],[23.316076,45.876838],[23.422994,45.589931],[23.573786,45.504096],[23.584225,45.447304],[23.626083,45.451929],[23.609495,45.693284],[23.6559,45.785939],[23.763439,45.854927],[23.852839,46.002774],[24.040424,46.055794],[24.191836,46.159586],[24.191836,46.244154],[24.143312,46.312858],[24.026472,46.369005],[23.995414,46.449672],[23.778942,46.445537],[23.618176,46.414299],[23.403719,46.527083],[23.063275,46.463262],[23.010668,46.525016],[22.802774,46.5569],[22.702522,46.532147],[22.706707,46.368746],[22.755283,46.333813]]]},"properties":{"LOCATION_TYPE":"level1","ADM0_A3":"ROU","LOCATION_ID":"ROU-AB","NAME":"Alba","TYPE_EN":"County"}},
{"type":"Feature","geometry":{"type":"Polygon","coordinates":[[[27.423474,45.386532],[27.304773,45.234449],[27.167159,45.237963],[27.205916,45.068671],[27.27015,45.039163],[27.200645,44.819409],[27.283224,44.795406],[27.685887,44.786982],[27.854869,44.811529],[27.910886,44.775303],[28.054805,44.777009],[28.125033,44.891601],[28.130769,45.237704],[27.986747,45.292326],[28.030207,45.395421],[27.820245,45.412371],[27.70263,45.477018],[27.580053,45.493347],[27.423474,45.386532]]]},"properties":{"LOCATION_TYPE":"level1","ADM0_A3":"ROU","LOCATION_ID":"ROU-BR","NAME":"Braila","TYPE_EN":"County"}},
{"type":"Feature","geometry":{"type":"Polygon","coordinates":[[[26.434077,44.523277],[26.78372,44.526275],[27.073418,44.492142],[27.465848,44.506457],[27.702475,44.464573],[27.780248,44.417754],[28.022765,44.354709],[28.109013,44.457803],[28.007211,44.531985],[28.034548,44.630971],[27.916364,44.694456],[27.910886,44.775303],[27.854869,44.811529],[27.685887,44.786982],[27.283224,44.795406],[27.200645,44.819409],[27.000347,44.802537],[26.660213,44.835972],[26.603886,44.865065],[26.520221,44.807188],[26.353875,44.795922],[26.269642,44.759801],[26.430976,44.650867],[26.367518,44.56467],[26.434077,44.523277]]]},"properties":{"LOCATION_TYPE":"level1","ADM0_A3":"ROU","LOCATION_ID":"ROU-IL","NAME":"Ialomita","TYPE_EN":"County"}},
{"type":"Feature","geometry":{"type":"Polygon","coordinates":[[[26.195705,44.402671],[26.11344,44.525321],[26.037157,44.574681],[25.975832,44.43109],[26.096987,44.371261],[26.195705,44.402671]]]},"properties":{"LOCATION_TYPE":"level1","ADM0_A3":"ROU","LOCATION_ID":"ROU-B","NAME":"Bucharest","TYPE_EN":"City"}}
]}