{"type":"FeatureCollection", "features": [
{"type":"Feature","geometry":{"type":"Polygon","coordinates":[[[29.956781,-2.327038],[30.139121,-2.430807],[30.207489,-2.339236],[30.278854,-2.357633],[30.37859,-2.303062],[30.521733,-2.399387],[30.758825,-2.381094],[30.834376,-2.345334],[30.887809,-2.082507],[30.829932,-1.960551],[30.831017,-1.594165],[30.732935,-1.476446],[30.737534,-1.406683],[30.555323,-1.31842],[30.511191,-1.170418],[30.445614,-1.058694],[30.352752,-1.060761],[30.256685,-1.217237],[30.065984,-1.386945],[30.163523,-1.517389],[30.186881,-1.609373],[30.257626,-1.699704],[30.247084,-1.843209],[30.267444,-1.944443],[30.223726,-2.046969],[30.165383,-2.028418],[30.017847,-2.072136],[29.956781,-2.327038]]]},"properties":{"LOCATION_TYPE":"level1","ADM0_A3":"RWA","LOCATION_ID":"RWA-02","NAME":"Eastern","TYPE_EN":"Province"}},
{"type":"Feature","geometry":{"type":"Polygon","coordinates":[[[29.956781,-2.327038],[30.017847,-2.072136],[29.981105,-1.909407],[29.914494,-1.860934],[29.799514,-1.839333],[29.745151,-1.757685],[29.657662,-1.733087],[29.668669,-1.962737],[29.605779,-2.182258],[29.466511,-2.269436],[29.338509,-2.29915],[29.311947,-2.497123],[29.359954,-2.61262],[29.309481,-2.690127],[29.339687,-2.826441],[29.425366,-2.803394],[29.504121,-2.826855],[29.619256,-2.787684],[29.697546,-2.808251],[29.823585,-2.763499],[29.90327,-2.649088],[29.956781,-2.327038]]]},"properties":{"LOCATION_TYPE":"level1","ADM0_A3":"RWA","LOCATION_ID":"RWA-05","NAME":"Southern","TYPE_EN":"Province"}},
{"type":"Feature","geometry":{"type":"Polygon","coordinates":[[[29.309481,-2.690127],[29.359954,-2.61262],[29.311947,-2.497123],[29.338509,-2.29915],[29.466511,-2.269436],[29.605779,-2.182258],[29.668669,-1.962737],[29.657662,-1.733087],[29.630584,-1.587876],[29.491419,-1.556147],[29.445065,-1.497287],[29.358497,-1.509933],[29.245429,-1.640984],[29.149311,-1.799321],[29.12771,-1.915696],[29.150551,-2.15041],[29.10983,-2.23671],[28.983378,-2.287353],[28.858838,-2.418198],[28.89806,-2.576327],[28.891342,-2.652705],[29.015365,-2.720711],[29.032574,-2.620666],[29.129725,-2.596998],[29.276125,-2.640613],[29.309481,-2.690127]]]},"properties":{"LOCATION_TYPE":"level1","ADM0_A3":"RWA","LOCATION_ID":"RWA-04","NAME":"Western","TYPE_EN":"Province"}},
{"type":"Feature","geometry":{"type":"Polygon","coordinates":[[[30.065984,-1.386945],[29.960424,-1.464767],[29.897896,-1.469625],[29.836091,-1.329478],[29.577915,-1.38839],[29.445065,-1.497287],[29.491419,-1.556147],[29.630584,-1.587876],[29.657662,-1.733087],[29.745151,-1.757685],[29.799514,-1.839333],[29.914494,-1.860934],[29.981105,-1.909407],[30.134842,-1.779389],[30.247084,-1.843209],[30.257626,-1.699704],[30.186881,-1.609373],[30.163523,-1.517389],[30.065984,-1.386945]]]},"properties":{"LOCATION_TYPE":"level1","ADM0_A3":"RWA","LOCATION_ID":"RWA-03","NAME":"Northern","TYPE_EN":"Province"}},
{"type":"Feature","geometry":{"type":"Polygon","coordinates":[[[30.017847,-2.072136],[30.165383,-2.028418],[30.223726,-2.046969],[30.267444,-1.944443],[30.247084,-1.843209],[30.134842,-1.779389],[29.981105,-1.909407],[30.017847,-2.072136]]]},"properties":{"LOCATION_TYPE":"level1","ADM0_A3":"RWA","LOCATION_ID":"RWA-01","NAME":"Kigali City","TYPE_EN":"Province"}}
]}