{"type":"FeatureCollection", "features": [
{"type":"Feature","geometry":{"type":"Polygon","coordinates":[[[-9.083446,27.089924],[-9.412056,27.08796],[-9.734362,26.860429],[-10.250455,26.860429],[-10.921835,27.009825],[-11.391574,26.882908],[-11.3369,26.632897],[-11.717239,26.103576],[-12.029752,26.03035],[-12.430141,24.830165],[-13.060025,24.400476],[-13.31001,23.980553],[-13.769982,23.790125],[-14.019992,23.410252],[-14.220187,22.309647],[-14.629852,21.860424],[-14.839813,21.450268],[-16.729956,21.469802],[-16.958831,21.332859],[-15.002258,21.333169],[-13.015247,21.333428],[-13.09333,22.495476],[-13.015247,23.018002],[-12.619432,23.270829],[-12.015308,23.495182],[-12.015308,25.9949],[-10.202292,25.994952],[-8.680809,26.013142],[-8.752872,27.190486],[-9.083446,27.089924]]]},"properties":{"LOCATION_TYPE":"level1","ADM0_A3":"SAH","LOCATION_ID":"SAH-X01~","NAME":"Western Sahara","TYPE_EN":null}}
]}