{"type":"FeatureCollection", "features": [
{"type":"Feature","geometry":{"type":"Polygon","coordinates":[[[47.428569,17.093104],[47.589012,17.463276],[48.161949,18.148919],[49.128815,18.612095],[51.01981,18.866576],[51.978615,18.995638],[53.630039,19.545992],[54.97838,19.995421],[55.302908,20.971486],[55.637565,21.97897],[55.186843,22.703577],[55.105297,22.620946],[54.134297,22.740319],[52.583074,22.931108],[52.538477,22.95475],[51.593522,24.078325],[51.569347,24.256171],[51.306407,24.405992],[51.395274,24.487942],[51.268809,24.624498],[50.978883,24.567726],[50.737315,24.782172],[50.562185,25.054836],[50.462901,25.446926],[50.23406,25.61518],[50.101329,25.989488],[50.215994,26.215074],[50.19158,26.403551],[50.03061,26.494615],[49.942149,26.858344],[49.699474,26.958238],[49.516449,27.188381],[49.407074,27.132717],[49.304861,27.325507],[49.088878,27.551093],[48.873302,27.612494],[48.785167,27.744696],[48.87794,27.836819],[48.606456,28.126451],[48.49464,28.500149],[48.432781,28.54048],[47.668129,28.533505],[47.596815,28.608823],[47.434086,28.994588],[46.532436,29.095745],[46.427322,29.076143],[45.801008,28.838163],[45.564847,28.602311],[45.212724,28.016456],[44.995321,27.772982],[44.99005,27.532635],[45.158257,27.391662],[45.245332,27.231904],[45.528519,27.085737],[45.692384,27.053388],[45.869118,26.888282],[46.293846,26.786066],[46.54055,26.627135],[46.851849,26.610081],[47.083049,26.397976],[47.402978,26.282608],[47.465041,26.17463],[47.487572,24.83373],[47.534598,24.734563],[47.888529,24.502148],[48.141176,24.270069],[48.289642,23.999853],[48.299099,23.654965],[48.014207,21.500161],[47.745127,19.531263],[47.428569,17.093104]]]},"properties":{"LOCATION_TYPE":"level1","ADM0_A3":"SAU","LOCATION_ID":"SAU-04","NAME":"Ash Sharqiyah","TYPE_EN":"Region"}},
{"type":"Feature","geometry":{"type":"Polygon","coordinates":[[[46.427322,29.076143],[46.357459,29.063137],[44.691825,29.201836],[43.890065,29.767383],[42.858707,30.494677],[42.075395,31.079861],[40.424126,31.920533],[39.157744,32.121348],[38.963337,31.994379],[37.986522,31.753358],[37.866092,31.371936],[37.876479,31.231091],[38.12959,30.94868],[38.305704,30.882999],[39.191903,30.958059],[39.86783,30.868245],[40.175357,30.736315],[40.951072,30.71102],[41.211159,30.550823],[41.46427,30.529946],[41.681311,30.281511],[41.879181,30.139944],[41.754744,29.964218],[40.919601,29.51099],[40.741782,29.333559],[40.716461,29.000375],[40.543603,28.816252],[40.739612,28.760079],[41.270587,28.867851],[41.658987,28.800852],[42.000982,28.830876],[42.342356,28.760596],[42.618412,28.546113],[43.000456,28.57159],[43.08722,28.389456],[43.496084,28.318375],[43.782372,28.370801],[44.035276,27.903543],[44.182399,27.79913],[44.490752,27.757634],[44.798899,27.520414],[44.99005,27.532635],[44.995321,27.772982],[45.212724,28.016456],[45.564847,28.602311],[45.801008,28.838163],[46.427322,29.076143]]]},"properties":{"LOCATION_TYPE":"level1","ADM0_A3":"SAU","LOCATION_ID":"SAU-08","NAME":"Al Hudud ash Shamaliyah","TYPE_EN":"Region"}},
{"type":"Feature","geometry":{"type":"Polygon","coordinates":[[[37.986522,31.753358],[36.959532,31.490999],[37.480017,31.007256],[37.981071,30.499483],[37.634529,30.312776],[37.470198,29.994553],[36.756237,29.865517],[36.477081,29.494609],[36.016437,29.189951],[34.949385,29.351686],[34.842781,28.884564],[35.219949,28.861184],[35.373738,28.929294],[35.855207,28.984278],[36.152398,28.879374],[36.409954,28.583114],[36.50509,28.561823],[36.854526,28.644608],[37.225873,28.577403],[37.449632,28.58469],[37.545388,28.754292],[37.772403,28.807053],[37.772558,28.500509],[37.844388,28.363101],[38.128195,28.24608],[38.596487,28.22789],[38.661858,28.139523],[38.903755,28.207943],[39.000131,28.167919],[39.156349,28.302717],[39.709546,28.504023],[40.080427,28.690445],[40.458905,28.827155],[40.543603,28.816252],[40.716461,29.000375],[40.741782,29.333559],[40.919601,29.51099],[41.754744,29.964218],[41.879181,30.139944],[41.681311,30.281511],[41.46427,30.529946],[41.211159,30.550823],[40.951072,30.71102],[40.175357,30.736315],[39.86783,30.868245],[39.191903,30.958059],[38.305704,30.882999],[38.12959,30.94868],[37.876479,31.231091],[37.866092,31.371936],[37.986522,31.753358]]]},"properties":{"LOCATION_TYPE":"level1","ADM0_A3":"SAU","LOCATION_ID":"SAU-12","NAME":"Al Jawf","TYPE_EN":"Region"}},
{"type":"Feature","geometry":{"type":"Polygon","coordinates":[[[47.428569,17.093104],[47.745127,19.531263],[47.614954,19.496149],[45.272617,19.256913],[45.014286,19.273733],[44.795023,19.347682],[44.516797,19.512634],[44.50517,19.331766],[44.359753,19.168469],[44.395616,18.924762],[44.332467,18.816526],[44.061063,18.691547],[43.968252,18.544191],[43.694057,18.290641],[43.638195,18.169072],[43.676383,17.99792],[43.638446,17.43851],[43.750642,17.345661],[44.10447,17.351965],[44.404142,17.418731],[45.165387,17.428395],[45.430384,17.312019],[46.322629,17.224066],[46.710099,17.275381],[46.970342,16.956847],[47.190897,16.958914],[47.428569,17.093104]]]},"properties":{"LOCATION_TYPE":"level1","ADM0_A3":"SAU","LOCATION_ID":"SAU-10","NAME":"Najran","TYPE_EN":"Region"}},
{"type":"Feature","geometry":{"type":"Polygon","coordinates":[[[43.638446,17.43851],[43.676383,17.99792],[43.638195,18.169072],[43.694057,18.290641],[43.968252,18.544191],[44.061063,18.691547],[44.332467,18.816526],[44.395616,18.924762],[44.359753,19.168469],[44.50517,19.331766],[44.516797,19.512634],[44.106383,19.866953],[43.936781,20.106938],[43.968717,20.334341],[44.061993,20.539108],[43.813688,20.853508],[43.667547,20.976239],[43.404049,20.850614],[43.221579,20.864954],[42.951725,20.810487],[42.634535,20.62409],[42.381165,20.408083],[42.152756,20.398652],[42.032039,20.624865],[41.983464,20.275688],[41.843472,20.178329],[41.698726,19.797061],[41.858562,19.762153],[41.833705,19.570201],[41.889257,19.383365],[41.83169,19.244846],[41.390528,19.153405],[41.383707,18.920422],[41.470937,18.785572],[41.734383,18.722888],[41.802958,18.525226],[41.770712,18.313999],[41.92264,18.312061],[41.917214,18.137911],[42.166708,17.923712],[42.367833,17.905057],[42.629109,17.660757],[42.789874,17.943298],[42.962577,17.86723],[43.341985,17.48245],[43.43495,17.522859],[43.638446,17.43851]]]},"properties":{"LOCATION_TYPE":"level1","ADM0_A3":"SAU","LOCATION_ID":"SAU-14","NAME":"`Asir","TYPE_EN":"Region"}},
{"type":"Feature","geometry":{"type":"Polygon","coordinates":[[[41.597138,18.121127],[41.719249,17.909247],[42.093516,17.652086],[42.301524,17.453599],[42.339122,17.17357],[42.5442,17.00434],[42.541759,16.877997],[42.737315,16.671129],[42.724946,16.566352],[42.872452,16.401636],[43.036267,16.536304],[43.208608,16.773396],[43.108717,16.926978],[43.215946,17.387209],[43.341985,17.48245],[42.962577,17.86723],[42.789874,17.943298],[42.629109,17.660757],[42.367833,17.905057],[42.166708,17.923712],[41.917214,18.137911],[41.92264,18.312061],[41.770712,18.313999],[41.597138,18.121127]]]},"properties":{"LOCATION_TYPE":"level1","ADM0_A3":"SAU","LOCATION_ID":"SAU-09","NAME":"Jizan","TYPE_EN":"Region"}},
{"type":"Feature","geometry":{"type":"Polygon","coordinates":[[[37.382823,24.53957],[37.431338,24.656971],[37.637992,24.689475],[37.734834,24.777196],[38.000503,24.872565],[37.9881,25.201744],[38.023447,25.429068],[37.868728,25.521492],[37.803099,25.719025],[37.546318,26.019652],[37.272278,26.077814],[37.16691,26.335473],[37.253933,26.592718],[37.05379,26.674057],[36.97948,26.841644],[36.985061,27.119921],[36.82414,27.240663],[37.195745,27.374505],[37.545078,27.302985],[37.732199,27.393315],[37.940455,27.095323],[38.136257,27.053388],[38.400685,26.810586],[38.490705,26.874691],[38.810324,26.848051],[39.115887,26.688836],[39.303937,26.671861],[39.719622,26.729609],[39.816154,26.656797],[40.000019,26.99042],[40.16559,27.187256],[39.919817,27.361043],[39.787474,27.795539],[39.471989,28.02444],[39.000131,28.167919],[38.903755,28.207943],[38.661858,28.139523],[38.596487,28.22789],[38.128195,28.24608],[37.844388,28.363101],[37.772558,28.500509],[37.772403,28.807053],[37.545388,28.754292],[37.449632,28.58469],[37.225873,28.577403],[36.854526,28.644608],[36.50509,28.561823],[36.409954,28.583114],[36.152398,28.879374],[35.855207,28.984278],[35.373738,28.929294],[35.219949,28.861184],[34.842781,28.884564],[34.803775,28.527133],[34.62672,28.160549],[34.90089,28.082261],[35.051931,28.119574],[35.322765,27.876288],[35.559581,27.455634],[35.812836,27.191067],[35.831716,27.092719],[36.229828,26.625556],[36.536632,26.082424],[36.696056,26.022284],[36.663422,25.855658],[36.93629,25.646145],[37.105317,25.32217],[37.230479,25.193671],[37.279959,24.964097],[37.148611,24.85102],[37.382823,24.53957]]]},"properties":{"LOCATION_TYPE":"level1","ADM0_A3":"SAU","LOCATION_ID":"SAU-07","NAME":"Tabuk","TYPE_EN":"Region"}},
{"type":"Feature","geometry":{"type":"Polygon","coordinates":[[[38.643837,23.419474],[38.900189,23.449189],[39.206786,23.166545],[39.43411,23.171118],[39.486717,23.068101],[39.869691,23.153548],[39.942606,23.114765],[39.898423,22.805146],[40.051695,22.734788],[40.104922,22.499816],[40.265842,22.51245],[40.408934,22.616346],[40.664939,22.58627],[40.802295,22.757164],[41.430112,23.270828],[41.361383,23.463323],[41.668754,23.602436],[41.764511,23.730412],[41.736399,23.923217],[41.986409,23.949314],[42.001292,24.405203],[42.096273,24.611521],[41.960002,24.744226],[41.873444,24.998991],[41.637438,25.147173],[41.656352,25.406382],[41.409804,25.536504],[40.871335,25.591539],[40.628197,25.41863],[40.362064,25.395608],[40.113759,25.316388],[39.947464,25.422144],[39.956456,25.687864],[39.904159,25.952783],[39.959711,26.288447],[39.778792,26.408802],[39.816154,26.656797],[39.719622,26.729609],[39.303937,26.671861],[39.115887,26.688836],[38.810324,26.848051],[38.490705,26.874691],[38.400685,26.810586],[38.136257,27.053388],[37.940455,27.095323],[37.732199,27.393315],[37.545078,27.302985],[37.195745,27.374505],[36.82414,27.240663],[36.985061,27.119921],[36.97948,26.841644],[37.05379,26.674057],[37.253933,26.592718],[37.16691,26.335473],[37.272278,26.077814],[37.546318,26.019652],[37.803099,25.719025],[37.868728,25.521492],[38.023447,25.429068],[37.9881,25.201744],[38.000503,24.872565],[37.734834,24.777196],[37.637992,24.689475],[37.431338,24.656971],[37.382823,24.53957],[37.52272,24.267732],[37.676091,24.291236],[37.865634,24.149888],[38.079135,24.070388],[38.452647,23.784003],[38.643837,23.419474]]]},"properties":{"LOCATION_TYPE":"level1","ADM0_A3":"SAU","LOCATION_ID":"SAU-03","NAME":"Al Madinah","TYPE_EN":"Region"}},
{"type":"Feature","geometry":{"type":"Polygon","coordinates":[[[41.597138,18.121127],[41.770712,18.313999],[41.802958,18.525226],[41.734383,18.722888],[41.470937,18.785572],[41.383707,18.920422],[41.390528,19.153405],[41.83169,19.244846],[41.889257,19.383365],[41.833705,19.570201],[41.858562,19.762153],[41.698726,19.797061],[41.505353,19.768664],[41.348619,19.398506],[41.17049,19.396904],[40.969107,19.579632],[40.958048,19.911266],[40.805551,20.046684],[40.914485,20.193651],[41.114783,20.245018],[41.249813,20.469449],[41.249658,20.721009],[41.423291,20.708607],[41.527884,20.572233],[41.909721,20.675405],[42.032039,20.624865],[42.152756,20.398652],[42.381165,20.408083],[42.634535,20.62409],[42.951725,20.810487],[43.221579,20.864954],[43.404049,20.850614],[43.667547,20.976239],[43.406374,21.341152],[43.423737,21.778619],[43.508332,21.97561],[43.458361,22.309569],[43.486163,22.497723],[43.310928,22.554128],[43.015339,22.567434],[43.010533,22.817574],[42.915861,22.900308],[42.497696,22.922994],[42.353053,23.000715],[42.224276,23.284393],[42.10697,23.662639],[41.979278,23.791933],[41.986409,23.949314],[41.736399,23.923217],[41.764511,23.730412],[41.668754,23.602436],[41.361383,23.463323],[41.430112,23.270828],[40.802295,22.757164],[40.664939,22.58627],[40.408934,22.616346],[40.265842,22.51245],[40.104922,22.499816],[40.051695,22.734788],[39.898423,22.805146],[39.942606,23.114765],[39.869691,23.153548],[39.486717,23.068101],[39.43411,23.171118],[39.206786,23.166545],[38.900189,23.449189],[38.643837,23.419474],[38.806407,23.093248],[38.81422,22.982733],[38.957714,22.774961],[39.142751,22.390611],[39.040375,22.235785],[38.978554,21.862074],[39.079356,21.706366],[39.171072,21.40412],[39.08074,21.315009],[39.296886,20.927965],[39.506033,20.746405],[39.646495,20.461575],[39.923188,20.263577],[40.067638,20.286526],[40.522634,19.97248],[40.628673,19.792141],[40.790863,19.714057],[40.784679,19.59634],[40.944672,19.505683],[40.955903,19.343329],[41.137218,18.957709],[41.249034,18.834174],[41.210216,18.697943],[41.438162,18.464179],[41.597138,18.121127]]]},"properties":{"LOCATION_TYPE":"level1","ADM0_A3":"SAU","LOCATION_ID":"SAU-02","NAME":"Makkah","TYPE_EN":"Region"}},
{"type":"Feature","geometry":{"type":"Polygon","coordinates":[[[44.627592,27.22237],[44.815332,27.098501],[44.820913,26.954221],[44.679733,26.886189],[44.39174,26.64827],[44.375721,26.406166],[44.676012,26.000894],[44.712134,25.578542],[43.989801,25.547976],[43.869395,25.384859],[43.679794,25.26373],[43.345861,25.19146],[43.087634,24.910211],[43.134039,24.778359],[43.009913,24.682241],[42.511803,24.701826],[42.29037,24.782286],[42.096273,24.611521],[42.001292,24.405203],[41.986409,23.949314],[41.979278,23.791933],[42.10697,23.662639],[42.224276,23.284393],[42.353053,23.000715],[42.497696,22.922994],[42.915861,22.900308],[43.010533,22.817574],[43.015339,22.567434],[43.310928,22.554128],[43.486163,22.497723],[43.458361,22.309569],[43.508332,21.97561],[43.423737,21.778619],[43.406374,21.341152],[43.667547,20.976239],[43.813688,20.853508],[44.061993,20.539108],[43.968717,20.334341],[43.936781,20.106938],[44.106383,19.866953],[44.516797,19.512634],[44.795023,19.347682],[45.014286,19.273733],[45.272617,19.256913],[47.614954,19.496149],[47.745127,19.531263],[48.014207,21.500161],[48.299099,23.654965],[48.289642,23.999853],[48.141176,24.270069],[47.888529,24.502148],[47.534598,24.734563],[47.487572,24.83373],[47.465041,26.17463],[47.402978,26.282608],[47.083049,26.397976],[46.851849,26.610081],[46.54055,26.627135],[46.293846,26.786066],[45.869118,26.888282],[45.692384,27.053388],[45.528519,27.085737],[45.245332,27.231904],[45.158257,27.391662],[44.99005,27.532635],[44.798899,27.520414],[44.624491,27.363265],[44.627592,27.22237]]]},"properties":{"LOCATION_TYPE":"level1","ADM0_A3":"SAU","LOCATION_ID":"SAU-01","NAME":"Ar Riyad","TYPE_EN":"Region"}},
{"type":"Feature","geometry":{"type":"Polygon","coordinates":[[[44.627592,27.22237],[44.435665,27.070183],[44.196507,27.118009],[43.997449,27.278697],[43.796945,27.304613],[43.417536,27.13129],[43.147062,26.858878],[42.918342,26.771234],[42.535109,26.510501],[42.332435,26.261136],[42.142059,26.142358],[42.153686,25.957951],[41.958452,25.972834],[41.909101,25.706106],[41.409804,25.536504],[41.656352,25.406382],[41.637438,25.147173],[41.873444,24.998991],[41.960002,24.744226],[42.096273,24.611521],[42.29037,24.782286],[42.511803,24.701826],[43.009913,24.682241],[43.134039,24.778359],[43.087634,24.910211],[43.345861,25.19146],[43.679794,25.26373],[43.869395,25.384859],[43.989801,25.547976],[44.712134,25.578542],[44.676012,26.000894],[44.375721,26.406166],[44.39174,26.64827],[44.679733,26.886189],[44.820913,26.954221],[44.815332,27.098501],[44.627592,27.22237]]]},"properties":{"LOCATION_TYPE":"level1","ADM0_A3":"SAU","LOCATION_ID":"SAU-05","NAME":"Al Quassim","TYPE_EN":"Region"}},
{"type":"Feature","geometry":{"type":"Polygon","coordinates":[[[41.409804,25.536504],[41.909101,25.706106],[41.958452,25.972834],[42.153686,25.957951],[42.142059,26.142358],[42.332435,26.261136],[42.535109,26.510501],[42.918342,26.771234],[43.147062,26.858878],[43.417536,27.13129],[43.796945,27.304613],[43.997449,27.278697],[44.196507,27.118009],[44.435665,27.070183],[44.627592,27.22237],[44.624491,27.363265],[44.798899,27.520414],[44.490752,27.757634],[44.182399,27.79913],[44.035276,27.903543],[43.782372,28.370801],[43.496084,28.318375],[43.08722,28.389456],[43.000456,28.57159],[42.618412,28.546113],[42.342356,28.760596],[42.000982,28.830876],[41.658987,28.800852],[41.270587,28.867851],[40.739612,28.760079],[40.543603,28.816252],[40.458905,28.827155],[40.080427,28.690445],[39.709546,28.504023],[39.156349,28.302717],[39.000131,28.167919],[39.471989,28.02444],[39.787474,27.795539],[39.919817,27.361043],[40.16559,27.187256],[40.000019,26.99042],[39.816154,26.656797],[39.778792,26.408802],[39.959711,26.288447],[39.904159,25.952783],[39.956456,25.687864],[39.947464,25.422144],[40.113759,25.316388],[40.362064,25.395608],[40.628197,25.41863],[40.871335,25.591539],[41.409804,25.536504]]]},"properties":{"LOCATION_TYPE":"level1","ADM0_A3":"SAU","LOCATION_ID":"SAU-06","NAME":"Ha'il","TYPE_EN":"Region"}},
{"type":"Feature","geometry":{"type":"Polygon","coordinates":[[[42.032039,20.624865],[41.909721,20.675405],[41.527884,20.572233],[41.423291,20.708607],[41.249658,20.721009],[41.249813,20.469449],[41.114783,20.245018],[40.914485,20.193651],[40.805551,20.046684],[40.958048,19.911266],[40.969107,19.579632],[41.17049,19.396904],[41.348619,19.398506],[41.505353,19.768664],[41.698726,19.797061],[41.843472,20.178329],[41.983464,20.275688],[42.032039,20.624865]]]},"properties":{"LOCATION_TYPE":"level1","ADM0_A3":"SAU","LOCATION_ID":"SAU-11","NAME":"Al Bahah","TYPE_EN":"Region"}}
]}