{"type":"FeatureCollection", "features": [
{"type":"Feature","geometry":{"type":"Polygon","coordinates":[[[23.005551,10.686817],[23.297324,11.107896],[23.766129,11.411241],[24.090396,12.587294],[24.61641,13.099433],[24.390791,13.25392],[24.402108,13.554625],[23.962961,13.389028],[23.523247,13.556744],[23.214594,13.387574],[22.62629,12.633809],[22.681444,12.275312],[22.612397,12.072804],[22.537053,11.68089],[22.628107,11.509841],[22.914808,11.396101],[22.863234,10.891817],[23.005551,10.686817]]]},"properties":{"LOCATION_TYPE":"level1","ADM0_A3":"SDN","LOCATION_ID":"SDN-DE","NAME":"Central Darfur","TYPE_EN":"State"}},
{"type":"Feature","geometry":{"type":"Polygon","coordinates":[[[23.005551,10.686817],[23.291219,10.439726],[23.624015,9.907768],[23.63218,9.277574],[23.45772,9.146161],[23.482318,8.783393],[24.114011,8.681642],[24.558377,8.886746],[24.792677,9.798369],[24.976284,9.967351],[25.084081,10.293223],[25.839332,10.420554],[25.604578,11.181434],[25.190927,11.585893],[25.181735,12.26612],[25.28285,12.404003],[25.244847,13.064319],[24.61641,13.099433],[24.090396,12.587294],[23.766129,11.411241],[23.297324,11.107896],[23.005551,10.686817]]]},"properties":{"LOCATION_TYPE":"level1","ADM0_A3":"SDN","LOCATION_ID":"SDN-DS","NAME":"Southern Darfur","TYPE_EN":"State"}},
{"type":"Feature","geometry":{"type":"Polygon","coordinates":[[[35.70137,12.665421],[36.123614,12.721447],[36.233581,13.36164],[36.382099,13.571033],[36.52638,14.263523],[36.462199,14.793766],[35.97706,14.77778],[35.509802,14.611873],[35.1306,14.887903],[34.83992,15.385366],[34.362172,15.577447],[33.795643,15.706613],[33.544082,15.431978],[34.022502,15.170986],[34.251222,14.760779],[33.907832,14.162521],[33.981678,14.024726],[34.423305,13.360864],[35.367537,12.739197],[35.70137,12.665421]]]},"properties":{"LOCATION_TYPE":"level1","ADM0_A3":"SDN","LOCATION_ID":"SDN-GD","NAME":"Gedarif","TYPE_EN":"State"}},
{"type":"Feature","geometry":{"type":"Polygon","coordinates":[[[35.148556,11.871229],[34.774601,12.286486],[34.554098,12.626129],[34.362482,12.730515],[33.508735,12.233491],[33.209218,12.210367],[33.082921,11.584565],[33.182088,10.843241],[33.902096,10.192041],[33.96912,9.838341],[34.098208,9.67972],[34.32486,10.268651],[34.279489,10.565506],[34.587067,10.879285],[34.933816,10.845308],[34.947148,11.274868],[35.148556,11.871229]]]},"properties":{"LOCATION_TYPE":"level1","ADM0_A3":"SDN","LOCATION_ID":"SDN-NB","NAME":"Blue Nile","TYPE_EN":"State"}},
{"type":"Feature","geometry":{"type":"Polygon","coordinates":[[[35.148556,11.871229],[35.70137,12.665421],[35.367537,12.739197],[34.423305,13.360864],[33.981678,14.024726],[33.576845,14.06648],[33.432048,13.938839],[33.079201,13.995322],[32.803145,13.641106],[32.911459,13.203794],[33.088348,12.922312],[33.075015,12.662948],[33.209218,12.210367],[33.508735,12.233491],[34.362482,12.730515],[34.554098,12.626129],[34.774601,12.286486],[35.148556,11.871229]]]},"properties":{"LOCATION_TYPE":"level1","ADM0_A3":"SDN","LOCATION_ID":"SDN-SI","NAME":"Sennar","TYPE_EN":"Region"}},
{"type":"Feature","geometry":{"type":"Polygon","coordinates":[[[32.524519,21.995403],[31.248407,21.994369],[29.458232,21.994628],[28.290345,21.994783],[26.343797,21.995093],[24.981245,21.995351],[24.980521,20.008391],[27.482282,20.000149],[27.496389,16.67875],[31.06196,16.562271],[31.602443,16.538758],[31.851937,16.671127],[32.576131,17.668715],[32.68553,17.864931],[32.564659,18.263149],[32.582022,18.68563],[32.166957,18.918716],[32.524519,21.995403]]]},"properties":{"LOCATION_TYPE":"level1","ADM0_A3":"SDN","LOCATION_ID":"SDN-NO","NAME":"Northern","TYPE_EN":"State"}},
{"type":"Feature","geometry":{"type":"Polygon","coordinates":[[[32.524519,21.995403],[32.166957,18.918716],[32.582022,18.68563],[32.564659,18.263149],[32.68553,17.864931],[32.576131,17.668715],[31.851937,16.671127],[32.11404,16.401583],[32.639744,16.31965],[33.00427,16.135501],[33.707638,15.917763],[34.19629,16.017291],[34.487074,16.419231],[35.251626,16.439359],[35.619201,16.632628],[35.656305,17.177376],[35.163156,17.495625],[34.707112,18.11414],[34.118982,18.384408],[33.647125,19.466667],[33.696321,19.635184],[33.626351,20.129857],[33.658752,20.529703],[33.548423,20.734497],[33.272729,20.945388],[33.342699,21.255757],[33.273039,21.496905],[33.555348,21.710561],[33.15976,21.995403],[32.524519,21.995403]]]},"properties":{"LOCATION_TYPE":"level1","ADM0_A3":"SDN","LOCATION_ID":"SDN-NR","NAME":"River Nile","TYPE_EN":"State"}},
{"type":"Feature","geometry":{"type":"Polygon","coordinates":[[[24.980521,20.008391],[23.981306,19.995421],[23.981719,19.031553],[23.983476,16.941138],[23.984406,15.72194],[23.961411,15.051924],[24.129773,14.800363],[24.126827,14.556321],[23.915161,14.211639],[23.594457,13.867939],[23.523247,13.556744],[23.962961,13.389028],[24.402108,13.554625],[24.390791,13.25392],[24.61641,13.099433],[25.244847,13.064319],[25.394295,13.020265],[25.984078,12.576804],[25.892714,12.369633],[26.226803,12.018362],[26.659076,11.848864],[27.191653,11.827289],[27.01802,12.372113],[27.112692,12.878077],[27.522641,13.606844],[27.483987,14.001265],[27.227672,14.746387],[27.13052,14.876147],[26.916528,16.647072],[27.496389,16.67875],[27.482282,20.000149],[24.980521,20.008391]]]},"properties":{"LOCATION_TYPE":"level1","ADM0_A3":"SDN","LOCATION_ID":"SDN-DN","NAME":"North Darfur","TYPE_EN":"State"}},
{"type":"Feature","geometry":{"type":"Polygon","coordinates":[[[23.984406,15.72194],[23.094642,15.704262],[22.92566,15.563935],[22.965657,15.223904],[22.738901,14.97981],[22.666347,14.681741],[22.465429,14.629289],[22.441038,14.249855],[22.073722,13.771357],[22.267612,13.334562],[21.935126,13.059152],[21.809449,12.793665],[21.935953,12.63954],[22.204877,12.743358],[22.612397,12.072804],[22.681444,12.275312],[22.62629,12.633809],[23.214594,13.387574],[23.523247,13.556744],[23.594457,13.867939],[23.915161,14.211639],[24.126827,14.556321],[24.129773,14.800363],[23.961411,15.051924],[23.984406,15.72194]]]},"properties":{"LOCATION_TYPE":"level1","ADM0_A3":"SDN","LOCATION_ID":"SDN-DW","NAME":"Western Darfur","TYPE_EN":"State"}},
{"type":"Feature","geometry":{"type":"Polygon","coordinates":[[[36.97337,17.062083],[37.403432,17.029918],[37.506785,17.318479],[38.343737,17.655926],[38.542817,18.118394],[38.151674,18.249331],[37.925505,18.585044],[37.434337,18.861721],[37.238292,19.65526],[37.175141,20.349189],[37.228038,20.565009],[37.148611,21.170966],[36.896821,21.677883],[36.883637,21.995714],[35.486443,21.995558],[33.15976,21.995403],[33.555348,21.710561],[33.273039,21.496905],[33.342699,21.255757],[33.272729,20.945388],[33.548423,20.734497],[33.658752,20.529703],[33.626351,20.129857],[33.696321,19.635184],[33.647125,19.466667],[34.118982,18.384408],[34.707112,18.11414],[35.163156,17.495625],[35.656305,17.177376],[36.058812,16.989222],[36.97337,17.062083]]]},"properties":{"LOCATION_TYPE":"level1","ADM0_A3":"SDN","LOCATION_ID":"SDN-RS","NAME":"Red Sea","TYPE_EN":"State"}},
{"type":"Feature","geometry":{"type":"Polygon","coordinates":[[[36.462199,14.793766],[36.423647,15.111508],[36.670971,15.723124],[36.944029,16.252859],[36.877263,16.527313],[36.984957,16.765696],[36.97337,17.062083],[36.058812,16.989222],[35.656305,17.177376],[35.619201,16.632628],[35.251626,16.439359],[34.487074,16.419231],[34.19629,16.017291],[34.362172,15.577447],[34.83992,15.385366],[35.1306,14.887903],[35.509802,14.611873],[35.97706,14.77778],[36.462199,14.793766]]]},"properties":{"LOCATION_TYPE":"level1","ADM0_A3":"SDN","LOCATION_ID":"SDN-KA","NAME":"Kassala","TYPE_EN":"State"}},
{"type":"Feature","geometry":{"type":"Polygon","coordinates":[[[33.209218,12.210367],[33.075015,12.662948],[33.088348,12.922312],[32.911459,13.203794],[32.803145,13.641106],[32.630598,13.818149],[32.421257,14.264246],[32.655402,14.647013],[32.614785,15.193492],[32.307827,15.209305],[31.987123,15.076961],[31.517694,14.343621],[31.587819,13.980697],[31.852557,13.637101],[32.048876,13.503207],[32.048876,13.27826],[31.642751,12.965049],[31.689467,12.592565],[31.751685,12.221864],[32.082207,11.999811],[32.746662,12.002731],[32.731779,12.216155],[33.209218,12.210367]]]},"properties":{"LOCATION_TYPE":"level1","ADM0_A3":"SDN","LOCATION_ID":"SDN-NW","NAME":"White Nile","TYPE_EN":"State"}},
{"type":"Feature","geometry":{"type":"Polygon","coordinates":[[[32.082207,11.999811],[31.751685,12.221864],[31.689467,12.592565],[31.49351,12.696409],[31.116117,12.612822],[30.730972,12.275737],[30.465924,12.469084],[30.081606,12.49885],[29.981354,12.719301],[29.769532,12.685195],[29.500143,12.28137],[29.244754,12.298427],[28.976372,12.487872],[28.692204,12.277377],[28.534333,11.935323],[28.029144,11.945847],[27.892322,11.645892],[27.644991,11.403822],[27.224881,11.422714],[27.306168,11.000027],[27.895072,9.59541],[28.04511,9.331407],[28.843841,9.324545],[29.009474,9.603239],[29.483089,9.761679],[29.615432,10.058147],[30.012979,10.270485],[30.484578,9.972028],[30.749265,9.735763],[31.234817,9.792323],[31.664816,10.214236],[31.942887,10.655552],[32.414073,11.050851],[32.34524,11.709106],[32.082207,11.999811]]]},"properties":{"LOCATION_TYPE":"level1","ADM0_A3":"SDN","LOCATION_ID":"SDN-KS","NAME":"South Kordufan","TYPE_EN":"State"}},
{"type":"Feature","geometry":{"type":"Polygon","coordinates":[[[25.839332,10.420554],[25.90093,10.191059],[26.179466,9.95898],[26.556859,9.520454],[26.694318,9.476942],[27.080393,9.606831],[27.895072,9.59541],[27.306168,11.000027],[27.224881,11.422714],[27.191653,11.827289],[26.659076,11.848864],[26.226803,12.018362],[25.892714,12.369633],[25.984078,12.576804],[25.394295,13.020265],[25.244847,13.064319],[25.28285,12.404003],[25.181735,12.26612],[25.190927,11.585893],[25.604578,11.181434],[25.839332,10.420554]]]},"properties":{"LOCATION_TYPE":"level1","ADM0_A3":"SDN","LOCATION_ID":"SDN-DS","NAME":"Eastern Darfur","TYPE_EN":"State"}},
{"type":"Feature","geometry":{"type":"Polygon","coordinates":[[[33.544082,15.431978],[32.863348,15.303924],[32.614785,15.193492],[32.655402,14.647013],[32.421257,14.264246],[32.630598,13.818149],[32.803145,13.641106],[33.079201,13.995322],[33.432048,13.938839],[33.576845,14.06648],[33.981678,14.024726],[33.907832,14.162521],[34.251222,14.760779],[34.022502,15.170986],[33.544082,15.431978]]]},"properties":{"LOCATION_TYPE":"level1","ADM0_A3":"SDN","LOCATION_ID":"SDN-GZ","NAME":"Gezira","TYPE_EN":"State"}},
{"type":"Feature","geometry":{"type":"Polygon","coordinates":[[[33.544082,15.431978],[33.795643,15.706613],[34.362172,15.577447],[34.19629,16.017291],[33.707638,15.917763],[33.00427,16.135501],[32.639744,16.31965],[32.11404,16.401583],[31.851937,16.671127],[31.602443,16.538758],[31.851627,15.99644],[32.221579,15.441538],[32.307827,15.209305],[32.614785,15.193492],[32.863348,15.303924],[33.544082,15.431978]]]},"properties":{"LOCATION_TYPE":"level1","ADM0_A3":"SDN","LOCATION_ID":"SDN-KH","NAME":"Khartoum","TYPE_EN":"Region"}},
{"type":"Feature","geometry":{"type":"Polygon","coordinates":[[[27.224881,11.422714],[27.644991,11.403822],[27.892322,11.645892],[28.029144,11.945847],[28.534333,11.935323],[28.692204,12.277377],[28.976372,12.487872],[29.244754,12.298427],[29.500143,12.28137],[29.769532,12.685195],[29.981354,12.719301],[30.081606,12.49885],[30.465924,12.469084],[30.730972,12.275737],[31.116117,12.612822],[31.49351,12.696409],[31.689467,12.592565],[31.642751,12.965049],[32.048876,13.27826],[32.048876,13.503207],[31.852557,13.637101],[31.587819,13.980697],[31.517694,14.343621],[31.987123,15.076961],[32.307827,15.209305],[32.221579,15.441538],[31.851627,15.99644],[31.602443,16.538758],[31.06196,16.562271],[27.496389,16.67875],[26.916528,16.647072],[27.13052,14.876147],[27.227672,14.746387],[27.483987,14.001265],[27.522641,13.606844],[27.112692,12.878077],[27.01802,12.372113],[27.191653,11.827289],[27.224881,11.422714]]]},"properties":{"LOCATION_TYPE":"level1","ADM0_A3":"SDN","LOCATION_ID":"SDN-KN","NAME":"North Kordufan","TYPE_EN":"State"}}
]}