{"type":"FeatureCollection", "features": [
{"type":"Feature","geometry":{"type":"Polygon","coordinates":[[[31.801107,3.806472],[31.943662,3.591255],[32.187782,3.61916],[32.371801,3.731065],[32.756429,3.769022],[33.01724,3.87718],[33.19542,3.757059],[33.532609,3.774293],[34.381188,4.620158],[34.666277,4.76498],[35.245726,4.98172],[35.570836,4.904313],[35.610641,4.620014],[35.784513,4.764181],[35.755884,5.063439],[35.80415,5.318023],[35.430219,5.427215],[35.098663,5.622474],[34.967964,6.008131],[34.188074,5.775462],[32.208195,5.896255],[32.192382,5.156636],[32.334699,4.820145],[32.11435,4.282168],[31.894932,4.044585],[31.801107,3.806472]]]},"properties":{"LOCATION_TYPE":"level1","ADM0_A3":"SDS","LOCATION_ID":"SDS-EE","NAME":"Eastern Equatoria","TYPE_EN":"State"}},
{"type":"Feature","geometry":{"type":"Polygon","coordinates":[[[26.102313,9.988163],[25.90093,10.191059],[25.843053,10.417815],[25.084081,10.293223],[24.976284,9.967351],[24.792677,9.798369],[24.794383,9.532184],[24.680178,9.373357],[24.558377,8.886746],[24.182999,8.717919],[24.243719,8.570176],[24.131374,8.343058],[24.832107,8.16573],[25.089559,7.884895],[25.216889,7.864069],[25.279418,7.659482],[25.190431,7.501197],[25.360033,7.335574],[26.026091,6.99668],[26.080971,6.842348],[26.379224,6.631362],[27.93538,6.816509],[28.132009,6.693158],[28.639575,6.735972],[28.590224,7.089309],[28.610533,7.408256],[28.549555,7.61721],[28.144722,7.8481],[27.993413,7.873938],[27.700149,8.251073],[27.558143,8.213763],[26.734834,7.808619],[26.303904,8.04075],[26.148564,8.291277],[26.070223,8.905297],[26.073634,9.564223],[26.102313,9.988163]]]},"properties":{"LOCATION_TYPE":"level1","ADM0_A3":"SDS","LOCATION_ID":"SDS-BW","NAME":"Western Bahr el Ghazal","TYPE_EN":"State"}},
{"type":"Feature","geometry":{"type":"Polygon","coordinates":[[[26.379224,6.631362],[26.28964,6.387208],[26.452008,6.28029],[26.527972,6.043172],[26.705016,6.009789],[27.170413,5.72035],[27.30131,5.205187],[27.552716,4.900529],[27.766863,4.735449],[27.772444,4.595819],[28.008915,4.499081],[28.177587,4.347229],[28.404137,4.277828],[28.755433,4.553987],[28.98622,4.495928],[29.173495,4.348004],[29.303927,4.387149],[29.494096,4.668295],[29.788295,4.539366],[30.085017,4.777073],[30.317922,4.686691],[30.517445,4.83862],[30.816187,4.976389],[30.960157,5.580642],[30.908016,5.680506],[30.435228,6.120324],[30.184442,6.476608],[29.937584,6.467461],[29.911487,6.105442],[29.704368,5.728669],[29.584582,5.698025],[29.146831,5.741019],[28.935009,5.862433],[28.704429,6.119239],[28.602317,6.447514],[28.639575,6.735972],[28.132009,6.693158],[27.93538,6.816509],[26.379224,6.631362]]]},"properties":{"LOCATION_TYPE":"level1","ADM0_A3":"SDS","LOCATION_ID":"SDS-EW","NAME":"Western Equatoria","TYPE_EN":"State"}},
{"type":"Feature","geometry":{"type":"Polygon","coordinates":[[[29.788295,4.539366],[29.776198,4.405624],[30.122688,4.102464],[30.205887,3.95038],[30.53889,3.84155],[30.572635,3.601047],[30.865692,3.548958],[31.141489,3.785119],[31.505446,3.659855],[31.801107,3.806472],[31.894932,4.044585],[32.11435,4.282168],[32.334699,4.820145],[32.192382,5.156636],[32.208195,5.896255],[31.671483,5.926512],[31.17787,5.982839],[30.870033,6.192723],[30.435228,6.120324],[30.908016,5.680506],[30.960157,5.580642],[30.816187,4.976389],[30.517445,4.83862],[30.317922,4.686691],[30.085017,4.777073],[29.788295,4.539366]]]},"properties":{"LOCATION_TYPE":"level1","ADM0_A3":"SDS","LOCATION_ID":"SDS-EC","NAME":"Central Equatoria","TYPE_EN":"State"}},
{"type":"Feature","geometry":{"type":"Polygon","coordinates":[[[33.007569,7.944058],[33.206893,8.240738],[33.174078,8.404475],[33.600099,8.463955],[33.695545,8.372875],[33.970774,8.445377],[34.11185,8.626555],[34.070698,9.454592],[33.900855,9.45529],[33.96912,9.838341],[33.902096,10.192041],[33.182088,10.843241],[33.082921,11.584565],[33.209218,12.210367],[32.731779,12.216155],[32.746662,12.002731],[32.082207,11.999811],[32.34524,11.709106],[32.364153,11.240013],[32.414073,11.050851],[31.942887,10.655552],[31.664816,10.214236],[31.234817,9.792323],[30.94991,9.752446],[30.938608,9.517662],[31.419767,9.343254],[31.538675,9.352556],[31.870851,8.912583],[32.015648,8.876254],[32.318214,9.031904],[32.607963,8.569038],[32.896111,8.323006],[32.841024,8.03367],[33.007569,7.944058]]]},"properties":{"LOCATION_TYPE":"level1","ADM0_A3":"SDS","LOCATION_ID":"SDS-NU","NAME":"Upper Nile","TYPE_EN":"State"}},
{"type":"Feature","geometry":{"type":"Polygon","coordinates":[[[33.007569,7.944058],[32.841024,8.03367],[32.896111,8.323006],[32.607963,8.569038],[32.318214,9.031904],[32.015648,8.876254],[31.870851,8.912583],[31.538675,9.352556],[31.419767,9.343254],[30.938608,9.517662],[30.52344,9.540167],[30.324899,9.347828],[30.364638,9.226569],[30.206973,9.028571],[30.269036,8.582913],[30.360142,8.460337],[30.307845,8.1918],[30.536152,7.824329],[30.499875,7.648629],[30.815721,7.080757],[31.069711,6.907408],[31.318171,6.621689],[31.541517,6.126551],[31.671483,5.926512],[32.208195,5.896255],[34.188074,5.775462],[34.967964,6.008131],[34.844725,6.248689],[34.733518,6.637606],[34.524745,6.752871],[34.503661,6.89002],[34.297575,6.968568],[34.031132,7.255372],[34.006534,7.409936],[33.71606,7.657156],[33.462329,7.749502],[33.051295,7.801127],[33.007569,7.944058]]]},"properties":{"LOCATION_TYPE":"level1","ADM0_A3":"SDS","LOCATION_ID":"SDS-JG","NAME":"Jonglei","TYPE_EN":"State"}},
{"type":"Feature","geometry":{"type":"Polygon","coordinates":[[[30.94991,9.752446],[30.749265,9.735763],[30.484578,9.972028],[30.012979,10.270485],[29.615432,10.058147],[29.483089,9.761679],[29.009474,9.603239],[28.828745,9.427474],[28.843841,9.324545],[28.833982,9.031671],[29.095155,9.029501],[29.350695,8.641721],[29.662304,8.404319],[29.698632,7.821177],[29.896139,7.783479],[30.21488,7.129488],[30.815721,7.080757],[30.499875,7.648629],[30.536152,7.824329],[30.307845,8.1918],[30.360142,8.460337],[30.269036,8.582913],[30.206973,9.028571],[30.364638,9.226569],[30.324899,9.347828],[30.52344,9.540167],[30.938608,9.517662],[30.94991,9.752446]]]},"properties":{"LOCATION_TYPE":"level1","ADM0_A3":"SDS","LOCATION_ID":"SDS-UY","NAME":"Unity","TYPE_EN":"State"}},
{"type":"Feature","geometry":{"type":"Polygon","coordinates":[[[28.843841,9.324545],[28.04511,9.331407],[27.895072,9.59541],[27.080393,9.606831],[26.694318,9.476942],[26.556859,9.520454],[26.179466,9.95898],[26.102313,9.988163],[26.073634,9.564223],[26.070223,8.905297],[26.148564,8.291277],[26.303904,8.04075],[26.734834,7.808619],[27.558143,8.213763],[27.700149,8.251073],[27.870992,8.872224],[27.961012,8.987049],[28.833982,9.031671],[28.843841,9.324545]]]},"properties":{"LOCATION_TYPE":"level1","ADM0_A3":"SDS","LOCATION_ID":"SDS-BN","NAME":"Northern Bahr el Ghazal","TYPE_EN":"State"}},
{"type":"Feature","geometry":{"type":"Polygon","coordinates":[[[29.698632,7.821177],[29.569183,7.624806],[29.157683,7.131503],[29.034642,6.730546],[28.801736,6.639853],[28.639575,6.735972],[28.602317,6.447514],[28.704429,6.119239],[28.935009,5.862433],[29.146831,5.741019],[29.584582,5.698025],[29.704368,5.728669],[29.911487,6.105442],[29.937584,6.467461],[30.184442,6.476608],[30.435228,6.120324],[30.870033,6.192723],[31.17787,5.982839],[31.671483,5.926512],[31.541517,6.126551],[31.318171,6.621689],[31.069711,6.907408],[30.815721,7.080757],[30.21488,7.129488],[29.896139,7.783479],[29.698632,7.821177]]]},"properties":{"LOCATION_TYPE":"level1","ADM0_A3":"SDS","LOCATION_ID":"SDS-LK","NAME":"Lakes","TYPE_EN":"State"}},
{"type":"Feature","geometry":{"type":"Polygon","coordinates":[[[28.833982,9.031671],[27.961012,8.987049],[27.870992,8.872224],[27.700149,8.251073],[27.993413,7.873938],[28.144722,7.8481],[28.549555,7.61721],[28.610533,7.408256],[28.590224,7.089309],[28.639575,6.735972],[28.801736,6.639853],[29.034642,6.730546],[29.157683,7.131503],[29.569183,7.624806],[29.698632,7.821177],[29.662304,8.404319],[29.350695,8.641721],[29.095155,9.029501],[28.833982,9.031671]]]},"properties":{"LOCATION_TYPE":"level1","ADM0_A3":"SDS","LOCATION_ID":"SDS-WR","NAME":"Warrap","TYPE_EN":"State"}}
]}