{"type":"FeatureCollection", "features": [
{"type":"Feature","geometry":{"type":"Polygon","coordinates":[[[-11.899967,13.382182],[-12.046278,13.315873],[-12.254654,13.447942],[-12.357374,13.254241],[-12.44542,13.277719],[-12.512922,13.192608],[-12.700754,13.160325],[-12.741842,13.045865],[-12.853367,12.984233],[-12.976631,13.057604],[-13.129245,13.013581],[-13.32844,13.043728],[-13.355702,13.324897],[-13.599477,13.3133],[-13.622806,13.240122],[-13.599965,13.115479],[-13.473048,12.891823],[-13.4808,12.708889],[-13.359801,12.649737],[-13.076458,12.635922],[-13.082711,12.515671],[-12.981038,12.466992],[-12.913135,12.536342],[-12.773272,12.435056],[-12.505072,12.390253],[-12.36092,12.305607],[-12.07918,12.408133],[-11.93521,12.417021],[-11.757805,12.383328],[-11.515391,12.431645],[-11.388422,12.403895],[-11.377776,12.480221],[-11.460975,12.658402],[-11.402168,12.73173],[-11.450278,13.075095],[-11.533064,13.111811],[-11.55854,13.266504],[-11.613111,13.360813],[-11.756513,13.399803],[-11.828136,13.307277],[-11.899967,13.382182]]]},"properties":{"LOCATION_TYPE":"level1","ADM0_A3":"SEN","LOCATION_ID":"SEN-KE","NAME":"Kédougou","TYPE_EN":"Region"}},
{"type":"Feature","geometry":{"type":"Polygon","coordinates":[[[-11.899967,13.382182],[-11.890406,13.465148],[-11.996808,13.544161],[-12.097629,13.70441],[-12.012311,13.751177],[-11.962908,13.909152],[-12.02523,14.026742],[-11.997583,14.166165],[-12.115612,14.35512],[-12.22173,14.391242],[-12.236432,14.519451],[-12.165945,14.625181],[-12.26413,14.774939],[-12.382495,14.84602],[-12.471508,14.998],[-12.622946,15.102258],[-12.689585,15.092479],[-12.572638,14.893717],[-12.648861,14.706286],[-12.755469,14.56552],[-12.948842,14.546244],[-13.218903,14.594562],[-13.511185,14.398501],[-13.83406,14.401757],[-14.269485,14.562522],[-14.356612,14.643654],[-14.508747,14.54025],[-14.632977,14.510898],[-14.633701,14.32264],[-14.577477,14.064775],[-14.62874,13.939098],[-14.812553,13.839982],[-14.860314,13.765595],[-14.802942,13.65232],[-14.728579,13.619325],[-14.585539,13.660459],[-14.470275,13.522354],[-14.329947,13.456441],[-14.092882,13.554729],[-13.967489,13.575581],[-13.882504,13.503782],[-13.732981,13.468119],[-13.686368,13.288388],[-13.622806,13.240122],[-13.599477,13.3133],[-13.355702,13.324897],[-13.32844,13.043728],[-13.129245,13.013581],[-12.976631,13.057604],[-12.853367,12.984233],[-12.741842,13.045865],[-12.700754,13.160325],[-12.512922,13.192608],[-12.44542,13.277719],[-12.357374,13.254241],[-12.254654,13.447942],[-12.046278,13.315873],[-11.899967,13.382182]]]},"properties":{"LOCATION_TYPE":"level1","ADM0_A3":"SEN","LOCATION_ID":"SEN-TC","NAME":"Tambacounda","TYPE_EN":"Region"}},
{"type":"Feature","geometry":{"type":"Polygon","coordinates":[[[-13.359801,12.649737],[-13.4808,12.708889],[-13.473048,12.891823],[-13.599965,13.115479],[-13.622806,13.240122],[-13.686368,13.288388],[-13.732981,13.468119],[-13.882504,13.503782],[-13.818713,13.429362],[-13.851036,13.33575],[-14.056579,13.297174],[-14.201687,13.229555],[-14.394982,13.242965],[-14.592154,13.35314],[-14.731577,13.359005],[-14.779636,13.410888],[-15.015074,13.495741],[-15.13765,13.589973],[-15.217955,13.51468],[-15.227774,13.425176],[-15.342392,13.36257],[-15.359745,13.207283],[-15.277568,13.174999],[-15.23648,13.04293],[-15.168978,12.998907],[-15.130825,12.884447],[-15.146228,12.679227],[-14.437305,12.676282],[-13.728279,12.673388],[-13.359801,12.649737]]]},"properties":{"LOCATION_TYPE":"level1","ADM0_A3":"SEN","LOCATION_ID":"SEN-KD","NAME":"Kolda","TYPE_EN":"Region"}},
{"type":"Feature","geometry":{"type":"Polygon","coordinates":[[[-15.146228,12.679227],[-15.130825,12.884447],[-15.168978,12.998907],[-15.23648,13.04293],[-15.277568,13.174999],[-15.359745,13.207283],[-15.342392,13.36257],[-15.519539,13.3866],[-15.822673,13.319421],[-15.8266,13.161678],[-15.897441,13.157399],[-15.901582,13.079099],[-15.986796,12.92686],[-16.022125,12.72899],[-15.963863,12.602246],[-15.883964,12.442182],[-15.677049,12.439294],[-15.424609,12.555049],[-15.223795,12.675196],[-15.146228,12.679227]]]},"properties":{"LOCATION_TYPE":"level1","ADM0_A3":"SEN","LOCATION_ID":"SEN-SE","NAME":"Sédhiou","TYPE_EN":"Region"}},
{"type":"Feature","geometry":{"type":"MultiPolygon","coordinates":[[[[-15.963863,12.602246],[-16.007883,12.632148],[-16.19286,12.577582],[-16.30956,12.598049],[-16.388336,12.551581],[-16.579742,12.632799],[-16.802968,12.485419],[-16.728437,12.332531],[-16.382019,12.373819],[-16.23288,12.452884],[-16.090512,12.464305],[-15.883964,12.442182],[-15.963863,12.602246]]],[[[-15.897441,13.157399],[-16.673525,13.164314],[-16.748508,13.099227],[-16.75886,12.890774],[-16.794545,12.838772],[-16.76122,12.713202],[-16.773101,12.582953],[-16.626576,12.662543],[-16.370961,12.564521],[-16.346791,12.598049],[-16.155019,12.611721],[-16.048899,12.656399],[-16.022125,12.72899],[-15.986796,12.92686],[-15.901582,13.079099],[-15.897441,13.157399]]]]},"properties":{"LOCATION_TYPE":"level1","ADM0_A3":"SEN","LOCATION_ID":"SEN-ZG","NAME":"Ziguinchor","TYPE_EN":"Region"}},
{"type":"Feature","geometry":{"type":"Polygon","coordinates":[[[-13.719571,16.135605],[-13.852767,16.133487],[-13.964078,16.23007],[-14.0156,16.35585],[-14.343254,16.63666],[-14.406635,16.660793],[-14.597011,16.629167],[-14.930944,16.643378],[-14.974301,16.691385],[-15.125093,16.58271],[-15.49091,16.56452],[-15.672191,16.481372],[-15.812958,16.513773],[-16.05377,16.495428],[-16.132266,16.554753],[-16.327397,16.474551],[-16.381088,16.246658],[-16.465993,16.174053],[-16.540925,15.805651],[-16.377677,15.809113],[-16.257478,15.844511],[-16.116039,15.997267],[-15.921891,16.103358],[-15.841069,16.181803],[-15.591162,15.921199],[-15.43399,15.931731],[-15.426715,15.998545],[-14.854462,15.99737],[-14.704705,15.953501],[-14.541433,15.804741],[-14.497893,15.746689],[-14.298338,15.63784],[-13.989934,15.877307],[-13.862944,16.011553],[-13.761353,16.051464],[-13.719571,16.135605]]]},"properties":{"LOCATION_TYPE":"level1","ADM0_A3":"SEN","LOCATION_ID":"SEN-SL","NAME":"Saint-Louis","TYPE_EN":"Region"}},
{"type":"Feature","geometry":{"type":"Polygon","coordinates":[[[-13.719571,16.135605],[-13.761353,16.051464],[-13.862944,16.011553],[-13.989934,15.877307],[-14.298338,15.63784],[-14.497893,15.746689],[-14.541433,15.804741],[-14.740988,15.677752],[-14.748245,15.496338],[-14.784528,15.441913],[-14.617627,15.358463],[-14.534176,15.369348],[-14.584972,15.122625],[-14.621255,15.079085],[-14.802669,15.039174],[-14.730103,14.846875],[-14.862731,14.63766],[-14.654888,14.562832],[-14.632977,14.510898],[-14.508747,14.54025],[-14.356612,14.643654],[-14.269485,14.562522],[-13.83406,14.401757],[-13.511185,14.398501],[-13.218903,14.594562],[-12.948842,14.546244],[-12.755469,14.56552],[-12.648861,14.706286],[-12.572638,14.893717],[-12.689585,15.092479],[-12.856782,15.221992],[-12.96432,15.509158],[-13.089584,15.49704],[-13.122218,15.603493],[-13.237844,15.62344],[-13.31373,15.92213],[-13.484934,16.154984],[-13.675931,16.106925],[-13.719571,16.135605]]]},"properties":{"LOCATION_TYPE":"level1","ADM0_A3":"SEN","LOCATION_ID":"SEN-MT","NAME":"Matam","TYPE_EN":"Region"}},
{"type":"Feature","geometry":{"type":"Polygon","coordinates":[[[-14.860314,13.765595],[-14.812553,13.839982],[-14.62874,13.939098],[-14.577477,14.064775],[-14.633701,14.32264],[-14.632977,14.510898],[-14.654888,14.562832],[-14.862731,14.63766],[-14.897974,14.677141],[-15.062822,14.599936],[-15.249477,14.632906],[-15.379622,14.698302],[-15.431259,14.574296],[-15.593789,14.544112],[-15.799004,14.384859],[-15.85487,14.153874],[-15.85487,14.037769],[-15.702482,13.903523],[-15.709739,13.827329],[-15.582749,13.827329],[-15.394069,13.771512],[-15.267255,13.741798],[-15.097704,13.819984],[-14.860314,13.765595]]]},"properties":{"LOCATION_TYPE":"level1","ADM0_A3":"SEN","LOCATION_ID":"SEN-KA","NAME":"Kaffrine","TYPE_EN":"Region"}},
{"type":"Feature","geometry":{"type":"Polygon","coordinates":[[[-16.085383,13.585168],[-15.518195,13.5831],[-15.467501,13.708286],[-15.394069,13.771512],[-15.582749,13.827329],[-15.709739,13.827329],[-15.702482,13.903523],[-15.85487,14.037769],[-15.85487,14.153874],[-15.799004,14.384859],[-16.014044,14.335146],[-16.113094,14.359537],[-16.257064,14.33959],[-16.380215,14.168362],[-16.372288,14.162653],[-16.248796,14.123273],[-16.201357,13.882512],[-16.237324,13.796367],[-16.172522,13.745931],[-16.085383,13.585168]]]},"properties":{"LOCATION_TYPE":"level1","ADM0_A3":"SEN","LOCATION_ID":"SEN-KL","NAME":"Kaolack","TYPE_EN":"Region"}},
{"type":"Feature","geometry":{"type":"MultiPolygon","coordinates":[[[[-16.085383,13.585168],[-16.172522,13.745931],[-16.237324,13.796367],[-16.201357,13.882512],[-16.248796,14.123273],[-16.372288,14.162653],[-16.489125,14.128241],[-16.623931,13.973944],[-16.746816,13.951361],[-16.710194,13.773627],[-16.561399,13.586914],[-16.085383,13.585168]]],[[[-16.380215,14.168362],[-16.257064,14.33959],[-16.113094,14.359537],[-16.014044,14.335146],[-15.799004,14.384859],[-15.593789,14.544112],[-15.431259,14.574296],[-15.468409,14.627699],[-15.63326,14.692711],[-15.803448,14.715174],[-15.870111,14.557355],[-16.030721,14.526245],[-16.19712,14.577508],[-16.461961,14.607274],[-16.531259,14.580609],[-16.551051,14.521388],[-16.69497,14.426665],[-16.81128,14.124885],[-16.721059,14.016303],[-16.631703,14.010077],[-16.474599,14.179389],[-16.380215,14.168362]]]]},"properties":{"LOCATION_TYPE":"level1","ADM0_A3":"SEN","LOCATION_ID":"SEN-FK","NAME":"Fatick","TYPE_EN":"Region"}},
{"type":"Feature","geometry":{"type":"Polygon","coordinates":[[[-16.735333,15.477331],[-16.69528,15.400817],[-16.716881,15.270748],[-16.617249,15.180882],[-16.527745,15.203103],[-16.451368,15.320616],[-16.343674,15.317825],[-16.192159,15.000118],[-16.132421,14.969009],[-16.077127,15.001875],[-15.83187,15.003374],[-15.717717,14.861625],[-15.452979,14.829018],[-15.379622,14.698302],[-15.249477,14.632906],[-15.062822,14.599936],[-14.897974,14.677141],[-14.862731,14.63766],[-14.730103,14.846875],[-14.802669,15.039174],[-14.621255,15.079085],[-14.584972,15.122625],[-14.534176,15.369348],[-14.617627,15.358463],[-14.784528,15.441913],[-14.748245,15.496338],[-14.740988,15.677752],[-14.541433,15.804741],[-14.704705,15.953501],[-14.854462,15.99737],[-15.426715,15.998545],[-15.43399,15.931731],[-15.591162,15.921199],[-15.841069,16.181803],[-15.921891,16.103358],[-16.116039,15.997267],[-16.257478,15.844511],[-16.377677,15.809113],[-16.540925,15.805651],[-16.53893,15.774359],[-16.735333,15.477331]]]},"properties":{"LOCATION_TYPE":"level1","ADM0_A3":"SEN","LOCATION_ID":"SEN-LG","NAME":"Louga","TYPE_EN":"Region"}},
{"type":"Feature","geometry":{"type":"Polygon","coordinates":[[[-17.18198,14.897088],[-17.129466,14.750314],[-17.14841,14.613188],[-17.059478,14.453925],[-16.939565,14.355862],[-16.883901,14.188951],[-16.81128,14.124885],[-16.69497,14.426665],[-16.551051,14.521388],[-16.531259,14.580609],[-16.67833,14.877542],[-16.640452,14.944359],[-16.399484,15.01159],[-16.192727,14.926324],[-16.132421,14.969009],[-16.192159,15.000118],[-16.343674,15.317825],[-16.451368,15.320616],[-16.527745,15.203103],[-16.617249,15.180882],[-16.716881,15.270748],[-16.69528,15.400817],[-16.735333,15.477331],[-16.878245,15.2331],[-17.18198,14.897088]]]},"properties":{"LOCATION_TYPE":"level1","ADM0_A3":"SEN","LOCATION_ID":"SEN-TH","NAME":"Thiès","TYPE_EN":"Region"}},
{"type":"Feature","geometry":{"type":"Polygon","coordinates":[[[-17.14841,14.613188],[-17.129466,14.750314],[-17.18198,14.897088],[-17.370961,14.800279],[-17.14841,14.613188]]]},"properties":{"LOCATION_TYPE":"level1","ADM0_A3":"SEN","LOCATION_ID":"SEN-DK","NAME":"Dakar","TYPE_EN":"Region"}},
{"type":"Feature","geometry":{"type":"Polygon","coordinates":[[[-15.379622,14.698302],[-15.452979,14.829018],[-15.717717,14.861625],[-15.83187,15.003374],[-16.077127,15.001875],[-16.132421,14.969009],[-16.192727,14.926324],[-16.399484,15.01159],[-16.640452,14.944359],[-16.67833,14.877542],[-16.531259,14.580609],[-16.461961,14.607274],[-16.19712,14.577508],[-16.030721,14.526245],[-15.870111,14.557355],[-15.803448,14.715174],[-15.63326,14.692711],[-15.468409,14.627699],[-15.431259,14.574296],[-15.379622,14.698302]]]},"properties":{"LOCATION_TYPE":"level1","ADM0_A3":"SEN","LOCATION_ID":"SEN-DB","NAME":"Diourbel","TYPE_EN":"Region"}}
]}