{"type":"FeatureCollection", "features": [
{"type":"Feature","geometry":{"type":"Polygon","coordinates":[[[103.846934,1.271918],[103.806351,1.324884],[103.758453,1.390259],[103.762218,1.430976],[103.683849,1.409898],[103.647634,1.308417],[103.755138,1.297105],[103.789561,1.26789],[103.846934,1.271918]]]},"properties":{"LOCATION_TYPE":"level1","ADM0_A3":"SGP","LOCATION_ID":"SGP-05","NAME":"South West","TYPE_EN":null}},
{"type":"Feature","geometry":{"type":"Polygon","coordinates":[[[103.898102,1.305241],[103.87302,1.363074],[103.898911,1.386376],[103.909439,1.41261],[103.88147,1.426579],[103.806351,1.324884],[103.846934,1.271918],[103.898102,1.305241]]]},"properties":{"LOCATION_TYPE":"level1","ADM0_A3":"SGP","LOCATION_ID":"SGP-01","NAME":"Central Singapore","TYPE_EN":null}},
{"type":"Feature","geometry":{"type":"Polygon","coordinates":[[[103.965807,1.389959],[103.898911,1.386376],[103.87302,1.363074],[103.898102,1.305241],[103.954356,1.318101],[104.003429,1.374172],[103.965807,1.389959]]]},"properties":{"LOCATION_TYPE":"level1","ADM0_A3":"SGP","LOCATION_ID":"SGP-04","NAME":"South East","TYPE_EN":null}},
{"type":"Feature","geometry":{"type":"Polygon","coordinates":[[[103.909439,1.41261],[103.898911,1.386376],[103.965807,1.389959],[103.909439,1.41261]]]},"properties":{"LOCATION_TYPE":"level1","ADM0_A3":"SGP","LOCATION_ID":"SGP-02","NAME":"North East","TYPE_EN":null}},
{"type":"Feature","geometry":{"type":"Polygon","coordinates":[[[103.762218,1.430976],[103.758453,1.390259],[103.806351,1.324884],[103.88147,1.426579],[103.804942,1.448635],[103.762218,1.430976]]]},"properties":{"LOCATION_TYPE":"level1","ADM0_A3":"SGP","LOCATION_ID":"SGP-03","NAME":"North West","TYPE_EN":null}}
]}