{"type":"FeatureCollection", "features": [
{"type":"Feature","geometry":{"type":"MultiPolygon","coordinates":[[[[-26.259836,-58.4367],[-26.312367,-58.382094],[-26.430898,-58.385024],[-26.430287,-58.452407],[-26.301015,-58.477227],[-26.259836,-58.4367]]],[[[-35.908803,-54.68727],[-35.950592,-54.570571],[-36.043284,-54.5735],[-36.100209,-54.545017],[-36.016225,-54.495375],[-36.041982,-54.463962],[-36.176259,-54.430271],[-36.161692,-54.372979],[-36.243886,-54.375258],[-36.26061,-54.285414],[-36.394439,-54.242771],[-36.418935,-54.31463],[-36.487701,-54.314223],[-36.545074,-54.237726],[-36.630849,-54.277765],[-36.675649,-54.249444],[-36.558949,-54.195489],[-36.659169,-54.182061],[-36.621571,-54.119806],[-36.778635,-54.099298],[-36.891428,-54.069513],[-37.059804,-54.065118],[-37.122426,-54.111912],[-37.169667,-54.044041],[-37.408844,-54.051365],[-37.492421,-54.000421],[-37.689809,-54.003676],[-37.738189,-53.982599],[-37.820139,-54.009942],[-37.912465,-53.990981],[-37.927724,-54.045587],[-37.614654,-54.037856],[-37.724517,-54.133477],[-37.668772,-54.17311],[-37.551137,-54.165948],[-37.529042,-54.133477],[-37.388092,-54.147719],[-37.409657,-54.248468],[-37.368276,-54.277439],[-37.241567,-54.250421],[-37.153391,-54.257501],[-37.001454,-54.345798],[-36.884511,-54.336358],[-36.888499,-54.379815],[-36.799062,-54.410903],[-36.813385,-54.445001],[-36.684316,-54.476983],[-36.641469,-54.510837],[-36.541819,-54.496515],[-36.463287,-54.53753],[-36.312327,-54.690362],[-36.298818,-54.743585],[-36.101796,-54.887465],[-36.007721,-54.86533],[-35.887318,-54.784438],[-35.784291,-54.757257],[-35.914784,-54.715265],[-35.908803,-54.68727]]]]},"properties":{"LOCATION_TYPE":"level1","ADM0_A3":"SGS","LOCATION_ID":"SGS-X01~","NAME":"South Georgia and the South Sandwich Islands","TYPE_EN":null}}
]}