{"type":"FeatureCollection", "features": [
{"type":"Feature","geometry":{"type":"MultiPolygon","coordinates":[[[[-9.926381,-40.34881],[-9.962758,-40.301853],[-10.039377,-40.338637],[-9.92516,-40.397882],[-9.926381,-40.34881]]],[[[-12.307362,-37.070082],[-12.276601,-37.149184],[-12.191274,-37.090509],[-12.307362,-37.070082]]]]},"properties":{"LOCATION_TYPE":"level1","ADM0_A3":"SHN","LOCATION_ID":"SHN-TA","NAME":"Tristan da Cunha","TYPE_EN":null}},
{"type":"Feature","geometry":{"type":"Polygon","coordinates":[[[-5.721832,-15.908949],[-5.770131,-15.945245],[-5.763743,-16.01572],[-5.66275,-15.979587],[-5.721832,-15.908949]]]},"properties":{"LOCATION_TYPE":"level1","ADM0_A3":"SHN","LOCATION_ID":"SHN-HL","NAME":"Saint Helena","TYPE_EN":null}},
{"type":"Feature","geometry":{"type":"Polygon","coordinates":[[[-14.356272,-7.884698],[-14.406402,-7.973891],[-14.294789,-7.945489],[-14.356272,-7.884698]]]},"properties":{"LOCATION_TYPE":"level1","ADM0_A3":"SHN","LOCATION_ID":"SHN-AC","NAME":"Ascension","TYPE_EN":null}}
]}