{"type":"FeatureCollection", "features": [
{"type":"Feature","geometry":{"type":"Polygon","coordinates":[[[160.503673,-11.736017],[160.393891,-11.65781],[160.287446,-11.617364],[160.087169,-11.494806],[160.003266,-11.461114],[159.96339,-11.520603],[160.01059,-11.589451],[160.168468,-11.653497],[160.230479,-11.626153],[160.360118,-11.716892],[160.380056,-11.777032],[160.483165,-11.844985],[160.564464,-11.773045],[160.503673,-11.736017]]]},"properties":{"LOCATION_TYPE":"level1","ADM0_A3":"SLB","LOCATION_ID":"SLB-RB","NAME":"Rennell and Bellona","TYPE_EN":"Province"}},
{"type":"Feature","geometry":{"type":"Polygon","coordinates":[[[162.374848,-10.823663],[162.271739,-10.814386],[162.277517,-10.67962],[162.22047,-10.629571],[162.163097,-10.508722],[162.113617,-10.456476],[162.009288,-10.478448],[161.963552,-10.440606],[161.835704,-10.446954],[161.735118,-10.405369],[161.502208,-10.250746],[161.396007,-10.204034],[161.29184,-10.225763],[161.280772,-10.308852],[161.510997,-10.364923],[161.490408,-10.42018],[161.545177,-10.50213],[161.524669,-10.564223],[161.748709,-10.682794],[161.792166,-10.734959],[161.969412,-10.781345],[162.011241,-10.769627],[162.101085,-10.821466],[162.207042,-10.808038],[162.278656,-10.835545],[162.374848,-10.823663]]]},"properties":{"LOCATION_TYPE":"level1","ADM0_A3":"SLB","LOCATION_ID":"SLB-MK","NAME":"Makira","TYPE_EN":"Province"}},
{"type":"Feature","geometry":{"type":"MultiPolygon","coordinates":[[[[166.92392,-11.640972],[166.869884,-11.588962],[166.767248,-11.63349],[166.843021,-11.713316],[166.984149,-11.709863],[166.92392,-11.640972]]],[[[166.147905,-10.694046],[166.026664,-10.647016],[165.878062,-10.656847],[165.827094,-10.749212],[165.756474,-10.812161],[165.861965,-10.86854],[165.93422,-10.775741],[166.054501,-10.766732],[166.147905,-10.694046]]]]},"properties":{"LOCATION_TYPE":"level1","ADM0_A3":"SLB","LOCATION_ID":"SLB-TE","NAME":"Temotu","TYPE_EN":"Province"}},
{"type":"Feature","geometry":{"type":"MultiPolygon","coordinates":[[[[161.394786,-9.412774],[161.394786,-9.649021],[161.573009,-9.74863],[161.545177,-9.604669],[161.415212,-9.386],[161.394786,-9.412774]]],[[[161.360688,-9.617608],[161.381114,-9.509047],[161.328136,-9.438572],[161.202485,-9.138442],[161.151134,-8.94964],[160.946625,-8.813735],[160.942393,-8.692153],[160.996837,-8.603774],[160.829112,-8.420831],[160.746593,-8.309666],[160.70281,-8.364516],[160.601329,-8.325453],[160.593516,-8.384942],[160.719981,-8.553399],[160.65447,-8.604099],[160.693126,-8.751235],[160.74822,-8.855157],[160.764334,-8.94671],[160.867931,-9.152114],[160.969737,-9.220392],[161.237153,-9.447524],[161.30893,-9.581638],[161.360688,-9.617608]]]]},"properties":{"LOCATION_TYPE":"level1","ADM0_A3":"SLB","LOCATION_ID":"SLB-ML","NAME":"Malaita","TYPE_EN":"Province"}},
{"type":"Feature","geometry":{"type":"Polygon","coordinates":[[[159.939708,-9.432875],[159.982147,-9.461159],[160.028005,-9.422133],[159.939708,-9.432875]]]},"properties":{"LOCATION_TYPE":"level1","ADM0_A3":"SLB","LOCATION_ID":"SLB-CT","NAME":"Capital Territory (Honiara)","TYPE_EN":"Province"}},
{"type":"Feature","geometry":{"type":"Polygon","coordinates":[[[160.028005,-9.422133],[159.982147,-9.461159],[159.939708,-9.432875],[159.778982,-9.281996],[159.708995,-9.247735],[159.615977,-9.295343],[159.599132,-9.512384],[159.653982,-9.574802],[159.723399,-9.706964],[159.835623,-9.793878],[160.123871,-9.823175],[160.320323,-9.815118],[160.432872,-9.889093],[160.508637,-9.889255],[160.644786,-9.937107],[160.824718,-9.867283],[160.785411,-9.727472],[160.673025,-9.698012],[160.65447,-9.610772],[160.586436,-9.551365],[160.503673,-9.53631],[160.459321,-9.47503],[160.366384,-9.412774],[160.120616,-9.433282],[160.028005,-9.422133]]]},"properties":{"LOCATION_TYPE":"level1","ADM0_A3":"SLB","LOCATION_ID":"SLB-GU","NAME":"Guadalcanal","TYPE_EN":"Province"}},
{"type":"Feature","geometry":{"type":"MultiPolygon","coordinates":[[[[160.25408,-9.158949],[160.366384,-9.186212],[160.359223,-9.110935],[160.25408,-9.158949]]],[[[160.09669,-9.056573],[160.257579,-9.120782],[160.301443,-9.061619],[160.257986,-9.009047],[160.147634,-9.008722],[160.09669,-9.056573]]],[[[159.167166,-9.017999],[159.116222,-8.999282],[159.039317,-9.068536],[159.09962,-9.117934],[159.161632,-9.09002],[159.167166,-9.017999]]]]},"properties":{"LOCATION_TYPE":"level1","ADM0_A3":"SLB","LOCATION_ID":"SLB-CE","NAME":"Central","TYPE_EN":"Province"}},
{"type":"Feature","geometry":{"type":"MultiPolygon","coordinates":[[[[157.615489,-8.73447],[157.549653,-8.692153],[157.476736,-8.739516],[157.622325,-8.795831],[157.615489,-8.73447]]],[[[158.056895,-8.528253],[157.961192,-8.52158],[157.886078,-8.596612],[157.879242,-8.68255],[157.948253,-8.751397],[158.013357,-8.765232],[158.105724,-8.691095],[158.13502,-8.566827],[158.056895,-8.528253]]],[[[157.358653,-8.576755],[157.413829,-8.497979],[157.347504,-8.41253],[157.200938,-8.565851],[157.277843,-8.618585],[157.358653,-8.576755]]],[[[157.797374,-8.562433],[157.886078,-8.58294],[157.903331,-8.499119],[157.83839,-8.337172],[157.74586,-8.228692],[157.667003,-8.240899],[157.613129,-8.169122],[157.611827,-8.066176],[157.578868,-8.005548],[157.502615,-7.959731],[157.382823,-8.031508],[157.316905,-8.185724],[157.221934,-8.223891],[157.228201,-8.316664],[157.29713,-8.337172],[157.3449,-8.275079],[157.481781,-8.255955],[157.567068,-8.2763],[157.62908,-8.401137],[157.577647,-8.436212],[157.674815,-8.50921],[157.797374,-8.562433]]],[[[157.104666,-8.124933],[157.146251,-8.148614],[157.202322,-8.048272],[157.191254,-7.952895],[157.091075,-7.850518],[157.001964,-7.875177],[156.947032,-7.979669],[157.002289,-8.086847],[157.104666,-8.124933]]],[[[156.80714,-7.720147],[156.684825,-7.665704],[156.611176,-7.569431],[156.504161,-7.63006],[156.515636,-7.720147],[156.618663,-7.813084],[156.611827,-7.871189],[156.659679,-7.939223],[156.79949,-7.766534],[156.80714,-7.720147]]],[[[155.816742,-7.020685],[155.747406,-6.97088],[155.67449,-7.075942],[155.734874,-7.124282],[155.858246,-7.09295],[155.816742,-7.020685]]]]},"properties":{"LOCATION_TYPE":"level1","ADM0_A3":"SLB","LOCATION_ID":"SLB-CH","NAME":"Western","TYPE_EN":"Province"}},
{"type":"Feature","geometry":{"type":"MultiPolygon","coordinates":[[[[159.68865,-8.507908],[159.644054,-8.400323],[159.558279,-8.389418],[159.538829,-8.458917],[159.636241,-8.529229],[159.68865,-8.507908]]],[[[158.486095,-7.610284],[158.378754,-7.562677],[158.362153,-7.637628],[158.486095,-7.610284]]],[[[159.859386,-8.511326],[159.796641,-8.391778],[159.842052,-8.325616],[159.431651,-8.031508],[159.402599,-7.982354],[159.30128,-7.987074],[159.27296,-7.954034],[159.085704,-7.903578],[158.987071,-7.839614],[158.989757,-7.802179],[158.872325,-7.733819],[158.814464,-7.664727],[158.653982,-7.561293],[158.605724,-7.586196],[158.451996,-7.531996],[158.455333,-7.576267],[158.584972,-7.668634],[158.580089,-7.740818],[158.688487,-7.811212],[158.739024,-7.884535],[158.845714,-7.973403],[159.213634,-8.185317],[159.326182,-8.225844],[159.345388,-8.261407],[159.461111,-8.289727],[159.627208,-8.357599],[159.825043,-8.542087],[159.859386,-8.511326]]]]},"properties":{"LOCATION_TYPE":"level1","ADM0_A3":"SLB","LOCATION_ID":"SLB-IS","NAME":"Isabel","TYPE_EN":"Province"}},
{"type":"Feature","geometry":{"type":"Polygon","coordinates":[[[157.529796,-7.333185],[157.424083,-7.316095],[157.302745,-7.266371],[157.279633,-7.212498],[157.152517,-7.124282],[157.120453,-6.980727],[157.042654,-6.897149],[156.780284,-6.775811],[156.669607,-6.674981],[156.548025,-6.610528],[156.487804,-6.60296],[156.446625,-6.664972],[156.461111,-6.733331],[156.596202,-6.850763],[156.687022,-6.897149],[156.800629,-7.05877],[156.927745,-7.208754],[157.056895,-7.268324],[157.104259,-7.332208],[157.200938,-7.336602],[157.3449,-7.398045],[157.441742,-7.414239],[157.529796,-7.333185]]]},"properties":{"LOCATION_TYPE":"level1","ADM0_A3":"SLB","LOCATION_ID":"SLB-CH","NAME":"Choiseul","TYPE_EN":"Province"}}
]}