{"type":"FeatureCollection", "features": [
{"type":"Feature","geometry":{"type":"Polygon","coordinates":[[[-10.592179,9.041658],[-10.746342,9.083814],[-10.675132,9.306461],[-10.854862,9.455264],[-10.852589,9.512082],[-10.968499,9.654244],[-11.010098,9.74274],[-11.16027,9.872758],[-11.199596,9.982157],[-11.272666,9.996006],[-11.910095,9.992518],[-11.921774,9.922212],[-12.141347,9.874876],[-12.253588,9.928413],[-12.426989,9.897614],[-12.508327,9.860381],[-12.537473,9.715713],[-12.638552,9.589416],[-12.701597,9.420227],[-12.835827,9.281967],[-12.957912,9.272433],[-13.028864,9.095983],[-13.115913,9.043945],[-13.207535,9.076708],[-13.277376,9.058595],[-13.288442,8.969468],[-13.142649,8.916734],[-13.240224,8.825832],[-13.2412,8.672187],[-13.168528,8.525214],[-13.107493,8.581],[-13.013051,8.561713],[-13.116119,8.472968],[-13.042448,8.37539],[-12.918663,8.337528],[-12.900473,8.274534],[-12.822752,8.370187],[-12.656044,8.357733],[-12.47528,8.282906],[-12.364795,8.334685],[-12.202738,8.343729],[-12.092357,8.290347],[-12.03882,8.358405],[-11.844104,8.346261],[-11.778991,8.371531],[-11.697239,8.488991],[-11.580192,8.50806],[-11.529963,8.544698],[-11.421545,8.551675],[-11.329096,8.59591],[-11.341499,8.776932],[-11.262537,8.902764],[-11.135981,8.964983],[-11.062342,9.070196],[-10.94452,9.051644],[-10.815019,8.946741],[-10.592179,9.041658]]]},"properties":{"LOCATION_TYPE":"level1","ADM0_A3":"SLE","LOCATION_ID":"SLE-N","NAME":"Northern","TYPE_EN":"Province"}},
{"type":"Feature","geometry":{"type":"Polygon","coordinates":[[[-10.592179,9.041658],[-10.815019,8.946741],[-10.94452,9.051644],[-11.062342,9.070196],[-11.135981,8.964983],[-11.262537,8.902764],[-11.341499,8.776932],[-11.329096,8.59591],[-11.421545,8.551675],[-11.529963,8.544698],[-11.580192,8.50806],[-11.528981,8.366931],[-11.375243,8.205649],[-11.335814,8.077698],[-11.347803,7.95228],[-11.439477,7.880656],[-11.406559,7.770224],[-11.520454,7.680668],[-11.482989,7.54817],[-11.361652,7.616538],[-11.357932,7.424353],[-11.144213,7.345193],[-10.977904,7.484919],[-10.874603,7.530859],[-10.730581,7.705474],[-10.615187,7.769036],[-10.617668,8.010778],[-10.529249,8.124286],[-10.364918,8.148212],[-10.282236,8.484625],[-10.389775,8.489095],[-10.519276,8.33479],[-10.583251,8.30691],[-10.669086,8.399075],[-10.638855,8.519895],[-10.565423,8.612783],[-10.481862,8.672469],[-10.600201,8.819024],[-10.61188,8.94514],[-10.592179,9.041658]]]},"properties":{"LOCATION_TYPE":"level1","ADM0_A3":"SLE","LOCATION_ID":"SLE-E","NAME":"Eastern","TYPE_EN":"Province"}},
{"type":"Feature","geometry":{"type":"MultiPolygon","coordinates":[[[[-11.144213,7.345193],[-11.357932,7.424353],[-11.361652,7.616538],[-11.482989,7.54817],[-11.520454,7.680668],[-11.406559,7.770224],[-11.439477,7.880656],[-11.347803,7.95228],[-11.335814,8.077698],[-11.375243,8.205649],[-11.528981,8.366931],[-11.580192,8.50806],[-11.697239,8.488991],[-11.778991,8.371531],[-11.844104,8.346261],[-12.03882,8.358405],[-12.092357,8.290347],[-12.202738,8.343729],[-12.364795,8.334685],[-12.47528,8.282906],[-12.656044,8.357733],[-12.822752,8.370187],[-12.900473,8.274534],[-12.976234,8.246474],[-12.895172,8.079576],[-12.886708,7.938544],[-12.959096,7.9112],[-12.875885,7.828681],[-12.790517,7.792385],[-12.711415,7.711982],[-12.531402,7.687079],[-12.428334,7.533596],[-12.506581,7.389838],[-12.314849,7.329006],[-11.839589,7.148993],[-11.69815,7.067043],[-11.533925,6.942125],[-11.476186,6.91942],[-11.407283,6.99637],[-11.373229,7.138842],[-11.317211,7.213566],[-11.217889,7.25408],[-11.144213,7.345193]]],[[[-12.492991,7.56802],[-12.621409,7.639716],[-12.898061,7.610745],[-12.95165,7.56802],[-12.60554,7.478664],[-12.554433,7.410346],[-12.492991,7.56802]]]]},"properties":{"LOCATION_TYPE":"level1","ADM0_A3":"SLE","LOCATION_ID":"SLE-S","NAME":"Southern","TYPE_EN":"Province"}},
{"type":"Feature","geometry":{"type":"Polygon","coordinates":[[[-12.976234,8.246474],[-12.900473,8.274534],[-12.918663,8.337528],[-13.042448,8.37539],[-13.210764,8.493394],[-13.274159,8.420885],[-13.175649,8.283759],[-13.161733,8.187161],[-12.976234,8.246474]]]},"properties":{"LOCATION_TYPE":"level1","ADM0_A3":"SLE","LOCATION_ID":"SLE-W","NAME":"Western","TYPE_EN":"Province"}}
]}