{"type":"FeatureCollection", "features": [
{"type":"Feature","geometry":{"type":"Polygon","coordinates":[[[-89.74801,14.044895],[-89.835855,14.059091],[-89.880116,14.042684],[-90.022976,13.936954],[-90.099044,13.858509],[-90.114314,13.796265],[-90.098307,13.731404],[-89.953483,13.665073],[-89.922594,13.705805],[-89.819757,13.679682],[-89.781594,13.768049],[-89.770717,13.893984],[-89.718833,13.90897],[-89.695863,13.99372],[-89.74801,14.044895]]]},"properties":{"LOCATION_TYPE":"level1","ADM0_A3":"SLV","LOCATION_ID":"SLV-AH","NAME":"Ahuachapán","TYPE_EN":"Department"}},
{"type":"Feature","geometry":{"type":"Polygon","coordinates":[[[-89.74801,14.044895],[-89.695863,13.99372],[-89.718833,13.90897],[-89.674908,13.905379],[-89.593363,13.808356],[-89.456627,13.775077],[-89.430892,13.921166],[-89.38521,13.948555],[-89.371361,14.04059],[-89.427172,14.071622],[-89.407974,14.13583],[-89.33803,14.170531],[-89.309349,14.242258],[-89.263306,14.26652],[-89.246511,14.322847],[-89.346206,14.413076],[-89.408362,14.441523],[-89.485283,14.427389],[-89.527761,14.391061],[-89.569877,14.412015],[-89.598351,14.32799],[-89.549878,14.288276],[-89.530939,14.225567],[-89.638322,14.200556],[-89.709868,14.148724],[-89.74801,14.044895]]]},"properties":{"LOCATION_TYPE":"level1","ADM0_A3":"SLV","LOCATION_ID":"SLV-SA","NAME":"Santa Ana","TYPE_EN":"Department"}},
{"type":"Feature","geometry":{"type":"Polygon","coordinates":[[[-89.346206,14.413076],[-89.246511,14.322847],[-89.263306,14.26652],[-89.309349,14.242258],[-89.33803,14.170531],[-89.407974,14.13583],[-89.427172,14.071622],[-89.371361,14.04059],[-89.324775,14.071622],[-89.267311,14.052114],[-89.141349,14.066997],[-89.078821,14.060253],[-89.009497,13.970336],[-88.929734,13.947909],[-88.874027,13.946358],[-88.690812,14.01179],[-88.746645,14.052477],[-88.73923,14.099942],[-88.838759,14.100407],[-88.881263,14.1842],[-88.957175,14.185182],[-89.018128,14.271688],[-89.026603,14.311298],[-89.083085,14.335328],[-89.107476,14.39597],[-89.153985,14.351296],[-89.346206,14.413076]]]},"properties":{"LOCATION_TYPE":"level1","ADM0_A3":"SLV","LOCATION_ID":"SLV-CH","NAME":"Chalatenango","TYPE_EN":"Department"}},
{"type":"Feature","geometry":{"type":"Polygon","coordinates":[[[-88.690812,14.01179],[-88.874027,13.946358],[-88.929734,13.947909],[-88.976527,13.891039],[-88.893845,13.764871],[-88.850256,13.750634],[-88.821575,13.781097],[-88.735612,13.812284],[-88.64386,13.795644],[-88.583244,13.7542],[-88.532342,13.759367],[-88.496816,13.851197],[-88.49542,13.975143],[-88.633862,14.014469],[-88.690812,14.01179]]]},"properties":{"LOCATION_TYPE":"level1","ADM0_A3":"SLV","LOCATION_ID":"SLV-CA","NAME":"Cabañas","TYPE_EN":"Department"}},
{"type":"Feature","geometry":{"type":"Polygon","coordinates":[[[-87.952595,13.892029],[-88.015321,13.866364],[-88.087538,13.980543],[-88.235075,13.992868],[-88.236367,13.938143],[-88.274171,13.91912],[-88.246081,13.853289],[-88.260137,13.803318],[-88.20722,13.750556],[-88.259388,13.68578],[-88.212155,13.626145],[-88.140945,13.607697],[-88.091853,13.542481],[-88.00855,13.551447],[-87.970258,13.594545],[-87.936358,13.740299],[-87.952595,13.892029]]]},"properties":{"LOCATION_TYPE":"level1","ADM0_A3":"SLV","LOCATION_ID":"SLV-MO","NAME":"Morazán","TYPE_EN":"Department"}},
{"type":"Feature","geometry":{"type":"Polygon","coordinates":[[[-88.274171,13.91912],[-88.285433,13.905974],[-88.496816,13.851197],[-88.532342,13.759367],[-88.487332,13.68826],[-88.434545,13.692136],[-88.37243,13.653844],[-88.362534,13.503052],[-88.382688,13.424426],[-88.333905,13.338824],[-88.222155,13.302315],[-88.20505,13.265573],[-88.112507,13.171196],[-88.091471,13.172706],[-88.085961,13.251104],[-88.038936,13.25622],[-88.014235,13.385953],[-88.029221,13.466439],[-88.00855,13.551447],[-88.091853,13.542481],[-88.140945,13.607697],[-88.212155,13.626145],[-88.259388,13.68578],[-88.20722,13.750556],[-88.260137,13.803318],[-88.246081,13.853289],[-88.274171,13.91912]]]},"properties":{"LOCATION_TYPE":"level1","ADM0_A3":"SLV","LOCATION_ID":"SLV-SM","NAME":"San Miguel","TYPE_EN":"Department"}},
{"type":"Feature","geometry":{"type":"Polygon","coordinates":[[[-88.091471,13.172706],[-87.928212,13.158637],[-87.912465,13.198188],[-87.798085,13.265652],[-87.791534,13.304958],[-87.873769,13.365261],[-87.738412,13.441687],[-87.725726,13.49897],[-87.789934,13.532819],[-87.760091,13.616948],[-87.755026,13.689915],[-87.712626,13.800451],[-87.832903,13.91525],[-87.870549,13.889567],[-87.952595,13.892029],[-87.936358,13.740299],[-87.970258,13.594545],[-88.00855,13.551447],[-88.029221,13.466439],[-88.014235,13.385953],[-88.038936,13.25622],[-88.085961,13.251104],[-88.091471,13.172706]]]},"properties":{"LOCATION_TYPE":"level1","ADM0_A3":"SLV","LOCATION_ID":"SLV-UN","NAME":"La Unión","TYPE_EN":"Department"}},
{"type":"Feature","geometry":{"type":"Polygon","coordinates":[[[-89.609425,13.513063],[-89.516985,13.646402],[-89.507089,13.706115],[-89.456627,13.775077],[-89.593363,13.808356],[-89.674908,13.905379],[-89.718833,13.90897],[-89.770717,13.893984],[-89.781594,13.768049],[-89.819757,13.679682],[-89.922594,13.705805],[-89.953483,13.665073],[-89.837148,13.596829],[-89.808048,13.526858],[-89.679766,13.534732],[-89.609425,13.513063]]]},"properties":{"LOCATION_TYPE":"level1","ADM0_A3":"SLV","LOCATION_ID":"SLV-SO","NAME":"Sonsonate","TYPE_EN":"Department"}},
{"type":"Feature","geometry":{"type":"Polygon","coordinates":[[[-89.135716,13.414458],[-89.111868,13.457293],[-89.144372,13.489254],[-89.211448,13.528684],[-89.204472,13.656479],[-89.262686,13.742081],[-89.219329,13.859025],[-89.210363,13.945583],[-89.273796,13.99695],[-89.267311,14.052114],[-89.324775,14.071622],[-89.371361,14.04059],[-89.38521,13.948555],[-89.430892,13.921166],[-89.456627,13.775077],[-89.507089,13.706115],[-89.516985,13.646402],[-89.609425,13.513063],[-89.527067,13.494173],[-89.384999,13.495307],[-89.251454,13.472317],[-89.135716,13.414458]]]},"properties":{"LOCATION_TYPE":"level1","ADM0_A3":"SLV","LOCATION_ID":"SLV-LI","NAME":"La Libertad","TYPE_EN":"Department"}},
{"type":"Feature","geometry":{"type":"Polygon","coordinates":[[[-88.831558,13.26608],[-88.791035,13.333967],[-88.78132,13.405461],[-88.819353,13.446415],[-88.809199,13.548114],[-88.833849,13.599506],[-88.886378,13.598757],[-88.896067,13.662577],[-88.943351,13.642294],[-89.023579,13.672938],[-89.094892,13.598731],[-89.144372,13.489254],[-89.111868,13.457293],[-89.135716,13.414458],[-89.064809,13.372016],[-88.831558,13.26608]]]},"properties":{"LOCATION_TYPE":"level1","ADM0_A3":"SLV","LOCATION_ID":"SLV-PA","NAME":"La Paz","TYPE_EN":"Department"}},
{"type":"Feature","geometry":{"type":"Polygon","coordinates":[[[-88.81664,13.259304],[-88.731865,13.341486],[-88.721452,13.402541],[-88.675874,13.487162],[-88.665099,13.547106],[-88.612829,13.598653],[-88.487332,13.68826],[-88.532342,13.759367],[-88.583244,13.7542],[-88.64386,13.795644],[-88.735612,13.812284],[-88.821575,13.781097],[-88.850256,13.750634],[-88.896067,13.662577],[-88.886378,13.598757],[-88.833849,13.599506],[-88.809199,13.548114],[-88.819353,13.446415],[-88.78132,13.405461],[-88.791035,13.333967],[-88.831558,13.26608],[-88.81664,13.259304]]]},"properties":{"LOCATION_TYPE":"level1","ADM0_A3":"SLV","LOCATION_ID":"SLV-SV","NAME":"San Vicente","TYPE_EN":"Department"}},
{"type":"Feature","geometry":{"type":"Polygon","coordinates":[[[-88.112507,13.171196],[-88.20505,13.265573],[-88.222155,13.302315],[-88.333905,13.338824],[-88.382688,13.424426],[-88.362534,13.503052],[-88.37243,13.653844],[-88.434545,13.692136],[-88.487332,13.68826],[-88.612829,13.598653],[-88.665099,13.547106],[-88.675874,13.487162],[-88.721452,13.402541],[-88.731865,13.341486],[-88.81664,13.259304],[-88.785675,13.245266],[-88.527455,13.198432],[-88.469228,13.22309],[-88.38915,13.170844],[-88.337921,13.194525],[-88.208282,13.160427],[-88.112507,13.171196]]]},"properties":{"LOCATION_TYPE":"level1","ADM0_A3":"SLV","LOCATION_ID":"SLV-US","NAME":"Usulután","TYPE_EN":"Department"}},
{"type":"Feature","geometry":{"type":"Polygon","coordinates":[[[-88.929734,13.947909],[-89.009497,13.970336],[-89.078821,14.060253],[-89.141349,14.066997],[-89.157679,13.952482],[-89.106235,13.829699],[-89.050425,13.777867],[-89.023579,13.672938],[-88.943351,13.642294],[-88.896067,13.662577],[-88.850256,13.750634],[-88.893845,13.764871],[-88.976527,13.891039],[-88.929734,13.947909]]]},"properties":{"LOCATION_TYPE":"level1","ADM0_A3":"SLV","LOCATION_ID":"SLV-CU","NAME":"Cuscatlán","TYPE_EN":"Department"}},
{"type":"Feature","geometry":{"type":"Polygon","coordinates":[[[-89.141349,14.066997],[-89.267311,14.052114],[-89.273796,13.99695],[-89.210363,13.945583],[-89.219329,13.859025],[-89.262686,13.742081],[-89.204472,13.656479],[-89.211448,13.528684],[-89.144372,13.489254],[-89.094892,13.598731],[-89.023579,13.672938],[-89.050425,13.777867],[-89.106235,13.829699],[-89.157679,13.952482],[-89.141349,14.066997]]]},"properties":{"LOCATION_TYPE":"level1","ADM0_A3":"SLV","LOCATION_ID":"SLV-SS","NAME":"San Salvador","TYPE_EN":"Department"}}
]}