{"type":"FeatureCollection", "features": [
{"type":"Feature","geometry":{"type":"Polygon","coordinates":[[[12.490737,43.965044],[12.48216,43.982567],[12.453325,43.979053],[12.427247,43.96939],[12.448072,43.954671],[12.490737,43.965044]]]},"properties":{"LOCATION_TYPE":"level1","ADM0_A3":"SMR","LOCATION_ID":"SMR-09","NAME":"Serravalle","TYPE_EN":null}},
{"type":"Feature","geometry":{"type":"Polygon","coordinates":[[[12.490737,43.965044],[12.448072,43.954671],[12.457242,43.933364],[12.491516,43.949102],[12.490737,43.965044]]]},"properties":{"LOCATION_TYPE":"level1","ADM0_A3":"SMR","LOCATION_ID":"SMR-03","NAME":"Domagnano","TYPE_EN":null}},
{"type":"Feature","geometry":{"type":"Polygon","coordinates":[[[12.491516,43.949102],[12.457242,43.933364],[12.464525,43.924464],[12.468031,43.922576],[12.478026,43.923216],[12.491516,43.949102]]]},"properties":{"LOCATION_TYPE":"level1","ADM0_A3":"SMR","LOCATION_ID":"SMR-04","NAME":"Faetano","TYPE_EN":null}},
{"type":"Feature","geometry":{"type":"Polygon","coordinates":[[[12.478026,43.923216],[12.468031,43.922576],[12.464397,43.900073],[12.478026,43.923216]]]},"properties":{"LOCATION_TYPE":"level1","ADM0_A3":"SMR","LOCATION_ID":"SMR-08","NAME":"Montegiardino","TYPE_EN":null}},
{"type":"Feature","geometry":{"type":"Polygon","coordinates":[[[12.464397,43.900073],[12.468031,43.922576],[12.464525,43.924464],[12.44106,43.914485],[12.435126,43.903966],[12.441264,43.893276],[12.464397,43.900073]]]},"properties":{"LOCATION_TYPE":"level1","ADM0_A3":"SMR","LOCATION_ID":"SMR-05","NAME":"Fiorentino","TYPE_EN":null}},
{"type":"Feature","geometry":{"type":"Polygon","coordinates":[[[12.441264,43.893276],[12.435126,43.903966],[12.408964,43.917182],[12.389964,43.917912],[12.399581,43.903218],[12.441264,43.893276]]]},"properties":{"LOCATION_TYPE":"level1","ADM0_A3":"SMR","LOCATION_ID":"SMR-02","NAME":"Chiesanuova","TYPE_EN":null}},
{"type":"Feature","geometry":{"type":"Polygon","coordinates":[[[12.389964,43.917912],[12.408964,43.917182],[12.435126,43.903966],[12.44106,43.914485],[12.418134,43.940646],[12.414359,43.931207],[12.385629,43.924534],[12.389964,43.917912]]]},"properties":{"LOCATION_TYPE":"level1","ADM0_A3":"SMR","LOCATION_ID":"SMR-07","NAME":"San Marino","TYPE_EN":null}},
{"type":"Feature","geometry":{"type":"Polygon","coordinates":[[[12.385629,43.924534],[12.414359,43.931207],[12.418134,43.940646],[12.41657,43.963697],[12.395654,43.948409],[12.385629,43.924534]]]},"properties":{"LOCATION_TYPE":"level1","ADM0_A3":"SMR","LOCATION_ID":"SMR-01","NAME":"Acquaviva","TYPE_EN":null}},
{"type":"Feature","geometry":{"type":"Polygon","coordinates":[[[12.41657,43.963697],[12.418134,43.940646],[12.44106,43.914485],[12.464525,43.924464],[12.457242,43.933364],[12.448072,43.954671],[12.427247,43.96939],[12.41657,43.963697]]]},"properties":{"LOCATION_TYPE":"level1","ADM0_A3":"SMR","LOCATION_ID":"SMR-06","NAME":"Borgo Maggiore","TYPE_EN":null}}
]}