{"type":"FeatureCollection", "features": [
{"type":"Feature","geometry":{"type":"Polygon","coordinates":[[[48.939111,9.562701],[48.939112,11.24913],[48.654796,11.330634],[48.342784,11.275458],[48.160818,11.145657],[47.677745,11.107978],[47.366873,11.172797],[46.659679,10.75434],[46.447765,10.693101],[46.207367,10.79621],[46.102224,10.770657],[45.802745,10.875312],[45.487071,10.684719],[45.33725,10.670844],[44.962009,10.415799],[44.586149,10.383585],[44.274262,10.456732],[43.8296,10.802965],[43.488129,11.238918],[43.459727,11.35106],[43.240733,11.48786],[42.699646,10.65855],[42.836279,10.208086],[43.067686,9.922522],[43.187214,9.883326],[43.235273,9.691787],[43.419034,9.413018],[43.621502,9.336899],[44.023855,8.985525],[45.51441,8.496537],[46.97923,7.996567],[47.979169,7.996567],[48.939111,9.451233],[48.939111,9.562701]]]},"properties":{"LOCATION_TYPE":"level1","ADM0_A3":"SOL","LOCATION_ID":"SOL-99","NAME":"Somaliland","TYPE_EN":null}}
]}