{"type":"FeatureCollection", "features": [
{"type":"Feature","geometry":{"type":"Polygon","coordinates":[[[47.532388,7.565864],[48.500017,7.409936],[49.03001,7.709943],[49.499956,7.569952],[49.640795,7.409118],[49.819347,7.739936],[49.842052,7.962714],[50.166026,8.33336],[49.679996,8.579942],[49.449933,8.589941],[49.110005,8.899948],[49.059983,9.569959],[48.939111,9.562701],[48.939111,9.451233],[47.979169,7.996567],[47.532388,7.565864]]]},"properties":{"LOCATION_TYPE":"level1","ADM0_A3":"SOM","LOCATION_ID":"SOM-NU","NAME":"Nugaal","TYPE_EN":"Region"}},
{"type":"Feature","geometry":{"type":"Polygon","coordinates":[[[46.466963,6.538292],[47.600009,6.27993],[47.350009,5.749934],[47.609942,5.189942],[47.499974,4.489959],[47.840587,4.341376],[48.202403,4.908922],[48.646739,5.480048],[49.036143,6.144232],[49.074718,6.415269],[49.367035,7.025702],[49.640795,7.409118],[49.499956,7.569952],[49.03001,7.709943],[48.500017,7.409936],[47.532388,7.565864],[46.466963,6.538292]]]},"properties":{"LOCATION_TYPE":"level1","ADM0_A3":"SOM","LOCATION_ID":"SOM-MU","NAME":"Mudug","TYPE_EN":"Region"}},
{"type":"Feature","geometry":{"type":"Polygon","coordinates":[[[45.518477,5.540564],[45.710006,5.109947],[46.040012,5.029952],[46.149979,4.429962],[46.39999,4.229949],[46.389965,3.889944],[47.039806,3.469265],[47.840587,4.341376],[47.499974,4.489959],[47.609942,5.189942],[47.350009,5.749934],[47.600009,6.27993],[46.466963,6.538292],[45.518477,5.540564]]]},"properties":{"LOCATION_TYPE":"level1","ADM0_A3":"SOM","LOCATION_ID":"SOM-GA","NAME":"Galguduud","TYPE_EN":"Region"}},
{"type":"Feature","geometry":{"type":"Polygon","coordinates":[[[45.518477,5.540564],[44.941525,4.911484],[44.596808,4.917643],[44.799984,3.859946],[44.779934,3.269956],[45.069942,3.249957],[45.26993,3.19996],[45.939966,3.249957],[46.029987,3.51994],[46.389965,3.889944],[46.39999,4.229949],[46.149979,4.429962],[46.040012,5.029952],[45.710006,5.109947],[45.518477,5.540564]]]},"properties":{"LOCATION_TYPE":"level1","ADM0_A3":"SOM","LOCATION_ID":"SOM-HI","NAME":"Hiiraan","TYPE_EN":"Region"}},
{"type":"Feature","geometry":{"type":"Polygon","coordinates":[[[44.596808,4.917643],[43.968975,4.953962],[43.528485,4.841566],[43.119259,4.647702],[42.870195,4.328171],[43.13993,3.849946],[43.119983,3.669957],[43.580007,3.609961],[43.750022,3.849946],[44.17997,3.849946],[44.309988,3.569963],[44.280016,3.339951],[44.659941,3.249957],[44.779934,3.269956],[44.799984,3.859946],[44.596808,4.917643]]]},"properties":{"LOCATION_TYPE":"level1","ADM0_A3":"SOM","LOCATION_ID":"SOM-BK","NAME":"Bakool","TYPE_EN":"Region"}},
{"type":"Feature","geometry":{"type":"Polygon","coordinates":[[[42.870195,4.328171],[42.13534,4.200081],[41.898455,3.996915],[41.342727,3.201149],[40.965385,2.814145],[40.968486,1.230295],[41.419932,1.259975],[41.63997,1.939934],[42.400027,1.949959],[42.600015,3.069942],[43.099933,3.059943],[43.119983,3.669957],[43.13993,3.849946],[42.870195,4.328171]]]},"properties":{"LOCATION_TYPE":"level1","ADM0_A3":"SOM","LOCATION_ID":"SOM-GE","NAME":"Gedo","TYPE_EN":"Region"}},
{"type":"Feature","geometry":{"type":"Polygon","coordinates":[[[48.939111,9.562701],[49.059983,9.569959],[49.110005,8.899948],[49.449933,8.589941],[49.679996,8.579942],[50.166026,8.33336],[50.422048,8.857123],[50.840343,9.456122],[50.806163,9.624457],[50.927389,10.327844],[51.240977,10.425605],[51.138194,10.676744],[51.085948,11.187974],[51.12086,11.505316],[51.292698,11.833108],[50.797864,11.989119],[50.575938,11.920966],[50.268321,11.589301],[49.851248,11.464911],[49.576834,11.460028],[48.939112,11.24913],[48.939111,9.562701]]]},"properties":{"LOCATION_TYPE":"level1","ADM0_A3":"SOM","LOCATION_ID":"SOM-BR","NAME":"Bari","TYPE_EN":"Region"}},
{"type":"Feature","geometry":{"type":"Polygon","coordinates":[[[40.968486,1.230295],[40.979751,-0.870798],[41.522871,-1.572771],[41.65211,-1.565118],[42.080903,-0.862888],[42.647797,-0.228936],[43.184896,0.31626],[42.72993,0.309956],[42.43,1.31992],[41.419932,1.259975],[40.968486,1.230295]]]},"properties":{"LOCATION_TYPE":"level1","ADM0_A3":"SOM","LOCATION_ID":"SOM-JH","NAME":"Jubbada Hoose","TYPE_EN":"Region"}},
{"type":"Feature","geometry":{"type":"Polygon","coordinates":[[[43.521293,0.67227],[42.97994,1.459963],[42.400027,1.949959],[41.63997,1.939934],[41.419932,1.259975],[42.43,1.31992],[42.72993,0.309956],[43.184896,0.31626],[43.521293,0.67227]]]},"properties":{"LOCATION_TYPE":"level1","ADM0_A3":"SOM","LOCATION_ID":"SOM-JD","NAME":"Jubbada Dhexe","TYPE_EN":"Region"}},
{"type":"Feature","geometry":{"type":"Polygon","coordinates":[[[45.266205,1.987291],[45.390026,2.149947],[45.340003,2.719938],[45.069942,3.249957],[44.779934,3.269956],[44.659941,3.249957],[44.690017,3.049943],[44.619943,2.479952],[44.650019,2.219942],[43.580007,1.759945],[42.97994,1.459963],[43.521293,0.67227],[44.550059,1.559068],[45.266205,1.987291]]]},"properties":{"LOCATION_TYPE":"level1","ADM0_A3":"SOM","LOCATION_ID":"SOM-SH","NAME":"Shabeellaha Hoose","TYPE_EN":"Region"}},
{"type":"Feature","geometry":{"type":"Polygon","coordinates":[[[45.605625,2.183041],[45.390026,2.149947],[45.266205,1.987291],[45.605625,2.183041]]]},"properties":{"LOCATION_TYPE":"level1","ADM0_A3":"SOM","LOCATION_ID":"SOM-BN","NAME":"Banaadir","TYPE_EN":"Region"}},
{"type":"Feature","geometry":{"type":"Polygon","coordinates":[[[47.039806,3.469265],[46.389965,3.889944],[46.029987,3.51994],[45.939966,3.249957],[45.26993,3.19996],[45.069942,3.249957],[45.340003,2.719938],[45.390026,2.149947],[45.605625,2.183041],[46.027029,2.438137],[47.039806,3.469265]]]},"properties":{"LOCATION_TYPE":"level1","ADM0_A3":"SOM","LOCATION_ID":"SOM-SD","NAME":"Shabeellaha Dhexe","TYPE_EN":"Region"}},
{"type":"Feature","geometry":{"type":"Polygon","coordinates":[[[44.659941,3.249957],[44.280016,3.339951],[44.309988,3.569963],[44.17997,3.849946],[43.750022,3.849946],[43.580007,3.609961],[43.119983,3.669957],[43.099933,3.059943],[42.600015,3.069942],[42.400027,1.949959],[42.97994,1.459963],[43.580007,1.759945],[44.650019,2.219942],[44.619943,2.479952],[44.690017,3.049943],[44.659941,3.249957]]]},"properties":{"LOCATION_TYPE":"level1","ADM0_A3":"SOM","LOCATION_ID":"SOM-BY","NAME":"Bay","TYPE_EN":"Region"}}
]}