{"type":"FeatureCollection", "features": [
{"type":"Feature","geometry":{"type":"Polygon","coordinates":[[[-56.15095,46.793647],[-56.191884,46.806627],[-56.240305,46.765692],[-56.16808,46.75727],[-56.15095,46.793647]]]},"properties":{"LOCATION_TYPE":"level1","ADM0_A3":"SPM","LOCATION_ID":"SPM-X01~","NAME":"Saint-Pierre","TYPE_EN":"Commune"}},
{"type":"Feature","geometry":{"type":"Polygon","coordinates":[[[-56.273793,46.895453],[-56.31371,46.975653],[-56.253326,47.053697],[-56.395904,47.113593],[-56.336781,46.95425],[-56.342763,46.875556],[-56.396352,46.836371],[-56.346262,46.783596],[-56.249257,46.842271],[-56.273793,46.895453]]]},"properties":{"LOCATION_TYPE":"level1","ADM0_A3":"SPM","LOCATION_ID":"SPM-X02~","NAME":"Miquelon-Langlade","TYPE_EN":"Commune"}}
]}