{"type":"FeatureCollection", "features": [
{"type":"Feature","geometry":{"type":"Polygon","coordinates":[[[19.873649,46.152992],[19.79045,46.129072],[19.690095,46.168398],[19.647824,46.173875],[19.549948,46.16416],[19.487523,46.134239],[19.499305,46.108608],[19.378899,46.033677],[19.298315,46.022123],[19.340815,45.989441],[19.33141,45.936835],[19.352545,45.863196],[19.418794,45.815963],[19.442204,45.767698],[19.486646,45.74558],[19.528865,45.764907],[19.577596,45.740516],[19.562817,45.708011],[19.59899,45.69411],[19.586536,45.660004],[19.684205,45.618921],[19.731644,45.633029],[19.753348,45.688374],[19.749834,45.741498],[19.860628,45.772219],[19.834583,45.827901],[19.813189,45.827746],[19.764923,45.902444],[19.805592,45.919575],[19.799185,45.987426],[19.808796,46.017579],[19.846365,46.049024],[19.851533,46.117392],[19.873649,46.152992]]]},"properties":{"LOCATION_TYPE":"level1","ADM0_A3":"SRB","LOCATION_ID":"SRB-01","NAME":"Severno-Backi","TYPE_EN":"District"}},
{"type":"Feature","geometry":{"type":"Polygon","coordinates":[[[19.298315,46.022123],[19.263454,45.981432],[19.148009,45.984068],[19.111009,46.012955],[19.06543,46.012025],[19.048584,45.963449],[19.005589,45.96257],[18.986469,45.931254],[18.901306,45.931203],[18.872884,45.895236],[18.899755,45.861388],[18.855314,45.857357],[18.844978,45.815706],[18.900169,45.764908],[18.917325,45.706565],[18.968485,45.668738],[18.912365,45.619232],[18.90358,45.573085],[18.941717,45.538927],[19.018095,45.567401],[19.106255,45.511642],[19.077212,45.491643],[19.017926,45.497807],[19.154986,45.461747],[19.192762,45.434255],[19.256117,45.4441],[19.364276,45.438415],[19.358385,45.494433],[19.399416,45.507869],[19.394506,45.53567],[19.440085,45.549261],[19.477809,45.534094],[19.522664,45.576469],[19.560905,45.584505],[19.557907,45.624606],[19.586536,45.660004],[19.59899,45.69411],[19.562817,45.708011],[19.577596,45.740516],[19.528865,45.764907],[19.486646,45.74558],[19.442204,45.767698],[19.418794,45.815963],[19.352545,45.863196],[19.33141,45.936835],[19.340815,45.989441],[19.298315,46.022123]]]},"properties":{"LOCATION_TYPE":"level1","ADM0_A3":"SRB","LOCATION_ID":"SRB-05","NAME":"Zapadno-Backi","TYPE_EN":"District"}},
{"type":"Feature","geometry":{"type":"Polygon","coordinates":[[[20.64349,45.795141],[20.629676,45.833276],[20.572108,45.887691],[20.481674,45.912703],[20.429068,45.946706],[20.370984,45.96779],[20.338634,45.992801],[20.305665,46.053572],[20.242826,46.108091],[20.188462,46.140389],[20.145364,46.137082],[20.088623,46.154135],[20.034983,46.142973],[19.993125,46.159406],[19.92915,46.16354],[19.873649,46.152992],[19.851533,46.117392],[19.846365,46.049024],[19.808796,46.017579],[19.799185,45.987426],[19.805592,45.919575],[19.764923,45.902444],[19.813189,45.827746],[19.834583,45.827901],[19.860628,45.772219],[19.946617,45.769558],[20.004133,45.754727],[20.082526,45.747699],[20.114152,45.724289],[20.16216,45.742531],[20.145262,45.7801],[20.164795,45.791779],[20.223035,45.785164],[20.34959,45.788472],[20.406848,45.676902],[20.362871,45.662381],[20.323597,45.613702],[20.364576,45.598406],[20.431911,45.614529],[20.529114,45.613108],[20.498212,45.653777],[20.506273,45.676282],[20.560533,45.706306],[20.620323,45.706254],[20.64349,45.795141]]]},"properties":{"LOCATION_TYPE":"level1","ADM0_A3":"SRB","LOCATION_ID":"SRB-03","NAME":"Severno-Banatski","TYPE_EN":"District"}},
{"type":"Feature","geometry":{"type":"Polygon","coordinates":[[[21.74425,42.679425],[21.772758,42.647501],[21.735551,42.621276],[21.717671,42.551151],[21.667855,42.490095],[21.627858,42.460381],[21.617419,42.386639],[21.537321,42.35863],[21.514893,42.317832],[21.564066,42.246289],[21.676886,42.234945],[21.706509,42.25507],[21.8172,42.305145],[21.88438,42.309512],[21.941534,42.333102],[21.994967,42.312612],[22.060906,42.301088],[22.095529,42.305817],[22.233402,42.348889],[22.259757,42.369095],[22.307609,42.31933],[22.345023,42.313439],[22.423985,42.325893],[22.46977,42.391703],[22.508838,42.404932],[22.536536,42.47839],[22.524857,42.507665],[22.429669,42.571408],[22.449203,42.667965],[22.442072,42.681685],[22.481449,42.739821],[22.45313,42.763592],[22.430446,42.817077],[22.384918,42.804003],[22.361044,42.781549],[22.286785,42.745918],[22.256347,42.746538],[22.148033,42.800489],[22.086022,42.820823],[22.041115,42.805062],[22.005717,42.816818],[21.96391,42.788345],[21.822782,42.771446],[21.784903,42.730364],[21.78635,42.70729],[21.74425,42.679425]]]},"properties":{"LOCATION_TYPE":"level1","ADM0_A3":"SRB","LOCATION_ID":"SRB-24","NAME":"Pcinjski","TYPE_EN":"District"}},
{"type":"Feature","geometry":{"type":"Polygon","coordinates":[[[22.465885,44.017624],[22.50367,44.019898],[22.534159,44.057157],[22.592967,44.063926],[22.604749,44.079378],[22.606196,44.174566],[22.648777,44.213995],[22.69164,44.228435],[22.68154,44.305307],[22.582838,44.328406],[22.549352,44.348974],[22.505117,44.404061],[22.500983,44.44194],[22.477005,44.463954],[22.484136,44.499766],[22.55669,44.52147],[22.565578,44.555421],[22.621182,44.569219],[22.700144,44.54183],[22.741692,44.551855],[22.765153,44.58281],[22.700144,44.63061],[22.621182,44.637432],[22.553279,44.669161],[22.483723,44.72399],[22.426052,44.733653],[22.38068,44.700528],[22.319702,44.685336],[22.185136,44.515113],[22.148239,44.500902],[22.104314,44.509636],[22.036174,44.589489],[21.970163,44.54617],[21.917453,44.465658],[21.924688,44.441758],[21.826916,44.397885],[21.796427,44.340911],[21.815651,44.298123],[21.851101,44.303058],[21.894354,44.274869],[21.896059,44.222831],[21.935437,44.223632],[21.958329,44.192807],[21.945359,44.143843],[21.960758,44.110124],[21.817769,44.065553],[21.790071,44.036124],[21.772449,43.991837],[21.899625,43.985998],[21.942206,43.953235],[21.997913,43.936543],[22.030883,43.95246],[22.062612,43.900525],[22.12173,43.875643],[22.157077,43.905176],[22.167154,43.941969],[22.239966,44.041886],[22.192889,44.119788],[22.244048,44.15746],[22.277793,44.13803],[22.346471,44.131932],[22.391843,44.140769],[22.482793,44.090048],[22.449307,44.057983],[22.465885,44.017624]]]},"properties":{"LOCATION_TYPE":"level1","ADM0_A3":"SRB","LOCATION_ID":"SRB-14","NAME":"Borski","TYPE_EN":"District"}},
{"type":"Feature","geometry":{"type":"Polygon","coordinates":[[[22.465885,44.017624],[22.449307,44.057983],[22.482793,44.090048],[22.391843,44.140769],[22.346471,44.131932],[22.277793,44.13803],[22.244048,44.15746],[22.192889,44.119788],[22.239966,44.041886],[22.167154,43.941969],[22.157077,43.905176],[22.12173,43.875643],[22.062612,43.900525],[22.030883,43.95246],[21.997913,43.936543],[21.942206,43.953235],[21.899625,43.985998],[21.772449,43.991837],[21.776687,43.974267],[21.72408,43.924554],[21.723977,43.90316],[21.680362,43.891068],[21.688372,43.851484],[21.645997,43.802934],[21.703875,43.756348],[21.682842,43.70002],[21.704908,43.641781],[21.778289,43.57517],[21.867844,43.567212],[21.912699,43.513572],[21.986596,43.525612],[21.953678,43.546541],[21.977346,43.570002],[22.023183,43.535431],[22.056515,43.489206],[22.088451,43.490214],[22.16612,43.460913],[22.211957,43.46851],[22.268336,43.439313],[22.303528,43.458536],[22.351535,43.424223],[22.337273,43.382365],[22.444966,43.344745],[22.489873,43.366862],[22.5246,43.335443],[22.577568,43.34074],[22.658926,43.401295],[22.62852,43.428255],[22.586766,43.43443],[22.518863,43.474247],[22.478452,43.559229],[22.472871,43.635942],[22.426465,43.668214],[22.390498,43.712449],[22.388535,43.758286],[22.349467,43.807921],[22.394529,43.936337],[22.399594,43.993336],[22.465885,44.017624]]]},"properties":{"LOCATION_TYPE":"level1","ADM0_A3":"SRB","LOCATION_ID":"SRB-15","NAME":"Zajecarski","TYPE_EN":"District"}},
{"type":"Feature","geometry":{"type":"Polygon","coordinates":[[[22.658926,43.401295],[22.577568,43.34074],[22.5246,43.335443],[22.489873,43.366862],[22.444966,43.344745],[22.337273,43.382365],[22.328281,43.328053],[22.255365,43.319527],[22.205963,43.338079],[22.137388,43.336942],[22.163433,43.281493],[22.113617,43.202945],[22.225858,43.151423],[22.263479,43.151036],[22.295621,43.109927],[22.234023,43.073986],[22.257019,43.058457],[22.202397,43.022232],[22.255624,42.99288],[22.281255,42.992518],[22.395099,42.952727],[22.39639,42.910301],[22.458195,42.879011],[22.544785,42.871706],[22.5909,42.886892],[22.666244,42.871932],[22.727015,42.886892],[22.776418,42.979729],[22.828818,42.993449],[22.884215,43.036651],[22.896721,43.062721],[22.935271,43.085562],[22.974029,43.141192],[22.981367,43.198992],[22.915531,43.212247],[22.833159,43.274647],[22.80453,43.328984],[22.73301,43.381513],[22.658926,43.401295]]]},"properties":{"LOCATION_TYPE":"level1","ADM0_A3":"SRB","LOCATION_ID":"SRB-22","NAME":"Pirotski","TYPE_EN":"District"}},
{"type":"Feature","geometry":{"type":"Polygon","coordinates":[[[22.544785,42.871706],[22.458195,42.879011],[22.39639,42.910301],[22.395099,42.952727],[22.281255,42.992518],[22.255624,42.99288],[22.202397,43.022232],[22.257019,43.058457],[22.234023,43.073986],[22.212732,43.05683],[22.155217,43.058664],[22.07765,43.102227],[22.025095,43.144214],[21.993624,43.151449],[21.936832,43.133052],[21.904534,43.163412],[21.85632,43.140054],[21.805522,43.137781],[21.77493,43.095639],[21.711678,43.077371],[21.683359,43.054788],[21.642586,43.054272],[21.603571,43.028433],[21.546623,43.024558],[21.450453,42.971796],[21.473294,42.931282],[21.44849,42.91167],[21.432418,42.85803],[21.408419,42.841743],[21.378674,42.744136],[21.565226,42.720184],[21.612665,42.680393],[21.644084,42.672306],[21.687389,42.686827],[21.74425,42.679425],[21.78635,42.70729],[21.784903,42.730364],[21.822782,42.771446],[21.96391,42.788345],[22.005717,42.816818],[22.041115,42.805062],[22.086022,42.820823],[22.148033,42.800489],[22.256347,42.746538],[22.286785,42.745918],[22.361044,42.781549],[22.384918,42.804003],[22.430446,42.817077],[22.506047,42.870123],[22.544785,42.871706]]]},"properties":{"LOCATION_TYPE":"level1","ADM0_A3":"SRB","LOCATION_ID":"SRB-23","NAME":"Jablanicki","TYPE_EN":"District"}},
{"type":"Feature","geometry":{"type":"Polygon","coordinates":[[[20.809717,43.25961],[20.80517,43.293327],[20.838139,43.331877],[20.829096,43.383037],[20.77313,43.388721],[20.761141,43.405129],[20.781915,43.45957],[20.760315,43.509179],[20.830853,43.515639],[20.866975,43.493831],[20.945213,43.506027],[20.908109,43.564344],[20.95038,43.609302],[20.909814,43.640592],[20.91338,43.700744],[20.956995,43.728184],[20.924749,43.755159],[20.908368,43.807352],[20.894157,43.826576],[20.765172,43.823889],[20.770185,43.789265],[20.717733,43.775778],[20.688381,43.790041],[20.654533,43.835619],[20.620788,43.859184],[20.560482,43.820736],[20.530251,43.779964],[20.530561,43.75211],[20.446174,43.725316],[20.465862,43.665655],[20.387986,43.646354],[20.357755,43.62757],[20.367264,43.578116],[20.305304,43.533209],[20.401887,43.45404],[20.399406,43.381538],[20.421421,43.348827],[20.338532,43.286402],[20.3283,43.260719],[20.267425,43.298546],[20.20469,43.208164],[20.282101,43.156901],[20.214508,43.140313],[20.165622,43.139228],[20.144176,43.102124],[20.097926,43.087344],[20.054388,43.022221],[20.116942,42.976654],[20.19456,42.966836],[20.337084,42.906969],[20.35362,42.890975],[20.345352,42.827439],[20.4763,42.855525],[20.498831,42.877875],[20.450979,42.922032],[20.476403,42.966371],[20.538415,42.980659],[20.562393,43.009495],[20.596396,43.007092],[20.643835,43.052257],[20.669157,43.109799],[20.632053,43.117266],[20.597533,43.184962],[20.612312,43.202274],[20.666986,43.209663],[20.745328,43.252865],[20.809717,43.25961]]]},"properties":{"LOCATION_TYPE":"level1","ADM0_A3":"SRB","LOCATION_ID":"SRB-18","NAME":"Raški","TYPE_EN":"District"}},
{"type":"Feature","geometry":{"type":"Polygon","coordinates":[[[20.809717,43.25961],[20.855088,43.231445],[20.838552,43.170467],[20.912494,43.138805],[20.954876,43.175272],[20.9479,43.213771],[20.984487,43.254931],[21.031978,43.254595],[21.072544,43.235914],[21.13409,43.254828],[21.168662,43.303714],[21.197342,43.320405],[21.212845,43.353943],[21.336972,43.386293],[21.420533,43.383244],[21.469419,43.367818],[21.55484,43.403811],[21.56688,43.419934],[21.542592,43.460293],[21.566312,43.518533],[21.513964,43.577082],[21.480994,43.58628],[21.486575,43.653615],[21.471847,43.684621],[21.508899,43.698522],[21.465905,43.749423],[21.411128,43.72498],[21.378003,43.728597],[21.366944,43.764667],[21.334285,43.771954],[21.283383,43.761153],[21.23889,43.769241],[21.136984,43.713766],[21.060141,43.71374],[20.956995,43.728184],[20.91338,43.700744],[20.909814,43.640592],[20.95038,43.609302],[20.908109,43.564344],[20.945213,43.506027],[20.866975,43.493831],[20.830853,43.515639],[20.760315,43.509179],[20.781915,43.45957],[20.761141,43.405129],[20.77313,43.388721],[20.829096,43.383037],[20.838139,43.331877],[20.80517,43.293327],[20.809717,43.25961]]]},"properties":{"LOCATION_TYPE":"level1","ADM0_A3":"SRB","LOCATION_ID":"SRB-19","NAME":"Pomoravski","TYPE_EN":"District"}},
{"type":"Feature","geometry":{"type":"Polygon","coordinates":[[[20.912494,43.138805],[21.025827,43.093366],[21.092593,43.090678],[21.124012,43.058277],[21.139309,43.005826],[21.165354,42.985103],[21.209795,42.995878],[21.225298,42.973554],[21.23243,42.910896],[21.260542,42.886556],[21.294958,42.884386],[21.408419,42.841743],[21.432418,42.85803],[21.44849,42.91167],[21.473294,42.931282],[21.450453,42.971796],[21.546623,43.024558],[21.603571,43.028433],[21.642586,43.054272],[21.683359,43.054788],[21.711678,43.077371],[21.77493,43.095639],[21.805522,43.137781],[21.803868,43.158916],[21.76108,43.200878],[21.765938,43.24656],[21.700722,43.247438],[21.685943,43.210903],[21.611012,43.245914],[21.570291,43.342988],[21.490089,43.347432],[21.469419,43.367818],[21.420533,43.383244],[21.336972,43.386293],[21.212845,43.353943],[21.197342,43.320405],[21.168662,43.303714],[21.13409,43.254828],[21.072544,43.235914],[21.031978,43.254595],[20.984487,43.254931],[20.9479,43.213771],[20.954876,43.175272],[20.912494,43.138805]]]},"properties":{"LOCATION_TYPE":"level1","ADM0_A3":"SRB","LOCATION_ID":"SRB-21","NAME":"Toplicki","TYPE_EN":"District"}},
{"type":"Feature","geometry":{"type":"Polygon","coordinates":[[[19.516189,44.091194],[19.618885,44.035711],[19.552222,43.983415],[19.364637,43.973286],[19.300558,44.009511],[19.252085,44.007496],[19.229348,43.95768],[19.275443,43.933263],[19.359469,43.842209],[19.461685,43.762136],[19.505713,43.67364],[19.481735,43.628914],[19.481735,43.560831],[19.431816,43.57114],[19.410732,43.540754],[19.363396,43.601577],[19.252706,43.588633],[19.217462,43.532796],[19.175191,43.509619],[19.175914,43.480887],[19.218392,43.438202],[19.355645,43.393063],[19.473054,43.293276],[19.512431,43.240643],[19.580851,43.187804],[19.618678,43.168245],[19.684617,43.156721],[19.713556,43.165609],[19.742805,43.126516],[19.805127,43.089955],[19.872203,43.090368],[19.92915,43.113907],[19.959742,43.07856],[20.054388,43.022221],[20.097926,43.087344],[20.144176,43.102124],[20.165622,43.139228],[20.214508,43.140313],[20.282101,43.156901],[20.20469,43.208164],[20.267425,43.298546],[20.240656,43.317821],[20.117305,43.298443],[20.095756,43.336838],[20.011833,43.442413],[19.999534,43.484013],[19.914785,43.511556],[19.893649,43.536619],[19.953645,43.553414],[20.041185,43.605246],[20.084387,43.608863],[20.089244,43.64483],[20.157974,43.632376],[20.174821,43.659609],[20.153478,43.677799],[20.16278,43.721931],[20.124074,43.740018],[20.128622,43.79433],[20.090381,43.837325],[20.116323,43.8905],[20.104076,43.932823],[20.055965,43.983569],[20.062011,44.08532],[20.009508,44.104182],[19.977778,44.075605],[19.916387,44.093976],[19.893752,44.127694],[19.861041,44.12878],[19.826366,44.105319],[19.811225,44.062892],[19.775568,44.069403],[19.741255,44.104492],[19.618162,44.143662],[19.609325,44.123302],[19.546022,44.113793],[19.516189,44.091194]]]},"properties":{"LOCATION_TYPE":"level1","ADM0_A3":"SRB","LOCATION_ID":"SRB-16","NAME":"Zlatiborski","TYPE_EN":"District"}},
{"type":"Feature","geometry":{"type":"Polygon","coordinates":[[[19.393929,45.171624],[19.225937,45.161947],[19.141705,45.162154],[19.116073,45.142879],[19.060056,45.146858],[19.046207,45.128358],[19.082277,45.084949],[19.095402,45.020922],[19.085171,44.987281],[19.131679,44.953175],[19.078659,44.910852],[19.018405,44.925683],[18.991429,44.914934],[19.015821,44.865635],[19.08455,44.878967],[19.174261,44.925424],[19.201856,44.908371],[19.31017,44.91235],[19.356982,44.895877],[19.406092,44.941635],[19.473943,44.901379],[19.503553,44.916366],[19.558279,44.900888],[19.644682,44.912722],[19.673466,44.934478],[19.756864,44.915413],[19.753254,44.892103],[19.700647,44.807587],[19.720327,44.764503],[19.79661,44.751569],[19.913968,44.695449],[19.982646,44.695914],[19.973382,44.641185],[20.045484,44.690255],[20.094112,44.708161],[20.106514,44.760716],[20.081761,44.783144],[20.124497,44.802884],[20.156847,44.888202],[20.200824,44.892904],[20.238754,44.914195],[20.324729,44.929169],[20.303242,44.954665],[20.304021,44.993932],[20.356938,45.034498],[20.338997,45.080349],[20.277812,45.141018],[20.222363,45.175486],[20.185001,45.184968],[20.06475,45.175486],[19.985581,45.189774],[19.980259,45.15975],[19.912614,45.142568],[19.792002,45.147115],[19.757998,45.156934],[19.698777,45.141715],[19.600075,45.138382],[19.460911,45.174142],[19.428044,45.146134],[19.393929,45.171624]]]},"properties":{"LOCATION_TYPE":"level1","ADM0_A3":"SRB","LOCATION_ID":"SRB-07","NAME":"Sremski","TYPE_EN":"District"}},
{"type":"Feature","geometry":{"type":"Polygon","coordinates":[[[19.356982,44.895877],[19.363707,44.854628],[19.32836,44.733963],[19.277614,44.684871],[19.255703,44.645648],[19.18625,44.569322],[19.165269,44.526689],[19.129922,44.518317],[19.141394,44.430829],[19.107185,44.382718],[19.138914,44.309338],[19.177155,44.286962],[19.324329,44.263966],[19.362363,44.191206],[19.476361,44.127023],[19.516189,44.091194],[19.546022,44.113793],[19.609325,44.123302],[19.618162,44.143662],[19.559148,44.208258],[19.464166,44.236525],[19.430215,44.271923],[19.4914,44.328948],[19.448715,44.358378],[19.484217,44.375069],[19.503544,44.419511],[19.494242,44.43889],[19.561008,44.445711],[19.608033,44.422612],[19.680277,44.438063],[19.760066,44.413723],[19.779961,44.388092],[19.837115,44.389952],[19.827193,44.427676],[19.863057,44.438296],[19.870188,44.48483],[19.849931,44.524001],[19.889877,44.555601],[19.97106,44.564774],[19.961965,44.595831],[19.973382,44.641185],[19.982646,44.695914],[19.913968,44.695449],[19.79661,44.751569],[19.720327,44.764503],[19.700647,44.807587],[19.753254,44.892103],[19.756864,44.915413],[19.673466,44.934478],[19.644682,44.912722],[19.558279,44.900888],[19.503553,44.916366],[19.473943,44.901379],[19.406092,44.941635],[19.356982,44.895877]]]},"properties":{"LOCATION_TYPE":"level1","ADM0_A3":"SRB","LOCATION_ID":"SRB-08","NAME":"Macvanski","TYPE_EN":"District"}},
{"type":"Feature","geometry":{"type":"Polygon","coordinates":[[[19.017926,45.497807],[18.99639,45.473815],[19.031319,45.416201],[18.975527,45.39113],[18.977491,45.371209],[19.03024,45.345137],[19.082956,45.339224],[19.104147,45.298726],[19.158482,45.276171],[19.28975,45.23631],[19.378073,45.229592],[19.407838,45.203133],[19.393929,45.171624],[19.428044,45.146134],[19.460911,45.174142],[19.600075,45.138382],[19.698777,45.141715],[19.757998,45.156934],[19.792002,45.147115],[19.912614,45.142568],[19.980259,45.15975],[19.985581,45.189774],[20.06475,45.175486],[20.185001,45.184968],[20.222363,45.175486],[20.277812,45.141018],[20.288819,45.183676],[20.318584,45.20923],[20.301428,45.25853],[20.236057,45.306434],[20.263962,45.340592],[20.201899,45.395214],[20.229804,45.443015],[20.112964,45.527196],[20.098856,45.549158],[20.126193,45.587011],[20.06413,45.610291],[20.101905,45.653131],[20.092035,45.717365],[20.114152,45.724289],[20.082526,45.747699],[20.004133,45.754727],[19.946617,45.769558],[19.860628,45.772219],[19.749834,45.741498],[19.753348,45.688374],[19.731644,45.633029],[19.684205,45.618921],[19.586536,45.660004],[19.557907,45.624606],[19.560905,45.584505],[19.522664,45.576469],[19.477809,45.534094],[19.440085,45.549261],[19.394506,45.53567],[19.399416,45.507869],[19.358385,45.494433],[19.364276,45.438415],[19.256117,45.4441],[19.192762,45.434255],[19.154986,45.461747],[19.017926,45.497807]]]},"properties":{"LOCATION_TYPE":"level1","ADM0_A3":"SRB","LOCATION_ID":"SRB-06","NAME":"Južno-Backi","TYPE_EN":"District"}},
{"type":"Feature","geometry":{"type":"Polygon","coordinates":[[[20.64349,45.795141],[20.620323,45.706254],[20.560533,45.706306],[20.506273,45.676282],[20.498212,45.653777],[20.529114,45.613108],[20.431911,45.614529],[20.364576,45.598406],[20.323597,45.613702],[20.362871,45.662381],[20.406848,45.676902],[20.34959,45.788472],[20.223035,45.785164],[20.164795,45.791779],[20.145262,45.7801],[20.16216,45.742531],[20.114152,45.724289],[20.092035,45.717365],[20.101905,45.653131],[20.06413,45.610291],[20.126193,45.587011],[20.098856,45.549158],[20.112964,45.527196],[20.229804,45.443015],[20.201899,45.395214],[20.263962,45.340592],[20.236057,45.306434],[20.301428,45.25853],[20.318584,45.20923],[20.288819,45.183676],[20.277812,45.141018],[20.338997,45.080349],[20.395168,45.065154],[20.454183,45.130269],[20.444313,45.148149],[20.482089,45.201479],[20.542653,45.188663],[20.573401,45.219178],[20.617739,45.210471],[20.686314,45.181015],[20.739127,45.185666],[20.842997,45.239177],[20.817985,45.253155],[20.914569,45.300956],[21.006863,45.305685],[21.016668,45.321482],[20.966193,45.341575],[20.927642,45.37749],[20.863047,45.418728],[20.816021,45.462859],[20.760727,45.493348],[20.800208,45.530504],[20.754423,45.605589],[20.779951,45.671684],[20.785739,45.752557],[20.754113,45.763564],[20.713392,45.733334],[20.68807,45.7431],[20.64349,45.795141]]]},"properties":{"LOCATION_TYPE":"level1","ADM0_A3":"SRB","LOCATION_ID":"SRB-02","NAME":"Srednje-Banatski","TYPE_EN":"District"}},
{"type":"Feature","geometry":{"type":"Polygon","coordinates":[[[21.016668,45.321482],[21.006863,45.305685],[20.914569,45.300956],[20.817985,45.253155],[20.842997,45.239177],[20.739127,45.185666],[20.686314,45.181015],[20.617739,45.210471],[20.573401,45.219178],[20.542653,45.188663],[20.482089,45.201479],[20.444313,45.148149],[20.454183,45.130269],[20.395168,45.065154],[20.399416,45.028658],[20.452229,44.985121],[20.498376,44.963004],[20.526953,44.925357],[20.600076,44.888615],[20.59496,44.857997],[20.636397,44.849448],[20.633299,44.765222],[20.672009,44.743973],[20.720327,44.696198],[20.794776,44.664677],[20.883211,44.67266],[20.989561,44.716791],[21.036836,44.722009],[21.112292,44.7448],[21.163814,44.747823],[21.188825,44.778234],[21.269492,44.813685],[21.3598,44.826657],[21.346428,44.845636],[21.395314,44.871629],[21.453398,44.869562],[21.522128,44.880776],[21.539078,44.908474],[21.51634,44.933899],[21.40844,44.958342],[21.363378,45.01653],[21.421875,45.031413],[21.442443,45.092908],[21.494119,45.119314],[21.493292,45.145101],[21.405546,45.199671],[21.299299,45.223184],[21.257131,45.224114],[21.206075,45.245922],[21.139412,45.303696],[21.09156,45.288089],[21.016668,45.321482]]]},"properties":{"LOCATION_TYPE":"level1","ADM0_A3":"SRB","LOCATION_ID":"SRB-04","NAME":"Južno-Banatski","TYPE_EN":"District"}},
{"type":"Feature","geometry":{"type":"Polygon","coordinates":[[[21.3598,44.826657],[21.269492,44.813685],[21.188825,44.778234],[21.163814,44.747823],[21.112292,44.7448],[21.036836,44.722009],[21.050995,44.675206],[21.087788,44.619757],[21.140395,44.56374],[21.119879,44.531856],[21.160859,44.504519],[21.110216,44.370987],[21.141945,44.325693],[21.134039,44.286599],[21.210985,44.268073],[21.268242,44.239496],[21.292685,44.275696],[21.325861,44.256007],[21.344465,44.222004],[21.393661,44.180818],[21.433969,44.194667],[21.487815,44.181696],[21.558302,44.119194],[21.644085,44.112398],[21.693643,44.082633],[21.741237,44.088679],[21.817769,44.065553],[21.960758,44.110124],[21.945359,44.143843],[21.958329,44.192807],[21.935437,44.223632],[21.896059,44.222831],[21.894354,44.274869],[21.851101,44.303058],[21.815651,44.298123],[21.796427,44.340911],[21.826916,44.397885],[21.924688,44.441758],[21.917453,44.465658],[21.970163,44.54617],[22.036174,44.589489],[22.004269,44.651539],[21.855441,44.698461],[21.756842,44.677274],[21.65628,44.687661],[21.619693,44.713913],[21.595612,44.765951],[21.558405,44.78166],[21.49722,44.778043],[21.41216,44.784813],[21.3598,44.826657]]]},"properties":{"LOCATION_TYPE":"level1","ADM0_A3":"SRB","LOCATION_ID":"SRB-11","NAME":"Branicevski","TYPE_EN":"District"}},
{"type":"Feature","geometry":{"type":"Polygon","coordinates":[[[19.973382,44.641185],[19.961965,44.595831],[19.97106,44.564774],[19.993901,44.520642],[20.044699,44.507154],[20.095136,44.525965],[20.130224,44.495579],[20.176578,44.542269],[20.217557,44.478732],[20.225774,44.407729],[20.19146,44.355122],[20.188101,44.323341],[20.210271,44.286703],[20.279104,44.240452],[20.389071,44.294299],[20.431187,44.353107],[20.399561,44.382149],[20.442194,44.418891],[20.537899,44.385663],[20.54038,44.355484],[20.606526,44.373674],[20.649779,44.321843],[20.6905,44.334659],[20.772045,44.297762],[20.757937,44.351143],[20.732358,44.376465],[20.756749,44.415997],[20.819071,44.415894],[20.838914,44.43765],[20.821086,44.463953],[20.764139,44.495992],[20.737112,44.533044],[20.806358,44.563198],[20.770857,44.621049],[20.794776,44.664677],[20.720327,44.696198],[20.672009,44.743973],[20.633299,44.765222],[20.636397,44.849448],[20.59496,44.857997],[20.600076,44.888615],[20.526953,44.925357],[20.498376,44.963004],[20.452229,44.985121],[20.399416,45.028658],[20.395168,45.065154],[20.338997,45.080349],[20.356938,45.034498],[20.304021,44.993932],[20.303242,44.954665],[20.324729,44.929169],[20.238754,44.914195],[20.200824,44.892904],[20.156847,44.888202],[20.124497,44.802884],[20.081761,44.783144],[20.106514,44.760716],[20.094112,44.708161],[20.045484,44.690255],[19.973382,44.641185]]]},"properties":{"LOCATION_TYPE":"level1","ADM0_A3":"SRB","LOCATION_ID":"SRB-00","NAME":"Grad Beograd","TYPE_EN":"City"}},
{"type":"Feature","geometry":{"type":"Polygon","coordinates":[[[20.794776,44.664677],[20.770857,44.621049],[20.806358,44.563198],[20.737112,44.533044],[20.764139,44.495992],[20.821086,44.463953],[20.838914,44.43765],[20.819071,44.415894],[20.756749,44.415997],[20.732358,44.376465],[20.757937,44.351143],[20.772045,44.297762],[20.809304,44.293627],[20.839793,44.259986],[20.896844,44.242623],[20.973893,44.259004],[20.977459,44.231874],[21.051511,44.199938],[21.08629,44.201798],[21.139154,44.183324],[21.133573,44.209705],[21.1683,44.250684],[21.134039,44.286599],[21.141945,44.325693],[21.110216,44.370987],[21.160859,44.504519],[21.119879,44.531856],[21.140395,44.56374],[21.087788,44.619757],[21.050995,44.675206],[21.036836,44.722009],[20.989561,44.716791],[20.883211,44.67266],[20.794776,44.664677]]]},"properties":{"LOCATION_TYPE":"level1","ADM0_A3":"SRB","LOCATION_ID":"SRB-10","NAME":"Podunavski","TYPE_EN":"District"}},
{"type":"Feature","geometry":{"type":"Polygon","coordinates":[[[21.469419,43.367818],[21.490089,43.347432],[21.570291,43.342988],[21.611012,43.245914],[21.685943,43.210903],[21.700722,43.247438],[21.765938,43.24656],[21.76108,43.200878],[21.803868,43.158916],[21.805522,43.137781],[21.85632,43.140054],[21.904534,43.163412],[21.936832,43.133052],[21.993624,43.151449],[22.025095,43.144214],[22.07765,43.102227],[22.155217,43.058664],[22.212732,43.05683],[22.234023,43.073986],[22.295621,43.109927],[22.263479,43.151036],[22.225858,43.151423],[22.113617,43.202945],[22.163433,43.281493],[22.137388,43.336942],[22.205963,43.338079],[22.255365,43.319527],[22.328281,43.328053],[22.337273,43.382365],[22.351535,43.424223],[22.303528,43.458536],[22.268336,43.439313],[22.211957,43.46851],[22.16612,43.460913],[22.088451,43.490214],[22.056515,43.489206],[22.023183,43.535431],[21.977346,43.570002],[21.953678,43.546541],[21.986596,43.525612],[21.912699,43.513572],[21.867844,43.567212],[21.778289,43.57517],[21.704908,43.641781],[21.682842,43.70002],[21.703875,43.756348],[21.645997,43.802934],[21.614164,43.791617],[21.549207,43.790144],[21.465905,43.749423],[21.508899,43.698522],[21.471847,43.684621],[21.486575,43.653615],[21.480994,43.58628],[21.513964,43.577082],[21.566312,43.518533],[21.542592,43.460293],[21.56688,43.419934],[21.55484,43.403811],[21.469419,43.367818]]]},"properties":{"LOCATION_TYPE":"level1","ADM0_A3":"SRB","LOCATION_ID":"SRB-20","NAME":"Nišavski","TYPE_EN":"District"}},
{"type":"Feature","geometry":{"type":"Polygon","coordinates":[[[20.956995,43.728184],[21.060141,43.71374],[21.136984,43.713766],[21.23889,43.769241],[21.283383,43.761153],[21.334285,43.771954],[21.366944,43.764667],[21.378003,43.728597],[21.411128,43.72498],[21.465905,43.749423],[21.549207,43.790144],[21.614164,43.791617],[21.645997,43.802934],[21.688372,43.851484],[21.680362,43.891068],[21.723977,43.90316],[21.72408,43.924554],[21.776687,43.974267],[21.772449,43.991837],[21.790071,44.036124],[21.817769,44.065553],[21.741237,44.088679],[21.693643,44.082633],[21.644085,44.112398],[21.558302,44.119194],[21.487815,44.181696],[21.433969,44.194667],[21.393661,44.180818],[21.344465,44.222004],[21.325861,44.256007],[21.292685,44.275696],[21.268242,44.239496],[21.210985,44.268073],[21.134039,44.286599],[21.1683,44.250684],[21.133573,44.209705],[21.139154,44.183324],[21.14334,44.153378],[21.12298,44.12077],[21.132695,44.086198],[21.05425,44.047441],[21.102981,44.021138],[21.088822,43.992974],[21.041021,43.97158],[21.062363,43.94693],[20.999835,43.891972],[21.014666,43.854739],[20.908368,43.807352],[20.924749,43.755159],[20.956995,43.728184]]]},"properties":{"LOCATION_TYPE":"level1","ADM0_A3":"SRB","LOCATION_ID":"SRB-13","NAME":"Pomoravski","TYPE_EN":"District"}},
{"type":"Feature","geometry":{"type":"Polygon","coordinates":[[[20.620788,43.859184],[20.654533,43.835619],[20.688381,43.790041],[20.717733,43.775778],[20.770185,43.789265],[20.765172,43.823889],[20.894157,43.826576],[20.908368,43.807352],[21.014666,43.854739],[20.999835,43.891972],[21.062363,43.94693],[21.041021,43.97158],[21.088822,43.992974],[21.102981,44.021138],[21.05425,44.047441],[21.132695,44.086198],[21.12298,44.12077],[21.14334,44.153378],[21.139154,44.183324],[21.08629,44.201798],[21.051511,44.199938],[20.977459,44.231874],[20.973893,44.259004],[20.896844,44.242623],[20.839793,44.259986],[20.809304,44.293627],[20.772045,44.297762],[20.6905,44.334659],[20.649779,44.321843],[20.606526,44.373674],[20.54038,44.355484],[20.537899,44.385663],[20.442194,44.418891],[20.399561,44.382149],[20.431187,44.353107],[20.389071,44.294299],[20.415426,44.284067],[20.423126,44.241796],[20.460281,44.157796],[20.511854,44.137771],[20.540173,44.078912],[20.595363,44.055606],[20.636911,44.020207],[20.595002,44.011267],[20.566476,43.968815],[20.52622,43.94693],[20.547666,43.915614],[20.583271,43.900421],[20.620788,43.859184]]]},"properties":{"LOCATION_TYPE":"level1","ADM0_A3":"SRB","LOCATION_ID":"SRB-12","NAME":"Šumadijski","TYPE_EN":"District"}},
{"type":"Feature","geometry":{"type":"Polygon","coordinates":[[[20.620788,43.859184],[20.583271,43.900421],[20.547666,43.915614],[20.52622,43.94693],[20.566476,43.968815],[20.595002,44.011267],[20.636911,44.020207],[20.595363,44.055606],[20.540173,44.078912],[20.511854,44.137771],[20.460281,44.157796],[20.423126,44.241796],[20.368452,44.173686],[20.288457,44.12294],[20.174252,44.111261],[20.129139,44.096689],[20.124643,44.073693],[20.062011,44.08532],[20.055965,43.983569],[20.104076,43.932823],[20.116323,43.8905],[20.090381,43.837325],[20.128622,43.79433],[20.124074,43.740018],[20.16278,43.721931],[20.153478,43.677799],[20.174821,43.659609],[20.157974,43.632376],[20.089244,43.64483],[20.084387,43.608863],[20.041185,43.605246],[19.953645,43.553414],[19.893649,43.536619],[19.914785,43.511556],[19.999534,43.484013],[20.011833,43.442413],[20.095756,43.336838],[20.117305,43.298443],[20.240656,43.317821],[20.267425,43.298546],[20.3283,43.260719],[20.338532,43.286402],[20.421421,43.348827],[20.399406,43.381538],[20.401887,43.45404],[20.305304,43.533209],[20.367264,43.578116],[20.357755,43.62757],[20.387986,43.646354],[20.465862,43.665655],[20.446174,43.725316],[20.530561,43.75211],[20.530251,43.779964],[20.560482,43.820736],[20.620788,43.859184]]]},"properties":{"LOCATION_TYPE":"level1","ADM0_A3":"SRB","LOCATION_ID":"SRB-17","NAME":"Moravicki","TYPE_EN":"District"}},
{"type":"Feature","geometry":{"type":"Polygon","coordinates":[[[19.618162,44.143662],[19.741255,44.104492],[19.775568,44.069403],[19.811225,44.062892],[19.826366,44.105319],[19.861041,44.12878],[19.893752,44.127694],[19.916387,44.093976],[19.977778,44.075605],[20.009508,44.104182],[20.062011,44.08532],[20.124643,44.073693],[20.129139,44.096689],[20.174252,44.111261],[20.288457,44.12294],[20.368452,44.173686],[20.423126,44.241796],[20.415426,44.284067],[20.389071,44.294299],[20.279104,44.240452],[20.210271,44.286703],[20.188101,44.323341],[20.19146,44.355122],[20.225774,44.407729],[20.217557,44.478732],[20.176578,44.542269],[20.130224,44.495579],[20.095136,44.525965],[20.044699,44.507154],[19.993901,44.520642],[19.97106,44.564774],[19.889877,44.555601],[19.849931,44.524001],[19.870188,44.48483],[19.863057,44.438296],[19.827193,44.427676],[19.837115,44.389952],[19.779961,44.388092],[19.760066,44.413723],[19.680277,44.438063],[19.608033,44.422612],[19.561008,44.445711],[19.494242,44.43889],[19.503544,44.419511],[19.484217,44.375069],[19.448715,44.358378],[19.4914,44.328948],[19.430215,44.271923],[19.464166,44.236525],[19.559148,44.208258],[19.618162,44.143662]]]},"properties":{"LOCATION_TYPE":"level1","ADM0_A3":"SRB","LOCATION_ID":"SRB-09","NAME":"Kolubarski","TYPE_EN":"District"}}
]}