{"type":"FeatureCollection", "features": [
{"type":"Feature","geometry":{"type":"Polygon","coordinates":[[[6.681407,0.407131],[6.533051,0.348131],[6.461681,0.222154],[6.516368,0.033637],[6.660004,0.107327],[6.740082,0.218573],[6.746104,0.33808],[6.681407,0.407131]]]},"properties":{"LOCATION_TYPE":"level1","ADM0_A3":"STP","LOCATION_ID":"STP-S","NAME":"São Tomé","TYPE_EN":null}},
{"type":"Feature","geometry":{"type":"Polygon","coordinates":[[[7.462738,1.674547],[7.403005,1.699774],[7.33253,1.565334],[7.425548,1.56273],[7.462738,1.674547]]]},"properties":{"LOCATION_TYPE":"level1","ADM0_A3":"STP","LOCATION_ID":"STP-P","NAME":"Príncipe","TYPE_EN":null}}
]}