{"type":"FeatureCollection", "features": [
{"type":"Feature","geometry":{"type":"Polygon","coordinates":[[[-57.232522,5.260572],[-57.288979,5.171029],[-57.315231,5.026103],[-57.490259,4.99135],[-57.720477,4.9898],[-57.85034,4.922801],[-57.918501,4.829758],[-57.837421,4.65088],[-57.952659,4.409732],[-57.964958,4.282039],[-58.067691,4.151143],[-58.032138,3.987716],[-57.853854,3.76667],[-57.829773,3.662439],[-57.644048,3.51666],[-57.658207,3.39522],[-57.565138,3.349822],[-57.283553,3.343802],[-57.274923,3.13428],[-57.205987,3.028137],[-57.234615,2.970362],[-57.174619,2.818951],[-57.027238,2.648212],[-56.994113,2.504861],[-56.88443,2.303736],[-56.70519,2.029645],[-56.579772,2.016803],[-56.367175,1.928876],[-56.019651,1.833507],[-55.916763,1.922235],[-55.925806,2.061684],[-56.03133,2.163487],[-56.116803,2.333089],[-56.013346,2.398821],[-55.989239,2.520829],[-55.724294,2.396909],[-55.608306,2.433961],[-55.399585,2.430189],[-55.354523,2.494888],[-55.112471,2.527805],[-55.017748,2.590592],[-54.880289,2.447345],[-54.703194,2.445847],[-54.704124,2.32482],[-54.520311,2.348902],[-54.359442,2.508013],[-54.212526,2.776421],[-54.163433,2.969742],[-54.19046,3.178102],[-54.00303,3.455397],[-53.988819,3.610995],[-54.050675,3.640554],[-54.125503,3.788736],[-54.18736,3.814678],[-54.355153,4.066523],[-54.41055,4.208581],[-54.402954,4.312942],[-54.450806,4.484224],[-54.435458,4.709404],[-54.47866,4.755189],[-54.482122,4.912802],[-54.430239,5.053388],[-54.320652,5.212454],[-54.473,5.306498],[-54.654927,5.374608],[-54.803161,5.162631],[-54.851298,4.980937],[-54.74009,4.890348],[-54.818483,4.649071],[-54.831867,4.515694],[-54.898995,4.429136],[-54.875043,4.289299],[-54.940104,4.14135],[-55.011288,4.172149],[-55.249258,4.015569],[-55.311037,4.069881],[-55.330984,4.422108],[-55.367183,4.497245],[-55.376485,4.853658],[-55.502989,5.080465],[-55.63342,4.987241],[-55.816898,5.107957],[-55.998773,5.102893],[-55.96955,5.380809],[-55.916866,5.539869],[-56.060009,5.394968],[-56.32219,5.372851],[-56.483859,5.316782],[-56.723896,5.333267],[-57.232522,5.260572]]]},"properties":{"LOCATION_TYPE":"level1","ADM0_A3":"SUR","LOCATION_ID":"SUR-SI","NAME":"Sipaliwini","TYPE_EN":"District"}},
{"type":"Feature","geometry":{"type":"Polygon","coordinates":[[[-56.603726,5.95033],[-56.659512,5.979716],[-56.956537,6.011574],[-57.066029,5.9501],[-57.12577,5.818145],[-57.163686,5.557074],[-57.324119,5.33859],[-57.232522,5.260572],[-56.723896,5.333267],[-56.483859,5.316782],[-56.479338,5.389232],[-56.56618,5.501835],[-56.50223,5.560023],[-56.598814,5.748538],[-56.603726,5.95033]]]},"properties":{"LOCATION_TYPE":"level1","ADM0_A3":"SUR","LOCATION_ID":"SUR-NI","NAME":"Nickerie","TYPE_EN":"District"}},
{"type":"Feature","geometry":{"type":"Polygon","coordinates":[[[-54.320652,5.212454],[-54.19046,5.325748],[-54.073598,5.489814],[-53.986357,5.745665],[-54.036731,5.842351],[-54.471781,5.94097],[-54.704921,5.974815],[-54.73686,5.766832],[-54.628004,5.559299],[-54.654927,5.374608],[-54.473,5.306498],[-54.320652,5.212454]]]},"properties":{"LOCATION_TYPE":"level1","ADM0_A3":"SUR","LOCATION_ID":"SUR-MA","NAME":"Marowijne","TYPE_EN":"District"}},
{"type":"Feature","geometry":{"type":"Polygon","coordinates":[[[-56.603726,5.95033],[-56.598814,5.748538],[-56.50223,5.560023],[-56.56618,5.501835],[-56.479338,5.389232],[-56.483859,5.316782],[-56.32219,5.372851],[-56.060009,5.394968],[-55.916866,5.539869],[-55.89725,5.676703],[-55.897694,5.763007],[-55.999182,5.810713],[-56.303807,5.892508],[-56.603726,5.95033]]]},"properties":{"LOCATION_TYPE":"level1","ADM0_A3":"SUR","LOCATION_ID":"SUR-CR","NAME":"Coronie","TYPE_EN":"District"}},
{"type":"Feature","geometry":{"type":"Polygon","coordinates":[[[-55.89725,5.676703],[-55.916866,5.539869],[-55.907305,5.412538],[-55.49069,5.429591],[-55.398525,5.456515],[-55.352171,5.672677],[-55.253206,5.917794],[-55.394988,5.973876],[-55.637318,5.985907],[-55.886052,5.962954],[-55.947872,5.861521],[-55.887278,5.759467],[-55.89725,5.676703]]]},"properties":{"LOCATION_TYPE":"level1","ADM0_A3":"SUR","LOCATION_ID":"SUR-SA","NAME":"Saramacca","TYPE_EN":"District"}},
{"type":"Feature","geometry":{"type":"Polygon","coordinates":[[[-55.253206,5.917794],[-55.352171,5.672677],[-55.039219,5.666838],[-55.143812,5.76616],[-55.229766,5.902411],[-55.253206,5.917794]]]},"properties":{"LOCATION_TYPE":"level1","ADM0_A3":"SUR","LOCATION_ID":"SUR-WA","NAME":"Wanica","TYPE_EN":"District"}},
{"type":"Feature","geometry":{"type":"Polygon","coordinates":[[[-55.229766,5.902411],[-55.143812,5.76616],[-55.128611,5.821357],[-55.229766,5.902411]]]},"properties":{"LOCATION_TYPE":"level1","ADM0_A3":"SUR","LOCATION_ID":"SUR-PM","NAME":"Paramaribo","TYPE_EN":"District"}},
{"type":"Feature","geometry":{"type":"Polygon","coordinates":[[[-55.128611,5.821357],[-55.143812,5.76616],[-55.039219,5.666838],[-55.010435,5.531446],[-54.628004,5.559299],[-54.73686,5.766832],[-54.704921,5.974815],[-55.013905,5.993394],[-55.128611,5.821357]]]},"properties":{"LOCATION_TYPE":"level1","ADM0_A3":"SUR","LOCATION_ID":"SUR-CM","NAME":"Commewijne","TYPE_EN":"District"}},
{"type":"Feature","geometry":{"type":"Polygon","coordinates":[[[-55.039219,5.666838],[-55.352171,5.672677],[-55.398525,5.456515],[-55.49069,5.429591],[-55.907305,5.412538],[-55.916866,5.539869],[-55.96955,5.380809],[-55.998773,5.102893],[-55.816898,5.107957],[-55.63342,4.987241],[-55.502989,5.080465],[-55.386924,5.189193],[-55.324318,5.320037],[-55.025809,5.322621],[-54.897083,5.147438],[-54.851298,4.980937],[-54.803161,5.162631],[-54.654927,5.374608],[-54.628004,5.559299],[-55.010435,5.531446],[-55.039219,5.666838]]]},"properties":{"LOCATION_TYPE":"level1","ADM0_A3":"SUR","LOCATION_ID":"SUR-PR","NAME":"Para","TYPE_EN":"District"}},
{"type":"Feature","geometry":{"type":"Polygon","coordinates":[[[-54.851298,4.980937],[-54.897083,5.147438],[-55.025809,5.322621],[-55.324318,5.320037],[-55.386924,5.189193],[-55.502989,5.080465],[-55.376485,4.853658],[-55.367183,4.497245],[-55.330984,4.422108],[-55.311037,4.069881],[-55.249258,4.015569],[-55.011288,4.172149],[-54.940104,4.14135],[-54.875043,4.289299],[-54.898995,4.429136],[-54.831867,4.515694],[-54.818483,4.649071],[-54.74009,4.890348],[-54.851298,4.980937]]]},"properties":{"LOCATION_TYPE":"level1","ADM0_A3":"SUR","LOCATION_ID":"SUR-BR","NAME":"Brokopondo","TYPE_EN":"District"}}
]}