{"type":"FeatureCollection", "features": [
{"type":"Feature","geometry":{"type":"Polygon","coordinates":[[[19.868292,49.200788],[19.760685,49.194208],[19.783216,49.290016],[19.769263,49.39311],[19.627044,49.401868],[19.55677,49.453882],[19.505197,49.563384],[19.443392,49.60178],[19.347067,49.532998],[19.248675,49.516255],[19.172504,49.402257],[18.962284,49.389183],[18.932208,49.504318],[18.773562,49.504886],[18.732531,49.480288],[18.64282,49.495791],[18.535643,49.481684],[18.514663,49.440601],[18.387642,49.389751],[18.361586,49.330191],[18.482004,49.19152],[18.561276,49.159842],[18.60272,49.035302],[18.531303,48.99086],[18.520761,48.93815],[18.635741,48.966107],[18.705918,48.953782],[18.706073,48.853814],[18.782554,48.811698],[18.83299,48.744157],[18.87583,48.764052],[19.001042,48.746947],[19.003368,48.847768],[19.039231,48.876707],[19.252086,48.890608],[19.310274,48.859809],[19.393628,48.923526],[19.561525,48.942388],[19.742754,48.900866],[19.808073,48.913139],[19.996175,48.906576],[20.051882,48.929572],[20.011833,49.021427],[20.027181,49.103308],[19.900884,49.138138],[19.868292,49.200788]]]},"properties":{"LOCATION_TYPE":"level1","ADM0_A3":"SVK","LOCATION_ID":"SVK-ZI","NAME":"Žilinský","TYPE_EN":"Region"}},
{"type":"Feature","geometry":{"type":"Polygon","coordinates":[[[22.370799,48.858248],[22.448996,48.971431],[22.520516,48.992928],[22.539637,49.0722],[22.390085,49.093025],[22.339442,49.12646],[22.215936,49.139999],[22.197952,49.171987],[22.012434,49.211054],[21.99321,49.278182],[21.928408,49.330788],[21.819577,49.377246],[21.757566,49.348927],[21.69173,49.402154],[21.601193,49.426493],[21.42787,49.409802],[21.274391,49.447267],[21.172588,49.398278],[21.053526,49.414453],[21.017249,49.352441],[20.942422,49.295855],[20.778297,49.331202],[20.689517,49.4005],[20.522085,49.374352],[20.329539,49.391767],[20.284374,49.338643],[20.130171,49.303917],[20.07002,49.183097],[19.965737,49.215653],[19.868292,49.200788],[19.900884,49.138138],[20.027181,49.103308],[20.011833,49.021427],[20.051882,48.929572],[19.996175,48.906576],[20.174614,48.904741],[20.272696,48.872779],[20.299671,48.94492],[20.423953,49.002022],[20.528856,48.99719],[20.645541,48.951689],[20.764242,48.99732],[20.986451,48.955255],[21.024329,48.907093],[21.132953,48.899858],[21.262196,48.863633],[21.307516,48.830999],[21.458825,48.872702],[21.536701,48.793818],[21.697467,48.760125],[21.796014,48.795782],[21.785627,48.895259],[21.919985,48.873813],[21.992901,48.842213],[22.120128,48.842368],[22.183949,48.921459],[22.260585,48.859757],[22.370799,48.858248]]]},"properties":{"LOCATION_TYPE":"level1","ADM0_A3":"SVK","LOCATION_ID":"SVK-PV","NAME":"Prešov","TYPE_EN":"Region"}},
{"type":"Feature","geometry":{"type":"Polygon","coordinates":[[[22.370799,48.858248],[22.260585,48.859757],[22.183949,48.921459],[22.120128,48.842368],[21.992901,48.842213],[21.919985,48.873813],[21.785627,48.895259],[21.796014,48.795782],[21.697467,48.760125],[21.536701,48.793818],[21.458825,48.872702],[21.307516,48.830999],[21.262196,48.863633],[21.132953,48.899858],[21.024329,48.907093],[20.986451,48.955255],[20.764242,48.99732],[20.645541,48.951689],[20.528856,48.99719],[20.423953,49.002022],[20.299671,48.94492],[20.272696,48.872779],[20.198643,48.815755],[20.188256,48.727414],[20.261017,48.691757],[20.291919,48.617911],[20.347627,48.599359],[20.303547,48.509494],[20.335999,48.462675],[20.465968,48.46379],[20.481674,48.526083],[20.784085,48.569052],[20.945832,48.518978],[21.109336,48.489109],[21.424563,48.561275],[21.521818,48.50009],[21.591684,48.49301],[21.613388,48.440352],[21.727697,48.340901],[21.789398,48.335526],[21.929338,48.372914],[22.077856,48.375808],[22.13284,48.404798],[22.136664,48.549337],[22.153717,48.585873],[22.322492,48.700336],[22.370799,48.858248]]]},"properties":{"LOCATION_TYPE":"level1","ADM0_A3":"SVK","LOCATION_ID":"SVK-KI","NAME":"Košický","TYPE_EN":"Region"}},
{"type":"Feature","geometry":{"type":"Polygon","coordinates":[[[16.949055,48.544836],[16.86081,48.443788],[16.84448,48.365602],[16.950624,48.276589],[16.98194,48.161299],[17.080228,48.097608],[17.069686,48.035674],[17.148338,48.005443],[17.262316,48.007283],[17.403517,48.162177],[17.442636,48.151299],[17.532191,48.201968],[17.464495,48.312969],[17.477569,48.359943],[17.317114,48.470788],[17.359023,48.509442],[17.304712,48.545254],[17.378712,48.618273],[17.334942,48.656229],[17.229884,48.573521],[17.13666,48.550784],[17.077077,48.565925],[16.949055,48.544836]]]},"properties":{"LOCATION_TYPE":"level1","ADM0_A3":"SVK","LOCATION_ID":"SVK-BL","NAME":"Bratislavský","TYPE_EN":"Region"}},
{"type":"Feature","geometry":{"type":"Polygon","coordinates":[[[16.949055,48.544836],[17.077077,48.565925],[17.13666,48.550784],[17.229884,48.573521],[17.334942,48.656229],[17.378712,48.618273],[17.304712,48.545254],[17.359023,48.509442],[17.317114,48.470788],[17.477569,48.359943],[17.464495,48.312969],[17.532191,48.201968],[17.442636,48.151299],[17.403517,48.162177],[17.262316,48.007283],[17.36941,47.981207],[17.472039,47.888809],[17.719245,47.773669],[17.73838,47.810209],[17.885968,47.911701],[17.877286,48.056809],[17.813673,48.076807],[17.812743,48.156622],[17.883488,48.219021],[17.844213,48.298293],[17.859303,48.351933],[17.96834,48.464174],[17.85119,48.522878],[17.901006,48.5906],[17.988081,48.616077],[17.785406,48.647625],[17.71001,48.683695],[17.533586,48.62835],[17.470593,48.705606],[17.485476,48.743175],[17.411225,48.830216],[17.167458,48.859758],[17.025348,48.746328],[16.947523,48.623157],[16.949055,48.544836]]]},"properties":{"LOCATION_TYPE":"level1","ADM0_A3":"SVK","LOCATION_ID":"SVK-TA","NAME":"Trnavský","TYPE_EN":"Region"}},
{"type":"Feature","geometry":{"type":"Polygon","coordinates":[[[18.361586,49.330191],[18.190031,49.276942],[18.117788,49.202579],[18.102905,49.09225],[18.012885,49.019128],[17.914079,49.010498],[17.860336,48.921718],[17.795533,48.920581],[17.727217,48.86291],[17.535084,48.812991],[17.411225,48.830216],[17.485476,48.743175],[17.470593,48.705606],[17.533586,48.62835],[17.71001,48.683695],[17.785406,48.647625],[17.988081,48.616077],[18.026528,48.639409],[18.003274,48.708371],[18.116083,48.691912],[18.250597,48.61202],[18.227963,48.571454],[18.366559,48.491769],[18.489911,48.549233],[18.599154,48.573573],[18.654552,48.639719],[18.709329,48.630004],[18.83299,48.744157],[18.782554,48.811698],[18.706073,48.853814],[18.705918,48.953782],[18.635741,48.966107],[18.520761,48.93815],[18.531303,48.99086],[18.60272,49.035302],[18.561276,49.159842],[18.482004,49.19152],[18.361586,49.330191]]]},"properties":{"LOCATION_TYPE":"level1","ADM0_A3":"SVK","LOCATION_ID":"SVK-TC","NAME":"Trenciansky","TYPE_EN":"Region"}},
{"type":"Feature","geometry":{"type":"Polygon","coordinates":[[[20.465968,48.46379],[20.335999,48.462675],[20.303547,48.509494],[20.347627,48.599359],[20.291919,48.617911],[20.261017,48.691757],[20.188256,48.727414],[20.198643,48.815755],[20.272696,48.872779],[20.174614,48.904741],[19.996175,48.906576],[19.808073,48.913139],[19.742754,48.900866],[19.561525,48.942388],[19.393628,48.923526],[19.310274,48.859809],[19.252086,48.890608],[19.039231,48.876707],[19.003368,48.847768],[19.001042,48.746947],[18.87583,48.764052],[18.83299,48.744157],[18.709329,48.630004],[18.654552,48.639719],[18.599154,48.573573],[18.489911,48.549233],[18.575693,48.344801],[18.683077,48.361079],[18.754752,48.414125],[18.854849,48.306457],[18.817797,48.25137],[18.871954,48.162823],[19.057679,48.206774],[19.06295,48.127657],[19.019017,48.065497],[19.222526,48.060582],[19.29322,48.087764],[19.428199,48.085852],[19.481735,48.111328],[19.503026,48.189411],[19.623226,48.227006],[19.766679,48.159],[19.884295,48.129621],[20.096995,48.198429],[20.134512,48.246669],[20.22908,48.270905],[20.272385,48.252456],[20.370157,48.334338],[20.409017,48.413713],[20.465968,48.46379]]]},"properties":{"LOCATION_TYPE":"level1","ADM0_A3":"SVK","LOCATION_ID":"SVK-BC","NAME":"Banskobystrický","TYPE_EN":"Region"}},
{"type":"Feature","geometry":{"type":"Polygon","coordinates":[[[19.019017,48.065497],[19.06295,48.127657],[19.057679,48.206774],[18.871954,48.162823],[18.817797,48.25137],[18.854849,48.306457],[18.754752,48.414125],[18.683077,48.361079],[18.575693,48.344801],[18.489911,48.549233],[18.366559,48.491769],[18.227963,48.571454],[18.250597,48.61202],[18.116083,48.691912],[18.003274,48.708371],[18.026528,48.639409],[17.988081,48.616077],[17.901006,48.5906],[17.85119,48.522878],[17.96834,48.464174],[17.859303,48.351933],[17.844213,48.298293],[17.883488,48.219021],[17.812743,48.156622],[17.813673,48.076807],[17.877286,48.056809],[17.885968,47.911701],[17.73838,47.810209],[17.719245,47.773669],[17.825713,47.750006],[18.11262,47.762486],[18.23592,47.753882],[18.347851,47.776775],[18.552593,47.792846],[18.692843,47.777963],[18.767671,47.822302],[18.754751,47.951803],[18.838467,48.040015],[19.019017,48.065497]]]},"properties":{"LOCATION_TYPE":"level1","ADM0_A3":"SVK","LOCATION_ID":"SVK-NI","NAME":"Nitriansky","TYPE_EN":"Region"}}
]}