{"type":"FeatureCollection", "features": [
{"type":"Feature","geometry":{"type":"Polygon","coordinates":[[[13.610929,45.538025],[13.589529,45.488837],[13.65997,45.459978],[13.662763,45.50699],[13.622146,45.506758],[13.610929,45.538025]]]},"properties":{"LOCATION_TYPE":"level1","ADM0_A3":"SVN","LOCATION_ID":"SVN-090","NAME":"Piran","TYPE_EN":"Commune|Municipality"}},
{"type":"Feature","geometry":{"type":"Polygon","coordinates":[[[16.29949,46.77951],[16.257747,46.780039],[16.210566,46.745002],[16.178734,46.697563],[16.20359,46.663483],[16.240797,46.653587],[16.2979,46.647851],[16.314384,46.645138],[16.356242,46.684696],[16.365383,46.696712],[16.314177,46.743324],[16.29949,46.77951]]]},"properties":{"LOCATION_TYPE":"level1","ADM0_A3":"SVN","LOCATION_ID":"SVN-078","NAME":"Moravske Toplice","TYPE_EN":"Commune|Municipality"}},
{"type":"Feature","geometry":{"type":"Polygon","coordinates":[[[16.311097,46.797519],[16.297392,46.847033],[16.272009,46.863962],[16.179486,46.858468],[16.258832,46.817918],[16.257747,46.780039],[16.29949,46.77951],[16.311097,46.797519]]]},"properties":{"LOCATION_TYPE":"level1","ADM0_A3":"SVN","LOCATION_ID":"SVN-033","NAME":"Šalovci","TYPE_EN":"Commune|Municipality"}},
{"type":"Feature","geometry":{"type":"Polygon","coordinates":[[[16.297392,46.847033],[16.311097,46.797519],[16.329783,46.834403],[16.297392,46.847033]]]},"properties":{"LOCATION_TYPE":"level1","ADM0_A3":"SVN","LOCATION_ID":"SVN-161","NAME":"Hodoš","TYPE_EN":"Commune|Municipality"}},
{"type":"Feature","geometry":{"type":"Polygon","coordinates":[[[16.179486,46.858468],[16.130246,46.856708],[16.125197,46.833007],[16.136411,46.829442],[16.197854,46.79363],[16.210566,46.745002],[16.257747,46.780039],[16.258832,46.817918],[16.179486,46.858468]]]},"properties":{"LOCATION_TYPE":"level1","ADM0_A3":"SVN","LOCATION_ID":"SVN-031","NAME":"Gornji Petrovci","TYPE_EN":"Commune|Municipality"}},
{"type":"Feature","geometry":{"type":"Polygon","coordinates":[[[16.130246,46.856708],[16.052936,46.84606],[16.056002,46.816057],[16.125197,46.833007],[16.130246,46.856708]]]},"properties":{"LOCATION_TYPE":"level1","ADM0_A3":"SVN","LOCATION_ID":"SVN-056","NAME":"Kuzma","TYPE_EN":"Commune|Municipality"}},
{"type":"Feature","geometry":{"type":"Polygon","coordinates":[[[16.372246,46.636341],[16.347871,46.615346],[16.378463,46.599792],[16.397532,46.578191],[16.334538,46.556487],[16.340276,46.543827],[16.406264,46.539486],[16.491117,46.515146],[16.500832,46.544809],[16.430242,46.604392],[16.372246,46.636341]]]},"properties":{"LOCATION_TYPE":"level1","ADM0_A3":"SVN","LOCATION_ID":"SVN-059","NAME":"Lendava","TYPE_EN":"Commune|Municipality"}},
{"type":"Feature","geometry":{"type":"Polygon","coordinates":[[[16.402607,46.663109],[16.356242,46.684696],[16.314384,46.645138],[16.347871,46.615346],[16.372246,46.636341],[16.402607,46.663109]]]},"properties":{"LOCATION_TYPE":"level1","ADM0_A3":"SVN","LOCATION_ID":"SVN-156","NAME":"Dobrovnik","TYPE_EN":"Commune|Municipality"}},
{"type":"Feature","geometry":{"type":"Polygon","coordinates":[[[16.402607,46.663109],[16.365383,46.696712],[16.356242,46.684696],[16.402607,46.663109]]]},"properties":{"LOCATION_TYPE":"level1","ADM0_A3":"SVN","LOCATION_ID":"SVN-047","NAME":"Kobilje","TYPE_EN":"Commune|Municipality"}},
{"type":"Feature","geometry":{"type":"Polygon","coordinates":[[[13.685853,46.464047],[13.811281,46.412981],[13.841719,46.382182],[13.84792,46.381226],[13.992356,46.444814],[14.014922,46.482531],[13.98233,46.481918],[13.890862,46.511787],[13.782135,46.507782],[13.716093,46.518867],[13.685853,46.464047]]]},"properties":{"LOCATION_TYPE":"level1","ADM0_A3":"SVN","LOCATION_ID":"SVN-053","NAME":"Kranjska Gora","TYPE_EN":"Commune|Municipality"}},
{"type":"Feature","geometry":{"type":"Polygon","coordinates":[[[13.685853,46.464047],[13.658783,46.445125],[13.600182,46.442644],[13.530006,46.388332],[13.423242,46.344847],[13.395638,46.306728],[13.515227,46.277227],[13.550109,46.302032],[13.671497,46.294901],[13.727359,46.30167],[13.764101,46.345078],[13.841719,46.382182],[13.811281,46.412981],[13.685853,46.464047]]]},"properties":{"LOCATION_TYPE":"level1","ADM0_A3":"SVN","LOCATION_ID":"SVN-006","NAME":"Bovec","TYPE_EN":"Commune|Municipality"}},
{"type":"Feature","geometry":{"type":"Polygon","coordinates":[[[13.395638,46.306728],[13.365261,46.290302],[13.410116,46.207982],[13.438332,46.22488],[13.510162,46.213976],[13.559048,46.184107],[13.627366,46.181733],[13.624006,46.218936],[13.692426,46.238677],[13.736661,46.286116],[13.727359,46.30167],[13.671497,46.294901],[13.550109,46.302032],[13.515227,46.277227],[13.395638,46.306728]]]},"properties":{"LOCATION_TYPE":"level1","ADM0_A3":"SVN","LOCATION_ID":"SVN-046","NAME":"Kobarid","TYPE_EN":"Commune|Municipality"}},
{"type":"Feature","geometry":{"type":"Polygon","coordinates":[[[13.641071,46.171405],[13.666536,46.175166],[13.708549,46.128037],[13.768907,46.101605],[13.799964,46.103646],[13.820428,46.036002],[13.865903,46.006985],[13.867454,46.064837],[13.894946,46.067654],[13.886212,46.140026],[13.923626,46.170722],[13.989255,46.194597],[13.997006,46.239297],[13.894946,46.229995],[13.820893,46.241803],[13.736661,46.286116],[13.692426,46.238677],[13.624006,46.218936],[13.627366,46.181733],[13.641071,46.171405]]]},"properties":{"LOCATION_TYPE":"level1","ADM0_A3":"SVN","LOCATION_ID":"SVN-128","NAME":"Tolmin","TYPE_EN":"Commune|Municipality"}},
{"type":"Feature","geometry":{"type":"Polygon","coordinates":[[[13.522585,46.075298],[13.603956,46.012928],[13.681418,46.066956],[13.732165,46.057887],[13.768907,46.101605],[13.708549,46.128037],[13.666536,46.175166],[13.641071,46.171405],[13.616409,46.125041],[13.522585,46.075298]]]},"properties":{"LOCATION_TYPE":"level1","ADM0_A3":"SVN","LOCATION_ID":"SVN-044","NAME":"Kanal","TYPE_EN":"Commune|Municipality"}},
{"type":"Feature","geometry":{"type":"Polygon","coordinates":[[[13.522585,46.075298],[13.482257,46.044839],[13.461793,46.006392],[13.509439,45.967428],[13.600735,45.984574],[13.603956,46.012928],[13.522585,46.075298]]]},"properties":{"LOCATION_TYPE":"level1","ADM0_A3":"SVN","LOCATION_ID":"SVN-007","NAME":"Brda","TYPE_EN":"Commune|Municipality"}},
{"type":"Feature","geometry":{"type":"Polygon","coordinates":[[[13.615325,45.945912],[13.686379,45.915286],[13.64695,45.897199],[13.665295,45.868027],[13.709169,45.865004],[13.762395,45.844489],[13.833967,45.835497],[13.732785,45.905855],[13.852261,46.00205],[13.865903,46.006985],[13.820428,46.036002],[13.799964,46.103646],[13.768907,46.101605],[13.732165,46.057887],[13.681418,46.066956],[13.603956,46.012928],[13.600735,45.984574],[13.615325,45.945912]]]},"properties":{"LOCATION_TYPE":"level1","ADM0_A3":"SVN","LOCATION_ID":"SVN-084","NAME":"Nova Goriška","TYPE_EN":"Statistical Region"}},
{"type":"Feature","geometry":{"type":"Polygon","coordinates":[[[13.599306,45.912327],[13.64695,45.897199],[13.686379,45.915286],[13.615325,45.945912],[13.599306,45.912327]]]},"properties":{"LOCATION_TYPE":"level1","ADM0_A3":"SVN","LOCATION_ID":"SVN-183","NAME":"Šempeter-Vrtojba","TYPE_EN":"Commune|Municipality"}},
{"type":"Feature","geometry":{"type":"Polygon","coordinates":[[[13.574172,45.819028],[13.670101,45.822604],[13.709169,45.865004],[13.665295,45.868027],[13.64695,45.897199],[13.599306,45.912327],[13.56928,45.86454],[13.574172,45.819028]]]},"properties":{"LOCATION_TYPE":"level1","ADM0_A3":"SVN","LOCATION_ID":"SVN-075","NAME":"Miren-Kostanjevica","TYPE_EN":"Commune|Municipality"}},
{"type":"Feature","geometry":{"type":"Polygon","coordinates":[[[13.574172,45.819028],[13.699908,45.770524],[13.731855,45.79134],[13.852726,45.799582],[13.902542,45.810227],[13.885902,45.82865],[13.833967,45.835497],[13.762395,45.844489],[13.709169,45.865004],[13.670101,45.822604],[13.574172,45.819028]]]},"properties":{"LOCATION_TYPE":"level1","ADM0_A3":"SVN","LOCATION_ID":"SVN-049","NAME":"Komen","TYPE_EN":"Commune|Municipality"}},
{"type":"Feature","geometry":{"type":"Polygon","coordinates":[[[13.893641,45.633758],[13.938354,45.642641],[13.936493,45.670391],[13.967861,45.705273],[13.955614,45.733281],[13.989875,45.76501],[13.902542,45.810227],[13.852726,45.799582],[13.731855,45.79134],[13.699908,45.770524],[13.778724,45.743411],[13.858409,45.649359],[13.893641,45.633758]]]},"properties":{"LOCATION_TYPE":"level1","ADM0_A3":"SVN","LOCATION_ID":"SVN-111","NAME":"Sežana","TYPE_EN":"Commune|Municipality"}},
{"type":"Feature","geometry":{"type":"Polygon","coordinates":[[[13.867926,45.602169],[13.910448,45.552026],[13.952203,45.545954],[13.987476,45.511909],[14.066665,45.480274],[14.116747,45.472998],[14.087182,45.517997],[14.10563,45.565953],[14.089817,45.614089],[14.059587,45.599594],[13.938354,45.642641],[13.893641,45.633758],[13.867926,45.602169]]]},"properties":{"LOCATION_TYPE":"level1","ADM0_A3":"SVN","LOCATION_ID":"SVN-035","NAME":"Hrpelje-Kozina","TYPE_EN":"Commune|Municipality"}},
{"type":"Feature","geometry":{"type":"Polygon","coordinates":[[[13.867926,45.602169],[13.800532,45.58125],[13.711762,45.593207],[13.75294,45.552883],[13.675141,45.544745],[13.662763,45.50699],[13.65997,45.459978],[13.759294,45.463169],[13.835568,45.429114],[13.889002,45.423637],[13.969824,45.462963],[13.987476,45.511909],[13.952203,45.545954],[13.910448,45.552026],[13.867926,45.602169]]]},"properties":{"LOCATION_TYPE":"level1","ADM0_A3":"SVN","LOCATION_ID":"SVN-050","NAME":"Koper","TYPE_EN":"Commune|Municipality"}},
{"type":"Feature","geometry":{"type":"Polygon","coordinates":[[[16.052936,46.84606],[15.987582,46.830011],[15.970985,46.77505],[16.055537,46.755958],[16.063599,46.764174],[16.056002,46.816057],[16.052936,46.84606]]]},"properties":{"LOCATION_TYPE":"level1","ADM0_A3":"SVN","LOCATION_ID":"SVN-105","NAME":"Rogašovci","TYPE_EN":"Commune|Municipality"}},
{"type":"Feature","geometry":{"type":"Polygon","coordinates":[[[16.016723,46.670691],[16.04174,46.662733],[16.110314,46.623873],[16.108299,46.69038],[16.053367,46.71981],[16.055537,46.755958],[15.970985,46.77505],[15.982001,46.718545],[16.016723,46.670691]]]},"properties":{"LOCATION_TYPE":"level1","ADM0_A3":"SVN","LOCATION_ID":"SVN-152","NAME":"Cankova","TYPE_EN":"Commune|Municipality"}},
{"type":"Feature","geometry":{"type":"Polygon","coordinates":[[[15.9676,46.694555],[15.932116,46.665178],[15.888571,46.662785],[15.888106,46.645887],[15.933271,46.596407],[15.955905,46.588216],[15.978281,46.585968],[16.013628,46.593694],[16.007736,46.632839],[16.04174,46.662733],[16.016723,46.670691],[15.9676,46.694555]]]},"properties":{"LOCATION_TYPE":"level1","ADM0_A3":"SVN","LOCATION_ID":"SVN-029","NAME":"Gornja Radgona","TYPE_EN":"Commune|Municipality"}},
{"type":"Feature","geometry":{"type":"Polygon","coordinates":[[[15.9676,46.694555],[15.878545,46.720715],[15.78461,46.7122],[15.804338,46.69976],[15.888571,46.662785],[15.932116,46.665178],[15.9676,46.694555]]]},"properties":{"LOCATION_TYPE":"level1","ADM0_A3":"SVN","LOCATION_ID":"SVN-195","NAME":"Apace","TYPE_EN":"Commune|Municipality"}},
{"type":"Feature","geometry":{"type":"Polygon","coordinates":[[[15.78461,46.7122],[15.728683,46.70299],[15.652098,46.710819],[15.621745,46.678175],[15.645743,46.642761],[15.691528,46.676402],[15.730596,46.673327],[15.770645,46.63426],[15.800152,46.646869],[15.804338,46.69976],[15.78461,46.7122]]]},"properties":{"LOCATION_TYPE":"level1","ADM0_A3":"SVN","LOCATION_ID":"SVN-118","NAME":"Šentilj","TYPE_EN":"Commune|Municipality"}},
{"type":"Feature","geometry":{"type":"Polygon","coordinates":[[[15.621745,46.678175],[15.567349,46.675757],[15.520308,46.64772],[15.590811,46.630384],[15.647138,46.594081],[15.645743,46.642761],[15.621745,46.678175]]]},"properties":{"LOCATION_TYPE":"level1","ADM0_A3":"SVN","LOCATION_ID":"SVN-055","NAME":"Kungota","TYPE_EN":"Commune|Municipality"}},
{"type":"Feature","geometry":{"type":"Polygon","coordinates":[[[15.513939,46.632545],[15.560374,46.562119],[15.563784,46.509875],[15.696489,46.512148],[15.731681,46.504759],[15.753747,46.546978],[15.754677,46.573282],[15.720674,46.569302],[15.647138,46.594081],[15.590811,46.630384],[15.520308,46.64772],[15.513939,46.632545]]]},"properties":{"LOCATION_TYPE":"level1","ADM0_A3":"SVN","LOCATION_ID":"SVN-070","NAME":"Maribor","TYPE_EN":"Commune|Municipality"}},
{"type":"Feature","geometry":{"type":"Polygon","coordinates":[[[15.513939,46.632545],[15.462653,46.614649],[15.435381,46.627195],[15.443378,46.584702],[15.459656,46.550027],[15.482807,46.534498],[15.560374,46.562119],[15.513939,46.632545]]]},"properties":{"LOCATION_TYPE":"level1","ADM0_A3":"SVN","LOCATION_ID":"SVN-178","NAME":"Selnica ob Dravi","TYPE_EN":"Commune|Municipality"}},
{"type":"Feature","geometry":{"type":"Polygon","coordinates":[[[15.172557,46.64136],[15.183497,46.619454],[15.211558,46.601652],[15.175539,46.54256],[15.19931,46.529202],[15.270365,46.572584],[15.329173,46.619222],[15.332784,46.64358],[15.172557,46.64136]]]},"properties":{"LOCATION_TYPE":"level1","ADM0_A3":"SVN","LOCATION_ID":"SVN-101","NAME":"Radlje ob Dravi","TYPE_EN":"Commune|Municipality"}},
{"type":"Feature","geometry":{"type":"Polygon","coordinates":[[[15.172557,46.64136],[15.085723,46.647795],[15.125775,46.601239],[15.183497,46.619454],[15.172557,46.64136]]]},"properties":{"LOCATION_TYPE":"level1","ADM0_A3":"SVN","LOCATION_ID":"SVN-081","NAME":"Muta","TYPE_EN":"Commune|Municipality"}},
{"type":"Feature","geometry":{"type":"Polygon","coordinates":[[[15.085723,46.647795],[15.004386,46.636844],[14.967179,46.600257],[14.919507,46.615017],[15.007487,46.568941],[15.010485,46.550441],[15.060249,46.541501],[15.103399,46.570026],[15.125775,46.601239],[15.085723,46.647795]]]},"properties":{"LOCATION_TYPE":"level1","ADM0_A3":"SVN","LOCATION_ID":"SVN-025","NAME":"Dravograd","TYPE_EN":"Commune|Municipality"}},
{"type":"Feature","geometry":{"type":"Polygon","coordinates":[[[15.435381,46.627195],[15.388135,46.645578],[15.332784,46.64358],[15.329173,46.619222],[15.270365,46.572584],[15.320647,46.53747],[15.322817,46.51065],[15.376044,46.588733],[15.443378,46.584702],[15.435381,46.627195]]]},"properties":{"LOCATION_TYPE":"level1","ADM0_A3":"SVN","LOCATION_ID":"SVN-093","NAME":"Podvelka","TYPE_EN":"Commune|Municipality"}},
{"type":"Feature","geometry":{"type":"Polygon","coordinates":[[[14.894063,46.605215],[14.946664,46.557159],[14.92403,46.504784],[14.96563,46.489462],[14.998496,46.505792],[15.010485,46.550441],[15.007487,46.568941],[14.919507,46.615017],[14.894063,46.605215]]]},"properties":{"LOCATION_TYPE":"level1","ADM0_A3":"SVN","LOCATION_ID":"SVN-103","NAME":"Ravne na Koroškem","TYPE_EN":"Commune|Municipality"}},
{"type":"Feature","geometry":{"type":"Polygon","coordinates":[[[14.894063,46.605215],[14.85039,46.601136],[14.814519,46.551337],[14.863362,46.551939],[14.899535,46.504449],[14.92403,46.504784],[14.946664,46.557159],[14.894063,46.605215]]]},"properties":{"LOCATION_TYPE":"level1","ADM0_A3":"SVN","LOCATION_ID":"SVN-175","NAME":"Prevalje","TYPE_EN":"Commune|Municipality"}},
{"type":"Feature","geometry":{"type":"Polygon","coordinates":[[[14.796663,46.519401],[14.873439,46.497317],[14.899535,46.504449],[14.863362,46.551939],[14.814519,46.551337],[14.796663,46.519401]]]},"properties":{"LOCATION_TYPE":"level1","ADM0_A3":"SVN","LOCATION_ID":"SVN-074","NAME":"Mežica","TYPE_EN":"Commune|Municipality"}},
{"type":"Feature","geometry":{"type":"Polygon","coordinates":[[[14.796663,46.519401],[14.760887,46.496284],[14.709727,46.492512],[14.672546,46.459791],[14.72213,46.447992],[14.754583,46.421456],[14.804089,46.425125],[14.891732,46.423549],[14.956328,46.459852],[14.96563,46.489462],[14.92403,46.504784],[14.899535,46.504449],[14.873439,46.497317],[14.796663,46.519401]]]},"properties":{"LOCATION_TYPE":"level1","ADM0_A3":"SVN","LOCATION_ID":"SVN-016","NAME":"Črna na Koroškem","TYPE_EN":"Commune|Municipality"}},
{"type":"Feature","geometry":{"type":"Polygon","coordinates":[[[14.242323,46.438237],[14.23818,46.425254],[14.248567,46.353347],[14.267171,46.326139],[14.326289,46.321359],[14.359517,46.350815],[14.405457,46.351641],[14.437145,46.418884],[14.40649,46.439337],[14.242323,46.438237]]]},"properties":{"LOCATION_TYPE":"level1","ADM0_A3":"SVN","LOCATION_ID":"SVN-131","NAME":"Tržič","TYPE_EN":"Commune|Municipality"}},
{"type":"Feature","geometry":{"type":"Polygon","coordinates":[[[14.147933,46.440425],[14.127851,46.406832],[14.137463,46.372157],[14.190535,46.386936],[14.23818,46.425254],[14.242323,46.438237],[14.147933,46.440425]]]},"properties":{"LOCATION_TYPE":"level1","ADM0_A3":"SVN","LOCATION_ID":"SVN-192","NAME":"Žirovnica","TYPE_EN":"Commune|Municipality"}},
{"type":"Feature","geometry":{"type":"Polygon","coordinates":[[[14.147933,46.440425],[14.081032,46.47595],[14.014922,46.482531],[13.992356,46.444814],[14.1016,46.403576],[14.127851,46.406832],[14.147933,46.440425]]]},"properties":{"LOCATION_TYPE":"level1","ADM0_A3":"SVN","LOCATION_ID":"SVN-041","NAME":"Jesenice","TYPE_EN":"Commune|Municipality"}},
{"type":"Feature","geometry":{"type":"Polygon","coordinates":[[[14.672546,46.459791],[14.590148,46.434428],[14.562108,46.391737],[14.568703,46.368798],[14.639913,46.366369],[14.726471,46.383422],[14.754583,46.421456],[14.72213,46.447992],[14.672546,46.459791]]]},"properties":{"LOCATION_TYPE":"level1","ADM0_A3":"SVN","LOCATION_ID":"SVN-180","NAME":"Solcava","TYPE_EN":"Commune|Municipality"}},
{"type":"Feature","geometry":{"type":"Polygon","coordinates":[[[14.562108,46.391737],[14.502194,46.418356],[14.437145,46.418884],[14.405457,46.351641],[14.440494,46.364715],[14.53594,46.360323],[14.568703,46.368798],[14.562108,46.391737]]]},"properties":{"LOCATION_TYPE":"level1","ADM0_A3":"SVN","LOCATION_ID":"SVN-163","NAME":"Jezersko","TYPE_EN":"Commune|Municipality"}},
{"type":"Feature","geometry":{"type":"Polygon","coordinates":[[[16.340276,46.543827],[16.334538,46.556487],[16.328492,46.583824],[16.300535,46.597337],[16.265964,46.569147],[16.247515,46.553851],[16.310663,46.530985],[16.340276,46.543827]]]},"properties":{"LOCATION_TYPE":"level1","ADM0_A3":"SVN","LOCATION_ID":"SVN-015","NAME":"Črenšovci","TYPE_EN":"Commune|Municipality"}},
{"type":"Feature","geometry":{"type":"Polygon","coordinates":[[[16.310663,46.530985],[16.247515,46.553851],[16.216768,46.584134],[16.176718,46.560052],[16.154084,46.525429],[16.077758,46.541862],[16.020345,46.511296],[16.201885,46.473469],[16.234188,46.484892],[16.260931,46.513576],[16.277591,46.533878],[16.301527,46.527081],[16.310663,46.530985]]]},"properties":{"LOCATION_TYPE":"level1","ADM0_A3":"SVN","LOCATION_ID":"SVN-063","NAME":"Ljutomer","TYPE_EN":"Commune|Municipality"}},
{"type":"Feature","geometry":{"type":"Polygon","coordinates":[[[16.301527,46.527081],[16.277591,46.533878],[16.260931,46.513576],[16.301527,46.527081]]]},"properties":{"LOCATION_TYPE":"level1","ADM0_A3":"SVN","LOCATION_ID":"SVN-176","NAME":"Razkrižje","TYPE_EN":"Commune|Municipality"}},
{"type":"Feature","geometry":{"type":"Polygon","coordinates":[[[16.234188,46.484892],[16.201885,46.473469],[16.020345,46.511296],[16.020966,46.490703],[16.040034,46.468637],[16.026082,46.432308],[16.075743,46.384456],[16.088654,46.373086],[16.131552,46.393061],[16.191807,46.369781],[16.280277,46.376214],[16.248238,46.413344],[16.234188,46.484892]]]},"properties":{"LOCATION_TYPE":"level1","ADM0_A3":"SVN","LOCATION_ID":"SVN-087","NAME":"Ormož","TYPE_EN":"Commune|Municipality"}},
{"type":"Feature","geometry":{"type":"Polygon","coordinates":[[[16.088654,46.373086],[16.075743,46.384456],[16.055227,46.388073],[16.031508,46.364121],[16.049922,46.316735],[16.059619,46.332315],[16.057965,46.377532],[16.088654,46.373086]]]},"properties":{"LOCATION_TYPE":"level1","ADM0_A3":"SVN","LOCATION_ID":"SVN-143","NAME":"Zavrc","TYPE_EN":"Commune|Municipality"}},
{"type":"Feature","geometry":{"type":"Polygon","coordinates":[[[16.049922,46.316735],[16.031508,46.364121],[16.055227,46.388073],[16.075743,46.384456],[16.026082,46.432308],[15.983087,46.41665],[15.998435,46.373035],[15.969289,46.361899],[15.993668,46.290613],[16.049922,46.316735]]]},"properties":{"LOCATION_TYPE":"level1","ADM0_A3":"SVN","LOCATION_ID":"SVN-028","NAME":"Gorišnica","TYPE_EN":"Commune|Municipality"}},
{"type":"Feature","geometry":{"type":"Polygon","coordinates":[[[15.993668,46.290613],[15.969289,46.361899],[15.904074,46.393603],[15.869502,46.384017],[15.831468,46.394791],[15.802478,46.354949],[15.801082,46.320584],[15.825112,46.308492],[15.837359,46.345182],[15.910481,46.338128],[15.918903,46.272827],[15.993668,46.290613]]]},"properties":{"LOCATION_TYPE":"level1","ADM0_A3":"SVN","LOCATION_ID":"SVN-135","NAME":"Videm","TYPE_EN":"Commune|Municipality"}},
{"type":"Feature","geometry":{"type":"Polygon","coordinates":[[[15.918903,46.272827],[15.910481,46.338128],[15.837359,46.345182],[15.825112,46.308492],[15.880895,46.259341],[15.918903,46.272827]]]},"properties":{"LOCATION_TYPE":"level1","ADM0_A3":"SVN","LOCATION_ID":"SVN-172","NAME":"Podlehnik","TYPE_EN":"Commune|Municipality"}},
{"type":"Feature","geometry":{"type":"Polygon","coordinates":[[[15.880895,46.259341],[15.825112,46.308492],[15.801082,46.320584],[15.757933,46.262034],[15.799526,46.248607],[15.880895,46.259341]]]},"properties":{"LOCATION_TYPE":"level1","ADM0_A3":"SVN","LOCATION_ID":"SVN-191","NAME":"Žetale","TYPE_EN":"Commune|Municipality"}},
{"type":"Feature","geometry":{"type":"Polygon","coordinates":[[[15.799526,46.248607],[15.757933,46.262034],[15.741344,46.266065],[15.677975,46.214462],[15.749767,46.210772],[15.799526,46.248607]]]},"properties":{"LOCATION_TYPE":"level1","ADM0_A3":"SVN","LOCATION_ID":"SVN-107","NAME":"Rogatec","TYPE_EN":"Commune|Municipality"}},
{"type":"Feature","geometry":{"type":"Polygon","coordinates":[[[15.677975,46.214462],[15.741344,46.266065],[15.684862,46.274075],[15.587865,46.284049],[15.5658,46.273662],[15.61329,46.20426],[15.626571,46.19521],[15.677975,46.214462]]]},"properties":{"LOCATION_TYPE":"level1","ADM0_A3":"SVN","LOCATION_ID":"SVN-106","NAME":"Rogaška Slatina","TYPE_EN":"Commune|Municipality"}},
{"type":"Feature","geometry":{"type":"Polygon","coordinates":[[[15.626571,46.19521],[15.61329,46.20426],[15.545491,46.155168],[15.536034,46.130363],[15.58461,46.108581],[15.607554,46.065871],[15.623605,46.076415],[15.589983,46.138684],[15.626571,46.19521]]]},"properties":{"LOCATION_TYPE":"level1","ADM0_A3":"SVN","LOCATION_ID":"SVN-149","NAME":"Bistrica ob Sotli","TYPE_EN":"Commune|Municipality"}},
{"type":"Feature","geometry":{"type":"Polygon","coordinates":[[[15.623605,46.076415],[15.607554,46.065871],[15.619646,46.040859],[15.667757,46.02639],[15.69288,46.041636],[15.623605,46.076415]]]},"properties":{"LOCATION_TYPE":"level1","ADM0_A3":"SVN","LOCATION_ID":"SVN-092","NAME":"Podcetrtek","TYPE_EN":"Commune|Municipality"}},
{"type":"Feature","geometry":{"type":"Polygon","coordinates":[[[15.69288,46.041636],[15.667757,46.02639],[15.58368,45.993989],[15.556498,45.908206],[15.51526,45.894047],[15.512883,45.866916],[15.549748,45.823693],[15.626054,45.820202],[15.666051,45.831674],[15.659436,45.888828],[15.67556,45.925157],[15.674216,45.993163],[15.69288,46.041636]]]},"properties":{"LOCATION_TYPE":"level1","ADM0_A3":"SVN","LOCATION_ID":"SVN-009","NAME":"Brežice","TYPE_EN":"Commune|Municipality"}},
{"type":"Feature","geometry":{"type":"Polygon","coordinates":[[[15.549748,45.823693],[15.512883,45.866916],[15.51526,45.894047],[15.556498,45.908206],[15.58368,45.993989],[15.559443,46.017114],[15.548436,46.044115],[15.492574,46.067679],[15.418418,46.063313],[15.424154,45.993989],[15.363021,45.934768],[15.361006,45.883737],[15.388136,45.87658],[15.401055,45.809917],[15.429755,45.775691],[15.451284,45.815137],[15.549748,45.823693]]]},"properties":{"LOCATION_TYPE":"level1","ADM0_A3":"SVN","LOCATION_ID":"SVN-054","NAME":"Krško","TYPE_EN":"Statistical Region"}},
{"type":"Feature","geometry":{"type":"Polygon","coordinates":[[[15.429755,45.775691],[15.401055,45.809917],[15.388136,45.87658],[15.361006,45.883737],[15.303748,45.864462],[15.271296,45.841879],[15.331031,45.752486],[15.429755,45.775691]]]},"properties":{"LOCATION_TYPE":"level1","ADM0_A3":"SVN","LOCATION_ID":"SVN-119","NAME":"Šentjernej","TYPE_EN":"Commune|Municipality"}},
{"type":"Feature","geometry":{"type":"Polygon","coordinates":[[[15.331031,45.752486],[15.271296,45.841879],[15.303748,45.864462],[15.288504,45.898517],[15.238584,45.924355],[15.209852,45.873815],[15.144843,45.873324],[15.10929,45.816868],[15.086036,45.806145],[15.058079,45.781082],[15.124069,45.706823],[15.102779,45.684421],[15.190784,45.684447],[15.228146,45.70274],[15.249913,45.713732],[15.331031,45.752486]]]},"properties":{"LOCATION_TYPE":"level1","ADM0_A3":"SVN","LOCATION_ID":"SVN-085","NAME":"Novo Mesto","TYPE_EN":"Commune|Municipality"}},
{"type":"Feature","geometry":{"type":"Polygon","coordinates":[[[15.249913,45.713732],[15.228146,45.70274],[15.284318,45.650134],[15.225045,45.608276],[15.282179,45.571494],[15.268556,45.601662],[15.297391,45.625692],[15.353099,45.640316],[15.249913,45.713732]]]},"properties":{"LOCATION_TYPE":"level1","ADM0_A3":"SVN","LOCATION_ID":"SVN-073","NAME":"Metlika","TYPE_EN":"Commune|Municipality"}},
{"type":"Feature","geometry":{"type":"Polygon","coordinates":[[[15.282179,45.571494],[15.225045,45.608276],[15.173989,45.617423],[15.133216,45.596339],[15.073633,45.601946],[15.083555,45.563576],[15.066128,45.473934],[15.139262,45.430045],[15.18422,45.4256],[15.314031,45.450509],[15.361367,45.482031],[15.311034,45.505906],[15.282179,45.571494]]]},"properties":{"LOCATION_TYPE":"level1","ADM0_A3":"SVN","LOCATION_ID":"SVN-017","NAME":"Crnomelj","TYPE_EN":"Commune|Municipality"}},
{"type":"Feature","geometry":{"type":"Polygon","coordinates":[[[15.066128,45.473934],[15.083555,45.563576],[15.073633,45.601946],[15.037615,45.631324],[14.971986,45.711577],[14.982063,45.766302],[14.926355,45.769196],[14.895763,45.745115],[14.813701,45.757672],[14.795872,45.7431],[14.822382,45.727855],[14.770706,45.641866],[14.731794,45.646982],[14.72368,45.596985],[14.739235,45.553576],[14.817111,45.501254],[14.870338,45.530296],[14.943874,45.525413],[14.977341,45.491728],[15.066128,45.473934]]]},"properties":{"LOCATION_TYPE":"level1","ADM0_A3":"SVN","LOCATION_ID":"SVN-048","NAME":"Kocevje","TYPE_EN":"Commune|Municipality"}},
{"type":"Feature","geometry":{"type":"Polygon","coordinates":[[[14.977341,45.491728],[14.943874,45.525413],[14.870338,45.530296],[14.817111,45.501254],[14.739235,45.553576],[14.72368,45.596985],[14.663675,45.570187],[14.668489,45.533966],[14.781144,45.493348],[14.797164,45.465185],[14.881603,45.469784],[14.922634,45.514949],[14.977341,45.491728]]]},"properties":{"LOCATION_TYPE":"level1","ADM0_A3":"SVN","LOCATION_ID":"SVN-165","NAME":"Kostel","TYPE_EN":"Commune|Municipality"}},
{"type":"Feature","geometry":{"type":"Polygon","coordinates":[[[14.663675,45.570187],[14.72368,45.596985],[14.731794,45.646982],[14.731174,45.667316],[14.646269,45.707495],[14.576144,45.735322],[14.53749,45.734418],[14.569095,45.664252],[14.593868,45.616183],[14.663675,45.570187]]]},"properties":{"LOCATION_TYPE":"level1","ADM0_A3":"SVN","LOCATION_ID":"SVN-066","NAME":"Loški Potok","TYPE_EN":"Commune|Municipality"}},
{"type":"Feature","geometry":{"type":"Polygon","coordinates":[[[14.569095,45.664252],[14.53749,45.734418],[14.478372,45.747854],[14.386182,45.707495],[14.426231,45.644036],[14.438943,45.580732],[14.491502,45.579165],[14.569095,45.664252]]]},"properties":{"LOCATION_TYPE":"level1","ADM0_A3":"SVN","LOCATION_ID":"SVN-065","NAME":"Loška dolina","TYPE_EN":"Commune|Municipality"}},
{"type":"Feature","geometry":{"type":"Polygon","coordinates":[[[14.491502,45.579165],[14.438943,45.580732],[14.426231,45.644036],[14.347269,45.6722],[14.1941,45.629515],[14.090592,45.624244],[14.089817,45.614089],[14.10563,45.565953],[14.087182,45.517997],[14.116747,45.472998],[14.218698,45.497172],[14.326805,45.4749],[14.372797,45.477845],[14.468915,45.525594],[14.491502,45.579165]]]},"properties":{"LOCATION_TYPE":"level1","ADM0_A3":"SVN","LOCATION_ID":"SVN-038","NAME":"Ilirska Bistrica","TYPE_EN":"Commune|Municipality"}},
{"type":"Feature","geometry":{"type":"Polygon","coordinates":[[[13.610929,45.538025],[13.622146,45.506758],[13.662763,45.50699],[13.675141,45.544745],[13.610929,45.538025]]]},"properties":{"LOCATION_TYPE":"level1","ADM0_A3":"SVN","LOCATION_ID":"SVN-040","NAME":"Izola","TYPE_EN":"Commune|Municipality"}},
{"type":"Feature","geometry":{"type":"Polygon","coordinates":[[[15.647138,46.594081],[15.720674,46.569302],[15.754677,46.573282],[15.770645,46.63426],[15.730596,46.673327],[15.691528,46.676402],[15.645743,46.642761],[15.647138,46.594081]]]},"properties":{"LOCATION_TYPE":"level1","ADM0_A3":"SVN","LOCATION_ID":"SVN-089","NAME":"Pesnica","TYPE_EN":"Commune|Municipality"}},
{"type":"Feature","geometry":{"type":"Polygon","coordinates":[[[15.731681,46.504759],[15.733076,46.503234],[15.781497,46.467732],[15.816275,46.497317],[15.809299,46.525326],[15.753747,46.546978],[15.731681,46.504759]]]},"properties":{"LOCATION_TYPE":"level1","ADM0_A3":"SVN","LOCATION_ID":"SVN-026","NAME":"Duplek","TYPE_EN":"Commune|Municipality"}},
{"type":"Feature","geometry":{"type":"Polygon","coordinates":[[[15.696489,46.512148],[15.709512,46.464968],[15.716953,46.460007],[15.733076,46.503234],[15.731681,46.504759],[15.696489,46.512148]]]},"properties":{"LOCATION_TYPE":"level1","ADM0_A3":"SVN","LOCATION_ID":"SVN-169","NAME":"Miklavž na Dravskem polju","TYPE_EN":"Commune|Municipality"}},
{"type":"Feature","geometry":{"type":"Polygon","coordinates":[[[15.696489,46.512148],[15.563784,46.509875],[15.539445,46.497421],[15.545801,46.48321],[15.658765,46.459852],[15.709512,46.464968],[15.696489,46.512148]]]},"properties":{"LOCATION_TYPE":"level1","ADM0_A3":"SVN","LOCATION_ID":"SVN-160","NAME":"Hoce-Slivnica","TYPE_EN":"Commune|Municipality"}},
{"type":"Feature","geometry":{"type":"Polygon","coordinates":[[[15.800152,46.646869],[15.770645,46.63426],[15.754677,46.573282],[15.753747,46.546978],[15.809299,46.525326],[15.816275,46.497317],[15.823407,46.49494],[15.854464,46.506309],[15.892136,46.54641],[15.924124,46.534369],[15.928465,46.541914],[15.955905,46.588216],[15.933271,46.596407],[15.898182,46.584289],[15.862836,46.610954],[15.800152,46.646869]]]},"properties":{"LOCATION_TYPE":"level1","ADM0_A3":"SVN","LOCATION_ID":"SVN-058","NAME":"Lenart","TYPE_EN":"Commune|Municipality"}},
{"type":"Feature","geometry":{"type":"Polygon","coordinates":[[[15.800152,46.646869],[15.862836,46.610954],[15.888106,46.645887],[15.888571,46.662785],[15.804338,46.69976],[15.800152,46.646869]]]},"properties":{"LOCATION_TYPE":"level1","ADM0_A3":"SVN","LOCATION_ID":"SVN-181","NAME":"Sveta Ana","TYPE_EN":"Commune|Municipality"}},
{"type":"Feature","geometry":{"type":"Polygon","coordinates":[[[15.443378,46.584702],[15.376044,46.588733],[15.322817,46.51065],[15.31212,46.49246],[15.315686,46.482176],[15.335064,46.477396],[15.408186,46.477706],[15.459656,46.550027],[15.443378,46.584702]]]},"properties":{"LOCATION_TYPE":"level1","ADM0_A3":"SVN","LOCATION_ID":"SVN-167","NAME":"Lovrenc na Pohorju","TYPE_EN":"Commune|Municipality"}},
{"type":"Feature","geometry":{"type":"Polygon","coordinates":[[[15.270365,46.572584],[15.19931,46.529202],[15.188768,46.517213],[15.195745,46.510908],[15.22272,46.496955],[15.31212,46.49246],[15.322817,46.51065],[15.320647,46.53747],[15.270365,46.572584]]]},"properties":{"LOCATION_TYPE":"level1","ADM0_A3":"SVN","LOCATION_ID":"SVN-177","NAME":"Ribnica na Pohorju","TYPE_EN":"Commune|Municipality"}},
{"type":"Feature","geometry":{"type":"Polygon","coordinates":[[[14.96563,46.489462],[14.956328,46.459852],[15.089291,46.426469],[15.123604,46.421999],[15.195745,46.510908],[15.188768,46.517213],[15.143293,46.533568],[15.103399,46.570026],[15.060249,46.541501],[15.010485,46.550441],[14.998496,46.505792],[14.96563,46.489462]]]},"properties":{"LOCATION_TYPE":"level1","ADM0_A3":"SVN","LOCATION_ID":"SVN-112","NAME":"Slovenj Gradec","TYPE_EN":"Statistical Region"}},
{"type":"Feature","geometry":{"type":"Polygon","coordinates":[[[15.183497,46.619454],[15.125775,46.601239],[15.103399,46.570026],[15.143293,46.533568],[15.188768,46.517213],[15.19931,46.529202],[15.175539,46.54256],[15.211558,46.601652],[15.183497,46.619454]]]},"properties":{"LOCATION_TYPE":"level1","ADM0_A3":"SVN","LOCATION_ID":"SVN-141","NAME":"Vuzenica","TYPE_EN":"Commune|Municipality"}},
{"type":"Feature","geometry":{"type":"Polygon","coordinates":[[[14.46721,46.291645],[14.544001,46.31198],[14.53594,46.360323],[14.440494,46.364715],[14.405457,46.351641],[14.382771,46.303531],[14.417239,46.288906],[14.46721,46.291645]]]},"properties":{"LOCATION_TYPE":"level1","ADM0_A3":"SVN","LOCATION_ID":"SVN-095","NAME":"Preddvor","TYPE_EN":"Commune|Municipality"}},
{"type":"Feature","geometry":{"type":"Polygon","coordinates":[[[14.417239,46.288906],[14.383081,46.224517],[14.406542,46.191754],[14.458684,46.193253],[14.462869,46.206146],[14.444524,46.223174],[14.46721,46.291645],[14.417239,46.288906]]]},"properties":{"LOCATION_TYPE":"level1","ADM0_A3":"SVN","LOCATION_ID":"SVN-117","NAME":"Šenčur","TYPE_EN":"Commune|Municipality"}},
{"type":"Feature","geometry":{"type":"Polygon","coordinates":[[[14.46721,46.291645],[14.444524,46.223174],[14.462869,46.206146],[14.500697,46.202865],[14.552528,46.243198],[14.569943,46.261466],[14.544001,46.31198],[14.46721,46.291645]]]},"properties":{"LOCATION_TYPE":"level1","ADM0_A3":"SVN","LOCATION_ID":"SVN-012","NAME":"Cerklje na Gorenjskem","TYPE_EN":"Commune|Municipality"}},
{"type":"Feature","geometry":{"type":"Polygon","coordinates":[[[14.544001,46.31198],[14.569943,46.261466],[14.552528,46.243198],[14.582655,46.198059],[14.590097,46.189119],[14.683063,46.19917],[14.748692,46.195992],[14.898915,46.208678],[14.910077,46.210539],[14.884911,46.240537],[14.854835,46.252862],[14.753033,46.254335],[14.705697,46.286917],[14.646734,46.333865],[14.639913,46.366369],[14.568703,46.368798],[14.53594,46.360323],[14.544001,46.31198]]]},"properties":{"LOCATION_TYPE":"level1","ADM0_A3":"SVN","LOCATION_ID":"SVN-043","NAME":"Kamnik","TYPE_EN":"Commune|Municipality"}},
{"type":"Feature","geometry":{"type":"Polygon","coordinates":[[[14.39383,46.160335],[14.337813,46.1346],[14.325048,46.098323],[14.408558,46.082872],[14.42065,46.117444],[14.469226,46.143463],[14.458684,46.193253],[14.406542,46.191754],[14.39383,46.160335]]]},"properties":{"LOCATION_TYPE":"level1","ADM0_A3":"SVN","LOCATION_ID":"SVN-071","NAME":"Medvode","TYPE_EN":"Commune|Municipality"}},
{"type":"Feature","geometry":{"type":"Polygon","coordinates":[[[14.406542,46.191754],[14.383081,46.224517],[14.417239,46.288906],[14.382771,46.303531],[14.405457,46.351641],[14.359517,46.350815],[14.326289,46.321359],[14.274612,46.274902],[14.179063,46.284152],[14.166505,46.28131],[14.248567,46.242966],[14.275852,46.210823],[14.365408,46.195579],[14.39383,46.160335],[14.406542,46.191754]]]},"properties":{"LOCATION_TYPE":"level1","ADM0_A3":"SVN","LOCATION_ID":"SVN-052","NAME":"Kranj","TYPE_EN":"Commune|Municipality"}},
{"type":"Feature","geometry":{"type":"Polygon","coordinates":[[[14.248567,46.242966],[14.230429,46.210668],[14.161958,46.179378],[14.222832,46.170826],[14.200457,46.141008],[14.211154,46.088143],[14.267326,46.106488],[14.325048,46.098323],[14.337813,46.1346],[14.39383,46.160335],[14.365408,46.195579],[14.275852,46.210823],[14.248567,46.242966]]]},"properties":{"LOCATION_TYPE":"level1","ADM0_A3":"SVN","LOCATION_ID":"SVN-122","NAME":"Škofja Loka","TYPE_EN":"Commune|Municipality"}},
{"type":"Feature","geometry":{"type":"Polygon","coordinates":[[[14.166505,46.28131],[14.110591,46.28131],[14.085321,46.243948],[13.997006,46.239297],[13.989255,46.194597],[13.98848,46.18067],[14.073694,46.158061],[14.161958,46.179378],[14.230429,46.210668],[14.248567,46.242966],[14.166505,46.28131]]]},"properties":{"LOCATION_TYPE":"level1","ADM0_A3":"SVN","LOCATION_ID":"SVN-146","NAME":"Železniki","TYPE_EN":"Commune|Municipality"}},
{"type":"Feature","geometry":{"type":"Polygon","coordinates":[[[14.179063,46.284152],[14.111108,46.306709],[14.043567,46.315235],[13.947087,46.359806],[13.84792,46.381226],[13.841719,46.382182],[13.764101,46.345078],[13.727359,46.30167],[13.736661,46.286116],[13.820893,46.241803],[13.894946,46.229995],[13.997006,46.239297],[14.085321,46.243948],[14.110591,46.28131],[14.166505,46.28131],[14.179063,46.284152]]]},"properties":{"LOCATION_TYPE":"level1","ADM0_A3":"SVN","LOCATION_ID":"SVN-004","NAME":"Bohinj","TYPE_EN":"Commune|Municipality"}},
{"type":"Feature","geometry":{"type":"Polygon","coordinates":[[[14.326289,46.321359],[14.267171,46.326139],[14.274612,46.274902],[14.326289,46.321359]]]},"properties":{"LOCATION_TYPE":"level1","ADM0_A3":"SVN","LOCATION_ID":"SVN-082","NAME":"Naklo","TYPE_EN":"Commune|Municipality"}},
{"type":"Feature","geometry":{"type":"Polygon","coordinates":[[[14.179063,46.284152],[14.274612,46.274902],[14.267171,46.326139],[14.248567,46.353347],[14.23818,46.425254],[14.190535,46.386936],[14.137463,46.372157],[14.152191,46.351848],[14.111108,46.306709],[14.179063,46.284152]]]},"properties":{"LOCATION_TYPE":"level1","ADM0_A3":"SVN","LOCATION_ID":"SVN-102","NAME":"Radovljica","TYPE_EN":"Statistical Region"}},
{"type":"Feature","geometry":{"type":"Polygon","coordinates":[[[14.956328,46.459852],[14.891732,46.423549],[14.902171,46.393913],[14.993535,46.394429],[14.999891,46.377221],[15.066605,46.351693],[15.089291,46.426469],[14.956328,46.459852]]]},"properties":{"LOCATION_TYPE":"level1","ADM0_A3":"SVN","LOCATION_ID":"SVN-126","NAME":"Šoštanj","TYPE_EN":"Commune|Municipality"}},
{"type":"Feature","geometry":{"type":"Polygon","coordinates":[[[14.891732,46.423549],[14.804089,46.425125],[14.80688,46.388487],[14.780783,46.338516],[14.866928,46.315545],[14.902171,46.393913],[14.891732,46.423549]]]},"properties":{"LOCATION_TYPE":"level1","ADM0_A3":"SVN","LOCATION_ID":"SVN-062","NAME":"Ljubno","TYPE_EN":"Commune|Municipality"}},
{"type":"Feature","geometry":{"type":"Polygon","coordinates":[[[14.804089,46.425125],[14.754583,46.421456],[14.726471,46.383422],[14.639913,46.366369],[14.646734,46.333865],[14.705697,46.286917],[14.780783,46.338516],[14.80688,46.388487],[14.804089,46.425125]]]},"properties":{"LOCATION_TYPE":"level1","ADM0_A3":"SVN","LOCATION_ID":"SVN-067","NAME":"Luce","TYPE_EN":"Commune|Municipality"}},
{"type":"Feature","geometry":{"type":"Polygon","coordinates":[[[14.898915,46.208678],[14.748692,46.195992],[14.683063,46.19917],[14.65154,46.161472],[14.683838,46.143954],[14.772101,46.168371],[14.828429,46.160284],[14.885686,46.177285],[14.898915,46.208678]]]},"properties":{"LOCATION_TYPE":"level1","ADM0_A3":"SVN","LOCATION_ID":"SVN-068","NAME":"Lukovica","TYPE_EN":"Commune|Municipality"}},
{"type":"Feature","geometry":{"type":"Polygon","coordinates":[[[15.862836,46.610954],[15.898182,46.584289],[15.933271,46.596407],[15.888106,46.645887],[15.862836,46.610954]]]},"properties":{"LOCATION_TYPE":"level1","ADM0_A3":"SVN","LOCATION_ID":"SVN-148","NAME":"Benedikt","TYPE_EN":"Commune|Municipality"}},
{"type":"Feature","geometry":{"type":"Polygon","coordinates":[[[15.370928,46.135737],[15.363331,46.181316],[15.301423,46.188912],[15.216364,46.19824],[15.113321,46.183383],[15.188458,46.116204],[15.163447,46.092484],[15.201946,46.060755],[15.203496,46.083699],[15.268815,46.079642],[15.292121,46.059049],[15.368447,46.072124],[15.38271,46.108194],[15.370928,46.135737]]]},"properties":{"LOCATION_TYPE":"level1","ADM0_A3":"SVN","LOCATION_ID":"SVN-057","NAME":"Laško","TYPE_EN":"Commune|Municipality"}},
{"type":"Feature","geometry":{"type":"Polygon","coordinates":[[[15.38271,46.108194],[15.420124,46.12566],[15.411752,46.152067],[15.370928,46.135737],[15.38271,46.108194]]]},"properties":{"LOCATION_TYPE":"level1","ADM0_A3":"SVN","LOCATION_ID":"SVN-154","NAME":"Dobje","TYPE_EN":"Commune|Municipality"}},
{"type":"Feature","geometry":{"type":"Polygon","coordinates":[[[15.563784,46.509875],[15.560374,46.562119],[15.482807,46.534498],[15.459656,46.550027],[15.408186,46.477706],[15.500481,46.499281],[15.539445,46.497421],[15.563784,46.509875]]]},"properties":{"LOCATION_TYPE":"level1","ADM0_A3":"SVN","LOCATION_ID":"SVN-108","NAME":"Ruše","TYPE_EN":"Commune|Municipality"}},
{"type":"Feature","geometry":{"type":"Polygon","coordinates":[[[14.469226,46.143463],[14.513926,46.145556],[14.5378,46.174184],[14.500697,46.202865],[14.462869,46.206146],[14.458684,46.193253],[14.469226,46.143463]]]},"properties":{"LOCATION_TYPE":"level1","ADM0_A3":"SVN","LOCATION_ID":"SVN-138","NAME":"Vodice","TYPE_EN":"Commune|Municipality"}},
{"type":"Feature","geometry":{"type":"Polygon","coordinates":[[[14.5378,46.174184],[14.582655,46.198059],[14.552528,46.243198],[14.500697,46.202865],[14.5378,46.174184]]]},"properties":{"LOCATION_TYPE":"level1","ADM0_A3":"SVN","LOCATION_ID":"SVN-164","NAME":"Komenda","TYPE_EN":"Commune|Municipality"}},
{"type":"Feature","geometry":{"type":"Polygon","coordinates":[[[14.513926,46.145556],[14.520592,46.132378],[14.589787,46.147674],[14.590097,46.189119],[14.582655,46.198059],[14.5378,46.174184],[14.513926,46.145556]]]},"properties":{"LOCATION_TYPE":"level1","ADM0_A3":"SVN","LOCATION_ID":"SVN-072","NAME":"Mengeš","TYPE_EN":"Commune|Municipality"}},
{"type":"Feature","geometry":{"type":"Polygon","coordinates":[[[14.244071,46.02024],[14.19038,46.024685],[14.238956,45.944379],[14.299159,45.885727],[14.37626,45.87149],[14.33373,45.943294],[14.365563,45.965463],[14.385251,46.032229],[14.341998,46.014013],[14.245467,46.001482],[14.244071,46.02024]]]},"properties":{"LOCATION_TYPE":"level1","ADM0_A3":"SVN","LOCATION_ID":"SVN-140","NAME":"Vrhnika","TYPE_EN":"Commune|Municipality"}},
{"type":"Feature","geometry":{"type":"Polygon","coordinates":[[[14.244071,46.02024],[14.245467,46.001482],[14.341998,46.014013],[14.323188,46.042668],[14.252598,46.039722],[14.244071,46.02024]]]},"properties":{"LOCATION_TYPE":"level1","ADM0_A3":"SVN","LOCATION_ID":"SVN-162","NAME":"Horjul","TYPE_EN":"Commune|Municipality"}},
{"type":"Feature","geometry":{"type":"Polygon","coordinates":[[[15.928465,46.541914],[15.986652,46.546668],[15.978281,46.585968],[15.955905,46.588216],[15.928465,46.541914]]]},"properties":{"LOCATION_TYPE":"level1","ADM0_A3":"SVN","LOCATION_ID":"SVN-153","NAME":"Cerkvenjak","TYPE_EN":"Commune|Municipality"}},
{"type":"Feature","geometry":{"type":"Polygon","coordinates":[[[14.520592,46.132378],[14.569323,46.10778],[14.589787,46.147674],[14.520592,46.132378]]]},"properties":{"LOCATION_TYPE":"level1","ADM0_A3":"SVN","LOCATION_ID":"SVN-186","NAME":"Trzin","TYPE_EN":"Commune|Municipality"}},
{"type":"Feature","geometry":{"type":"Polygon","coordinates":[[[16.136411,46.829442],[16.112019,46.767378],[16.063599,46.764174],[16.055537,46.755958],[16.053367,46.71981],[16.108299,46.69038],[16.178734,46.697563],[16.210566,46.745002],[16.197854,46.79363],[16.136411,46.829442]]]},"properties":{"LOCATION_TYPE":"level1","ADM0_A3":"SVN","LOCATION_ID":"SVN-097","NAME":"Puconci","TYPE_EN":"Commune|Municipality"}},
{"type":"Feature","geometry":{"type":"Polygon","coordinates":[[[16.136411,46.829442],[16.125197,46.833007],[16.056002,46.816057],[16.063599,46.764174],[16.112019,46.767378],[16.136411,46.829442]]]},"properties":{"LOCATION_TYPE":"level1","ADM0_A3":"SVN","LOCATION_ID":"SVN-158","NAME":"Grad","TYPE_EN":"Commune|Municipality"}},
{"type":"Feature","geometry":{"type":"Polygon","coordinates":[[[16.178734,46.697563],[16.108299,46.69038],[16.110314,46.623873],[16.160802,46.605889],[16.240797,46.653587],[16.20359,46.663483],[16.178734,46.697563]]]},"properties":{"LOCATION_TYPE":"level1","ADM0_A3":"SVN","LOCATION_ID":"SVN-080","NAME":"Murska Sobota","TYPE_EN":"Statistical Region"}},
{"type":"Feature","geometry":{"type":"Polygon","coordinates":[[[15.924124,46.534369],[15.92862,46.504087],[15.947223,46.487163],[16.007426,46.524396],[15.986652,46.546668],[15.928465,46.541914],[15.924124,46.534369]]]},"properties":{"LOCATION_TYPE":"level1","ADM0_A3":"SVN","LOCATION_ID":"SVN-182","NAME":"Sveti Andraž v Slovenskih Goricah","TYPE_EN":"Commune|Municipality"}},
{"type":"Feature","geometry":{"type":"Polygon","coordinates":[[[14.428866,46.029025],[14.385251,46.032229],[14.365563,45.965463],[14.414759,45.922624],[14.417549,45.870895],[14.490155,45.880869],[14.4669,45.905984],[14.445144,45.974093],[14.457754,46.005358],[14.428866,46.029025]]]},"properties":{"LOCATION_TYPE":"level1","ADM0_A3":"SVN","LOCATION_ID":"SVN-008","NAME":"Brezovica","TYPE_EN":"Commune|Municipality"}},
{"type":"Feature","geometry":{"type":"Polygon","coordinates":[[[14.428866,46.029025],[14.408558,46.082872],[14.325048,46.098323],[14.267326,46.106488],[14.211154,46.088143],[14.186814,46.037914],[14.19038,46.024685],[14.244071,46.02024],[14.252598,46.039722],[14.323188,46.042668],[14.341998,46.014013],[14.385251,46.032229],[14.428866,46.029025]]]},"properties":{"LOCATION_TYPE":"level1","ADM0_A3":"SVN","LOCATION_ID":"SVN-021","NAME":"Dobrova-Polhov Gradec","TYPE_EN":"Commune|Municipality"}},
{"type":"Feature","geometry":{"type":"Polygon","coordinates":[[[14.211154,46.088143],[14.200457,46.141008],[14.222832,46.170826],[14.161958,46.179378],[14.073694,46.158061],[14.027754,46.101631],[14.030079,46.073157],[14.050233,46.085094],[14.129867,46.073157],[14.186814,46.037914],[14.211154,46.088143]]]},"properties":{"LOCATION_TYPE":"level1","ADM0_A3":"SVN","LOCATION_ID":"SVN-027","NAME":"Gorenja vas-Poljane","TYPE_EN":"Commune|Municipality"}},
{"type":"Feature","geometry":{"type":"Polygon","coordinates":[[[14.186814,46.037914],[14.138703,46.005771],[14.108576,45.969287],[14.100669,45.913968],[14.120875,45.87875],[14.125991,45.868803],[14.179063,45.875495],[14.276473,45.846117],[14.299159,45.885727],[14.238956,45.944379],[14.19038,46.024685],[14.186814,46.037914]]]},"properties":{"LOCATION_TYPE":"level1","ADM0_A3":"SVN","LOCATION_ID":"SVN-064","NAME":"Logatec","TYPE_EN":"Commune|Municipality"}},
{"type":"Feature","geometry":{"type":"Polygon","coordinates":[[[15.924124,46.534369],[15.892136,46.54641],[15.854464,46.506309],[15.92862,46.504087],[15.924124,46.534369]]]},"properties":{"LOCATION_TYPE":"level1","ADM0_A3":"SVN","LOCATION_ID":"SVN-185","NAME":"Trnovska vas","TYPE_EN":"Commune|Municipality"}},
{"type":"Feature","geometry":{"type":"Polygon","coordinates":[[[15.823407,46.49494],[15.900508,46.453728],[15.944278,46.480522],[15.947223,46.487163],[15.92862,46.504087],[15.854464,46.506309],[15.823407,46.49494]]]},"properties":{"LOCATION_TYPE":"level1","ADM0_A3":"SVN","LOCATION_ID":"SVN-018","NAME":"Destrnik","TYPE_EN":"Commune|Municipality"}},
{"type":"Feature","geometry":{"type":"Polygon","coordinates":[[[15.709512,46.464968],[15.658765,46.459852],[15.545801,46.48321],[15.557118,46.468688],[15.687498,46.408615],[15.734471,46.428329],[15.716953,46.460007],[15.709512,46.464968]]]},"properties":{"LOCATION_TYPE":"level1","ADM0_A3":"SVN","LOCATION_ID":"SVN-098","NAME":"Race-Fram","TYPE_EN":"Commune|Municipality"}},
{"type":"Feature","geometry":{"type":"Polygon","coordinates":[[[15.733076,46.503234],[15.716953,46.460007],[15.734471,46.428329],[15.800462,46.431585],[15.818601,46.454788],[15.781497,46.467732],[15.733076,46.503234]]]},"properties":{"LOCATION_TYPE":"level1","ADM0_A3":"SVN","LOCATION_ID":"SVN-115","NAME":"Starše","TYPE_EN":"Statistical Region"}},
{"type":"Feature","geometry":{"type":"Polygon","coordinates":[[[14.910077,46.210539],[14.970745,46.197775],[15.009968,46.257978],[14.97028,46.283842],[14.90031,46.263275],[14.884911,46.240537],[14.910077,46.210539]]]},"properties":{"LOCATION_TYPE":"level1","ADM0_A3":"SVN","LOCATION_ID":"SVN-189","NAME":"Vransko","TYPE_EN":"Commune|Municipality"}},
{"type":"Feature","geometry":{"type":"Polygon","coordinates":[[[15.123604,46.421999],[15.089291,46.426469],[15.066605,46.351693],[15.122829,46.316966],[15.146084,46.335803],[15.19652,46.327663],[15.190319,46.388435],[15.123604,46.421999]]]},"properties":{"LOCATION_TYPE":"level1","ADM0_A3":"SVN","LOCATION_ID":"SVN-133","NAME":"Velenje","TYPE_EN":"Commune|Municipality"}},
{"type":"Feature","geometry":{"type":"Polygon","coordinates":[[[15.066605,46.351693],[15.051257,46.307251],[15.095027,46.257668],[15.104019,46.255006],[15.122829,46.316966],[15.066605,46.351693]]]},"properties":{"LOCATION_TYPE":"level1","ADM0_A3":"SVN","LOCATION_ID":"SVN-173","NAME":"Polzela","TYPE_EN":"Commune|Municipality"}},
{"type":"Feature","geometry":{"type":"Polygon","coordinates":[[[14.999891,46.377221],[15.008418,46.337198],[15.051257,46.307251],[15.066605,46.351693],[14.999891,46.377221]]]},"properties":{"LOCATION_TYPE":"level1","ADM0_A3":"SVN","LOCATION_ID":"SVN-125","NAME":"Šmartno ob Paki","TYPE_EN":"Commune|Municipality"}},
{"type":"Feature","geometry":{"type":"Polygon","coordinates":[[[14.866928,46.315545],[14.877004,46.300998],[14.947749,46.323633],[14.97059,46.302936],[15.008418,46.337198],[14.999891,46.377221],[14.993535,46.394429],[14.902171,46.393913],[14.866928,46.315545]]]},"properties":{"LOCATION_TYPE":"level1","ADM0_A3":"SVN","LOCATION_ID":"SVN-079","NAME":"Mozirje","TYPE_EN":"Commune|Municipality"}},
{"type":"Feature","geometry":{"type":"Polygon","coordinates":[[[15.331189,46.365206],[15.35837,46.397633],[15.324832,46.451248],[15.281062,46.446726],[15.232487,46.392517],[15.26773,46.365026],[15.331189,46.365206]]]},"properties":{"LOCATION_TYPE":"level1","ADM0_A3":"SVN","LOCATION_ID":"SVN-137","NAME":"Vitanje","TYPE_EN":"Commune|Municipality"}},
{"type":"Feature","geometry":{"type":"Polygon","coordinates":[[[15.26773,46.365026],[15.240135,46.320532],[15.291811,46.280173],[15.358525,46.260536],[15.376509,46.311334],[15.368757,46.333968],[15.331189,46.365206],[15.26773,46.365026]]]},"properties":{"LOCATION_TYPE":"level1","ADM0_A3":"SVN","LOCATION_ID":"SVN-139","NAME":"Vojnik","TYPE_EN":"Commune|Municipality"}},
{"type":"Feature","geometry":{"type":"Polygon","coordinates":[[[15.331189,46.365206],[15.368757,46.333968],[15.42524,46.371253],[15.422759,46.424608],[15.352479,46.452565],[15.335064,46.477396],[15.315686,46.482176],[15.324832,46.451248],[15.35837,46.397633],[15.331189,46.365206]]]},"properties":{"LOCATION_TYPE":"level1","ADM0_A3":"SVN","LOCATION_ID":"SVN-144","NAME":"Zrece","TYPE_EN":"Commune|Municipality"}},
{"type":"Feature","geometry":{"type":"Polygon","coordinates":[[[15.31212,46.49246],[15.22272,46.496955],[15.195745,46.510908],[15.123604,46.421999],[15.190319,46.388435],[15.232487,46.392517],[15.281062,46.446726],[15.324832,46.451248],[15.315686,46.482176],[15.31212,46.49246]]]},"properties":{"LOCATION_TYPE":"level1","ADM0_A3":"SVN","LOCATION_ID":"SVN-076","NAME":"Mislinja","TYPE_EN":"Commune|Municipality"}},
{"type":"Feature","geometry":{"type":"Polygon","coordinates":[[[14.834785,46.136977],[14.88181,46.129226],[14.911318,46.092872],[14.999891,46.119097],[15.027073,46.140181],[14.99276,46.173254],[14.999891,46.198989],[14.970745,46.197775],[14.910077,46.210539],[14.898915,46.208678],[14.885686,46.177285],[14.828429,46.160284],[14.834785,46.136977]]]},"properties":{"LOCATION_TYPE":"level1","ADM0_A3":"SVN","LOCATION_ID":"SVN-05","NAME":"Zasavska","TYPE_EN":"Statistical Region"}},
{"type":"Feature","geometry":{"type":"Polygon","coordinates":[[[14.834785,46.136977],[14.753963,46.100184],[14.712363,46.079307],[14.736134,46.065612],[14.805806,46.059691],[14.865674,46.070038],[14.93589,46.0183],[14.954467,45.975075],[15.024127,45.970218],[15.04056,46.000552],[15.116111,46.004195],[15.094097,46.040291],[15.071463,46.064708],[15.002371,46.056362],[14.999891,46.119097],[14.911318,46.092872],[14.88181,46.129226],[14.834785,46.136977]]]},"properties":{"LOCATION_TYPE":"level1","ADM0_A3":"SVN","LOCATION_ID":"SVN-060","NAME":"Litija","TYPE_EN":"Commune|Municipality"}},
{"type":"Feature","geometry":{"type":"Polygon","coordinates":[[[14.866928,46.315545],[14.780783,46.338516],[14.705697,46.286917],[14.753033,46.254335],[14.854835,46.252862],[14.877004,46.300998],[14.866928,46.315545]]]},"properties":{"LOCATION_TYPE":"level1","ADM0_A3":"SVN","LOCATION_ID":"SVN-030","NAME":"Gornji Grad","TYPE_EN":"Commune|Municipality"}},
{"type":"Feature","geometry":{"type":"Polygon","coordinates":[[[14.490155,45.880869],[14.417549,45.870895],[14.37626,45.87149],[14.299159,45.885727],[14.276473,45.846117],[14.269496,45.776328],[14.323188,45.754107],[14.386182,45.707495],[14.478372,45.747854],[14.442199,45.800486],[14.505089,45.840768],[14.490155,45.880869]]]},"properties":{"LOCATION_TYPE":"level1","ADM0_A3":"SVN","LOCATION_ID":"SVN-013","NAME":"Cerknica","TYPE_EN":"Commune|Municipality"}},
{"type":"Feature","geometry":{"type":"Polygon","coordinates":[[[14.505089,45.840768],[14.564207,45.790074],[14.586996,45.793433],[14.687714,45.817979],[14.638828,45.849346],[14.640223,45.874771],[14.600949,45.908878],[14.585291,45.896269],[14.554854,45.867847],[14.490155,45.880869],[14.505089,45.840768]]]},"properties":{"LOCATION_TYPE":"level1","ADM0_A3":"SVN","LOCATION_ID":"SVN-134","NAME":"Velike Lašče","TYPE_EN":"Commune|Municipality"}},
{"type":"Feature","geometry":{"type":"Polygon","coordinates":[[[14.37626,45.87149],[14.417549,45.870895],[14.414759,45.922624],[14.365563,45.965463],[14.33373,45.943294],[14.37626,45.87149]]]},"properties":{"LOCATION_TYPE":"level1","ADM0_A3":"SVN","LOCATION_ID":"SVN-005","NAME":"Borovnica","TYPE_EN":"Commune|Municipality"}},
{"type":"Feature","geometry":{"type":"Polygon","coordinates":[[[14.276473,45.846117],[14.179063,45.875495],[14.125991,45.868803],[14.046047,45.836944],[14.058656,45.808625],[14.037211,45.761006],[14.093383,45.71429],[14.133897,45.703619],[14.256474,45.726744],[14.323188,45.754107],[14.269496,45.776328],[14.276473,45.846117]]]},"properties":{"LOCATION_TYPE":"level1","ADM0_A3":"SVN","LOCATION_ID":"SVN-094","NAME":"Postojna","TYPE_EN":"Commune|Municipality"}},
{"type":"Feature","geometry":{"type":"Polygon","coordinates":[[[14.323188,45.754107],[14.256474,45.726744],[14.133897,45.703619],[14.093383,45.71429],[14.062532,45.686462],[14.090592,45.624244],[14.1941,45.629515],[14.347269,45.6722],[14.426231,45.644036],[14.386182,45.707495],[14.323188,45.754107]]]},"properties":{"LOCATION_TYPE":"level1","ADM0_A3":"SVN","LOCATION_ID":"SVN-091","NAME":"Pivka","TYPE_EN":"Statistical Region"}},
{"type":"Feature","geometry":{"type":"Polygon","coordinates":[[[15.26773,46.365026],[15.232487,46.392517],[15.190319,46.388435],[15.19652,46.327663],[15.22613,46.31738],[15.240135,46.320532],[15.26773,46.365026]]]},"properties":{"LOCATION_TYPE":"level1","ADM0_A3":"SVN","LOCATION_ID":"SVN-155","NAME":"Dobrna","TYPE_EN":"Commune|Municipality"}},
{"type":"Feature","geometry":{"type":"Polygon","coordinates":[[[15.22613,46.31738],[15.216364,46.19824],[15.301423,46.188912],[15.339405,46.229039],[15.358525,46.260536],[15.291811,46.280173],[15.240135,46.320532],[15.22613,46.31738]]]},"properties":{"LOCATION_TYPE":"level1","ADM0_A3":"SVN","LOCATION_ID":"SVN-011","NAME":"Celje","TYPE_EN":"Commune|Municipality"}},
{"type":"Feature","geometry":{"type":"Polygon","coordinates":[[[14.884911,46.240537],[14.90031,46.263275],[14.97028,46.283842],[14.97059,46.302936],[14.947749,46.323633],[14.877004,46.300998],[14.854835,46.252862],[14.884911,46.240537]]]},"properties":{"LOCATION_TYPE":"level1","ADM0_A3":"SVN","LOCATION_ID":"SVN-083","NAME":"Nazarje","TYPE_EN":"Commune|Municipality"}},
{"type":"Feature","geometry":{"type":"Polygon","coordinates":[[[14.589787,46.147674],[14.569323,46.10778],[14.594283,46.096618],[14.687249,46.117289],[14.683838,46.143954],[14.65154,46.161472],[14.683063,46.19917],[14.590097,46.189119],[14.589787,46.147674]]]},"properties":{"LOCATION_TYPE":"level1","ADM0_A3":"SVN","LOCATION_ID":"SVN-023","NAME":"Domžale","TYPE_EN":"Commune|Municipality"}},
{"type":"Feature","geometry":{"type":"Polygon","coordinates":[[[14.740165,45.998149],[14.717479,45.965748],[14.751792,45.883298],[14.758769,45.837357],[14.804554,45.797515],[14.855765,45.807824],[14.850494,45.853687],[14.877159,45.869552],[14.888787,45.94133],[14.927286,45.962983],[14.87747,46.002102],[14.749622,46.002955],[14.740165,45.998149]]]},"properties":{"LOCATION_TYPE":"level1","ADM0_A3":"SVN","LOCATION_ID":"SVN-039","NAME":"Ivancna Gorica","TYPE_EN":"Commune|Municipality"}},
{"type":"Feature","geometry":{"type":"Polygon","coordinates":[[[14.749622,46.002955],[14.736134,46.065612],[14.712363,46.079307],[14.633092,46.076878],[14.594283,46.096618],[14.569323,46.10778],[14.520592,46.132378],[14.513926,46.145556],[14.469226,46.143463],[14.42065,46.117444],[14.408558,46.082872],[14.428866,46.029025],[14.457754,46.005358],[14.445144,45.974093],[14.480543,45.991896],[14.533304,45.990216],[14.586996,46.015409],[14.616193,45.996676],[14.660687,45.989803],[14.709728,46.011145],[14.740165,45.998149],[14.749622,46.002955]]]},"properties":{"LOCATION_TYPE":"level1","ADM0_A3":"SVN","LOCATION_ID":"SVN-061","NAME":"Ljubljana","TYPE_EN":"Statistical Region"}},
{"type":"Feature","geometry":{"type":"Polygon","coordinates":[[[14.749622,46.002955],[14.87747,46.002102],[14.927286,45.962983],[14.954467,45.975075],[14.93589,46.0183],[14.865674,46.070038],[14.805806,46.059691],[14.736134,46.065612],[14.749622,46.002955]]]},"properties":{"LOCATION_TYPE":"level1","ADM0_A3":"SVN","LOCATION_ID":"SVN-194","NAME":"Šmartno in Litiji","TYPE_EN":"Commune|Municipality"}},
{"type":"Feature","geometry":{"type":"Polygon","coordinates":[[[14.533304,45.990216],[14.480543,45.991896],[14.445144,45.974093],[14.4669,45.905984],[14.490155,45.880869],[14.554854,45.867847],[14.585291,45.896269],[14.556869,45.921125],[14.554078,45.972388],[14.533304,45.990216]]]},"properties":{"LOCATION_TYPE":"level1","ADM0_A3":"SVN","LOCATION_ID":"SVN-037","NAME":"Ig","TYPE_EN":"Commune|Municipality"}},
{"type":"Feature","geometry":{"type":"Polygon","coordinates":[[[14.753963,46.100184],[14.687249,46.117289],[14.594283,46.096618],[14.633092,46.076878],[14.712363,46.079307],[14.753963,46.100184]]]},"properties":{"LOCATION_TYPE":"level1","ADM0_A3":"SVN","LOCATION_ID":"SVN-022","NAME":"Dol pri Ljubljani","TYPE_EN":"Commune|Municipality"}},
{"type":"Feature","geometry":{"type":"Polygon","coordinates":[[[15.095027,46.257668],[15.051102,46.226093],[15.045056,46.193305],[15.110995,46.18731],[15.137712,46.235989],[15.104019,46.255006],[15.095027,46.257668]]]},"properties":{"LOCATION_TYPE":"level1","ADM0_A3":"SVN","LOCATION_ID":"SVN-174","NAME":"Prebold","TYPE_EN":"Commune|Municipality"}},
{"type":"Feature","geometry":{"type":"Polygon","coordinates":[[[14.834785,46.136977],[14.828429,46.160284],[14.772101,46.168371],[14.683838,46.143954],[14.687249,46.117289],[14.753963,46.100184],[14.834785,46.136977]]]},"properties":{"LOCATION_TYPE":"level1","ADM0_A3":"SVN","LOCATION_ID":"SVN-077","NAME":"Moravce","TYPE_EN":"Commune|Municipality"}},
{"type":"Feature","geometry":{"type":"Polygon","coordinates":[[[14.751792,45.883298],[14.671694,45.890119],[14.640223,45.874771],[14.638828,45.849346],[14.687714,45.817979],[14.795872,45.7431],[14.813701,45.757672],[14.804554,45.797515],[14.758769,45.837357],[14.751792,45.883298]]]},"properties":{"LOCATION_TYPE":"level1","ADM0_A3":"SVN","LOCATION_ID":"SVN-020","NAME":"Dobrepolje","TYPE_EN":"Commune|Municipality"}},
{"type":"Feature","geometry":{"type":"Polygon","coordinates":[[[15.094097,46.040291],[15.201946,46.060755],[15.163447,46.092484],[15.106344,46.093518],[15.071463,46.064708],[15.094097,46.040291]]]},"properties":{"LOCATION_TYPE":"level1","ADM0_A3":"SVN","LOCATION_ID":"SVN-099","NAME":"Radece","TYPE_EN":"Commune|Municipality"}},
{"type":"Feature","geometry":{"type":"Polygon","coordinates":[[[15.339405,46.229039],[15.301423,46.188912],[15.363331,46.181316],[15.339405,46.229039]]]},"properties":{"LOCATION_TYPE":"level1","ADM0_A3":"SVN","LOCATION_ID":"SVN-127","NAME":"Štore","TYPE_EN":"Commune|Municipality"}},
{"type":"Feature","geometry":{"type":"Polygon","coordinates":[[[15.376509,46.311334],[15.529988,46.276633],[15.552467,46.277744],[15.540995,46.344717],[15.502961,46.359548],[15.42524,46.371253],[15.368757,46.333968],[15.376509,46.311334]]]},"properties":{"LOCATION_TYPE":"level1","ADM0_A3":"SVN","LOCATION_ID":"SVN-114","NAME":"Slovenske Konjice","TYPE_EN":"Commune|Municipality"}},
{"type":"Feature","geometry":{"type":"Polygon","coordinates":[[[14.186814,46.037914],[14.129867,46.073157],[14.050233,46.085094],[14.030079,46.073157],[14.111211,46.012644],[14.138703,46.005771],[14.186814,46.037914]]]},"properties":{"LOCATION_TYPE":"level1","ADM0_A3":"SVN","LOCATION_ID":"SVN-147","NAME":"Žiri","TYPE_EN":"Commune|Municipality"}},
{"type":"Feature","geometry":{"type":"Polygon","coordinates":[[[15.42524,46.371253],[15.502961,46.359548],[15.490094,46.39492],[15.422759,46.424608],[15.42524,46.371253]]]},"properties":{"LOCATION_TYPE":"level1","ADM0_A3":"SVN","LOCATION_ID":"SVN-171","NAME":"Oplotnica","TYPE_EN":"Commune|Municipality"}},
{"type":"Feature","geometry":{"type":"Polygon","coordinates":[[[14.073694,46.158061],[13.98848,46.18067],[13.989255,46.194597],[13.923626,46.170722],[13.886212,46.140026],[13.894946,46.067654],[13.964605,46.086825],[14.030079,46.073157],[14.027754,46.101631],[14.073694,46.158061]]]},"properties":{"LOCATION_TYPE":"level1","ADM0_A3":"SVN","LOCATION_ID":"SVN-014","NAME":"Cerkno","TYPE_EN":"Commune|Municipality"}},
{"type":"Feature","geometry":{"type":"Polygon","coordinates":[[[13.84792,46.381226],[13.947087,46.359806],[14.043567,46.315235],[14.111108,46.306709],[14.152191,46.351848],[14.137463,46.372157],[14.127851,46.406832],[14.1016,46.403576],[13.992356,46.444814],[13.84792,46.381226]]]},"properties":{"LOCATION_TYPE":"level1","ADM0_A3":"SVN","LOCATION_ID":"SVN-003","NAME":"Bled","TYPE_EN":"Commune|Municipality"}},
{"type":"Feature","geometry":{"type":"Polygon","coordinates":[[[14.120875,45.87875],[14.042792,45.890171],[13.866679,45.984842],[13.852261,46.00205],[13.732785,45.905855],[13.833967,45.835497],[13.885902,45.82865],[13.956544,45.873686],[13.986775,45.877717],[14.046047,45.836944],[14.125991,45.868803],[14.120875,45.87875]]]},"properties":{"LOCATION_TYPE":"level1","ADM0_A3":"SVN","LOCATION_ID":"SVN-001","NAME":"Ajdovščina","TYPE_EN":"Commune|Municipality"}},
{"type":"Feature","geometry":{"type":"Polygon","coordinates":[[[14.037211,45.761006],[13.989875,45.76501],[13.955614,45.733281],[13.967861,45.705273],[13.936493,45.670391],[13.938354,45.642641],[14.059587,45.599594],[14.089817,45.614089],[14.090592,45.624244],[14.062532,45.686462],[14.093383,45.71429],[14.037211,45.761006]]]},"properties":{"LOCATION_TYPE":"level1","ADM0_A3":"SVN","LOCATION_ID":"SVN-019","NAME":"Divaca","TYPE_EN":"Commune|Municipality"}},
{"type":"Feature","geometry":{"type":"Polygon","coordinates":[[[14.138703,46.005771],[14.111211,46.012644],[14.030079,46.073157],[13.964605,46.086825],[13.894946,46.067654],[13.867454,46.064837],[13.865903,46.006985],[13.852261,46.00205],[13.866679,45.984842],[14.042792,45.890171],[14.120875,45.87875],[14.100669,45.913968],[14.108576,45.969287],[14.138703,46.005771]]]},"properties":{"LOCATION_TYPE":"level1","ADM0_A3":"SVN","LOCATION_ID":"SVN-036","NAME":"Idrija","TYPE_EN":"Commune|Municipality"}},
{"type":"Feature","geometry":{"type":"Polygon","coordinates":[[[14.046047,45.836944],[13.986775,45.877717],[13.956544,45.873686],[13.885902,45.82865],[13.902542,45.810227],[13.989875,45.76501],[14.037211,45.761006],[14.058656,45.808625],[14.046047,45.836944]]]},"properties":{"LOCATION_TYPE":"level1","ADM0_A3":"SVN","LOCATION_ID":"SVN-136","NAME":"Vipava","TYPE_EN":"Commune|Municipality"}},
{"type":"Feature","geometry":{"type":"Polygon","coordinates":[[[14.505089,45.840768],[14.442199,45.800486],[14.478372,45.747854],[14.53749,45.734418],[14.576144,45.735322],[14.564207,45.790074],[14.505089,45.840768]]]},"properties":{"LOCATION_TYPE":"level1","ADM0_A3":"SVN","LOCATION_ID":"SVN-150","NAME":"Bloke","TYPE_EN":"Commune|Municipality"}},
{"type":"Feature","geometry":{"type":"Polygon","coordinates":[[[15.363331,46.181316],[15.370928,46.135737],[15.411752,46.152067],[15.420124,46.12566],[15.38271,46.108194],[15.368447,46.072124],[15.418418,46.063313],[15.492574,46.067679],[15.476451,46.102225],[15.536034,46.130363],[15.545491,46.155168],[15.483582,46.165916],[15.447874,46.226093],[15.529988,46.276633],[15.376509,46.311334],[15.358525,46.260536],[15.339405,46.229039],[15.363331,46.181316]]]},"properties":{"LOCATION_TYPE":"level1","ADM0_A3":"SVN","LOCATION_ID":"SVN-120","NAME":"Šentjur pri Celju","TYPE_EN":"Commune|Municipality"}},
{"type":"Feature","geometry":{"type":"Polygon","coordinates":[[[15.536034,46.130363],[15.476451,46.102225],[15.492574,46.067679],[15.548436,46.044115],[15.559443,46.017114],[15.599338,46.022307],[15.58368,45.993989],[15.667757,46.02639],[15.619646,46.040859],[15.607554,46.065871],[15.58461,46.108581],[15.536034,46.130363]]]},"properties":{"LOCATION_TYPE":"level1","ADM0_A3":"SVN","LOCATION_ID":"SVN-051","NAME":"Kozje","TYPE_EN":"Commune|Municipality"}},
{"type":"Feature","geometry":{"type":"Polygon","coordinates":[[[15.529988,46.276633],[15.447874,46.226093],[15.483582,46.165916],[15.545491,46.155168],[15.61329,46.20426],[15.5658,46.273662],[15.552467,46.277744],[15.529988,46.276633]]]},"properties":{"LOCATION_TYPE":"level1","ADM0_A3":"SVN","LOCATION_ID":"SVN-124","NAME":"Šmarje pri Jelšah","TYPE_EN":"Commune|Municipality"}},
{"type":"Feature","geometry":{"type":"Polygon","coordinates":[[[15.368447,46.072124],[15.292121,46.059049],[15.268815,46.079642],[15.203496,46.083699],[15.201946,46.060755],[15.094097,46.040291],[15.116111,46.004195],[15.180707,45.951356],[15.238584,45.924355],[15.317081,45.957143],[15.363021,45.934768],[15.424154,45.993989],[15.418418,46.063313],[15.368447,46.072124]]]},"properties":{"LOCATION_TYPE":"level1","ADM0_A3":"SVN","LOCATION_ID":"SVN-110","NAME":"Sevnica","TYPE_EN":"Commune|Municipality"}},
{"type":"Feature","geometry":{"type":"Polygon","coordinates":[[[15.144843,45.873324],[15.102004,45.894796],[15.03777,45.860974],[15.037305,45.840871],[15.086036,45.806145],[15.10929,45.816868],[15.144843,45.873324]]]},"properties":{"LOCATION_TYPE":"level1","ADM0_A3":"SVN","LOCATION_ID":"SVN-170","NAME":"Mirna Pec","TYPE_EN":"Commune|Municipality"}},
{"type":"Feature","geometry":{"type":"Polygon","coordinates":[[[15.144843,45.873324],[15.209852,45.873815],[15.238584,45.924355],[15.180707,45.951356],[15.116111,46.004195],[15.04056,46.000552],[15.024127,45.970218],[14.954467,45.975075],[14.927286,45.962983],[14.888787,45.94133],[14.877159,45.869552],[14.929456,45.870585],[14.958963,45.848055],[15.037305,45.840871],[15.03777,45.860974],[15.102004,45.894796],[15.144843,45.873324]]]},"properties":{"LOCATION_TYPE":"level1","ADM0_A3":"SVN","LOCATION_ID":"SVN-130","NAME":"Trebnje","TYPE_EN":"Commune|Municipality"}},
{"type":"Feature","geometry":{"type":"Polygon","coordinates":[[[15.037305,45.840871],[14.958963,45.848055],[14.929456,45.870585],[14.877159,45.869552],[14.850494,45.853687],[14.855765,45.807824],[14.804554,45.797515],[14.813701,45.757672],[14.895763,45.745115],[14.926355,45.769196],[14.982063,45.766302],[15.058079,45.781082],[15.086036,45.806145],[15.037305,45.840871]]]},"properties":{"LOCATION_TYPE":"level1","ADM0_A3":"SVN","LOCATION_ID":"SVN-193","NAME":"Žužemberk","TYPE_EN":"Commune|Municipality"}},
{"type":"Feature","geometry":{"type":"Polygon","coordinates":[[[16.347871,46.615346],[16.314384,46.645138],[16.2979,46.647851],[16.300535,46.597337],[16.328492,46.583824],[16.378463,46.599792],[16.347871,46.615346]]]},"properties":{"LOCATION_TYPE":"level1","ADM0_A3":"SVN","LOCATION_ID":"SVN-132","NAME":"Turnišče","TYPE_EN":"Commune|Municipality"}},
{"type":"Feature","geometry":{"type":"Polygon","coordinates":[[[16.013628,46.593694],[16.079308,46.593151],[16.110314,46.623873],[16.04174,46.662733],[16.007736,46.632839],[16.013628,46.593694]]]},"properties":{"LOCATION_TYPE":"level1","ADM0_A3":"SVN","LOCATION_ID":"SVN-100","NAME":"Radenci","TYPE_EN":"Commune|Municipality"}},
{"type":"Feature","geometry":{"type":"Polygon","coordinates":[[[15.978281,46.585968],[15.986652,46.546668],[16.007426,46.524396],[16.020345,46.511296],[16.077758,46.541862],[16.079308,46.593151],[16.013628,46.593694],[15.978281,46.585968]]]},"properties":{"LOCATION_TYPE":"level1","ADM0_A3":"SVN","LOCATION_ID":"SVN-116","NAME":"Sveti Jurij","TYPE_EN":"Commune|Municipality"}},
{"type":"Feature","geometry":{"type":"Polygon","coordinates":[[[16.378463,46.599792],[16.328492,46.583824],[16.334538,46.556487],[16.397532,46.578191],[16.378463,46.599792]]]},"properties":{"LOCATION_TYPE":"level1","ADM0_A3":"SVN","LOCATION_ID":"SVN-187","NAME":"Velika Polana","TYPE_EN":"Commune|Municipality"}},
{"type":"Feature","geometry":{"type":"Polygon","coordinates":[[[16.160802,46.605889],[16.216768,46.584134],[16.247515,46.553851],[16.265964,46.569147],[16.274025,46.598448],[16.300535,46.597337],[16.2979,46.647851],[16.240797,46.653587],[16.160802,46.605889]]]},"properties":{"LOCATION_TYPE":"level1","ADM0_A3":"SVN","LOCATION_ID":"SVN-002","NAME":"Beltinci","TYPE_EN":"Commune|Municipality"}},
{"type":"Feature","geometry":{"type":"Polygon","coordinates":[[[16.160802,46.605889],[16.176718,46.560052],[16.216768,46.584134],[16.160802,46.605889]]]},"properties":{"LOCATION_TYPE":"level1","ADM0_A3":"SVN","LOCATION_ID":"SVN-188","NAME":"Veržej","TYPE_EN":"Commune|Municipality"}},
{"type":"Feature","geometry":{"type":"Polygon","coordinates":[[[16.300535,46.597337],[16.274025,46.598448],[16.265964,46.569147],[16.300535,46.597337]]]},"properties":{"LOCATION_TYPE":"level1","ADM0_A3":"SVN","LOCATION_ID":"SVN-086","NAME":"Odranci","TYPE_EN":"Commune|Municipality"}},
{"type":"Feature","geometry":{"type":"Polygon","coordinates":[[[14.740165,45.998149],[14.709728,46.011145],[14.660687,45.989803],[14.616193,45.996676],[14.591027,45.980139],[14.600949,45.908878],[14.640223,45.874771],[14.671694,45.890119],[14.751792,45.883298],[14.717479,45.965748],[14.740165,45.998149]]]},"properties":{"LOCATION_TYPE":"level1","ADM0_A3":"SVN","LOCATION_ID":"SVN-032","NAME":"Grosuplje","TYPE_EN":"Commune|Municipality"}},
{"type":"Feature","geometry":{"type":"Polygon","coordinates":[[[14.600949,45.908878],[14.591027,45.980139],[14.616193,45.996676],[14.586996,46.015409],[14.533304,45.990216],[14.554078,45.972388],[14.556869,45.921125],[14.585291,45.896269],[14.600949,45.908878]]]},"properties":{"LOCATION_TYPE":"level1","ADM0_A3":"SVN","LOCATION_ID":"SVN-123","NAME":"Škofljica","TYPE_EN":"Commune|Municipality"}},
{"type":"Feature","geometry":{"type":"Polygon","coordinates":[[[15.106344,46.093518],[15.163447,46.092484],[15.188458,46.116204],[15.113321,46.183383],[15.065055,46.136512],[15.106344,46.093518]]]},"properties":{"LOCATION_TYPE":"level1","ADM0_A3":"SVN","LOCATION_ID":"SVN-034","NAME":"Hrastnik","TYPE_EN":"Commune|Municipality"}},
{"type":"Feature","geometry":{"type":"Polygon","coordinates":[[[15.22613,46.31738],[15.19652,46.327663],[15.146084,46.335803],[15.122829,46.316966],[15.104019,46.255006],[15.137712,46.235989],[15.110995,46.18731],[15.113321,46.183383],[15.216364,46.19824],[15.22613,46.31738]]]},"properties":{"LOCATION_TYPE":"level1","ADM0_A3":"SVN","LOCATION_ID":"SVN-190","NAME":"Žalec","TYPE_EN":"Statistical Region"}},
{"type":"Feature","geometry":{"type":"Polygon","coordinates":[[[15.106344,46.093518],[15.065055,46.136512],[15.113321,46.183383],[15.110995,46.18731],[15.045056,46.193305],[14.999891,46.198989],[14.99276,46.173254],[15.027073,46.140181],[14.999891,46.119097],[15.002371,46.056362],[15.071463,46.064708],[15.106344,46.093518]]]},"properties":{"LOCATION_TYPE":"level1","ADM0_A3":"SVN","LOCATION_ID":"SVN-129","NAME":"Trbovlje","TYPE_EN":"Statistical Region"}},
{"type":"Feature","geometry":{"type":"Polygon","coordinates":[[[15.009968,46.257978],[15.051102,46.226093],[15.095027,46.257668],[15.051257,46.307251],[15.008418,46.337198],[14.97059,46.302936],[14.97028,46.283842],[15.009968,46.257978]]]},"properties":{"LOCATION_TYPE":"level1","ADM0_A3":"SVN","LOCATION_ID":"SVN-151","NAME":"Braslovce","TYPE_EN":"Commune|Municipality"}},
{"type":"Feature","geometry":{"type":"Polygon","coordinates":[[[14.970745,46.197775],[14.999891,46.198989],[15.045056,46.193305],[15.051102,46.226093],[15.009968,46.257978],[14.970745,46.197775]]]},"properties":{"LOCATION_TYPE":"level1","ADM0_A3":"SVN","LOCATION_ID":"SVN-184","NAME":"Tabor","TYPE_EN":"Commune|Municipality"}},
{"type":"Feature","geometry":{"type":"Polygon","coordinates":[[[15.58368,45.993989],[15.599338,46.022307],[15.559443,46.017114],[15.58368,45.993989]]]},"properties":{"LOCATION_TYPE":"level1","ADM0_A3":"SVN","LOCATION_ID":"SVN-054","NAME":"Krsko","TYPE_EN":"Commune|Municipality"}},
{"type":"Feature","geometry":{"type":"Polygon","coordinates":[[[15.800462,46.431585],[15.831468,46.394791],[15.869502,46.384017],[15.818601,46.454788],[15.800462,46.431585]]]},"properties":{"LOCATION_TYPE":"level1","ADM0_A3":"SVN","LOCATION_ID":"SVN-159","NAME":"Hajdina","TYPE_EN":"Commune|Municipality"}},
{"type":"Feature","geometry":{"type":"Polygon","coordinates":[[[15.816275,46.497317],[15.781497,46.467732],[15.818601,46.454788],[15.869502,46.384017],[15.904074,46.393603],[15.943038,46.420526],[15.953114,46.450963],[15.944278,46.480522],[15.900508,46.453728],[15.823407,46.49494],[15.816275,46.497317]]]},"properties":{"LOCATION_TYPE":"level1","ADM0_A3":"SVN","LOCATION_ID":"SVN-096","NAME":"Ptuj","TYPE_EN":"Commune|Municipality"}},
{"type":"Feature","geometry":{"type":"Polygon","coordinates":[[[15.757933,46.262034],[15.801082,46.320584],[15.802478,46.354949],[15.68078,46.367687],[15.721449,46.336733],[15.684862,46.274075],[15.741344,46.266065],[15.757933,46.262034]]]},"properties":{"LOCATION_TYPE":"level1","ADM0_A3":"SVN","LOCATION_ID":"SVN-069","NAME":"Majšperk","TYPE_EN":"Commune|Municipality"}},
{"type":"Feature","geometry":{"type":"Polygon","coordinates":[[[15.552467,46.277744],[15.5658,46.273662],[15.587865,46.284049],[15.684862,46.274075],[15.721449,46.336733],[15.68078,46.367687],[15.687498,46.408615],[15.557118,46.468688],[15.545801,46.48321],[15.539445,46.497421],[15.500481,46.499281],[15.408186,46.477706],[15.335064,46.477396],[15.352479,46.452565],[15.422759,46.424608],[15.490094,46.39492],[15.502961,46.359548],[15.540995,46.344717],[15.552467,46.277744]]]},"properties":{"LOCATION_TYPE":"level1","ADM0_A3":"SVN","LOCATION_ID":"SVN-113","NAME":"Slovenska Bistrica","TYPE_EN":"Commune|Municipality"}},
{"type":"Feature","geometry":{"type":"Polygon","coordinates":[[[15.969289,46.361899],[15.998435,46.373035],[15.983087,46.41665],[15.943038,46.420526],[15.904074,46.393603],[15.969289,46.361899]]]},"properties":{"LOCATION_TYPE":"level1","ADM0_A3":"SVN","LOCATION_ID":"SVN-168","NAME":"Markovci","TYPE_EN":"Commune|Municipality"}},
{"type":"Feature","geometry":{"type":"Polygon","coordinates":[[[15.687498,46.408615],[15.68078,46.367687],[15.802478,46.354949],[15.831468,46.394791],[15.800462,46.431585],[15.734471,46.428329],[15.687498,46.408615]]]},"properties":{"LOCATION_TYPE":"level1","ADM0_A3":"SVN","LOCATION_ID":"SVN-045","NAME":"Kidricevo","TYPE_EN":"Commune|Municipality"}},
{"type":"Feature","geometry":{"type":"Polygon","coordinates":[[[16.026082,46.432308],[16.040034,46.468637],[16.020966,46.490703],[15.996729,46.458663],[15.953114,46.450963],[15.943038,46.420526],[15.983087,46.41665],[16.026082,46.432308]]]},"properties":{"LOCATION_TYPE":"level1","ADM0_A3":"SVN","LOCATION_ID":"SVN-024","NAME":"Dornava","TYPE_EN":"Commune|Municipality"}},
{"type":"Feature","geometry":{"type":"Polygon","coordinates":[[[16.110314,46.623873],[16.079308,46.593151],[16.077758,46.541862],[16.154084,46.525429],[16.176718,46.560052],[16.160802,46.605889],[16.110314,46.623873]]]},"properties":{"LOCATION_TYPE":"level1","ADM0_A3":"SVN","LOCATION_ID":"SVN-166","NAME":"Križevci","TYPE_EN":"Commune|Municipality"}},
{"type":"Feature","geometry":{"type":"Polygon","coordinates":[[[15.947223,46.487163],[15.944278,46.480522],[15.953114,46.450963],[15.996729,46.458663],[16.020966,46.490703],[16.020345,46.511296],[16.007426,46.524396],[15.947223,46.487163]]]},"properties":{"LOCATION_TYPE":"level1","ADM0_A3":"SVN","LOCATION_ID":"SVN-042","NAME":"Juršinci","TYPE_EN":"Commune|Municipality"}},
{"type":"Feature","geometry":{"type":"Polygon","coordinates":[[[15.228146,45.70274],[15.190784,45.684447],[15.102779,45.684421],[15.06366,45.675559],[15.037615,45.631324],[15.073633,45.601946],[15.133216,45.596339],[15.173989,45.617423],[15.225045,45.608276],[15.284318,45.650134],[15.228146,45.70274]]]},"properties":{"LOCATION_TYPE":"level1","ADM0_A3":"SVN","LOCATION_ID":"SVN-109","NAME":"Semic","TYPE_EN":"Commune|Municipality"}},
{"type":"Feature","geometry":{"type":"Polygon","coordinates":[[[15.058079,45.781082],[14.982063,45.766302],[14.971986,45.711577],[15.037615,45.631324],[15.06366,45.675559],[15.102779,45.684421],[15.124069,45.706823],[15.058079,45.781082]]]},"properties":{"LOCATION_TYPE":"level1","ADM0_A3":"SVN","LOCATION_ID":"SVN-157","NAME":"Dolenjske Toplice","TYPE_EN":"Statistical Region"}},
{"type":"Feature","geometry":{"type":"Polygon","coordinates":[[[14.564207,45.790074],[14.576144,45.735322],[14.646269,45.707495],[14.675156,45.767646],[14.586996,45.793433],[14.564207,45.790074]]]},"properties":{"LOCATION_TYPE":"level1","ADM0_A3":"SVN","LOCATION_ID":"SVN-179","NAME":"Sodražica","TYPE_EN":"Commune|Municipality"}},
{"type":"Feature","geometry":{"type":"Polygon","coordinates":[[[14.586996,45.793433],[14.675156,45.767646],[14.646269,45.707495],[14.731174,45.667316],[14.731794,45.646982],[14.770706,45.641866],[14.822382,45.727855],[14.795872,45.7431],[14.687714,45.817979],[14.586996,45.793433]]]},"properties":{"LOCATION_TYPE":"level1","ADM0_A3":"SVN","LOCATION_ID":"SVN-104","NAME":"Ribnica","TYPE_EN":"Commune|Municipality"}},
{"type":"Feature","geometry":{"type":"Polygon","coordinates":[[[15.303748,45.864462],[15.361006,45.883737],[15.363021,45.934768],[15.317081,45.957143],[15.238584,45.924355],[15.288504,45.898517],[15.303748,45.864462]]]},"properties":{"LOCATION_TYPE":"level1","ADM0_A3":"SVN","LOCATION_ID":"SVN-121","NAME":"Škocjan","TYPE_EN":"Commune|Municipality"}}
]}