{"type":"FeatureCollection", "features": [
{"type":"Feature","geometry":{"type":"Polygon","coordinates":[[[21.581662,65.067674],[21.618826,65.148017],[21.537608,65.230902],[21.701671,65.285875],[21.489106,65.393378],[21.942231,65.411811],[22.031586,65.467027],[21.900238,65.501288],[22.170095,65.553046],[22.384532,65.627834],[22.257579,65.665025],[22.360606,65.761217],[22.325938,65.836982],[22.4699,65.843207],[22.569835,65.796047],[22.837169,65.807685],[23.086762,65.727729],[23.374278,65.822699],[23.957042,65.78913],[24.163414,65.840788],[24.05479,65.947914],[24.01965,66.048941],[23.889322,66.161105],[23.724164,66.206632],[23.642308,66.436256],[23.88188,66.563535],[23.892422,66.750914],[24.001253,66.812435],[23.93335,66.888761],[23.683856,67.049526],[23.58133,67.153137],[23.622258,67.269022],[23.735429,67.289692],[23.765195,67.420072],[23.431262,67.48552],[23.553528,67.587038],[23.484592,67.737159],[23.498855,67.882163],[23.661222,67.932857],[23.382996,68.051248],[23.330906,68.127781],[23.151692,68.130261],[23.155206,68.217439],[23.052164,68.29821],[22.607643,68.42492],[22.303062,68.476131],[22.072172,68.47701],[21.919209,68.568219],[21.46363,68.686868],[21.072129,68.869441],[20.905731,68.894607],[20.934567,68.966954],[20.623165,69.036356],[20.102266,69.022145],[20.341115,68.910058],[20.356514,68.804587],[20.236625,68.659066],[19.962223,68.541192],[20.245927,68.477372],[19.93101,68.350196],[19.038145,68.505639],[18.644577,68.501246],[18.436218,68.573852],[18.171841,68.535921],[18.135668,68.395723],[18.188584,68.198732],[18.166674,68.158476],[17.895372,67.969651],[17.321454,68.105301],[17.220065,68.040086],[16.807997,67.910636],[16.608733,67.647293],[16.482952,67.557841],[16.199559,67.508284],[16.127108,67.422759],[16.43789,67.200318],[16.415566,67.052704],[16.038845,66.887546],[15.669462,66.599424],[15.426272,66.491214],[15.476076,66.354937],[15.863456,66.276162],[16.497939,66.075605],[16.881378,66.005946],[17.472143,65.755392],[17.7806,65.657078],[18.163574,65.582974],[18.358601,65.495072],[18.561896,65.444042],[18.701112,65.441561],[18.820433,65.374666],[19.231157,65.261908],[19.250846,65.213849],[19.40324,65.16225],[19.628549,65.208475],[19.703635,65.249868],[20.114876,65.311569],[21.266227,65.164498],[21.581662,65.067674]]]},"properties":{"LOCATION_TYPE":"level1","ADM0_A3":"SWE","LOCATION_ID":"SWE-BD","NAME":"Norrbotten","TYPE_EN":"County"}},
{"type":"Feature","geometry":{"type":"Polygon","coordinates":[[[14.33285,65.115046],[14.708488,65.000426],[14.886151,64.879167],[15.022732,64.844311],[15.111512,64.756719],[15.26928,64.722484],[15.291501,64.644582],[15.639387,64.472602],[15.985412,64.353566],[16.084579,64.263003],[16.263018,64.255561],[16.745004,64.017462],[16.901739,63.959869],[17.729854,63.889486],[18.362321,63.982813],[18.520761,63.852046],[18.956187,63.770268],[19.206043,63.594206],[19.31555,63.45774],[19.578624,63.521186],[19.753184,63.524319],[19.879731,63.599066],[20.073578,63.666246],[20.307953,63.654364],[20.316661,63.740058],[20.503429,63.822008],[20.687511,63.798733],[20.896983,63.98371],[20.966563,64.1494],[21.243907,64.307074],[21.457286,64.371649],[21.606456,64.452216],[21.489757,64.487006],[21.374034,64.607978],[21.245128,64.622016],[21.312266,64.699286],[21.181326,64.835842],[21.256114,64.956732],[21.377778,64.960028],[21.467052,65.055487],[21.581662,65.067674],[21.266227,65.164498],[20.114876,65.311569],[19.703635,65.249868],[19.628549,65.208475],[19.40324,65.16225],[19.250846,65.213849],[19.231157,65.261908],[18.820433,65.374666],[18.701112,65.441561],[18.561896,65.444042],[18.358601,65.495072],[18.163574,65.582974],[17.7806,65.657078],[17.472143,65.755392],[16.881378,66.005946],[16.497939,66.075605],[15.863456,66.276162],[15.476076,66.354937],[15.481876,66.274871],[15.053375,66.153276],[14.540538,66.125448],[14.644408,65.842907],[14.560692,65.701055],[14.510359,65.464739],[14.514287,65.318081],[14.400495,65.25545],[14.33285,65.115046]]]},"properties":{"LOCATION_TYPE":"level1","ADM0_A3":"SWE","LOCATION_ID":"SWE-AC","NAME":"Västerbotten","TYPE_EN":"County"}},
{"type":"Feature","geometry":{"type":"Polygon","coordinates":[[[14.33285,65.115046],[13.642764,64.584018],[14.115551,64.441236],[14.16144,64.205436],[13.98233,64.019504],[13.939438,64.009531],[13.234106,64.090869],[12.982442,64.05883],[12.681892,63.956356],[12.293182,63.656994],[12.170295,63.598135],[12.204919,63.454629],[11.992425,63.288903],[12.222695,63.001479],[12.104356,62.923344],[12.156239,62.733691],[12.091231,62.58631],[12.286361,62.335421],[12.315149,62.271761],[12.79708,62.207108],[13.048641,62.081172],[13.285422,62.047427],[13.382109,62.004407],[13.327022,61.905782],[13.606488,61.658459],[14.296368,61.599858],[14.481628,61.591486],[14.601724,61.812041],[14.684148,61.868679],[14.837627,61.839972],[15.12562,61.85129],[15.125155,62.000299],[15.416713,62.116906],[15.454902,62.160082],[15.35868,62.281987],[15.066037,62.297696],[14.851425,62.425234],[14.82476,62.584682],[14.994052,62.610804],[15.17249,62.603156],[15.609104,62.653385],[15.88609,62.710488],[16.313919,62.724802],[16.658394,62.92249],[16.969073,62.993442],[16.181266,63.377837],[16.020501,63.461941],[15.937767,63.663763],[16.162146,63.702184],[16.487397,63.707274],[16.59199,63.736937],[16.630334,63.852046],[16.745004,64.017462],[16.263018,64.255561],[16.084579,64.263003],[15.985412,64.353566],[15.639387,64.472602],[15.291501,64.644582],[15.26928,64.722484],[15.111512,64.756719],[15.022732,64.844311],[14.886151,64.879167],[14.708488,65.000426],[14.33285,65.115046]]]},"properties":{"LOCATION_TYPE":"level1","ADM0_A3":"SWE","LOCATION_ID":"SWE-Z","NAME":"Jämtland","TYPE_EN":"County"}},
{"type":"Feature","geometry":{"type":"Polygon","coordinates":[[[12.710826,61.057012],[12.755997,61.000928],[13.098302,60.81665],[13.527939,60.446517],[13.668551,60.406985],[13.845284,60.26149],[14.157513,60.228546],[14.257404,60.107132],[14.451087,60.036594],[14.717376,60.017991],[14.769156,60.098451],[15.238429,60.015562],[15.454747,59.883218],[15.534794,59.97267],[15.682382,59.969311],[15.749716,60.146846],[15.97487,60.189195],[16.131605,60.162736],[16.167262,60.104497],[16.319965,60.077625],[16.473289,60.110698],[16.553956,60.17563],[16.717357,60.215911],[16.543104,60.357505],[16.398927,60.41869],[16.202505,60.579972],[16.395413,60.749884],[16.404095,60.794791],[16.261468,60.889772],[16.155944,60.999404],[15.800927,61.063353],[15.702535,61.127845],[15.636906,61.246159],[15.450716,61.34592],[15.185513,61.544151],[15.101539,61.492371],[14.712208,61.492345],[14.666785,61.562987],[14.481628,61.591486],[14.296368,61.599858],[13.606488,61.658459],[13.327022,61.905782],[13.382109,62.004407],[13.285422,62.047427],[13.048641,62.081172],[12.79708,62.207108],[12.315149,62.271761],[12.31747,62.234032],[12.161717,61.724838],[12.416482,61.582289],[12.613783,61.547045],[12.877126,61.370984],[12.819661,61.204947],[12.710826,61.057012]]]},"properties":{"LOCATION_TYPE":"level1","ADM0_A3":"SWE","LOCATION_ID":"SWE-W","NAME":"Dalarna","TYPE_EN":"County"}},
{"type":"Feature","geometry":{"type":"Polygon","coordinates":[[[12.710826,61.057012],[12.511773,61.049117],[12.280986,61.015192],[12.256078,60.981318],[12.377001,60.754096],[12.594352,60.514938],[12.593629,60.395023],[12.487279,60.295907],[12.510946,60.117985],[12.446764,60.051116],[12.143734,59.898412],[11.942196,59.90203],[11.849592,59.872419],[11.903542,59.769996],[11.828404,59.659719],[11.693735,59.622305],[11.677406,59.559053],[11.783962,59.360616],[11.811088,59.248717],[11.949224,59.246461],[12.070406,59.200883],[12.185851,59.254936],[12.256338,59.214732],[12.596007,59.124996],[12.756307,59.136752],[12.858988,58.988079],[12.928079,58.81517],[13.288213,58.742203],[13.445722,58.759644],[13.379783,58.842869],[13.457039,58.96777],[13.614549,59.054639],[14.226708,59.04451],[14.312646,59.016346],[14.329906,59.300515],[14.468761,59.498177],[14.418169,59.925748],[14.352385,59.959441],[14.451087,60.036594],[14.257404,60.107132],[14.157513,60.228546],[13.845284,60.26149],[13.668551,60.406985],[13.527939,60.446517],[13.098302,60.81665],[12.755997,61.000928],[12.710826,61.057012]]]},"properties":{"LOCATION_TYPE":"level1","ADM0_A3":"SWE","LOCATION_ID":"SWE-S","NAME":"Värmland","TYPE_EN":"County"}},
{"type":"Feature","geometry":{"type":"MultiPolygon","coordinates":[[[[11.811088,59.248717],[11.664383,58.920074],[11.547078,58.884727],[11.453233,58.960485],[11.354666,59.09162],[11.220063,59.090155],[11.129405,59.031195],[11.108165,58.953559],[11.190115,58.908271],[11.2317,58.799628],[11.178559,58.736477],[11.249848,58.648912],[11.25766,58.482164],[11.224864,58.370673],[11.382498,58.353949],[11.496593,58.258368],[11.567068,58.249213],[11.726736,58.327094],[11.806977,58.326606],[11.875743,58.199164],[11.78297,58.069159],[11.802908,58.036566],[11.693614,57.881171],[11.751801,57.784817],[11.706309,57.721991],[11.844574,57.68301],[11.91284,57.582924],[12.069321,57.572558],[12.301916,57.616432],[12.336849,57.490832],[12.415501,57.435926],[12.434466,57.305856],[12.594611,57.350557],[12.748194,57.302549],[12.944358,57.277512],[12.953194,57.199584],[13.116595,57.156977],[13.315084,57.317019],[13.542254,57.435771],[13.682659,57.565117],[13.750613,57.853084],[14.044962,57.864272],[14.21198,57.915948],[14.237095,58.001525],[14.428556,58.224379],[14.81153,58.645516],[14.69531,58.73409],[14.520592,58.727992],[14.410108,58.844936],[14.312646,59.016346],[14.226708,59.04451],[13.614549,59.054639],[13.457039,58.96777],[13.379783,58.842869],[13.445722,58.759644],[13.288213,58.742203],[12.928079,58.81517],[12.858988,58.988079],[12.756307,59.136752],[12.596007,59.124996],[12.256338,59.214732],[12.185851,59.254936],[12.070406,59.200883],[11.949224,59.246461],[11.811088,59.248717]]],[[[11.73878,58.058539],[11.52475,58.050727],[11.527843,57.954291],[11.594737,57.935614],[11.731944,57.997707],[11.73878,58.058539]]],[[[11.806977,58.230414],[11.73878,58.285102],[11.428966,58.160956],[11.708181,58.098212],[11.804698,58.125718],[11.806977,58.230414]]]]},"properties":{"LOCATION_TYPE":"level1","ADM0_A3":"SWE","LOCATION_ID":"SWE-O","NAME":"Västra Götaland","TYPE_EN":"County"}},
{"type":"Feature","geometry":{"type":"Polygon","coordinates":[[[19.31555,63.45774],[19.206043,63.594206],[18.956187,63.770268],[18.520761,63.852046],[18.362321,63.982813],[17.729854,63.889486],[16.901739,63.959869],[16.745004,64.017462],[16.630334,63.852046],[16.59199,63.736937],[16.487397,63.707274],[16.162146,63.702184],[15.937767,63.663763],[16.020501,63.461941],[16.181266,63.377837],[16.969073,62.993442],[16.658394,62.92249],[16.313919,62.724802],[15.88609,62.710488],[15.609104,62.653385],[15.17249,62.603156],[14.994052,62.610804],[14.82476,62.584682],[14.851425,62.425234],[15.066037,62.297696],[15.35868,62.281987],[15.530298,62.349063],[15.62714,62.35498],[16.209481,62.260567],[16.487552,62.250878],[17.011086,62.180391],[17.209575,62.178065],[17.498546,62.147569],[17.54656,62.249091],[17.392751,62.328274],[17.341482,62.498114],[17.437999,62.53677],[17.576345,62.440334],[17.693044,62.497748],[17.861664,62.5008],[18.042491,62.592108],[17.926443,62.822252],[18.054698,62.852851],[18.146169,62.822252],[18.268321,62.88349],[18.400076,62.841539],[18.512543,62.90412],[18.467947,63.023668],[18.611339,63.1789],[18.755626,63.157457],[18.913341,63.212063],[19.032481,63.182034],[19.156586,63.319037],[19.269542,63.342475],[19.31555,63.45774]]]},"properties":{"LOCATION_TYPE":"level1","ADM0_A3":"SWE","LOCATION_ID":"SWE-Y","NAME":"Västernorrland","TYPE_EN":"County"}},
{"type":"Feature","geometry":{"type":"Polygon","coordinates":[[[17.498546,62.147569],[17.209575,62.178065],[17.011086,62.180391],[16.487552,62.250878],[16.209481,62.260567],[15.62714,62.35498],[15.530298,62.349063],[15.35868,62.281987],[15.454902,62.160082],[15.416713,62.116906],[15.125155,62.000299],[15.12562,61.85129],[14.837627,61.839972],[14.684148,61.868679],[14.601724,61.812041],[14.481628,61.591486],[14.666785,61.562987],[14.712208,61.492345],[15.101539,61.492371],[15.185513,61.544151],[15.450716,61.34592],[15.636906,61.246159],[15.702535,61.127845],[15.800927,61.063353],[16.155944,60.999404],[16.261468,60.889772],[16.404095,60.794791],[16.395413,60.749884],[16.202505,60.579972],[16.398927,60.41869],[16.543104,60.357505],[16.717357,60.215911],[16.809703,60.210589],[16.981475,60.296888],[17.226163,60.309575],[17.217482,60.384687],[17.315874,60.486024],[17.376638,60.623887],[17.238048,60.697699],[17.283051,60.781155],[17.246267,60.898017],[17.158214,60.948432],[17.212738,61.235297],[17.121349,61.308173],[17.200206,61.348131],[17.104015,61.399359],[17.177013,61.486884],[17.082367,61.571275],[17.097179,61.636135],[17.399181,61.722357],[17.338634,61.829006],[17.344249,61.92414],[17.469005,62.062161],[17.498546,62.147569]]]},"properties":{"LOCATION_TYPE":"level1","ADM0_A3":"SWE","LOCATION_ID":"SWE-X","NAME":"Gävleborg","TYPE_EN":"County"}},
{"type":"Feature","geometry":{"type":"Polygon","coordinates":[[[17.376638,60.623887],[17.315874,60.486024],[17.217482,60.384687],[17.226163,60.309575],[17.36941,60.250896],[17.385689,60.201313],[17.288382,60.058918],[17.210815,60.042124],[17.180585,59.884717],[17.05036,59.839061],[16.858899,59.884355],[16.796836,59.784878],[16.900292,59.668968],[16.966438,59.532129],[17.244819,59.500322],[17.444496,59.385316],[17.521753,59.453581],[17.59379,59.579619],[17.581725,59.666192],[17.672906,59.709431],[17.781375,59.691912],[18.00901,59.751624],[18.389968,59.88203],[18.461023,60.042899],[18.554526,60.121422],[18.419932,60.193508],[18.427989,60.348782],[18.277517,60.349351],[18.098399,60.464911],[17.967459,60.518948],[17.91863,60.600165],[17.638194,60.515448],[17.574962,60.647895],[17.376638,60.623887]]]},"properties":{"LOCATION_TYPE":"level1","ADM0_A3":"SWE","LOCATION_ID":"SWE-C","NAME":"Uppsala","TYPE_EN":"County"}},
{"type":"Feature","geometry":{"type":"Polygon","coordinates":[[[18.554526,60.121422],[18.461023,60.042899],[18.389968,59.88203],[18.00901,59.751624],[17.781375,59.691912],[17.672906,59.709431],[17.581725,59.666192],[17.59379,59.579619],[17.521753,59.453581],[17.444496,59.385316],[17.341862,59.324889],[17.285281,59.227238],[17.385999,58.99826],[17.586274,58.964911],[17.631602,59.018134],[17.760753,59.037014],[17.749278,58.923814],[17.930675,58.910061],[18.043224,59.059719],[18.392589,59.175767],[18.279307,59.261705],[18.481944,59.347724],[18.318126,59.375922],[18.172862,59.326565],[18.042491,59.397366],[18.145518,59.443834],[18.276866,59.422553],[18.686534,59.60578],[18.781261,59.701565],[18.901378,59.734687],[19.035981,59.728502],[19.085216,59.772203],[18.861583,59.803046],[19.071625,59.896308],[18.903087,59.947211],[18.824474,60.068305],[18.651378,60.148261],[18.554526,60.121422]]]},"properties":{"LOCATION_TYPE":"level1","ADM0_A3":"SWE","LOCATION_ID":"SWE-AB","NAME":"Stockholm","TYPE_EN":"County"}},
{"type":"Feature","geometry":{"type":"Polygon","coordinates":[[[17.586274,58.964911],[17.385999,58.99826],[17.285281,59.227238],[17.341862,59.324889],[17.444496,59.385316],[17.244819,59.500322],[16.966438,59.532129],[16.848822,59.509701],[16.287099,59.453736],[16.277281,59.375187],[16.004636,59.358574],[15.899939,59.242276],[15.778603,59.206206],[15.804183,59.12218],[15.639852,59.0365],[15.723619,58.984514],[15.848263,59.009887],[16.298106,58.823852],[16.453291,58.692232],[16.630179,58.688924],[16.781435,58.634493],[16.924164,58.625434],[17.093028,58.660834],[17.162364,58.732001],[17.276052,58.730699],[17.459727,58.791449],[17.62672,58.917792],[17.586274,58.964911]]]},"properties":{"LOCATION_TYPE":"level1","ADM0_A3":"SWE","LOCATION_ID":"SWE-D","NAME":"Södermanland","TYPE_EN":"County"}},
{"type":"Feature","geometry":{"type":"Polygon","coordinates":[[[16.781435,58.634493],[16.630179,58.688924],[16.453291,58.692232],[16.298106,58.823852],[15.848263,59.009887],[15.723619,58.984514],[15.624659,58.96622],[15.539445,58.873978],[15.279254,58.845401],[15.17094,58.807858],[15.01126,58.699286],[14.81153,58.645516],[14.428556,58.224379],[14.485969,58.153918],[14.597848,58.11188],[14.834991,58.094852],[14.992811,58.155133],[15.098748,58.009431],[15.024747,57.914088],[15.153525,57.7403],[15.44312,57.71162],[15.633961,57.84603],[15.766769,57.858381],[15.93079,57.819184],[16.041585,57.862928],[16.076208,57.975841],[16.038949,58.079608],[16.172894,58.072838],[16.301517,58.124334],[16.439906,58.125393],[16.596641,58.078548],[16.68686,57.989244],[16.8213,58.207099],[16.729503,58.2685],[16.779307,58.325588],[16.72047,58.43651],[16.865896,58.483059],[16.785981,58.57274],[16.635916,58.626776],[16.40919,58.596625],[16.233735,58.669257],[16.781435,58.634493]]]},"properties":{"LOCATION_TYPE":"level1","ADM0_A3":"SWE","LOCATION_ID":"SWE-E","NAME":"Östergötland","TYPE_EN":"County"}},
{"type":"Feature","geometry":{"type":"MultiPolygon","coordinates":[[[[16.68686,57.989244],[16.596641,58.078548],[16.439906,58.125393],[16.301517,58.124334],[16.172894,58.072838],[16.038949,58.079608],[16.076208,57.975841],[16.041585,57.862928],[15.93079,57.819184],[15.766769,57.858381],[15.633961,57.84603],[15.44312,57.71162],[15.663106,57.602712],[15.629465,57.461351],[15.527507,57.440112],[15.495365,57.301645],[15.550762,57.211392],[15.805578,57.020499],[15.846403,56.958229],[15.782634,56.908103],[15.528283,56.903323],[15.559495,56.824413],[15.392373,56.757156],[15.419039,56.677729],[15.363021,56.482134],[15.597322,56.501668],[15.800152,56.37488],[15.979986,56.326226],[16.066248,56.335946],[16.095225,56.419379],[16.213227,56.548407],[16.255219,56.650377],[16.379161,56.675605],[16.356619,56.75845],[16.408946,56.808417],[16.46811,56.949286],[16.439789,57.014106],[16.534841,57.051744],[16.552501,57.110093],[16.465017,57.177314],[16.485199,57.294623],[16.534841,57.360256],[16.656016,57.409247],[16.688975,57.471747],[16.629161,57.556871],[16.610606,57.682359],[16.675466,57.764472],[16.460297,57.89468],[16.590099,57.935614],[16.710785,57.891262],[16.773936,57.923407],[16.68686,57.989244]]],[[[17.124522,57.319281],[16.966482,57.304592],[16.888357,57.118232],[16.716807,56.891832],[16.62086,56.87226],[16.398936,56.544664],[16.412608,56.229315],[16.490896,56.239569],[16.566417,56.346137],[16.64324,56.568427],[16.781586,56.810614],[16.883067,56.916246],[17.124522,57.319281]]]]},"properties":{"LOCATION_TYPE":"level1","ADM0_A3":"SWE","LOCATION_ID":"SWE-H","NAME":"Kalmar","TYPE_EN":"County"}},
{"type":"Feature","geometry":{"type":"Polygon","coordinates":[[[16.066248,56.335946],[15.979986,56.326226],[15.800152,56.37488],[15.597322,56.501668],[15.363021,56.482134],[15.215743,56.443067],[14.995705,56.447382],[14.915193,56.381933],[14.725127,56.401958],[14.540746,56.477483],[14.413519,56.34638],[14.449847,56.264731],[14.542296,56.239048],[14.586996,56.154661],[14.553403,56.054032],[14.611501,56.011135],[14.767751,56.030707],[14.685802,56.147406],[14.95338,56.172919],[15.049001,56.153632],[15.492931,56.176337],[15.572765,56.206285],[15.731212,56.157213],[15.851736,56.086371],[16.038259,56.255072],[16.066248,56.335946]]]},"properties":{"LOCATION_TYPE":"level1","ADM0_A3":"SWE","LOCATION_ID":"SWE-K","NAME":"Blekinge","TYPE_EN":"County"}},
{"type":"Feature","geometry":{"type":"Polygon","coordinates":[[[14.553403,56.054032],[14.586996,56.154661],[14.542296,56.239048],[14.449847,56.264731],[14.413519,56.34638],[14.540746,56.477483],[14.094675,56.5412],[13.993337,56.47924],[13.501429,56.423843],[13.3911,56.419141],[13.230645,56.342814],[13.016498,56.37072],[12.910875,56.474363],[12.833263,56.442572],[12.713715,56.467353],[12.621593,56.419338],[12.833507,56.265692],[12.704845,56.22248],[12.504568,56.275336],[12.609548,56.116523],[12.752289,55.996568],[12.8213,55.886705],[12.926036,55.834052],[12.922618,55.749457],[13.061371,55.674465],[12.929373,55.578925],[12.928477,55.520006],[13.000011,55.400092],[13.280528,55.345445],[13.381358,55.346015],[13.629568,55.41828],[13.882335,55.433051],[14.094086,55.387397],[14.181163,55.390815],[14.363048,55.523627],[14.358165,55.563666],[14.195811,55.725653],[14.208507,55.821275],[14.346446,55.953315],[14.553403,56.054032]]]},"properties":{"LOCATION_TYPE":"level1","ADM0_A3":"SWE","LOCATION_ID":"SWE-M","NAME":"Skåne","TYPE_EN":"County"}},
{"type":"Feature","geometry":{"type":"Polygon","coordinates":[[[12.910875,56.474363],[13.016498,56.37072],[13.230645,56.342814],[13.3911,56.419141],[13.501429,56.423843],[13.448823,56.55908],[13.308211,56.701862],[13.352136,56.86764],[13.621836,56.906811],[13.693666,56.983421],[13.59238,57.067757],[13.394666,57.120596],[13.239482,57.097471],[13.116595,57.156977],[12.953194,57.199584],[12.944358,57.277512],[12.748194,57.302549],[12.594611,57.350557],[12.434466,57.305856],[12.415501,57.435926],[12.336849,57.490832],[12.301916,57.616432],[12.069321,57.572558],[11.91284,57.582924],[11.944835,57.489936],[12.059255,57.458808],[12.108735,57.394355],[12.204356,57.147935],[12.271251,57.042873],[12.333263,57.020901],[12.375011,56.912055],[12.598318,56.82099],[12.615733,56.750067],[12.731781,56.64704],[12.871755,56.649482],[12.934418,56.547065],[12.910875,56.474363]]]},"properties":{"LOCATION_TYPE":"level1","ADM0_A3":"SWE","LOCATION_ID":"SWE-N","NAME":"Halland","TYPE_EN":"County"}},
{"type":"Feature","geometry":{"type":"Polygon","coordinates":[[[19.040212,57.867906],[18.89796,57.89765],[18.784353,57.839586],[18.65797,57.901842],[18.5949,57.831366],[18.463064,57.803168],[18.325043,57.672593],[18.161469,57.577948],[18.11199,57.511054],[18.17921,57.379543],[18.099376,57.258979],[18.228038,57.133694],[18.203949,56.915188],[18.358409,56.989691],[18.344737,57.08275],[18.431163,57.154283],[18.714122,57.242906],[18.666759,57.29678],[18.770193,57.364488],[18.930024,57.404527],[18.789806,57.448961],[18.761404,57.507636],[18.810313,57.607327],[18.810313,57.709662],[18.941254,57.72956],[19.040212,57.867906]]]},"properties":{"LOCATION_TYPE":"level1","ADM0_A3":"SWE","LOCATION_ID":"SWE-I","NAME":"Gotland","TYPE_EN":"County"}},
{"type":"Feature","geometry":{"type":"Polygon","coordinates":[[[16.966438,59.532129],[16.900292,59.668968],[16.796836,59.784878],[16.858899,59.884355],[17.05036,59.839061],[17.180585,59.884717],[17.210815,60.042124],[17.288382,60.058918],[17.385689,60.201313],[17.36941,60.250896],[17.226163,60.309575],[16.981475,60.296888],[16.809703,60.210589],[16.717357,60.215911],[16.553956,60.17563],[16.473289,60.110698],[16.319965,60.077625],[16.167262,60.104497],[16.131605,60.162736],[15.97487,60.189195],[15.749716,60.146846],[15.682382,59.969311],[15.534794,59.97267],[15.454747,59.883218],[15.579029,59.741005],[15.558255,59.637807],[15.640782,59.627524],[15.752196,59.44061],[15.645278,59.409268],[15.633341,59.293358],[15.778603,59.206206],[15.899939,59.242276],[16.004636,59.358574],[16.277281,59.375187],[16.287099,59.453736],[16.848822,59.509701],[16.966438,59.532129]]]},"properties":{"LOCATION_TYPE":"level1","ADM0_A3":"SWE","LOCATION_ID":"SWE-U","NAME":"Västmanland","TYPE_EN":"County"}},
{"type":"Feature","geometry":{"type":"Polygon","coordinates":[[[13.116595,57.156977],[13.239482,57.097471],[13.394666,57.120596],[13.59238,57.067757],[13.693666,56.983421],[13.78012,57.035589],[13.871639,57.003963],[14.065323,57.050187],[14.158599,57.014376],[14.233529,56.917353],[14.334867,56.893117],[14.393055,56.955258],[14.356416,57.022153],[14.381893,57.142404],[14.80874,57.227773],[14.950902,57.152481],[15.174506,57.197026],[15.233158,57.234491],[15.415783,57.235835],[15.550762,57.211392],[15.495365,57.301645],[15.527507,57.440112],[15.629465,57.461351],[15.663106,57.602712],[15.44312,57.71162],[15.153525,57.7403],[15.024747,57.914088],[15.098748,58.009431],[14.992811,58.155133],[14.834991,58.094852],[14.597848,58.11188],[14.485969,58.153918],[14.428556,58.224379],[14.237095,58.001525],[14.21198,57.915948],[14.044962,57.864272],[13.750613,57.853084],[13.682659,57.565117],[13.542254,57.435771],[13.315084,57.317019],[13.116595,57.156977]]]},"properties":{"LOCATION_TYPE":"level1","ADM0_A3":"SWE","LOCATION_ID":"SWE-F","NAME":"Jönköping","TYPE_EN":"County"}},
{"type":"Feature","geometry":{"type":"Polygon","coordinates":[[[14.451087,60.036594],[14.352385,59.959441],[14.418169,59.925748],[14.468761,59.498177],[14.329906,59.300515],[14.312646,59.016346],[14.410108,58.844936],[14.520592,58.727992],[14.69531,58.73409],[14.81153,58.645516],[15.01126,58.699286],[15.17094,58.807858],[15.279254,58.845401],[15.539445,58.873978],[15.624659,58.96622],[15.723619,58.984514],[15.639852,59.0365],[15.804183,59.12218],[15.778603,59.206206],[15.633341,59.293358],[15.645278,59.409268],[15.752196,59.44061],[15.640782,59.627524],[15.558255,59.637807],[15.579029,59.741005],[15.454747,59.883218],[15.238429,60.015562],[14.769156,60.098451],[14.717376,60.017991],[14.451087,60.036594]]]},"properties":{"LOCATION_TYPE":"level1","ADM0_A3":"SWE","LOCATION_ID":"SWE-T","NAME":"Orebro","TYPE_EN":"County"}},
{"type":"Feature","geometry":{"type":"Polygon","coordinates":[[[13.501429,56.423843],[13.993337,56.47924],[14.094675,56.5412],[14.540746,56.477483],[14.725127,56.401958],[14.915193,56.381933],[14.995705,56.447382],[15.215743,56.443067],[15.363021,56.482134],[15.419039,56.677729],[15.392373,56.757156],[15.559495,56.824413],[15.528283,56.903323],[15.782634,56.908103],[15.846403,56.958229],[15.805578,57.020499],[15.550762,57.211392],[15.415783,57.235835],[15.233158,57.234491],[15.174506,57.197026],[14.950902,57.152481],[14.80874,57.227773],[14.381893,57.142404],[14.356416,57.022153],[14.393055,56.955258],[14.334867,56.893117],[14.233529,56.917353],[14.158599,57.014376],[14.065323,57.050187],[13.871639,57.003963],[13.78012,57.035589],[13.693666,56.983421],[13.621836,56.906811],[13.352136,56.86764],[13.308211,56.701862],[13.448823,56.55908],[13.501429,56.423843]]]},"properties":{"LOCATION_TYPE":"level1","ADM0_A3":"SWE","LOCATION_ID":"SWE-G","NAME":"Kronoberg","TYPE_EN":"County"}}
]}