{"type":"FeatureCollection", "features": [
{"type":"Feature","geometry":{"type":"Polygon","coordinates":[[[31.944204,-27.162338],[31.992238,-26.838257],[32.113884,-26.840014],[32.117398,-26.582252],[32.039884,-26.283666],[32.081432,-26.14879],[32.057454,-26.0412],[31.949243,-25.958104],[31.834573,-25.982082],[31.746966,-25.93079],[31.668848,-25.952214],[31.669778,-26.151892],[31.697683,-26.249147],[31.608025,-26.405623],[31.600118,-26.616205],[31.488239,-26.762139],[31.551387,-26.964762],[31.776851,-27.041967],[31.944204,-27.162338]]]},"properties":{"LOCATION_TYPE":"level1","ADM0_A3":"SWZ","LOCATION_ID":"SWZ-LU","NAME":"Lubombo","TYPE_EN":"District"}},
{"type":"Feature","geometry":{"type":"Polygon","coordinates":[[[31.746966,-25.93079],[31.426898,-25.743647],[31.309282,-25.757393],[31.119836,-25.910045],[31.037774,-26.100111],[30.897318,-26.291727],[31.083044,-26.416889],[31.261069,-26.454251],[31.284633,-26.322682],[31.490099,-26.251162],[31.562084,-26.171219],[31.669778,-26.151892],[31.668848,-25.952214],[31.746966,-25.93079]]]},"properties":{"LOCATION_TYPE":"level1","ADM0_A3":"SWZ","LOCATION_ID":"SWZ-HH","NAME":"Hhohho","TYPE_EN":"District"}},
{"type":"Feature","geometry":{"type":"Polygon","coordinates":[[[30.897318,-26.291727],[30.782906,-26.472388],[30.80244,-26.808905],[30.885294,-26.785641],[31.043821,-26.770097],[31.072812,-26.876964],[31.22257,-26.807769],[31.488239,-26.762139],[31.600118,-26.616205],[31.608025,-26.405623],[31.697683,-26.249147],[31.669778,-26.151892],[31.562084,-26.171219],[31.490099,-26.251162],[31.284633,-26.322682],[31.261069,-26.454251],[31.083044,-26.416889],[30.897318,-26.291727]]]},"properties":{"LOCATION_TYPE":"level1","ADM0_A3":"SWZ","LOCATION_ID":"SWZ-MA","NAME":"Manzini","TYPE_EN":"District"}},
{"type":"Feature","geometry":{"type":"Polygon","coordinates":[[[30.885294,-26.785641],[30.960983,-26.911224],[30.976073,-27.035041],[31.157043,-27.205573],[31.52653,-27.31089],[31.96826,-27.316264],[31.944204,-27.162338],[31.776851,-27.041967],[31.551387,-26.964762],[31.488239,-26.762139],[31.22257,-26.807769],[31.072812,-26.876964],[31.043821,-26.770097],[30.885294,-26.785641]]]},"properties":{"LOCATION_TYPE":"level1","ADM0_A3":"SWZ","LOCATION_ID":"SWZ-SH","NAME":"Shiselweni","TYPE_EN":"District"}}
]}