{"type":"FeatureCollection", "features": [
{"type":"Feature","geometry":{"type":"MultiPolygon","coordinates":[[[[46.495453,-9.357599],[46.447765,-9.33766],[46.45281,-9.3624],[46.396007,-9.39837],[46.351573,-9.405938],[46.320486,-9.423761],[46.274099,-9.426365],[46.230479,-9.41367],[46.234386,-9.452325],[46.299815,-9.449314],[46.380707,-9.424574],[46.4546,-9.426446],[46.525157,-9.38128],[46.495453,-9.357599]]],[[[46.283865,-9.351332],[46.379405,-9.357029],[46.410655,-9.353285],[46.427094,-9.33766],[46.315196,-9.32643],[46.283865,-9.351332]]]]},"properties":{"LOCATION_TYPE":"level1","ADM0_A3":"SYC","LOCATION_ID":"SYC-X02~","NAME":"Outer Islands","TYPE_EN":null}},
{"type":"Feature","geometry":{"type":"Polygon","coordinates":[[[55.260265,-4.500095],[55.259939,-4.462986],[55.225434,-4.44492],[55.228038,-4.487481],[55.260265,-4.500095]]]},"properties":{"LOCATION_TYPE":"level1","ADM0_A3":"SYC","LOCATION_ID":"SYC-15","NAME":"La Digue and Inner Islands","TYPE_EN":null}},
{"type":"Feature","geometry":{"type":"Polygon","coordinates":[[[55.478001,-4.706406],[55.495183,-4.677836],[55.482724,-4.662253],[55.47749,-4.665148],[55.459183,-4.65764],[55.448979,-4.677853],[55.478001,-4.706406]]]},"properties":{"LOCATION_TYPE":"level1","ADM0_A3":"SYC","LOCATION_ID":"SYC-13","NAME":"Grand'Anse","TYPE_EN":null}},
{"type":"Feature","geometry":{"type":"Polygon","coordinates":[[[55.491576,-4.736364],[55.505032,-4.739089],[55.507947,-4.719832],[55.500189,-4.679588],[55.495183,-4.677836],[55.478001,-4.706406],[55.491576,-4.736364]]]},"properties":{"LOCATION_TYPE":"level1","ADM0_A3":"SYC","LOCATION_ID":"SYC-02","NAME":"Anse Boileau","TYPE_EN":null}},
{"type":"Feature","geometry":{"type":"Polygon","coordinates":[[[55.493209,-4.776553],[55.509671,-4.771348],[55.505032,-4.739089],[55.491576,-4.736364],[55.468171,-4.741513],[55.493209,-4.776553]]]},"properties":{"LOCATION_TYPE":"level1","ADM0_A3":"SYC","LOCATION_ID":"SYC-06","NAME":"Baie Lazare","TYPE_EN":null}},
{"type":"Feature","geometry":{"type":"Polygon","coordinates":[[[55.525746,-4.770066],[55.509671,-4.771348],[55.493209,-4.776553],[55.504214,-4.795811],[55.537916,-4.803769],[55.525746,-4.770066]]]},"properties":{"LOCATION_TYPE":"level1","ADM0_A3":"SYC","LOCATION_ID":"SYC-23","NAME":"Takamaka","TYPE_EN":null}},
{"type":"Feature","geometry":{"type":"Polygon","coordinates":[[[55.528087,-4.736832],[55.507947,-4.719832],[55.505032,-4.739089],[55.509671,-4.771348],[55.525746,-4.770066],[55.528087,-4.736832]]]},"properties":{"LOCATION_TYPE":"level1","ADM0_A3":"SYC","LOCATION_ID":"SYC-05","NAME":"Anse Royale","TYPE_EN":null}},
{"type":"Feature","geometry":{"type":"Polygon","coordinates":[[[55.526283,-4.689128],[55.503963,-4.680909],[55.500189,-4.679588],[55.507947,-4.719832],[55.528087,-4.736832],[55.526283,-4.689128]]]},"properties":{"LOCATION_TYPE":"level1","ADM0_A3":"SYC","LOCATION_ID":"SYC-04","NAME":"Au Cap","TYPE_EN":null}},
{"type":"Feature","geometry":{"type":"Polygon","coordinates":[[[55.528555,-4.680193],[55.506301,-4.677352],[55.503963,-4.680909],[55.526283,-4.689128],[55.528555,-4.680193]]]},"properties":{"LOCATION_TYPE":"level1","ADM0_A3":"SYC","LOCATION_ID":"SYC-01","NAME":"Anse aux Pins","TYPE_EN":null}},
{"type":"Feature","geometry":{"type":"Polygon","coordinates":[[[55.513646,-4.666174],[55.506301,-4.677352],[55.528555,-4.680193],[55.513646,-4.666174]]]},"properties":{"LOCATION_TYPE":"level1","ADM0_A3":"SYC","LOCATION_ID":"SYC-20","NAME":"Pointe La Rue","TYPE_EN":null}},
{"type":"Feature","geometry":{"type":"Polygon","coordinates":[[[55.492025,-4.651428],[55.489475,-4.658519],[55.482724,-4.662253],[55.495183,-4.677836],[55.500189,-4.679588],[55.503963,-4.680909],[55.506301,-4.677352],[55.513646,-4.666174],[55.492025,-4.651428]]]},"properties":{"LOCATION_TYPE":"level1","ADM0_A3":"SYC","LOCATION_ID":"SYC-11","NAME":"Cascade","TYPE_EN":null}},
{"type":"Feature","geometry":{"type":"Polygon","coordinates":[[[55.475661,-4.639938],[55.474988,-4.647543],[55.489475,-4.658519],[55.492025,-4.651428],[55.475661,-4.639938]]]},"properties":{"LOCATION_TYPE":"level1","ADM0_A3":"SYC","LOCATION_ID":"SYC-25","NAME":"Roche Caïman","TYPE_EN":null}},
{"type":"Feature","geometry":{"type":"Polygon","coordinates":[[[55.471777,-4.634917],[55.464451,-4.647104],[55.459183,-4.65764],[55.47749,-4.665148],[55.474988,-4.647543],[55.475661,-4.639938],[55.471777,-4.634917]]]},"properties":{"LOCATION_TYPE":"level1","ADM0_A3":"SYC","LOCATION_ID":"SYC-19","NAME":"Plaisance","TYPE_EN":null}},
{"type":"Feature","geometry":{"type":"Polygon","coordinates":[[[55.4605,-4.625601],[55.464451,-4.647104],[55.471777,-4.634917],[55.4605,-4.625601]]]},"properties":{"LOCATION_TYPE":"level1","ADM0_A3":"SYC","LOCATION_ID":"SYC-18","NAME":"Mont Fleuri","TYPE_EN":null}},
{"type":"Feature","geometry":{"type":"Polygon","coordinates":[[[55.458846,-4.618115],[55.447329,-4.620762],[55.435036,-4.630421],[55.459183,-4.65764],[55.464451,-4.647104],[55.4605,-4.625601],[55.458846,-4.618115]]]},"properties":{"LOCATION_TYPE":"level1","ADM0_A3":"SYC","LOCATION_ID":"SYC-09","NAME":"Bel Air","TYPE_EN":null}},
{"type":"Feature","geometry":{"type":"Polygon","coordinates":[[[55.459937,-4.598546],[55.440744,-4.604518],[55.447329,-4.620762],[55.458846,-4.618115],[55.459937,-4.598546]]]},"properties":{"LOCATION_TYPE":"level1","ADM0_A3":"SYC","LOCATION_ID":"SYC-16","NAME":"English River","TYPE_EN":null}},
{"type":"Feature","geometry":{"type":"Polygon","coordinates":[[[55.46386,-4.571384],[55.440744,-4.586957],[55.440744,-4.604518],[55.459937,-4.598546],[55.46386,-4.571384]]]},"properties":{"LOCATION_TYPE":"level1","ADM0_A3":"SYC","LOCATION_ID":"SYC-03","NAME":"Anse Etoile","TYPE_EN":null}},
{"type":"Feature","geometry":{"type":"Polygon","coordinates":[[[55.432687,-4.586923],[55.440744,-4.586957],[55.46386,-4.571384],[55.433698,-4.562545],[55.432687,-4.586923]]]},"properties":{"LOCATION_TYPE":"level1","ADM0_A3":"SYC","LOCATION_ID":"SYC-12","NAME":"Glacis","TYPE_EN":null}},
{"type":"Feature","geometry":{"type":"Polygon","coordinates":[[[55.414422,-4.612774],[55.431524,-4.623835],[55.438548,-4.615055],[55.440744,-4.604518],[55.440744,-4.586957],[55.432687,-4.586923],[55.414422,-4.612774]]]},"properties":{"LOCATION_TYPE":"level1","ADM0_A3":"SYC","LOCATION_ID":"SYC-08","NAME":"Beau Vallon","TYPE_EN":null}},
{"type":"Feature","geometry":{"type":"Polygon","coordinates":[[[55.380478,-4.627187],[55.408695,-4.641397],[55.431524,-4.623835],[55.414422,-4.612774],[55.380478,-4.627187]]]},"properties":{"LOCATION_TYPE":"level1","ADM0_A3":"SYC","LOCATION_ID":"SYC-10","NAME":"Bel Ombre","TYPE_EN":null}},
{"type":"Feature","geometry":{"type":"Polygon","coordinates":[[[55.448979,-4.677853],[55.459183,-4.65764],[55.435036,-4.630421],[55.431524,-4.623835],[55.408695,-4.641397],[55.380478,-4.627187],[55.397527,-4.649841],[55.448979,-4.677853]]]},"properties":{"LOCATION_TYPE":"level1","ADM0_A3":"SYC","LOCATION_ID":"SYC-21","NAME":"Port Glaud","TYPE_EN":null}},
{"type":"Feature","geometry":{"type":"Polygon","coordinates":[[[55.68282,-4.294389],[55.767995,-4.350286],[55.754479,-4.321092],[55.704437,-4.290228],[55.68282,-4.294389]]]},"properties":{"LOCATION_TYPE":"level1","ADM0_A3":"SYC","LOCATION_ID":"SYC-07","NAME":"Baie Sainte Anne","TYPE_EN":null}},
{"type":"Feature","geometry":{"type":"Polygon","coordinates":[[[55.767995,-4.350286],[55.68282,-4.294389],[55.684571,-4.31886],[55.717635,-4.330116],[55.732757,-4.35224],[55.767995,-4.350286]]]},"properties":{"LOCATION_TYPE":"level1","ADM0_A3":"SYC","LOCATION_ID":"SYC-14","NAME":"Grand'Anse Praslin","TYPE_EN":null}},
{"type":"Feature","geometry":{"type":"Polygon","coordinates":[[[55.438548,-4.615055],[55.447329,-4.620762],[55.440744,-4.604518],[55.438548,-4.615055]]]},"properties":{"LOCATION_TYPE":"level1","ADM0_A3":"SYC","LOCATION_ID":"SYC-17","NAME":"Mont Buxton","TYPE_EN":null}},
{"type":"Feature","geometry":{"type":"Polygon","coordinates":[[[55.431524,-4.623835],[55.435036,-4.630421],[55.447329,-4.620762],[55.438548,-4.615055],[55.431524,-4.623835]]]},"properties":{"LOCATION_TYPE":"level1","ADM0_A3":"SYC","LOCATION_ID":"SYC-22","NAME":"Saint Louis","TYPE_EN":null}},
{"type":"Feature","geometry":{"type":"Polygon","coordinates":[[[55.47749,-4.665148],[55.482724,-4.662253],[55.489475,-4.658519],[55.474988,-4.647543],[55.47749,-4.665148]]]},"properties":{"LOCATION_TYPE":"level1","ADM0_A3":"SYC","LOCATION_ID":"SYC-24","NAME":"Les Mamelles","TYPE_EN":null}}
]}