{"type":"FeatureCollection", "features": [
{"type":"Feature","geometry":{"type":"Polygon","coordinates":[[[35.870089,33.431242],[35.8211,33.406722],[35.803633,33.248463],[35.85903,32.99021],[35.888073,32.944941],[35.834226,32.827946],[35.769734,32.748054],[35.846802,32.835777],[35.923833,32.967679],[35.877117,32.992638],[35.868436,33.107283],[35.910603,33.135395],[35.842976,33.3228],[35.870089,33.431242]]]},"properties":{"LOCATION_TYPE":"level1","ADM0_A3":"SYR","LOCATION_ID":"SYR-X01~","NAME":"UNDOF","TYPE_EN":null}},
{"type":"Feature","geometry":{"type":"Polygon","coordinates":[[[36.11214,34.629532],[36.26159,34.627242],[36.323808,34.679486],[36.383546,34.553809],[36.530617,34.41418],[36.515941,34.36165],[36.579917,34.286901],[36.603554,34.200101],[36.792618,34.202926],[36.870081,34.227937],[37.034567,34.035649],[37.184583,33.952837],[37.255535,33.942011],[37.320544,33.845841],[37.546783,33.675361],[37.647966,33.527876],[37.908157,33.40468],[38.315742,33.13118],[38.774511,33.371685],[39.438037,33.704094],[40.173111,34.072283],[39.444549,34.936395],[39.437831,35.038482],[39.374372,35.149224],[39.242029,35.24927],[38.684182,35.372312],[38.390298,35.390915],[38.301673,35.382337],[38.299967,35.253637],[38.232633,35.086127],[38.052799,35.002386],[37.986033,34.898542],[37.855705,35.008768],[37.817568,35.088298],[37.736849,35.118632],[37.568333,35.082562],[37.451182,34.987425],[37.106862,34.927662],[36.972762,34.860896],[36.873646,34.97833],[36.649267,34.912598],[36.540178,34.906604],[36.490517,34.950115],[36.41941,34.85162],[36.313164,34.900919],[36.186505,34.768731],[36.11214,34.629532]]]},"properties":{"LOCATION_TYPE":"level1","ADM0_A3":"SYR","LOCATION_ID":"SYR-HI","NAME":"Homs (Hims)","TYPE_EN":"Province"}},
{"type":"Feature","geometry":{"type":"Polygon","coordinates":[[[35.931203,35.261491],[35.962413,35.197943],[35.887869,35.109198],[35.900564,35.021918],[35.866873,34.924221],[35.9699,34.649849],[36.11214,34.629532],[36.186505,34.768731],[36.313164,34.900919],[36.260092,34.96629],[36.252961,35.223432],[36.025636,35.219504],[35.931203,35.261491]]]},"properties":{"LOCATION_TYPE":"level1","ADM0_A3":"SYR","LOCATION_ID":"SYR-TA","NAME":"Tartus","TYPE_EN":"Province"}},
{"type":"Feature","geometry":{"type":"Polygon","coordinates":[[[36.603554,34.200101],[36.488449,34.088644],[36.391091,34.044719],[36.267171,33.910386],[36.311096,33.87199],[36.05044,33.816438],[35.946984,33.700838],[35.921559,33.640299],[36.012923,33.608027],[36.019847,33.55263],[35.933238,33.527825],[35.870089,33.431242],[35.842976,33.3228],[35.895256,33.298665],[35.961661,33.204821],[35.999694,33.179215],[36.213376,33.226267],[36.241127,33.286987],[36.342464,33.20588],[36.50323,33.294454],[36.570874,33.193969],[36.82383,33.224691],[36.885273,33.186502],[36.984596,33.063744],[37.103296,33.031886],[37.132597,32.974783],[37.274759,32.918146],[37.283905,32.862594],[37.494606,32.690056],[38.315742,33.13118],[37.908157,33.40468],[37.647966,33.527876],[37.546783,33.675361],[37.320544,33.845841],[37.255535,33.942011],[37.184583,33.952837],[37.034567,34.035649],[36.870081,34.227937],[36.792618,34.202926],[36.603554,34.200101]],[[36.316609,33.460691],[36.190745,33.513227],[36.221629,33.549457],[36.351098,33.543883],[36.316609,33.460691]]]},"properties":{"LOCATION_TYPE":"level1","ADM0_A3":"SYR","LOCATION_ID":"SYR-RD","NAME":"Rif Dimashq","TYPE_EN":"Province"}},
{"type":"Feature","geometry":{"type":"Polygon","coordinates":[[[41.308458,35.552248],[41.363501,35.655241],[41.343657,35.857657],[41.240614,36.043021],[41.276994,36.354785],[41.365258,36.493898],[41.414867,36.527384],[41.789935,36.589292],[41.843781,36.617869],[42.281584,36.99397],[42.377186,37.062235],[42.305769,37.264548],[42.178541,37.306303],[42.009249,37.175613],[41.479773,37.075568],[41.20134,37.064974],[40.896449,37.122696],[40.708967,37.100476],[40.525722,37.025881],[40.393741,36.994022],[40.190136,36.884416],[39.765252,36.742151],[39.441708,36.692373],[39.524751,36.566761],[39.628258,36.559939],[39.782513,36.500821],[39.804527,36.463666],[39.900748,36.324295],[40.025805,36.221174],[40.774959,35.626301],[40.999493,35.56925],[41.308458,35.552248]]]},"properties":{"LOCATION_TYPE":"level1","ADM0_A3":"SYR","LOCATION_ID":"SYR-HA","NAME":"Hasaka (Al Haksa)","TYPE_EN":"Province"}},
{"type":"Feature","geometry":{"type":"Polygon","coordinates":[[[39.441708,36.692373],[39.185856,36.659521],[39.03217,36.701172],[38.795389,36.686651],[38.635192,36.744039],[38.671004,36.625258],[38.63142,36.429379],[38.572457,36.36592],[38.425179,36.292049],[38.194599,36.262955],[38.136722,36.238305],[38.065977,36.147716],[38.085045,36.05426],[38.175221,35.973024],[38.161888,35.914139],[38.079929,35.824894],[38.020811,35.642967],[38.042671,35.603098],[38.234804,35.435874],[38.301673,35.382337],[38.390298,35.390915],[38.684182,35.372312],[39.242029,35.24927],[39.666551,35.757559],[39.641436,35.864323],[39.804527,36.463666],[39.782513,36.500821],[39.628258,36.559939],[39.524751,36.566761],[39.441708,36.692373]]]},"properties":{"LOCATION_TYPE":"level1","ADM0_A3":"SYR","LOCATION_ID":"SYR-RA","NAME":"Ar Raqqah","TYPE_EN":"Province"}},
{"type":"Feature","geometry":{"type":"Polygon","coordinates":[[[38.635192,36.744039],[38.529358,36.833722],[38.28989,36.901702],[38.190051,36.905526],[38.007943,36.825764],[37.819738,36.760548],[37.654063,36.732126],[37.446117,36.634199],[37.241892,36.65859],[37.014515,36.642261],[36.964699,36.75383],[36.658568,36.827521],[36.603274,36.746957],[36.535475,36.494001],[36.587771,36.324812],[36.648761,36.305719],[36.769363,36.330031],[36.840418,36.226265],[36.726213,36.126477],[36.880933,36.030747],[36.888684,35.969226],[37.00723,35.815592],[37.093064,35.772442],[37.055651,35.713686],[37.129341,35.591575],[37.216416,35.551474],[37.35341,35.502226],[37.575929,35.511347],[37.662074,35.462151],[37.808525,35.434943],[38.234804,35.435874],[38.042671,35.603098],[38.020811,35.642967],[38.079929,35.824894],[38.161888,35.914139],[38.175221,35.973024],[38.085045,36.05426],[38.065977,36.147716],[38.136722,36.238305],[38.194599,36.262955],[38.425179,36.292049],[38.572457,36.36592],[38.63142,36.429379],[38.671004,36.625258],[38.635192,36.744039]]]},"properties":{"LOCATION_TYPE":"level1","ADM0_A3":"SYR","LOCATION_ID":"SYR-HL","NAME":"Aleppo","TYPE_EN":"Province"}},
{"type":"Feature","geometry":{"type":"Polygon","coordinates":[[[36.648761,36.305719],[36.664253,36.229004],[36.498578,36.227867],[36.360498,36.181669],[36.355538,36.022402],[36.269031,35.958736],[36.196891,35.951708],[36.155308,35.822232],[36.254821,35.755932],[36.413829,35.69839],[36.3929,35.500133],[36.426128,35.436597],[36.699393,35.390088],[36.819799,35.417037],[36.904032,35.358411],[36.991572,35.421921],[37.016222,35.318981],[37.142054,35.34885],[37.079525,35.407968],[37.216416,35.551474],[37.129341,35.591575],[37.055651,35.713686],[37.093064,35.772442],[37.00723,35.815592],[36.888684,35.969226],[36.880933,36.030747],[36.726213,36.126477],[36.840418,36.226265],[36.769363,36.330031],[36.648761,36.305719]]]},"properties":{"LOCATION_TYPE":"level1","ADM0_A3":"SYR","LOCATION_ID":"SYR-ID","NAME":"Idlib","TYPE_EN":"Province"}},
{"type":"Feature","geometry":{"type":"Polygon","coordinates":[[[36.155308,35.822232],[35.911305,35.91775],[35.81186,35.835395],[35.838552,35.742092],[35.776622,35.675116],[35.778087,35.541164],[35.908865,35.425727],[35.931203,35.261491],[36.025636,35.219504],[36.252961,35.223432],[36.201284,35.425177],[36.221593,35.633329],[36.202835,35.682473],[36.254821,35.755932],[36.155308,35.822232]]]},"properties":{"LOCATION_TYPE":"level1","ADM0_A3":"SYR","LOCATION_ID":"SYR-LA","NAME":"Lattakia","TYPE_EN":"Province"}},
{"type":"Feature","geometry":{"type":"Polygon","coordinates":[[[37.494606,32.690056],[37.283905,32.862594],[37.274759,32.918146],[37.132597,32.974783],[37.103296,33.031886],[36.984596,33.063744],[36.885273,33.186502],[36.82383,33.224691],[36.570874,33.193969],[36.471087,33.151982],[36.495943,33.054184],[36.341224,32.943907],[36.3636,32.829392],[36.362773,32.6971],[36.41941,32.686403],[36.402202,32.576694],[36.495013,32.566178],[36.527311,32.47869],[36.516684,32.357014],[36.819385,32.316788],[37.494606,32.690056]]]},"properties":{"LOCATION_TYPE":"level1","ADM0_A3":"SYR","LOCATION_ID":"SYR-SU","NAME":"As Suwayda'","TYPE_EN":"Province"}},
{"type":"Feature","geometry":{"type":"Polygon","coordinates":[[[35.769734,32.748054],[35.895721,32.713276],[36.005998,32.607907],[36.06987,32.516595],[36.177357,32.527318],[36.373108,32.386422],[36.516684,32.357014],[36.527311,32.47869],[36.495013,32.566178],[36.402202,32.576694],[36.41941,32.686403],[36.362773,32.6971],[36.3636,32.829392],[36.341224,32.943907],[36.495943,33.054184],[36.471087,33.151982],[36.570874,33.193969],[36.50323,33.294454],[36.342464,33.20588],[36.241127,33.286987],[36.213376,33.226267],[35.999694,33.179215],[35.961661,33.204821],[35.980006,33.126118],[35.947708,33.032144],[35.977525,32.981372],[35.936701,32.906751],[35.846802,32.835777],[35.769734,32.748054]]]},"properties":{"LOCATION_TYPE":"level1","ADM0_A3":"SYR","LOCATION_ID":"SYR-DR","NAME":"Dar`a","TYPE_EN":"Province"}},
{"type":"Feature","geometry":{"type":"Polygon","coordinates":[[[41.308458,35.552248],[40.999493,35.56925],[40.774959,35.626301],[40.025805,36.221174],[39.900748,36.324295],[39.804527,36.463666],[39.641436,35.864323],[39.666551,35.757559],[39.242029,35.24927],[39.374372,35.149224],[39.437831,35.038482],[39.444549,34.936395],[40.173111,34.072283],[40.690467,34.331497],[40.936033,34.386068],[40.98802,34.42852],[41.195656,34.768473],[41.206508,34.819323],[41.191521,35.182143],[41.243095,35.366525],[41.261285,35.49432],[41.308458,35.552248]]]},"properties":{"LOCATION_TYPE":"level1","ADM0_A3":"SYR","LOCATION_ID":"SYR-DY","NAME":"Dayr Az Zawr","TYPE_EN":"Province"}},
{"type":"Feature","geometry":{"type":"Polygon","coordinates":[[[35.846802,32.835777],[35.936701,32.906751],[35.977525,32.981372],[35.947708,33.032144],[35.980006,33.126118],[35.961661,33.204821],[35.895256,33.298665],[35.842976,33.3228],[35.910603,33.135395],[35.868436,33.107283],[35.877117,32.992638],[35.923833,32.967679],[35.846802,32.835777]]]},"properties":{"LOCATION_TYPE":"level1","ADM0_A3":"SYR","LOCATION_ID":"SYR-QU","NAME":"Quneitra","TYPE_EN":"Province"}},
{"type":"Feature","geometry":{"type":"Polygon","coordinates":[[[37.216416,35.551474],[37.079525,35.407968],[37.142054,35.34885],[37.016222,35.318981],[36.991572,35.421921],[36.904032,35.358411],[36.819799,35.417037],[36.699393,35.390088],[36.426128,35.436597],[36.3929,35.500133],[36.413829,35.69839],[36.254821,35.755932],[36.202835,35.682473],[36.221593,35.633329],[36.201284,35.425177],[36.252961,35.223432],[36.260092,34.96629],[36.313164,34.900919],[36.41941,34.85162],[36.490517,34.950115],[36.540178,34.906604],[36.649267,34.912598],[36.873646,34.97833],[36.972762,34.860896],[37.106862,34.927662],[37.451182,34.987425],[37.568333,35.082562],[37.736849,35.118632],[37.817568,35.088298],[37.855705,35.008768],[37.986033,34.898542],[38.052799,35.002386],[38.232633,35.086127],[38.299967,35.253637],[38.301673,35.382337],[38.234804,35.435874],[37.808525,35.434943],[37.662074,35.462151],[37.575929,35.511347],[37.35341,35.502226],[37.216416,35.551474]]]},"properties":{"LOCATION_TYPE":"level1","ADM0_A3":"SYR","LOCATION_ID":"SYR-HM","NAME":"Hamah","TYPE_EN":"Province"}},
{"type":"Feature","geometry":{"type":"Polygon","coordinates":[[[36.316609,33.460691],[36.351098,33.543883],[36.221629,33.549457],[36.190745,33.513227],[36.316609,33.460691]]]},"properties":{"LOCATION_TYPE":"level1","ADM0_A3":"SYR","LOCATION_ID":"SYR-DI","NAME":"Damascus","TYPE_EN":"Province"}}
]}