{"type":"FeatureCollection", "features": [
{"type":"Feature","geometry":{"type":"Polygon","coordinates":[[[-72.337229,21.800971],[-72.281239,21.779608],[-72.219716,21.770331],[-72.307932,21.85224],[-72.337229,21.800971]]]},"properties":{"LOCATION_TYPE":"level1","ADM0_A3":"TCA","LOCATION_ID":"TCA-X03~","NAME":"Providenciales and West Caicos","TYPE_EN":null}},
{"type":"Feature","geometry":{"type":"Polygon","coordinates":[[[-71.507965,21.70539],[-71.471262,21.662177],[-71.451894,21.690172],[-71.480946,21.725491],[-71.507965,21.70539]]]},"properties":{"LOCATION_TYPE":"level1","ADM0_A3":"TCA","LOCATION_ID":"TCA-X04~","NAME":"South Caicos and East Caicos","TYPE_EN":null}},
{"type":"Feature","geometry":{"type":"Polygon","coordinates":[[[-71.802846,21.787909],[-71.741119,21.794908],[-71.686147,21.774319],[-71.668528,21.750434],[-71.63093,21.774319],[-71.678782,21.841864],[-71.809397,21.839993],[-71.848012,21.819403],[-71.802846,21.787909]]]},"properties":{"LOCATION_TYPE":"level1","ADM0_A3":"TCA","LOCATION_ID":"TCA-X01~","NAME":"Middle Caicos","TYPE_EN":null}},
{"type":"Feature","geometry":{"type":"Polygon","coordinates":[[[-72.021962,21.904608],[-71.964019,21.933417],[-71.96052,21.876695],[-71.903391,21.866523],[-71.911041,21.948432],[-72.00829,21.959215],[-72.031809,21.946479],[-72.021962,21.904608]]]},"properties":{"LOCATION_TYPE":"level1","ADM0_A3":"TCA","LOCATION_ID":"TCA-X02~","NAME":"North Caicos","TYPE_EN":null}},
{"type":"Feature","geometry":{"type":"Polygon","coordinates":[[[-71.138092,21.513617],[-71.151682,21.450588],[-71.133616,21.446479],[-71.138092,21.513617]]]},"properties":{"LOCATION_TYPE":"level1","ADM0_A3":"TCA","LOCATION_ID":"TCA-X05~","NAME":"Grand Turk","TYPE_EN":null}},
{"type":"Feature","geometry":{"type":"Polygon","coordinates":[[[-71.209828,21.341376],[-71.219228,21.314358],[-71.213694,21.310614],[-71.192494,21.335028],[-71.209828,21.341376]]]},"properties":{"LOCATION_TYPE":"level1","ADM0_A3":"TCA","LOCATION_ID":"TCA-X06~","NAME":"Salt Cay","TYPE_EN":null}}
]}