{"type":"FeatureCollection", "features": [
{"type":"Feature","geometry":{"type":"Polygon","coordinates":[[[13.608052,14.518266],[13.449184,14.380131],[13.607314,13.7041],[14.064908,13.077988],[14.418169,13.081141],[14.481041,13.000508],[14.998392,12.999827],[15.169545,13.206068],[15.245871,13.115375],[15.379299,13.185035],[15.219464,13.361407],[15.35682,13.405125],[15.560137,13.264834],[15.375818,13.751985],[15.213263,13.750582],[14.795717,13.671207],[14.477442,14.104514],[14.356571,14.134951],[13.950498,14.466146],[13.608052,14.518266]]]},"properties":{"LOCATION_TYPE":"level1","ADM0_A3":"TCD","LOCATION_ID":"TCD-LC","NAME":"Lac","TYPE_EN":"Prefecture"}},
{"type":"Feature","geometry":{"type":"Polygon","coordinates":[[[22.36469,10.954209],[22.460468,11.000828],[22.861064,10.919154],[22.956459,11.2088],[22.914808,11.396101],[22.781792,11.398892],[22.628107,11.509841],[22.537053,11.68089],[22.592863,11.988933],[22.481449,12.176674],[22.372825,12.463116],[22.445689,12.611066],[22.204877,12.743358],[22.058736,12.636697],[21.935953,12.63954],[21.809449,12.793665],[21.574482,12.881977],[21.237497,12.677744],[20.982206,12.667532],[20.849455,12.718591],[20.839243,12.881977],[20.686068,12.912612],[20.675857,13.045363],[20.410354,13.045363],[20.294555,13.092328],[19.990284,12.970578],[20.174614,12.840664],[20.054983,12.680002],[20.095756,12.599386],[19.915457,12.407563],[19.82001,12.087014],[20.272541,12.064742],[20.521104,11.899429],[21.029135,11.649625],[21.261431,11.596411],[21.821128,11.698098],[22.082611,11.594848],[22.36469,10.954209]]]},"properties":{"LOCATION_TYPE":"level1","ADM0_A3":"TCD","LOCATION_ID":"TCD-SI","NAME":"Sila","TYPE_EN":"Prefecture"}},
{"type":"Feature","geometry":{"type":"Polygon","coordinates":[[[22.36469,10.954209],[22.082611,11.594848],[21.821128,11.698098],[21.261431,11.596411],[21.029135,11.649625],[20.521104,11.899429],[20.272541,12.064742],[19.82001,12.087014],[19.389597,12.158948],[19.21922,11.999371],[19.285779,11.844962],[19.190798,11.673655],[18.865133,11.679804],[18.857485,11.350367],[19.397659,11.062116],[19.633045,10.988994],[19.658366,10.618474],[19.605915,10.359161],[19.640951,10.225216],[19.576097,10.064451],[19.651028,9.928128],[19.932091,9.063331],[20.068676,9.138126],[20.359408,9.116421],[20.496144,9.270882],[20.82615,9.418083],[21.256924,9.975749],[21.374333,9.973113],[21.485437,10.164316],[21.65628,10.233666],[21.751054,10.41182],[21.722632,10.636716],[22.176351,10.816214],[22.36469,10.954209]]]},"properties":{"LOCATION_TYPE":"level1","ADM0_A3":"TCD","LOCATION_ID":"TCD-SA","NAME":"Salamat","TYPE_EN":"Prefecture"}},
{"type":"Feature","geometry":{"type":"Polygon","coordinates":[[[19.932091,9.063331],[19.651028,9.928128],[19.576097,10.064451],[19.640951,10.225216],[19.605915,10.359161],[19.658366,10.618474],[19.533723,10.49538],[19.385256,10.474555],[19.300197,10.29746],[18.998872,10.007038],[18.806945,9.998666],[18.766431,9.892523],[18.44552,10.184857],[18.130501,10.346449],[17.924932,10.386136],[17.82716,10.473883],[17.533741,10.463703],[17.329516,9.815835],[17.558391,9.663183],[17.536532,9.587064],[17.713087,9.455501],[17.795169,9.291337],[18.165457,9.160102],[17.967459,9.007392],[18.031545,8.57652],[18.128662,8.378818],[18.175431,8.021952],[18.589283,8.047882],[18.672586,8.20751],[18.813042,8.276421],[19.124135,8.675079],[18.929108,8.796544],[18.892727,8.897933],[19.10057,9.015265],[19.369391,9.000382],[19.932091,9.063331]]]},"properties":{"LOCATION_TYPE":"level1","ADM0_A3":"TCD","LOCATION_ID":"TCD-MC","NAME":"Moyen-Chari","TYPE_EN":"Prefecture"}},
{"type":"Feature","geometry":{"type":"Polygon","coordinates":[[[18.175431,8.021952],[18.128662,8.378818],[18.031545,8.57652],[17.967459,9.007392],[18.165457,9.160102],[17.795169,9.291337],[17.713087,9.455501],[17.536532,9.587064],[17.459741,9.639205],[17.254585,9.601481],[17.21004,9.385991],[17.071961,9.275506],[17.180275,9.146936],[17.104827,9.069783],[17.117384,8.78365],[17.039198,8.611568],[17.249469,8.290554],[17.090874,8.120383],[17.23379,7.810801],[17.679778,7.985198],[17.897853,7.967473],[18.175431,8.021952]]]},"properties":{"LOCATION_TYPE":"level1","ADM0_A3":"TCD","LOCATION_ID":"TCD-MA","NAME":"Mandoul","TYPE_EN":"Prefecture"}},
{"type":"Feature","geometry":{"type":"Polygon","coordinates":[[[17.23379,7.810801],[17.090874,8.120383],[17.249469,8.290554],[17.039198,8.611568],[17.117384,8.78365],[17.104827,9.069783],[16.919102,9.036141],[16.568736,9.136083],[16.435359,9.127609],[16.597106,8.881112],[16.365027,8.648568],[16.145196,8.597512],[15.892911,8.438762],[15.818601,8.318976],[15.576548,8.257636],[15.273208,8.448632],[15.210706,8.421822],[15.345347,8.13599],[15.440742,7.839419],[15.562905,7.792445],[15.548952,7.630801],[15.793899,7.457996],[16.0652,7.591217],[16.370814,7.672504],[16.407401,7.796063],[16.548685,7.870012],[16.624546,7.66868],[16.768619,7.550238],[16.880654,7.632869],[17.101932,7.677724],[17.23379,7.810801]]]},"properties":{"LOCATION_TYPE":"level1","ADM0_A3":"TCD","LOCATION_ID":"TCD-LR","NAME":"Logone Oriental","TYPE_EN":"Prefecture"}},
{"type":"Feature","geometry":{"type":"Polygon","coordinates":[[[14.481041,13.000508],[14.603997,12.760798],[14.830753,12.618249],[14.904863,12.248664],[15.3658,12.330548],[15.406647,12.27949],[15.712996,12.350971],[15.978499,12.371395],[16.060192,12.463299],[16.642256,12.228431],[16.672891,12.003775],[16.775008,11.881235],[16.785219,11.738272],[16.989452,11.687214],[17.265167,11.493193],[17.459188,11.666791],[17.625571,11.715099],[17.523665,11.915139],[17.560096,12.155641],[17.402122,12.191711],[17.289467,12.354698],[17.257531,12.515515],[17.128702,12.619488],[16.969848,12.970578],[17.131699,13.144004],[16.997288,13.18209],[16.719373,13.11305],[16.246895,13.051968],[15.999985,13.047576],[15.88361,13.187878],[15.776226,13.171858],[15.560137,13.264834],[15.35682,13.405125],[15.219464,13.361407],[15.379299,13.185035],[15.245871,13.115375],[15.169545,13.206068],[14.998392,12.999827],[14.481041,13.000508]]]},"properties":{"LOCATION_TYPE":"level1","ADM0_A3":"TCD","LOCATION_ID":"TCD-HL","NAME":"Hadjer-Lamis","TYPE_EN":"Prefecture"}},
{"type":"Feature","geometry":{"type":"Polygon","coordinates":[[[14.904863,12.248664],[15.011827,12.108616],[15.107462,12.1541],[15.122526,12.090645],[15.04056,12.055648],[15.068258,11.700114],[15.135644,11.530822],[15.06061,11.416126],[15.02883,11.080218],[15.231298,11.184537],[15.432061,11.116273],[15.548746,10.925948],[15.745582,10.811227],[16.139201,10.734436],[16.126489,10.31503],[16.219403,10.195864],[16.440217,10.192867],[16.562225,10.250847],[16.644132,10.085896],[16.943907,9.937172],[17.138055,9.910662],[17.329516,9.815835],[17.533741,10.463703],[17.295802,10.584356],[17.316225,10.747743],[17.254955,11.237902],[17.265167,11.493193],[16.989452,11.687214],[16.785219,11.738272],[16.775008,11.881235],[16.672891,12.003775],[16.642256,12.228431],[16.060192,12.463299],[15.978499,12.371395],[15.712996,12.350971],[15.406647,12.27949],[15.3658,12.330548],[14.904863,12.248664]]]},"properties":{"LOCATION_TYPE":"level1","ADM0_A3":"TCD","LOCATION_ID":"TCD-CB","NAME":"Chari-Baguirmi","TYPE_EN":"Prefecture"}},
{"type":"Feature","geometry":{"type":"Polygon","coordinates":[[[15.04056,12.055648],[15.122526,12.090645],[15.107462,12.1541],[15.011827,12.108616],[15.04056,12.055648]]]},"properties":{"LOCATION_TYPE":"level1","ADM0_A3":"TCD","LOCATION_ID":"TCD-ND","NAME":"Ville de N'Djamena","TYPE_EN":"Capital"}},
{"type":"Feature","geometry":{"type":"Polygon","coordinates":[[[15.02883,11.080218],[15.065881,10.793115],[15.301422,10.311749],[15.536137,10.080523],[15.382968,9.930196],[15.214916,9.984095],[14.732465,9.923814],[14.737544,9.665827],[14.940712,9.69565],[15.026453,9.641596],[15.089637,9.394435],[15.438262,9.18683],[15.830693,9.741318],[15.97394,9.683234],[16.158425,9.855729],[16.243329,10.071582],[16.219403,10.195864],[16.126489,10.31503],[16.139201,10.734436],[15.745582,10.811227],[15.548746,10.925948],[15.432061,11.116273],[15.231298,11.184537],[15.02883,11.080218]]]},"properties":{"LOCATION_TYPE":"level1","ADM0_A3":"TCD","LOCATION_ID":"TCD-ME","NAME":"Mayo-Kebbi Est","TYPE_EN":"Prefecture"}},
{"type":"Feature","geometry":{"type":"Polygon","coordinates":[[[14.732465,9.923814],[14.440493,9.995308],[14.181697,9.978178],[13.947603,9.637759],[14.321327,9.243158],[14.349542,9.168356],[14.793856,8.813623],[15.031258,8.658749],[15.210706,8.421822],[15.273208,8.448632],[15.305919,8.671771],[15.463894,9.026736],[15.438262,9.18683],[15.089637,9.394435],[15.026453,9.641596],[14.940712,9.69565],[14.737544,9.665827],[14.732465,9.923814]]]},"properties":{"LOCATION_TYPE":"level1","ADM0_A3":"TCD","LOCATION_ID":"TCD-MO","NAME":"Mayo-Kebbi Ouest","TYPE_EN":"Prefecture"}},
{"type":"Feature","geometry":{"type":"Polygon","coordinates":[[[20.893329,21.02094],[20.004278,19.279519],[20.152564,18.686375],[20.424422,17.969658],[20.399708,17.178799],[20.30085,16.758655],[20.637016,15.843719],[20.483536,15.711599],[20.5672,15.685451],[20.832868,15.799449],[21.091509,15.983831],[21.293409,15.89009],[21.762631,15.998249],[22.018222,15.986001],[22.470701,15.9089],[22.544547,15.815159],[22.767531,15.838517],[23.069631,15.784773],[23.119249,15.707224],[23.320571,15.681318],[23.592699,15.749014],[23.984406,15.72116],[23.983476,16.941138],[23.982753,17.870228],[23.981306,19.496124],[23.240162,19.862096],[22.252109,20.350077],[20.893329,21.02094]]]},"properties":{"LOCATION_TYPE":"level1","ADM0_A3":"TCD","LOCATION_ID":"TCD-X01~","NAME":"Ennedi","TYPE_EN":"Préfecture"}},
{"type":"Feature","geometry":{"type":"Polygon","coordinates":[[[20.893329,21.02094],[19.534652,21.691855],[18.917119,21.99685],[18.719131,21.849813],[18.76856,21.355526],[18.743846,21.133096],[18.150701,20.935381],[17.829414,20.712952],[17.40927,20.688238],[17.359842,20.41638],[16.817909,19.462185],[16.271391,18.499916],[15.490248,17.124537],[15.468517,16.90491],[16.671386,16.341869],[17.842818,15.792525],[17.992887,15.616411],[18.270647,15.431461],[18.479989,15.383867],[18.791236,15.45053],[18.935413,15.521999],[19.13044,15.73072],[19.207438,15.940061],[19.215034,16.173277],[19.379365,16.120515],[19.423445,15.96807],[19.555013,15.886369],[20.000051,15.783843],[20.304322,15.669535],[20.483536,15.711599],[20.637016,15.843719],[20.30085,16.758655],[20.399708,17.178799],[20.424422,17.969658],[20.152564,18.686375],[20.004278,19.279519],[20.893329,21.02094]]]},"properties":{"LOCATION_TYPE":"level1","ADM0_A3":"TCD","LOCATION_ID":"TCD-BO","NAME":"Borkou","TYPE_EN":"Préfecture"}},
{"type":"Feature","geometry":{"type":"Polygon","coordinates":[[[18.917119,21.99685],[17.434832,22.728795],[15.985101,23.44472],[14.979909,22.995664],[15.172024,21.993387],[15.180396,21.507267],[15.301009,21.40133],[15.60931,20.95066],[15.544198,20.79899],[15.953992,20.374571],[15.962984,20.319226],[15.736021,19.903541],[15.651582,18.949387],[15.583162,18.173879],[15.490248,17.124537],[16.271391,18.499916],[16.817909,19.462185],[17.359842,20.41638],[17.40927,20.688238],[17.829414,20.712952],[18.150701,20.935381],[18.743846,21.133096],[18.76856,21.355526],[18.719131,21.849813],[18.917119,21.99685]]]},"properties":{"LOCATION_TYPE":"level1","ADM0_A3":"TCD","LOCATION_ID":"TCD-TI","NAME":"Tibesti","TYPE_EN":"Préfecture"}},
{"type":"Feature","geometry":{"type":"Polygon","coordinates":[[[13.608052,14.518266],[13.950498,14.466146],[14.356571,14.134951],[14.477442,14.104514],[14.795717,13.671207],[15.213263,13.750582],[15.375818,13.751985],[15.560137,13.264834],[15.776226,13.171858],[15.88361,13.187878],[15.898389,13.521501],[15.841752,13.765775],[15.600722,13.753926],[15.590457,14.07674],[15.774266,14.148221],[16.111251,14.57711],[16.131674,14.811978],[16.489082,16.037376],[16.671386,16.341869],[15.468517,16.90491],[15.02578,16.432538],[14.368973,15.749634],[13.833915,15.019601],[13.764358,14.719077],[13.608052,14.518266]]]},"properties":{"LOCATION_TYPE":"level1","ADM0_A3":"TCD","LOCATION_ID":"TCD-KA","NAME":"Kanem","TYPE_EN":"Prefecture"}},
{"type":"Feature","geometry":{"type":"Polygon","coordinates":[[[22.180762,13.920555],[21.702273,14.11087],[21.435519,14.151488],[21.168197,14.101465],[20.898962,14.264763],[20.844185,14.355041],[20.558828,14.46904],[20.288044,14.441393],[20.000051,14.155984],[20.000051,14.010618],[20.238538,13.886233],[20.283238,13.563152],[20.294555,13.092328],[20.410354,13.045363],[20.675857,13.045363],[20.686068,12.912612],[20.839243,12.881977],[20.849455,12.718591],[20.982206,12.667532],[21.237497,12.677744],[21.574482,12.881977],[21.809449,12.793665],[21.935126,13.059152],[22.139971,13.193511],[22.267612,13.334562],[22.195885,13.580464],[22.073722,13.771357],[22.180762,13.920555]]]},"properties":{"LOCATION_TYPE":"level1","ADM0_A3":"TCD","LOCATION_ID":"TCD-OD","NAME":"Ouaddaï","TYPE_EN":"Prefecture"}},
{"type":"Feature","geometry":{"type":"Polygon","coordinates":[[[23.119249,15.707224],[23.069631,15.784773],[22.767531,15.838517],[22.544547,15.815159],[22.470701,15.9089],[22.018222,15.986001],[21.762631,15.998249],[21.293409,15.89009],[21.091509,15.983831],[20.832868,15.799449],[20.5672,15.685451],[20.483536,15.711599],[20.304322,15.669535],[20.000051,15.783843],[20.000051,14.155984],[20.288044,14.441393],[20.558828,14.46904],[20.844185,14.355041],[20.898962,14.264763],[21.168197,14.101465],[21.435519,14.151488],[21.702273,14.11087],[22.180762,13.920555],[22.531472,14.122627],[22.441038,14.249855],[22.465429,14.629289],[22.666347,14.681741],[22.650844,14.816151],[22.738901,14.97981],[22.965657,15.223904],[22.92566,15.563935],[23.119249,15.707224]]]},"properties":{"LOCATION_TYPE":"level1","ADM0_A3":"TCD","LOCATION_ID":"TCD-WF","NAME":"Wadi Fira","TYPE_EN":"Prefecture"}},
{"type":"Feature","geometry":{"type":"Polygon","coordinates":[[[15.88361,13.187878],[15.999985,13.047576],[16.246895,13.051968],[16.719373,13.11305],[16.997288,13.18209],[17.131699,13.144004],[17.203839,13.270818],[17.197018,13.500623],[17.249624,13.72769],[17.551415,13.820087],[17.992887,15.616411],[17.842818,15.792525],[16.671386,16.341869],[16.489082,16.037376],[16.131674,14.811978],[16.111251,14.57711],[15.774266,14.148221],[15.590457,14.07674],[15.600722,13.753926],[15.841752,13.765775],[15.898389,13.521501],[15.88361,13.187878]]]},"properties":{"LOCATION_TYPE":"level1","ADM0_A3":"TCD","LOCATION_ID":"TCD-BG","NAME":"Barh El Gazel","TYPE_EN":"Prefecture"}},
{"type":"Feature","geometry":{"type":"Polygon","coordinates":[[[16.435359,9.127609],[16.568736,9.136083],[16.919102,9.036141],[17.104827,9.069783],[17.180275,9.146936],[17.071961,9.275506],[17.21004,9.385991],[17.254585,9.601481],[17.459741,9.639205],[17.536532,9.587064],[17.558391,9.663183],[17.329516,9.815835],[17.138055,9.910662],[16.943907,9.937172],[16.644132,10.085896],[16.562225,10.250847],[16.440217,10.192867],[16.219403,10.195864],[16.243329,10.071582],[16.158425,9.855729],[15.97394,9.683234],[15.830693,9.741318],[15.438262,9.18683],[15.463894,9.026736],[15.530298,8.99232],[15.829453,9.028441],[15.978126,9.106111],[16.141372,9.088334],[16.371022,9.237576],[16.435359,9.127609]]]},"properties":{"LOCATION_TYPE":"level1","ADM0_A3":"TCD","LOCATION_ID":"TCD-TA","NAME":"Tandjilé","TYPE_EN":"Prefecture"}},
{"type":"Feature","geometry":{"type":"Polygon","coordinates":[[[16.435359,9.127609],[16.371022,9.237576],[16.141372,9.088334],[15.978126,9.106111],[15.829453,9.028441],[15.530298,8.99232],[15.463894,9.026736],[15.305919,8.671771],[15.273208,8.448632],[15.576548,8.257636],[15.818601,8.318976],[15.892911,8.438762],[16.145196,8.597512],[16.365027,8.648568],[16.597106,8.881112],[16.435359,9.127609]]]},"properties":{"LOCATION_TYPE":"level1","ADM0_A3":"TCD","LOCATION_ID":"TCD-LO","NAME":"Logone Occidental","TYPE_EN":"Prefecture"}},
{"type":"Feature","geometry":{"type":"Polygon","coordinates":[[[17.265167,11.493193],[17.254955,11.237902],[17.316225,10.747743],[17.295802,10.584356],[17.533741,10.463703],[17.82716,10.473883],[17.924932,10.386136],[18.130501,10.346449],[18.44552,10.184857],[18.766431,9.892523],[18.806945,9.998666],[18.998872,10.007038],[19.300197,10.29746],[19.385256,10.474555],[19.533723,10.49538],[19.658366,10.618474],[19.633045,10.988994],[19.397659,11.062116],[18.857485,11.350367],[18.865133,11.679804],[19.190798,11.673655],[19.285779,11.844962],[19.21922,11.999371],[19.389597,12.158948],[19.82001,12.087014],[19.915457,12.407563],[20.095756,12.599386],[20.054983,12.680002],[20.174614,12.840664],[19.990284,12.970578],[19.70575,13.055575],[19.081399,12.747853],[18.472702,12.77059],[17.82592,12.457173],[17.564747,12.236256],[17.560096,12.155641],[17.523665,11.915139],[17.625571,11.715099],[17.459188,11.666791],[17.265167,11.493193]]]},"properties":{"LOCATION_TYPE":"level1","ADM0_A3":"TCD","LOCATION_ID":"TCD-GR","NAME":"Guéra","TYPE_EN":"Prefecture"}},
{"type":"Feature","geometry":{"type":"Polygon","coordinates":[[[17.131699,13.144004],[16.969848,12.970578],[17.128702,12.619488],[17.257531,12.515515],[17.289467,12.354698],[17.402122,12.191711],[17.560096,12.155641],[17.564747,12.236256],[17.82592,12.457173],[18.472702,12.77059],[19.081399,12.747853],[19.70575,13.055575],[19.990284,12.970578],[20.294555,13.092328],[20.283238,13.563152],[20.238538,13.886233],[20.000051,14.010618],[20.000051,14.155984],[20.000051,15.783843],[19.555013,15.886369],[19.423445,15.96807],[19.379365,16.120515],[19.215034,16.173277],[19.207438,15.940061],[19.13044,15.73072],[18.935413,15.521999],[18.791236,15.45053],[18.479989,15.383867],[18.270647,15.431461],[17.992887,15.616411],[17.551415,13.820087],[17.249624,13.72769],[17.197018,13.500623],[17.203839,13.270818],[17.131699,13.144004]]]},"properties":{"LOCATION_TYPE":"level1","ADM0_A3":"TCD","LOCATION_ID":"TCD-BA","NAME":"Batha","TYPE_EN":"Prefecture"}}
]}