{"type":"FeatureCollection", "features": [
{"type":"Feature","geometry":{"type":"Polygon","coordinates":[[[0.997076,10.216508],[0.768769,10.367094],[0.781275,10.693044],[0.862924,10.796086],[0.901474,10.992741],[0.675338,10.988529],[0.487649,10.933236],[0.486616,11.003205],[0.016205,11.062582],[-0.088129,10.633486],[0.020339,10.588037],[0.176971,10.397687],[0.283114,10.396808],[0.366597,10.304488],[0.353601,10.115508],[0.39457,10.035557],[0.421969,9.965749],[0.550437,9.879475],[0.667898,9.942572],[0.736937,10.169896],[0.966587,10.181058],[0.997076,10.216508]]]},"properties":{"LOCATION_TYPE":"level1","ADM0_A3":"TGO","LOCATION_ID":"TGO-S","NAME":"Savanes","TYPE_EN":"Region"}},
{"type":"Feature","geometry":{"type":"Polygon","coordinates":[[[0.39457,10.035557],[0.32244,9.760671],[0.354608,9.571096],[0.230197,9.575747],[0.23136,9.418961],[0.430444,9.489189],[0.537569,9.377646],[0.504703,9.187166],[0.43127,9.02759],[0.493127,8.915219],[0.483629,8.834973],[0.584905,8.876771],[0.736317,9.050016],[0.879719,9.004619],[0.99656,9.061954],[1.000745,9.205795],[1.206366,9.213495],[1.420146,9.292317],[1.351266,9.595074],[1.331009,9.996471],[0.997076,10.216508],[0.966587,10.181058],[0.736937,10.169896],[0.667898,9.942572],[0.550437,9.879475],[0.421969,9.965749],[0.39457,10.035557]]]},"properties":{"LOCATION_TYPE":"level1","ADM0_A3":"TGO","LOCATION_ID":"TGO-K","NAME":"Kara","TYPE_EN":"Region"}},
{"type":"Feature","geometry":{"type":"Polygon","coordinates":[[[0.483629,8.834973],[0.365874,8.774272],[0.443518,8.606866],[0.616324,8.488759],[0.705207,8.282751],[0.573846,8.203945],[0.602688,7.893132],[0.835019,7.966439],[1.095572,7.952797],[1.240317,7.999951],[1.264554,8.16374],[1.236442,8.371996],[1.603945,8.367476],[1.640447,8.475815],[1.607581,8.558755],[1.601173,9.049526],[1.567273,9.13673],[1.420146,9.292317],[1.206366,9.213495],[1.000745,9.205795],[0.99656,9.061954],[0.879719,9.004619],[0.736317,9.050016],[0.584905,8.876771],[0.483629,8.834973]]]},"properties":{"LOCATION_TYPE":"level1","ADM0_A3":"TGO","LOCATION_ID":"TGO-C","NAME":"Centre","TYPE_EN":"Region"}},
{"type":"Feature","geometry":{"type":"Polygon","coordinates":[[[0.602688,7.893132],[0.612293,7.699428],[0.499432,7.562382],[0.500568,7.45505],[0.645676,7.323585],[0.59772,7.158892],[0.59803,7.0312],[0.494574,6.973116],[0.519275,6.832246],[0.634307,6.711607],[0.626659,6.644893],[0.713076,6.533936],[0.816416,6.569418],[0.887471,6.651196],[0.952635,6.818085],[1.115881,6.808861],[1.240938,6.721735],[1.36646,6.828266],[1.482732,6.831754],[1.564223,6.903089],[1.625668,6.996783],[1.621327,7.996567],[1.625564,8.270478],[1.603945,8.367476],[1.236442,8.371996],[1.264554,8.16374],[1.240317,7.999951],[1.095572,7.952797],[0.835019,7.966439],[0.602688,7.893132]]]},"properties":{"LOCATION_TYPE":"level1","ADM0_A3":"TGO","LOCATION_ID":"TGO-P","NAME":"Plateaux","TYPE_EN":"Region"}},
{"type":"Feature","geometry":{"type":"Polygon","coordinates":[[[0.713076,6.533936],[0.766805,6.419351],[1.199555,6.102525],[1.429535,6.181952],[1.619314,6.213813],[1.782351,6.277267],[1.74411,6.425733],[1.566033,6.678146],[1.60107,6.746437],[1.564223,6.903089],[1.482732,6.831754],[1.36646,6.828266],[1.240938,6.721735],[1.115881,6.808861],[0.952635,6.818085],[0.887471,6.651196],[0.816416,6.569418],[0.713076,6.533936]]]},"properties":{"LOCATION_TYPE":"level1","ADM0_A3":"TGO","LOCATION_ID":"TGO-M","NAME":"Maritime","TYPE_EN":"Region"}}
]}