{"type":"FeatureCollection", "features": [
{"type":"Feature","geometry":{"type":"Polygon","coordinates":[[[103.243278,14.341931],[103.457023,14.374421],[103.550247,14.42186],[103.596136,14.404342],[103.67148,14.42956],[103.682229,14.3838],[103.824029,14.368039],[103.870331,14.34326],[103.973994,14.36729],[104.045724,14.357285],[104.06231,14.454079],[104.04629,14.552187],[104.058073,14.663963],[104.006758,14.735716],[103.99203,14.809846],[103.929088,14.832816],[103.932861,14.89922],[104.017765,15.038695],[103.972135,15.174423],[103.996371,15.27036],[104.076469,15.36392],[104.049908,15.407613],[103.986036,15.410248],[103.845889,15.463036],[103.786099,15.438541],[103.591176,15.46518],[103.525547,15.435234],[103.417491,15.42787],[103.343232,15.401722],[103.115753,15.482285],[103.102679,15.428955],[103.167739,15.366375],[103.294347,15.311753],[103.366952,15.352707],[103.499967,15.299893],[103.44488,15.185998],[103.452321,15.060735],[103.44426,14.938132],[103.397079,14.868808],[103.28799,14.770132],[103.274141,14.678743],[103.233058,14.598076],[103.256778,14.453795],[103.243278,14.341931]]]},"properties":{"LOCATION_TYPE":"level1","ADM0_A3":"THA","LOCATION_ID":"THA-32","NAME":"Surin","TYPE_EN":"Province"}},
{"type":"Feature","geometry":{"type":"Polygon","coordinates":[[[104.045724,14.357285],[104.148454,14.369615],[104.247466,14.401086],[104.461975,14.357109],[104.542848,14.360391],[104.594628,14.41],[104.727953,14.409948],[104.771672,14.439869],[104.915621,14.393217],[104.833012,14.560093],[104.865879,14.654765],[104.86438,14.719851],[104.817974,14.811086],[104.828516,14.861832],[104.789087,14.909865],[104.716637,14.934076],[104.694313,14.971567],[104.688112,15.129826],[104.729866,15.147784],[104.683151,15.245194],[104.583829,15.241241],[104.418257,15.284804],[104.391902,15.315319],[104.254081,15.367925],[104.151038,15.50063],[104.129489,15.564528],[104.084324,15.536287],[103.986036,15.410248],[104.049908,15.407613],[104.076469,15.36392],[103.996371,15.27036],[103.972135,15.174423],[104.017765,15.038695],[103.932861,14.89922],[103.929088,14.832816],[103.99203,14.809846],[104.006758,14.735716],[104.058073,14.663963],[104.04629,14.552187],[104.06231,14.454079],[104.045724,14.357285]]]},"properties":{"LOCATION_TYPE":"level1","ADM0_A3":"THA","LOCATION_ID":"THA-33","NAME":"Si Sa Ket","TYPE_EN":"Province"}},
{"type":"Feature","geometry":{"type":"Polygon","coordinates":[[[104.915621,14.393217],[104.97383,14.380648],[104.975949,14.301118],[105.047314,14.214069],[105.101419,14.230528],[105.155007,14.33047],[105.3351,14.385712],[105.415973,14.428164],[105.495452,14.537124],[105.510128,14.593581],[105.489147,14.786334],[105.52005,14.833463],[105.534157,14.934025],[105.58356,14.977588],[105.443775,15.133806],[105.454421,15.175535],[105.563975,15.272531],[105.558032,15.325138],[105.486253,15.374902],[105.588366,15.423788],[105.650998,15.634602],[105.612912,15.72147],[105.525424,15.763483],[105.447961,15.764879],[105.372565,15.882132],[105.362488,15.95479],[105.404915,16.018817],[105.237225,16.050804],[105.106979,16.095853],[105.034757,15.999747],[105.057288,15.904559],[105.019099,15.865104],[105.021115,15.804979],[104.939466,15.613879],[104.936055,15.510759],[104.908615,15.473862],[104.823401,15.501328],[104.789087,15.563056],[104.724699,15.577396],[104.684701,15.628917],[104.6369,15.564813],[104.512102,15.58339],[104.491948,15.534763],[104.403685,15.528381],[104.381929,15.434019],[104.435259,15.371853],[104.418257,15.284804],[104.583829,15.241241],[104.683151,15.245194],[104.729866,15.147784],[104.688112,15.129826],[104.694313,14.971567],[104.716637,14.934076],[104.789087,14.909865],[104.828516,14.861832],[104.817974,14.811086],[104.86438,14.719851],[104.865879,14.654765],[104.833012,14.560093],[104.915621,14.393217]]]},"properties":{"LOCATION_TYPE":"level1","ADM0_A3":"THA","LOCATION_ID":"THA-34","NAME":"Ubon Ratchathani","TYPE_EN":"Province"}},
{"type":"Feature","geometry":{"type":"Polygon","coordinates":[[[102.91393,14.164946],[102.819388,14.16526],[102.713865,14.132135],[102.594183,14.148672],[102.500648,14.132368],[102.361432,14.156139],[102.302314,14.128337],[102.16563,14.137794],[102.05282,14.18562],[102.045069,14.130869],[101.990912,14.066816],[101.912519,14.03581],[101.910813,13.965091],[101.869576,13.933207],[101.863168,13.827838],[101.906473,13.80877],[101.876242,13.723142],[101.932259,13.582272],[101.98006,13.588809],[101.996338,13.528529],[101.945902,13.481684],[101.995408,13.336189],[102.03494,13.254256],[102.038868,13.161367],[102.127286,13.189299],[102.170901,13.243662],[102.270378,13.202269],[102.329186,13.272627],[102.332234,13.5646],[102.513205,13.567157],[102.579557,13.600489],[102.541058,13.6486],[102.57439,13.693894],[102.69862,13.761797],[102.772827,13.936076],[102.869772,14.020618],[102.91393,14.164946]]]},"properties":{"LOCATION_TYPE":"level1","ADM0_A3":"THA","LOCATION_ID":"THA-27","NAME":"Sa Kaeo","TYPE_EN":"Province"}},
{"type":"Feature","geometry":{"type":"Polygon","coordinates":[[[102.91393,14.164946],[103.085005,14.295821],[103.243278,14.341931],[103.256778,14.453795],[103.233058,14.598076],[103.274141,14.678743],[103.28799,14.770132],[103.397079,14.868808],[103.44426,14.938132],[103.452321,15.060735],[103.44488,15.185998],[103.499967,15.299893],[103.366952,15.352707],[103.294347,15.311753],[103.167739,15.366375],[103.102679,15.428955],[103.115753,15.482285],[103.085935,15.552126],[102.976847,15.671524],[103.008679,15.725759],[102.946461,15.789217],[102.903466,15.773043],[102.868584,15.636539],[102.789261,15.639511],[102.799338,15.544891],[102.837217,15.507891],[102.94181,15.503163],[102.991161,15.365522],[102.974211,15.306172],[102.982893,15.19375],[102.859541,15.157525],[102.780424,15.074972],[102.753863,14.984951],[102.672576,14.941672],[102.55496,14.94082],[102.567828,14.814626],[102.504524,14.808115],[102.442616,14.8485],[102.50809,14.657788],[102.485869,14.5757],[102.503439,14.510484],[102.559456,14.454674],[102.576044,14.370131],[102.617179,14.285743],[102.585656,14.195981],[102.594183,14.148672],[102.713865,14.132135],[102.819388,14.16526],[102.91393,14.164946]]]},"properties":{"LOCATION_TYPE":"level1","ADM0_A3":"THA","LOCATION_ID":"THA-31","NAME":"Buri Ram","TYPE_EN":"Province"}},
{"type":"Feature","geometry":{"type":"MultiPolygon","coordinates":[[[[102.355528,12.3583],[102.351899,12.323676],[102.265391,12.27147],[102.295909,12.190009],[102.336192,12.197577],[102.473643,12.148993],[102.571625,12.090969],[102.557302,12.183743],[102.631847,12.152045],[102.692212,12.178483],[102.715053,12.342194],[102.765127,12.416349],[102.664823,12.534223],[102.558628,12.63122],[102.486385,12.661192],[102.495196,12.74603],[102.448042,12.730903],[102.39466,12.665455],[102.39497,12.569285],[102.329651,12.556908],[102.332441,12.448698],[102.375591,12.401491],[102.355528,12.3583]]],[[[102.564138,11.707953],[102.53004,11.68008],[102.53004,11.604926],[102.584727,11.568834],[102.605968,11.684516],[102.564138,11.707953]]],[[[102.399669,12.043158],[102.310883,12.146186],[102.256358,12.131903],[102.2942,12.056789],[102.294119,11.994696],[102.349132,11.968899],[102.399669,12.043158]]]]},"properties":{"LOCATION_TYPE":"level1","ADM0_A3":"THA","LOCATION_ID":"THA-23","NAME":"Trat","TYPE_EN":"Province"}},
{"type":"Feature","geometry":{"type":"Polygon","coordinates":[[[102.495196,12.74603],[102.504316,12.799737],[102.464836,12.927532],[102.473156,13.006132],[102.38205,13.136615],[102.329186,13.272627],[102.270378,13.202269],[102.170901,13.243662],[102.127286,13.189299],[102.038868,13.161367],[102.03494,13.254256],[101.995408,13.336189],[101.769943,13.18147],[101.717647,13.171729],[101.692636,13.133979],[101.713306,13.034838],[101.82379,12.893477],[101.819449,12.766973],[101.789088,12.697845],[101.960785,12.537258],[102.071951,12.488511],[102.228282,12.323676],[102.310232,12.31623],[102.355528,12.3583],[102.375591,12.401491],[102.332441,12.448698],[102.329651,12.556908],[102.39497,12.569285],[102.39466,12.665455],[102.448042,12.730903],[102.495196,12.74603]]]},"properties":{"LOCATION_TYPE":"level1","ADM0_A3":"THA","LOCATION_ID":"THA-22","NAME":"Chanthaburi","TYPE_EN":"Province"}},
{"type":"Feature","geometry":{"type":"MultiPolygon","coordinates":[[[[100.1992,6.699414],[100.194639,6.79248],[100.213398,6.885265],[100.120018,6.932135],[100.046431,7.063419],[99.988554,7.069233],[99.937807,7.129668],[99.883495,7.068768],[99.813835,7.142717],[99.745609,7.129664],[99.67921,7.02676],[99.685802,6.877346],[99.797211,6.821682],[99.956554,6.664008],[100.001313,6.56745],[100.063324,6.506578],[100.144357,6.47958],[100.167198,6.566138],[100.166836,6.695122],[100.1992,6.699414]]],[[[99.672374,6.516547],[99.704438,6.558295],[99.680512,6.672919],[99.623871,6.657416],[99.600271,6.583441],[99.672374,6.516547]]]]},"properties":{"LOCATION_TYPE":"level1","ADM0_A3":"THA","LOCATION_ID":"THA-91","NAME":"Satun","TYPE_EN":"Province"}},
{"type":"Feature","geometry":{"type":"MultiPolygon","coordinates":[[[[100.1992,6.699414],[100.280783,6.688921],[100.317887,6.576706],[100.387391,6.522084],[100.467231,6.513221],[100.517409,6.481905],[100.648409,6.447153],[100.71285,6.493041],[100.805609,6.414803],[100.823732,6.298604],[100.882814,6.30145],[100.920538,6.339613],[100.925034,6.433716],[101.029007,6.477021],[101.103421,6.583784],[101.101147,6.637864],[101.062803,6.653832],[101.038774,6.732742],[101.068044,6.857733],[100.997573,6.856675],[100.849946,6.962063],[100.765147,6.98314],[100.611095,7.192613],[100.555869,7.144695],[100.486031,7.139901],[100.395518,7.21133],[100.378754,7.309801],[100.279647,7.205788],[100.154538,7.18026],[100.030618,7.091738],[100.046431,7.063419],[100.120018,6.932135],[100.213398,6.885265],[100.194639,6.79248],[100.1992,6.699414]]],[[[100.342459,7.938788],[100.15521,7.874429],[100.12963,7.80172],[100.200857,7.772325],[100.269705,7.795396],[100.306977,7.75788],[100.323497,7.6164],[100.406016,7.527655],[100.408122,7.37869],[100.438975,7.294135],[100.548139,7.19705],[100.567205,7.229493],[100.500627,7.333995],[100.440196,7.476996],[100.342459,7.938788]]]]},"properties":{"LOCATION_TYPE":"level1","ADM0_A3":"THA","LOCATION_ID":"THA-90","NAME":"Songkhla","TYPE_EN":"Province"}},
{"type":"Feature","geometry":{"type":"Polygon","coordinates":[[[100.823732,6.298604],[100.822145,6.259877],[100.910099,6.235796],[100.974281,6.272616],[101.023063,6.24099],[101.081664,6.246467],[101.089157,6.188848],[101.052519,6.134562],[101.094273,6.085754],[101.071122,5.919846],[101.015312,5.898349],[100.967201,5.781018],[101.037326,5.724587],[101.105435,5.637642],[101.149981,5.638649],[101.225015,5.699214],[101.248993,5.786986],[101.500201,5.892694],[101.488307,6.045032],[101.382319,6.196547],[101.435855,6.412632],[101.536263,6.442966],[101.613209,6.533503],[101.601685,6.555388],[101.557657,6.545053],[101.509081,6.595954],[101.462469,6.569961],[101.34537,6.550505],[101.303925,6.600528],[101.158715,6.600063],[101.101147,6.637864],[101.103421,6.583784],[101.029007,6.477021],[100.925034,6.433716],[100.920538,6.339613],[100.882814,6.30145],[100.823732,6.298604]]]},"properties":{"LOCATION_TYPE":"level1","ADM0_A3":"THA","LOCATION_ID":"THA-95","NAME":"Yala","TYPE_EN":"Province"}},
{"type":"Feature","geometry":{"type":"Polygon","coordinates":[[[101.500201,5.892694],[101.579308,5.906333],[101.650363,5.782646],[101.740022,5.782361],[101.800483,5.739909],[101.912931,5.859308],[101.919753,5.940259],[101.959388,6.011598],[102.060002,6.094797],[102.07309,6.257514],[101.908702,6.401923],[101.80836,6.464545],[101.723481,6.574408],[101.640959,6.628846],[101.59228,6.621637],[101.601685,6.555388],[101.613209,6.533503],[101.536263,6.442966],[101.435855,6.412632],[101.382319,6.196547],[101.488307,6.045032],[101.500201,5.892694]]]},"properties":{"LOCATION_TYPE":"level1","ADM0_A3":"THA","LOCATION_ID":"THA-96","NAME":"Narathiwat","TYPE_EN":"Province"}},
{"type":"Feature","geometry":{"type":"Polygon","coordinates":[[[100.390048,19.724387],[100.383516,19.763859],[100.474259,19.865352],[100.543351,20.06658],[100.529243,20.149727],[100.46103,20.190707],[100.364395,20.368965],[100.306518,20.399686],[100.220683,20.348992],[100.116607,20.248016],[100.099295,20.317805],[99.985917,20.387025],[99.942044,20.444025],[99.837709,20.416843],[99.7696,20.328424],[99.651932,20.306824],[99.502898,20.345219],[99.486258,20.245484],[99.525842,20.196184],[99.508734,20.152805],[99.5646,20.124147],[99.510443,20.053944],[99.590232,20.007823],[99.561396,19.922402],[99.498506,19.973329],[99.419854,19.957387],[99.387247,19.89429],[99.384766,19.80104],[99.342908,19.706498],[99.270561,19.660506],[99.271181,19.609372],[99.321617,19.546482],[99.294952,19.500515],[99.33247,19.369516],[99.341978,19.274844],[99.30937,19.186323],[99.325803,19.123433],[99.399856,18.998427],[99.533749,19.072867],[99.57969,19.293086],[99.570078,19.402718],[99.589766,19.471809],[99.641753,19.501239],[99.687383,19.429796],[99.746191,19.455789],[99.909282,19.482635],[99.912072,19.39879],[100.132214,19.470672],[100.186268,19.61472],[100.345121,19.676293],[100.390048,19.724387]]]},"properties":{"LOCATION_TYPE":"level1","ADM0_A3":"THA","LOCATION_ID":"THA-57","NAME":"Chiang Rai","TYPE_EN":"Province"}},
{"type":"Feature","geometry":{"type":"Polygon","coordinates":[[[99.508734,20.152805],[99.441403,20.101617],[99.295675,20.062497],[99.177749,20.121796],[99.117495,20.117791],[99.016829,20.041],[98.999362,19.907727],[99.008768,19.845922],[98.973834,19.78807],[98.883711,19.745463],[98.80785,19.806544],[98.749248,19.763498],[98.641348,19.744946],[98.532621,19.675854],[98.477801,19.705629],[98.482599,19.664097],[98.551225,19.604669],[98.608276,19.478992],[98.592928,19.389308],[98.610136,19.27624],[98.588897,19.20397],[98.654991,19.101031],[98.616234,19.042791],[98.465081,19.010597],[98.336561,19.034885],[98.247368,19.141829],[98.156107,19.145214],[98.11859,19.078603],[98.123706,18.938586],[98.083502,18.830427],[98.119004,18.77348],[98.108151,18.717282],[98.11549,18.539799],[98.167786,18.4358],[98.107221,18.359913],[98.11921,18.308831],[98.091873,18.236742],[98.126652,18.090731],[98.083502,18.024714],[98.102467,17.967637],[98.156262,17.93043],[98.242872,17.833537],[98.211969,17.778502],[98.245921,17.718195],[98.30261,17.695897],[98.2576,17.632981],[98.25946,17.580271],[98.322454,17.522833],[98.315167,17.392918],[98.337181,17.301115],[98.415213,17.250058],[98.562801,17.288144],[98.549778,17.363411],[98.566263,17.422916],[98.533035,17.469037],[98.561147,17.559264],[98.626776,17.605437],[98.611687,17.66533],[98.66388,17.737006],[98.710389,17.756177],[98.839063,17.715379],[98.897664,17.745894],[98.910583,17.818551],[98.849915,17.969782],[98.80382,18.000891],[98.816377,18.143389],[98.780669,18.252891],[98.680933,18.301416],[98.715815,18.430865],[98.775088,18.443138],[98.926551,18.529102],[99.010629,18.667672],[99.043081,18.654779],[99.17651,18.706275],[99.222502,18.649017],[99.219815,18.591734],[99.314796,18.5298],[99.35407,18.606203],[99.323323,18.624832],[99.365232,18.764927],[99.347352,18.851304],[99.371434,18.97538],[99.399856,18.998427],[99.325803,19.123433],[99.30937,19.186323],[99.341978,19.274844],[99.33247,19.369516],[99.294952,19.500515],[99.321617,19.546482],[99.271181,19.609372],[99.270561,19.660506],[99.342908,19.706498],[99.384766,19.80104],[99.387247,19.89429],[99.419854,19.957387],[99.498506,19.973329],[99.561396,19.922402],[99.590232,20.007823],[99.510443,20.053944],[99.5646,20.124147],[99.508734,20.152805]]]},"properties":{"LOCATION_TYPE":"level1","ADM0_A3":"THA","LOCATION_ID":"THA-50","NAME":"Chiang Mai","TYPE_EN":"Province"}},
{"type":"Feature","geometry":{"type":"Polygon","coordinates":[[[98.477801,19.705629],[98.439603,19.68774],[98.307312,19.689988],[98.237548,19.664692],[98.217911,19.707971],[98.111355,19.77714],[98.017924,19.789388],[98.008312,19.639112],[97.839847,19.555319],[97.848735,19.493979],[97.767086,19.397525],[97.806154,19.301097],[97.810804,19.11222],[97.727812,19.037082],[97.703318,18.964373],[97.657842,18.925719],[97.71913,18.864638],[97.759748,18.622792],[97.75179,18.582484],[97.617948,18.553158],[97.509531,18.491276],[97.438114,18.488123],[97.452583,18.333611],[97.528341,18.26532],[97.560587,18.328262],[97.637585,18.306326],[97.617948,18.241678],[97.684301,18.146103],[97.754064,17.969034],[97.685541,17.880718],[97.716857,17.769769],[97.768947,17.67918],[97.907994,17.554866],[98.105051,17.638639],[98.202048,17.646778],[98.30261,17.695897],[98.245921,17.718195],[98.211969,17.778502],[98.242872,17.833537],[98.156262,17.93043],[98.102467,17.967637],[98.083502,18.024714],[98.126652,18.090731],[98.091873,18.236742],[98.11921,18.308831],[98.107221,18.359913],[98.167786,18.4358],[98.11549,18.539799],[98.108151,18.717282],[98.119004,18.77348],[98.083502,18.830427],[98.123706,18.938586],[98.11859,19.078603],[98.156107,19.145214],[98.247368,19.141829],[98.336561,19.034885],[98.465081,19.010597],[98.616234,19.042791],[98.654991,19.101031],[98.588897,19.20397],[98.610136,19.27624],[98.592928,19.389308],[98.608276,19.478992],[98.551225,19.604669],[98.482599,19.664097],[98.477801,19.705629]]]},"properties":{"LOCATION_TYPE":"level1","ADM0_A3":"THA","LOCATION_ID":"THA-58","NAME":"Mae Hong Son","TYPE_EN":"Province"}},
{"type":"Feature","geometry":{"type":"Polygon","coordinates":[[[97.907994,17.554866],[97.982784,17.505444],[98.035494,17.405037],[98.08872,17.372791],[98.100606,17.302614],[98.221012,17.20076],[98.313306,17.052035],[98.436193,17.011573],[98.524559,16.850445],[98.456657,16.723218],[98.54709,16.620124],[98.564247,16.551962],[98.631633,16.463131],[98.656954,16.301642],[98.682379,16.273478],[98.788626,16.374557],[98.810433,16.439618],[98.885261,16.406183],[98.903348,16.363447],[98.883711,16.25875],[98.843093,16.208728],[98.807229,16.110542],[98.658711,16.116278],[98.583781,15.976959],[98.574375,15.835985],[98.54306,15.735371],[98.544055,15.675098],[98.663673,15.61822],[98.890223,15.279404],[98.980398,15.220622],[99.015641,15.266407],[99.057034,15.397329],[99.065922,15.484223],[99.042926,15.516107],[99.102819,15.625972],[99.121423,15.769813],[99.07879,15.868928],[99.06892,15.99675],[99.026183,16.030081],[99.010215,16.122014],[99.022463,16.200975],[98.997296,16.282056],[99.013316,16.3705],[99.006185,16.480002],[99.113982,16.475635],[99.17651,16.525193],[99.2394,16.541213],[99.249477,16.653247],[99.296813,16.723579],[99.301464,16.789079],[99.346009,16.887884],[99.281723,16.927727],[99.27976,17.059269],[99.318982,17.108568],[99.31738,17.260652],[99.280793,17.317755],[99.269941,17.392272],[99.21842,17.39576],[99.172686,17.33473],[99.045407,17.381446],[99.012541,17.422399],[99.033005,17.502937],[99.012076,17.610631],[98.932442,17.643988],[98.89322,17.617917],[98.864488,17.532574],[98.772607,17.483972],[98.721344,17.485264],[98.699847,17.609701],[98.740981,17.710728],[98.710389,17.756177],[98.66388,17.737006],[98.611687,17.66533],[98.626776,17.605437],[98.561147,17.559264],[98.533035,17.469037],[98.566263,17.422916],[98.549778,17.363411],[98.562801,17.288144],[98.415213,17.250058],[98.337181,17.301115],[98.315167,17.392918],[98.322454,17.522833],[98.25946,17.580271],[98.2576,17.632981],[98.30261,17.695897],[98.202048,17.646778],[98.105051,17.638639],[97.907994,17.554866]]]},"properties":{"LOCATION_TYPE":"level1","ADM0_A3":"THA","LOCATION_ID":"THA-63","NAME":"Tak","TYPE_EN":"Province"}},
{"type":"Feature","geometry":{"type":"Polygon","coordinates":[[[98.544055,15.675098],[98.567141,15.452546],[98.559906,15.355317],[98.474537,15.383481],[98.40343,15.360097],[98.38524,15.256253],[98.283024,15.289972],[98.215431,15.218865],[98.164995,15.125796],[98.198998,15.051382],[98.19507,14.977588],[98.243336,14.805118],[98.297493,14.721247],[98.418209,14.607559],[98.478154,14.516505],[98.54771,14.377676],[98.67039,14.267916],[98.706977,14.269983],[98.753693,14.200116],[98.945309,14.069142],[99.016209,13.937936],[99.092173,13.863574],[99.108813,13.762701],[99.146779,13.723674],[99.247927,13.765698],[99.354225,13.752288],[99.478817,13.796807],[99.547857,13.759341],[99.576589,13.78828],[99.689244,13.822283],[99.797041,13.815307],[99.880085,13.944524],[99.807789,14.035216],[99.81151,14.061778],[99.772546,14.103015],[99.766655,14.170841],[99.81027,14.210528],[99.825153,14.518365],[99.880705,14.547769],[99.867217,14.638435],[99.787325,14.6759],[99.678185,14.794214],[99.544446,14.795971],[99.529047,14.727913],[99.458973,14.690783],[99.437993,14.76543],[99.382906,14.766024],[99.283894,14.868653],[99.308285,14.895887],[99.279966,14.999782],[99.134497,15.022443],[99.069023,15.013942],[99.001017,15.077168],[98.980398,15.220622],[98.890223,15.279404],[98.663673,15.61822],[98.544055,15.675098]]]},"properties":{"LOCATION_TYPE":"level1","ADM0_A3":"THA","LOCATION_ID":"THA-71","NAME":"Kanchanaburi","TYPE_EN":"Province"}},
{"type":"Feature","geometry":{"type":"Polygon","coordinates":[[[99.404747,12.566941],[99.387039,12.465907],[99.457112,12.256411],[99.466311,12.126031],[99.545789,12.13187],[99.518401,12.025934],[99.574004,11.976324],[99.554057,11.895037],[99.630022,11.815766],[99.606871,11.725694],[99.5307,11.630919],[99.440576,11.597278],[99.428173,11.496896],[99.377634,11.435505],[99.364301,11.376723],[99.315726,11.320809],[99.243275,11.197664],[99.212993,11.108264],[99.140946,11.03941],[99.154186,11.004548],[99.265755,10.958401],[99.411328,10.956231],[99.503427,10.997054],[99.494151,11.114569],[99.51531,11.172919],[99.586192,11.195136],[99.569347,11.33397],[99.625743,11.440497],[99.641856,11.523261],[99.751801,11.709866],[99.817068,11.741441],[99.812511,11.832099],[99.855317,11.968411],[99.955333,12.072496],[100.02003,12.192694],[99.9817,12.279934],[100.010997,12.383246],[99.980805,12.454657],[99.960785,12.636176],[99.825463,12.627421],[99.761849,12.581997],[99.674051,12.576106],[99.624648,12.545255],[99.571421,12.573341],[99.474786,12.585615],[99.404747,12.566941]]]},"properties":{"LOCATION_TYPE":"level1","ADM0_A3":"THA","LOCATION_ID":"THA-77","NAME":"Prachuap Khiri Khan","TYPE_EN":"Province"}},
{"type":"Feature","geometry":{"type":"Polygon","coordinates":[[[99.404747,12.566941],[99.474786,12.585615],[99.571421,12.573341],[99.624648,12.545255],[99.674051,12.576106],[99.761849,12.581997],[99.825463,12.627421],[99.960785,12.636176],[99.987641,12.790473],[100.023936,12.847073],[100.060069,12.980292],[100.10434,13.057318],[100.073985,13.152777],[99.998546,13.218085],[99.960867,13.291571],[99.858381,13.269345],[99.858691,13.328412],[99.757663,13.331641],[99.703661,13.311668],[99.662992,13.213509],[99.58341,13.19165],[99.451842,13.181521],[99.346732,13.22741],[99.323633,13.171884],[99.254748,13.17669],[99.18648,13.211559],[99.102095,13.171342],[99.093207,13.038327],[99.151084,12.994789],[99.171858,12.843326],[99.210719,12.792269],[99.21413,12.73465],[99.276865,12.665585],[99.404747,12.566941]]]},"properties":{"LOCATION_TYPE":"level1","ADM0_A3":"THA","LOCATION_ID":"THA-76","NAME":"Phetchaburi","TYPE_EN":"Province"}},
{"type":"Feature","geometry":{"type":"Polygon","coordinates":[[[99.18648,13.211559],[99.254748,13.17669],[99.323633,13.171884],[99.346732,13.22741],[99.451842,13.181521],[99.58341,13.19165],[99.662992,13.213509],[99.703661,13.311668],[99.757663,13.331641],[99.858691,13.328412],[99.918429,13.509615],[100.037904,13.504499],[100.078677,13.683687],[100.029688,13.738076],[99.948143,13.745415],[99.961372,13.84422],[99.942148,13.92561],[99.880085,13.944524],[99.797041,13.815307],[99.689244,13.822283],[99.576589,13.78828],[99.547857,13.759341],[99.478817,13.796807],[99.354225,13.752288],[99.247927,13.765698],[99.146779,13.723674],[99.152015,13.581963],[99.187878,13.42714],[99.172789,13.300921],[99.18648,13.211559]]]},"properties":{"LOCATION_TYPE":"level1","ADM0_A3":"THA","LOCATION_ID":"THA-70","NAME":"Ratchaburi","TYPE_EN":"Province"}},
{"type":"Feature","geometry":{"type":"Polygon","coordinates":[[[99.140946,11.03941],[99.076877,10.996513],[99.05507,10.94525],[99.001533,10.957627],[98.974454,10.824198],[98.879191,10.788203],[98.923916,10.742471],[98.974197,10.595297],[98.96691,10.536489],[98.912288,10.483805],[98.903452,10.424144],[98.950477,10.340971],[98.913374,10.286194],[98.89632,10.188112],[98.938282,10.125584],[98.903297,10.01727],[98.822733,9.948075],[98.773537,9.940479],[98.720827,9.857383],[98.641039,9.78607],[98.666464,9.655716],[98.749818,9.601171],[98.782426,9.677601],[98.902005,9.729665],[99.03533,9.734548],[99.144948,9.791232],[99.168305,9.844468],[99.158458,9.990546],[99.174001,10.042914],[99.159923,10.128323],[99.201345,10.210639],[99.151622,10.357367],[99.200043,10.378485],[99.278168,10.357367],[99.288748,10.412014],[99.246755,10.443915],[99.24464,10.535142],[99.288259,10.562934],[99.302419,10.631049],[99.435069,10.801825],[99.439708,10.861029],[99.494151,10.878119],[99.503427,10.997054],[99.411328,10.956231],[99.265755,10.958401],[99.154186,11.004548],[99.140946,11.03941]]]},"properties":{"LOCATION_TYPE":"level1","ADM0_A3":"THA","LOCATION_ID":"THA-86","NAME":"Chumphon","TYPE_EN":"Province"}},
{"type":"Feature","geometry":{"type":"Polygon","coordinates":[[[98.879191,10.788203],[98.83007,10.763556],[98.766715,10.688754],[98.747905,10.623125],[98.791313,10.520418],[98.72047,10.227932],[98.662283,10.085273],[98.603526,9.993598],[98.599864,9.948147],[98.512706,9.836859],[98.555431,9.798041],[98.543956,9.706488],[98.47169,9.621161],[98.519867,9.553778],[98.443207,9.520819],[98.389615,9.344923],[98.430147,9.357026],[98.511021,9.306435],[98.585952,9.36284],[98.66357,9.352814],[98.655612,9.417074],[98.775294,9.546704],[98.749818,9.601171],[98.666464,9.655716],[98.641039,9.78607],[98.720827,9.857383],[98.773537,9.940479],[98.822733,9.948075],[98.903297,10.01727],[98.938282,10.125584],[98.89632,10.188112],[98.913374,10.286194],[98.950477,10.340971],[98.903452,10.424144],[98.912288,10.483805],[98.96691,10.536489],[98.974197,10.595297],[98.923916,10.742471],[98.879191,10.788203]]]},"properties":{"LOCATION_TYPE":"level1","ADM0_A3":"THA","LOCATION_ID":"THA-85","NAME":"Ranong","TYPE_EN":"Province"}},
{"type":"Feature","geometry":{"type":"Polygon","coordinates":[[[100.390048,19.724387],[100.345121,19.676293],[100.186268,19.61472],[100.132214,19.470672],[99.912072,19.39879],[99.909282,19.482635],[99.746191,19.455789],[99.687383,19.429796],[99.710483,19.318098],[99.709397,19.229085],[99.790219,19.059405],[99.843033,19.000753],[99.930831,18.985456],[99.964472,18.939568],[100.045966,18.891199],[100.073716,18.825389],[100.120949,18.811746],[100.169421,18.829962],[100.352562,18.815079],[100.419638,18.935925],[100.47395,18.948482],[100.478446,19.050672],[100.522474,19.046512],[100.625827,19.123174],[100.595442,19.250091],[100.608464,19.316289],[100.519581,19.360188],[100.574758,19.508347],[100.46196,19.537103],[100.390048,19.724387]]]},"properties":{"LOCATION_TYPE":"level1","ADM0_A3":"THA","LOCATION_ID":"THA-56","NAME":"Phayao","TYPE_EN":"Province"}},
{"type":"Feature","geometry":{"type":"Polygon","coordinates":[[[101.074089,18.371613],[101.030298,18.427791],[101.077892,18.510422],[101.155355,18.556724],[101.167757,18.606359],[101.240104,18.673642],[101.211269,18.711908],[101.232921,18.892724],[101.317877,19.05013],[101.229149,19.143587],[101.229872,19.225804],[101.201967,19.338666],[101.192872,19.452793],[101.238244,19.472301],[101.246202,19.570279],[101.207961,19.589555],[101.124659,19.565112],[100.974281,19.613481],[100.874597,19.612912],[100.745509,19.485013],[100.633268,19.542167],[100.574758,19.508347],[100.519581,19.360188],[100.608464,19.316289],[100.595442,19.250091],[100.625827,19.123174],[100.522474,19.046512],[100.478446,19.050672],[100.47395,18.948482],[100.419638,18.935925],[100.352562,18.815079],[100.394317,18.726738],[100.367962,18.664184],[100.40858,18.49683],[100.488988,18.493032],[100.541905,18.427067],[100.499323,18.345676],[100.503251,18.276042],[100.447544,18.150443],[100.405479,18.131168],[100.422119,18.015955],[100.51524,18.017919],[100.572187,18.049157],[100.760548,18.026058],[100.839199,18.083909],[100.919453,18.249946],[101.074089,18.371613]]]},"properties":{"LOCATION_TYPE":"level1","ADM0_A3":"THA","LOCATION_ID":"THA-55","NAME":"Nan","TYPE_EN":"Province"}},
{"type":"Feature","geometry":{"type":"Polygon","coordinates":[[[101.074089,18.371613],[100.919453,18.249946],[100.839199,18.083909],[100.760548,18.026058],[100.572187,18.049157],[100.51524,18.017919],[100.422119,18.015955],[100.364396,17.972857],[100.288484,17.958956],[100.129423,17.857231],[99.997235,17.828499],[99.950985,17.782326],[99.896569,17.803694],[99.969175,17.704811],[99.96933,17.617194],[99.929591,17.57916],[100.019766,17.47374],[100.034184,17.432812],[100.013978,17.315843],[99.97119,17.255045],[99.982817,17.165645],[100.151179,17.19833],[100.205491,17.19709],[100.261043,17.25148],[100.247401,17.303776],[100.294271,17.366744],[100.438552,17.414415],[100.50046,17.402633],[100.58707,17.424415],[100.609084,17.45834],[100.720033,17.530532],[100.857854,17.690626],[100.955878,17.707532],[100.965186,17.797623],[101.008284,17.89524],[101.066161,17.933997],[101.112308,18.011305],[101.165173,18.053421],[101.141609,18.123959],[101.159282,18.204058],[101.12838,18.245735],[101.145536,18.336246],[101.074089,18.371613]]]},"properties":{"LOCATION_TYPE":"level1","ADM0_A3":"THA","LOCATION_ID":"THA-53","NAME":"Uttaradit","TYPE_EN":"Province"}},
{"type":"Feature","geometry":{"type":"Polygon","coordinates":[[[100.955878,17.707532],[100.857854,17.690626],[100.720033,17.530532],[100.609084,17.45834],[100.58707,17.424415],[100.50046,17.402633],[100.438552,17.414415],[100.294271,17.366744],[100.247401,17.303776],[100.261043,17.25148],[100.205491,17.19709],[100.151179,17.19833],[99.982817,17.165645],[99.92742,17.122314],[100.010878,17.042113],[100.125083,16.971626],[100.118726,16.89592],[99.955687,16.865069],[99.888301,16.739082],[99.904424,16.688129],[99.917343,16.586275],[99.999871,16.555605],[100.032168,16.496177],[100.118881,16.51646],[100.234327,16.593509],[100.287037,16.510181],[100.419948,16.53788],[100.548571,16.52664],[100.581902,16.4283],[100.668202,16.347013],[100.706081,16.414916],[100.791399,16.453466],[100.837907,16.532893],[100.837494,16.595266],[100.873822,16.661877],[100.926274,16.691075],[100.895527,16.765644],[101.005391,16.868764],[101.065594,16.906178],[101.039239,16.971393],[101.042339,17.06516],[101.092982,17.226649],[100.990818,17.325299],[100.922863,17.328839],[100.882659,17.466634],[100.937738,17.555486],[100.885656,17.595878],[100.955878,17.707532]]]},"properties":{"LOCATION_TYPE":"level1","ADM0_A3":"THA","LOCATION_ID":"THA-65","NAME":"Phitsanulok","TYPE_EN":"Province"}},
{"type":"Feature","geometry":{"type":"Polygon","coordinates":[[[100.937738,17.555486],[100.882659,17.466634],[100.922863,17.328839],[100.990818,17.325299],[101.092982,17.226649],[101.042339,17.06516],[101.039239,16.971393],[101.065594,16.906178],[101.119906,16.927288],[101.133703,17.037126],[101.209616,17.115984],[101.303822,17.079449],[101.468567,17.072963],[101.541534,17.001236],[101.606853,17.009065],[101.634965,17.046583],[101.718732,16.888814],[101.718732,16.773524],[101.790562,16.766496],[101.933964,16.836544],[102.071269,16.885404],[102.035147,16.945555],[102.146561,17.015318],[102.088374,17.104848],[101.977993,17.146654],[101.946367,17.198253],[102.022073,17.318711],[101.993392,17.449685],[102.07561,17.452036],[102.141394,17.508751],[102.12124,17.583242],[102.074214,17.677319],[102.025122,17.733336],[102.04879,17.864336],[102.024553,17.981409],[102.058401,18.088405],[102.107385,18.212377],[102.071268,18.208502],[101.904301,18.037117],[101.790407,18.073575],[101.729067,17.912189],[101.577551,17.868109],[101.556261,17.792145],[101.45606,17.750184],[101.247029,17.592157],[101.202174,17.523169],[101.132307,17.461674],[100.937738,17.555486]]]},"properties":{"LOCATION_TYPE":"level1","ADM0_A3":"THA","LOCATION_ID":"THA-42","NAME":"Loei","TYPE_EN":"Province"}},
{"type":"Feature","geometry":{"type":"Polygon","coordinates":[[[104.203329,18.018644],[104.110937,18.114554],[104.068407,18.215401],[104.000039,18.318444],[103.951257,18.332991],[103.857774,18.286482],[103.832091,18.320666],[103.709101,18.349708],[103.607143,18.400403],[103.396768,18.441408],[103.260756,18.400196],[103.240189,18.335988],[103.296301,18.295168],[103.300283,18.235826],[103.360308,18.219153],[103.361975,18.165798],[103.321959,18.077429],[103.435682,17.990039],[103.510199,18.064169],[103.589006,18.040139],[103.623009,17.97172],[103.725896,17.917408],[103.760778,17.872475],[103.850643,17.87493],[103.968724,17.768296],[104.010324,17.801188],[103.990583,17.861029],[104.005673,17.923273],[104.070217,17.880278],[104.13445,17.909656],[104.128714,18.000814],[104.203329,18.018644]]]},"properties":{"LOCATION_TYPE":"level1","ADM0_A3":"THA","LOCATION_ID":"THA-38","NAME":"Bueng Kan","TYPE_EN":"Province"}},
{"type":"Feature","geometry":{"type":"Polygon","coordinates":[[[103.296301,18.295168],[103.185205,18.25775],[103.138593,18.166722],[103.07994,18.134786],[103.073067,18.035515],[103.037927,17.990686],[102.938605,18.008928],[102.852719,17.972031],[102.722184,17.881804],[102.660793,17.812867],[102.595577,17.850074],[102.61232,17.91529],[102.567517,17.970842],[102.412229,17.9942],[102.366392,18.038797],[102.306706,18.051457],[102.191571,18.152071],[102.171934,18.200286],[102.107385,18.212377],[102.058401,18.088405],[102.114212,18.058924],[102.163408,17.994793],[102.204749,18.018616],[102.290222,17.974588],[102.389079,17.89405],[102.473156,17.754317],[102.539612,17.750519],[102.609737,17.689308],[102.611287,17.618537],[102.735879,17.600244],[102.862332,17.726464],[102.850239,17.809869],[102.885018,17.885317],[102.949716,17.877023],[102.98775,17.822943],[103.05865,17.886376],[103.165104,17.802531],[103.265149,17.878806],[103.319513,17.834261],[103.39956,17.866429],[103.399095,17.943789],[103.435682,17.990039],[103.321959,18.077429],[103.361975,18.165798],[103.360308,18.219153],[103.300283,18.235826],[103.296301,18.295168]]]},"properties":{"LOCATION_TYPE":"level1","ADM0_A3":"THA","LOCATION_ID":"THA-43","NAME":"Nong Khai","TYPE_EN":"Province"}},
{"type":"Feature","geometry":{"type":"Polygon","coordinates":[[[104.203329,18.018644],[104.128714,18.000814],[104.13445,17.909656],[104.070217,17.880278],[104.005673,17.923273],[103.990583,17.861029],[104.010324,17.801188],[104.065411,17.72698],[104.076108,17.674994],[104.010013,17.468908],[104.058899,17.386019],[104.161322,17.411186],[104.229587,17.405682],[104.413503,17.420901],[104.444199,17.249309],[104.361775,17.082937],[104.394383,17.037436],[104.303277,16.934806],[104.239043,16.896178],[104.304052,16.85308],[104.494945,16.850057],[104.540059,16.814374],[104.596231,16.833676],[104.680825,16.821299],[104.685011,16.77138],[104.745783,16.75536],[104.75791,16.818895],[104.745317,17.024802],[104.809912,17.171666],[104.816423,17.372791],[104.714517,17.515263],[104.481198,17.640423],[104.422287,17.699799],[104.352627,17.819327],[104.287567,17.856741],[104.203329,18.018644]]]},"properties":{"LOCATION_TYPE":"level1","ADM0_A3":"THA","LOCATION_ID":"THA-48","NAME":"Nakhon Phanom","TYPE_EN":"Province"}},
{"type":"Feature","geometry":{"type":"Polygon","coordinates":[[[104.75791,16.818895],[104.745783,16.75536],[104.685011,16.77138],[104.680825,16.821299],[104.596231,16.833676],[104.540059,16.814374],[104.494945,16.850057],[104.304052,16.85308],[104.239043,16.896178],[104.141892,16.894215],[104.072852,16.83259],[104.184421,16.666761],[104.185662,16.611906],[104.237648,16.527984],[104.244314,16.432873],[104.312424,16.453311],[104.332578,16.330037],[104.355884,16.323397],[104.403995,16.345152],[104.504557,16.338073],[104.559334,16.307739],[104.631268,16.215445],[104.668991,16.236994],[104.812859,16.19064],[104.877712,16.207435],[104.988028,16.293963],[104.908046,16.35337],[104.868927,16.438429],[104.754515,16.528915],[104.753016,16.614801],[104.778338,16.715828],[104.75791,16.818895]]]},"properties":{"LOCATION_TYPE":"level1","ADM0_A3":"THA","LOCATION_ID":"THA-49","NAME":"Mukdahan","TYPE_EN":"Province"}},
{"type":"Feature","geometry":{"type":"Polygon","coordinates":[[[104.988028,16.293963],[104.877712,16.207435],[104.812859,16.19064],[104.807432,16.16059],[104.616281,16.120593],[104.563055,16.078192],[104.466058,15.912724],[104.424613,15.721263],[104.442442,15.638167],[104.512102,15.58339],[104.6369,15.564813],[104.684701,15.628917],[104.724699,15.577396],[104.789087,15.563056],[104.823401,15.501328],[104.908615,15.473862],[104.936055,15.510759],[104.939466,15.613879],[105.021115,15.804979],[105.019099,15.865104],[105.057288,15.904559],[105.034757,15.999747],[105.106979,16.095853],[105.042456,16.141445],[105.029744,16.236013],[104.988028,16.293963]]]},"properties":{"LOCATION_TYPE":"level1","ADM0_A3":"THA","LOCATION_ID":"THA-37","NAME":"Amnat Charoen","TYPE_EN":"Province"}},
{"type":"Feature","geometry":{"type":"MultiPolygon","coordinates":[[[[98.649217,8.368723],[98.676902,8.451577],[98.662743,8.556171],[98.713283,8.625081],[98.662019,8.643995],[98.581456,8.627174],[98.549778,8.651462],[98.60378,8.719261],[98.606932,8.776829],[98.501512,8.877236],[98.458724,8.887158],[98.461515,8.959298],[98.506473,8.978703],[98.482599,9.055907],[98.532518,9.28455],[98.511021,9.306435],[98.430147,9.357026],[98.389615,9.344923],[98.326915,9.203681],[98.32838,9.164374],[98.382009,9.071926],[98.329845,9.052069],[98.32488,8.975246],[98.261567,8.850653],[98.252778,8.766425],[98.224132,8.735338],[98.240489,8.651068],[98.199474,8.534369],[98.242035,8.40648],[98.277599,8.240709],[98.424978,8.148424],[98.462901,8.216132],[98.445649,8.3251],[98.526052,8.33633],[98.598888,8.374905],[98.649217,8.368723]]],[[[98.295665,9.145168],[98.250824,9.154039],[98.240001,9.06269],[98.323009,9.076239],[98.295665,9.145168]]]]},"properties":{"LOCATION_TYPE":"level1","ADM0_A3":"THA","LOCATION_ID":"THA-82","NAME":"Phangnga","TYPE_EN":"Province"}},
{"type":"Feature","geometry":{"type":"Polygon","coordinates":[[[99.256773,7.655064],[99.341048,7.747641],[99.295728,7.852002],[99.338051,7.943081],[99.345079,7.994835],[99.286684,8.102839],[99.31738,8.201515],[99.316036,8.292853],[99.266065,8.341558],[99.201935,8.321792],[99.060651,8.351739],[98.997916,8.314945],[98.916629,8.31355],[98.885572,8.507672],[98.91818,8.584257],[98.847435,8.641824],[98.770282,8.673399],[98.713283,8.625081],[98.662743,8.556171],[98.676902,8.451577],[98.649217,8.368723],[98.622081,8.292873],[98.703136,8.298529],[98.744151,8.214911],[98.747406,8.068264],[98.770274,8.023668],[98.829438,8.006781],[98.917979,8.051337],[98.967784,7.956204],[99.028087,7.903754],[99.056,7.847357],[99.014415,7.815009],[99.033214,7.722805],[99.091482,7.69184],[99.137543,7.74433],[99.256773,7.655064]]]},"properties":{"LOCATION_TYPE":"level1","ADM0_A3":"THA","LOCATION_ID":"THA-81","NAME":"Krabi","TYPE_EN":"Province"}},
{"type":"Feature","geometry":{"type":"Polygon","coordinates":[[[99.745609,7.129664],[99.813835,7.142717],[99.883495,7.068768],[99.937807,7.129668],[99.988554,7.069233],[100.046431,7.063419],[100.030618,7.091738],[99.965092,7.177004],[99.939823,7.301286],[99.887526,7.379653],[99.852748,7.48789],[99.79611,7.603257],[99.817505,7.679687],[99.744331,7.850916],[99.723815,7.991657],[99.606665,7.9791],[99.539175,7.878925],[99.400786,7.890087],[99.338051,7.943081],[99.295728,7.852002],[99.341048,7.747641],[99.256773,7.655064],[99.292735,7.620673],[99.308849,7.528306],[99.344005,7.46898],[99.336599,7.383612],[99.365896,7.336371],[99.470714,7.279975],[99.524669,7.311347],[99.583995,7.15644],[99.692882,7.116116],[99.745609,7.129664]]]},"properties":{"LOCATION_TYPE":"level1","ADM0_A3":"THA","LOCATION_ID":"THA-92","NAME":"Trang","TYPE_EN":"Province"}},
{"type":"Feature","geometry":{"type":"Polygon","coordinates":[[[101.068044,6.857733],[101.038774,6.732742],[101.062803,6.653832],[101.101147,6.637864],[101.158715,6.600063],[101.303925,6.600528],[101.34537,6.550505],[101.462469,6.569961],[101.509081,6.595954],[101.557657,6.545053],[101.601685,6.555388],[101.59228,6.621637],[101.640959,6.628846],[101.723481,6.574408],[101.566254,6.832221],[101.471202,6.884019],[101.38521,6.90522],[101.351329,6.875922],[101.244267,6.902029],[101.191417,6.861884],[101.068044,6.857733]]]},"properties":{"LOCATION_TYPE":"level1","ADM0_A3":"THA","LOCATION_ID":"THA-94","NAME":"Pattani","TYPE_EN":"Province"}},
{"type":"Feature","geometry":{"type":"Polygon","coordinates":[[[100.200857,7.772325],[100.12963,7.80172],[100.044571,7.824458],[99.959408,7.903756],[99.81058,7.882801],[99.744331,7.850916],[99.817505,7.679687],[99.79611,7.603257],[99.852748,7.48789],[99.887526,7.379653],[99.939823,7.301286],[99.965092,7.177004],[100.030618,7.091738],[100.154538,7.18026],[100.279647,7.205788],[100.378754,7.309801],[100.302989,7.342678],[100.227794,7.474595],[100.185395,7.514228],[100.154633,7.61579],[100.144786,7.719428],[100.200857,7.772325]]]},"properties":{"LOCATION_TYPE":"level1","ADM0_A3":"THA","LOCATION_ID":"THA-93","NAME":"Phatthalung","TYPE_EN":"Province"}},
{"type":"Feature","geometry":{"type":"Polygon","coordinates":[[[99.771821,9.312283],[99.731412,9.153188],[99.782003,9.114638],[99.725986,8.973122],[99.686143,8.927724],[99.585271,8.910128],[99.527703,8.842613],[99.522277,8.730191],[99.447295,8.601103],[99.287614,8.486511],[99.242656,8.397369],[99.266065,8.341558],[99.316036,8.292853],[99.31738,8.201515],[99.286684,8.102839],[99.345079,7.994835],[99.338051,7.943081],[99.400786,7.890087],[99.539175,7.878925],[99.606665,7.9791],[99.723815,7.991657],[99.744331,7.850916],[99.81058,7.882801],[99.959408,7.903756],[100.044571,7.824458],[100.12963,7.80172],[100.15521,7.874429],[100.342459,7.938788],[100.302908,8.118557],[100.271495,8.317084],[100.22047,8.448717],[100.157563,8.385728],[100.10434,8.41767],[100.040782,8.545559],[99.984141,8.579413],[99.959239,8.637641],[99.919444,8.980048],[99.91627,9.101996],[99.891449,9.138332],[99.853526,9.294664],[99.771821,9.312283]]]},"properties":{"LOCATION_TYPE":"level1","ADM0_A3":"THA","LOCATION_ID":"THA-80","NAME":"Nakhon Si Thammarat","TYPE_EN":"Province"}},
{"type":"Feature","geometry":{"type":"MultiPolygon","coordinates":[[[[99.144948,9.791232],[99.03533,9.734548],[98.902005,9.729665],[98.782426,9.677601],[98.749818,9.601171],[98.775294,9.546704],[98.655612,9.417074],[98.66357,9.352814],[98.585952,9.36284],[98.511021,9.306435],[98.532518,9.28455],[98.482599,9.055907],[98.506473,8.978703],[98.461515,8.959298],[98.458724,8.887158],[98.501512,8.877236],[98.606932,8.776829],[98.60378,8.719261],[98.549778,8.651462],[98.581456,8.627174],[98.662019,8.643995],[98.713283,8.625081],[98.770282,8.673399],[98.847435,8.641824],[98.91818,8.584257],[98.885572,8.507672],[98.916629,8.31355],[98.997916,8.314945],[99.060651,8.351739],[99.201935,8.321792],[99.266065,8.341558],[99.242656,8.397369],[99.287614,8.486511],[99.447295,8.601103],[99.522277,8.730191],[99.527703,8.842613],[99.585271,8.910128],[99.686143,8.927724],[99.725986,8.973122],[99.782003,9.114638],[99.731412,9.153188],[99.771821,9.312283],[99.689464,9.315863],[99.593516,9.274848],[99.521495,9.269924],[99.474783,9.200995],[99.378184,9.192939],[99.350759,9.219184],[99.255056,9.232489],[99.230235,9.31977],[99.323578,9.391547],[99.26531,9.46601],[99.181407,9.643256],[99.144948,9.791232]]],[[[100.07016,9.586412],[99.92628,9.565985],[99.92628,9.493964],[99.956309,9.421617],[100.02589,9.429145],[100.060883,9.463813],[100.07016,9.586412]]],[[[100.035411,9.7956],[99.970551,9.764594],[99.999197,9.710354],[100.090099,9.665269],[100.067231,9.775621],[100.035411,9.7956]]]]},"properties":{"LOCATION_TYPE":"level1","ADM0_A3":"THA","LOCATION_ID":"THA-84","NAME":"Surat Thani","TYPE_EN":"Province"}},
{"type":"Feature","geometry":{"type":"Polygon","coordinates":[[[100.088959,13.425971],[100.037904,13.504499],[99.918429,13.509615],[99.858691,13.328412],[99.858381,13.269345],[99.960867,13.291571],[100.038829,13.402737],[100.088959,13.425971]]]},"properties":{"LOCATION_TYPE":"level1","ADM0_A3":"THA","LOCATION_ID":"THA-75","NAME":"Samut Songkhram","TYPE_EN":"Province"}},
{"type":"Feature","geometry":{"type":"Polygon","coordinates":[[[100.40078,13.490638],[100.389511,13.611805],[100.345948,13.656919],[100.331788,13.730092],[100.259338,13.661311],[100.078677,13.683687],[100.037904,13.504499],[100.088959,13.425971],[100.289887,13.505032],[100.40078,13.490638]]]},"properties":{"LOCATION_TYPE":"level1","ADM0_A3":"THA","LOCATION_ID":"THA-74","NAME":"Samut Sakhon","TYPE_EN":"Province"}},
{"type":"Feature","geometry":{"type":"Polygon","coordinates":[[[100.466978,13.495665],[100.463047,13.583512],[100.498393,13.662241],[100.595907,13.697149],[100.605673,13.656169],[100.687632,13.66312],[100.713212,13.711515],[100.855374,13.691981],[100.924259,13.817529],[100.896922,13.846804],[100.904828,13.949795],[100.678589,13.91804],[100.551517,13.947857],[100.488368,13.798099],[100.335664,13.798719],[100.331788,13.730092],[100.345948,13.656919],[100.389511,13.611805],[100.40078,13.490638],[100.466978,13.495665]]]},"properties":{"LOCATION_TYPE":"level1","ADM0_A3":"THA","LOCATION_ID":"THA-10","NAME":"Bangkok Metropolis","TYPE_EN":"Province"}},
{"type":"Feature","geometry":{"type":"Polygon","coordinates":[[[100.840972,13.478194],[100.875838,13.551757],[100.946273,13.629608],[100.855374,13.691981],[100.713212,13.711515],[100.687632,13.66312],[100.605673,13.656169],[100.595907,13.697149],[100.498393,13.662241],[100.463047,13.583512],[100.466978,13.495665],[100.649669,13.52025],[100.840972,13.478194]]]},"properties":{"LOCATION_TYPE":"level1","ADM0_A3":"THA","LOCATION_ID":"THA-11","NAME":"Samut Prakan","TYPE_EN":"Province"}},
{"type":"Feature","geometry":{"type":"Polygon","coordinates":[[[100.980671,13.462922],[101.052726,13.50977],[101.050091,13.541551],[101.153289,13.589352],[101.27664,13.55124],[101.364904,13.458068],[101.46128,13.408174],[101.520863,13.40112],[101.564633,13.332365],[101.680078,13.250173],[101.717647,13.171729],[101.769943,13.18147],[101.995408,13.336189],[101.945902,13.481684],[101.996338,13.528529],[101.98006,13.588809],[101.932259,13.582272],[101.876242,13.723142],[101.828286,13.716812],[101.755784,13.801432],[101.674497,13.752804],[101.600496,13.780503],[101.54913,13.770478],[101.354052,13.859955],[101.210856,13.874942],[101.161815,13.850628],[101.140835,13.968424],[100.944567,13.968424],[100.905293,13.95535],[100.904828,13.949795],[100.896922,13.846804],[100.924259,13.817529],[100.855374,13.691981],[100.946273,13.629608],[100.875838,13.551757],[100.840972,13.478194],[100.980671,13.462922]]]},"properties":{"LOCATION_TYPE":"level1","ADM0_A3":"THA","LOCATION_ID":"THA-24","NAME":"Chachoengsao","TYPE_EN":"Province"}},
{"type":"Feature","geometry":{"type":"Polygon","coordinates":[[[100.978038,12.639594],[101.008646,12.801105],[101.048385,12.830793],[101.096496,12.918928],[101.086058,13.022487],[101.16011,13.017655],[101.187757,13.076411],[101.281136,13.04817],[101.341804,13.062485],[101.384644,13.021919],[101.536728,13.0645],[101.579878,13.122248],[101.637238,13.150929],[101.692636,13.133979],[101.717647,13.171729],[101.680078,13.250173],[101.564633,13.332365],[101.520863,13.40112],[101.46128,13.408174],[101.364904,13.458068],[101.27664,13.55124],[101.153289,13.589352],[101.050091,13.541551],[101.052726,13.50977],[100.980671,13.462922],[100.981293,13.359036],[100.912446,13.29385],[100.94516,13.200914],[100.878266,13.098334],[100.933116,13.026435],[100.868663,12.906236],[100.918468,12.826321],[100.837413,12.707913],[100.870616,12.654731],[100.978038,12.639594]]]},"properties":{"LOCATION_TYPE":"level1","ADM0_A3":"THA","LOCATION_ID":"THA-20","NAME":"Chon Buri","TYPE_EN":"Province"}},
{"type":"Feature","geometry":{"type":"Polygon","coordinates":[[[101.789088,12.697845],[101.819449,12.766973],[101.82379,12.893477],[101.713306,13.034838],[101.692636,13.133979],[101.637238,13.150929],[101.579878,13.122248],[101.536728,13.0645],[101.384644,13.021919],[101.341804,13.062485],[101.281136,13.04817],[101.187757,13.076411],[101.16011,13.017655],[101.086058,13.022487],[101.096496,12.918928],[101.048385,12.830793],[101.008646,12.801105],[100.978038,12.639594],[101.087738,12.680609],[101.323497,12.642157],[101.428884,12.596869],[101.442882,12.624823],[101.571056,12.632148],[101.642345,12.651353],[101.686371,12.702135],[101.789088,12.697845]]]},"properties":{"LOCATION_TYPE":"level1","ADM0_A3":"THA","LOCATION_ID":"THA-21","NAME":"Rayong","TYPE_EN":"Province"}},
{"type":"Feature","geometry":{"type":"Polygon","coordinates":[[[98.41863,7.903754],[98.397472,7.955024],[98.438487,8.065741],[98.281423,8.191799],[98.267751,7.890082],[98.286632,7.791693],[98.343923,7.832913],[98.398123,7.815009],[98.41863,7.903754]]]},"properties":{"LOCATION_TYPE":"level1","ADM0_A3":"THA","LOCATION_ID":"THA-83","NAME":"Phuket","TYPE_EN":"Province"}},
{"type":"Feature","geometry":{"type":"Polygon","coordinates":[[[102.071269,16.885404],[101.933964,16.836544],[101.790562,16.766496],[101.751443,16.670352],[101.955979,16.632964],[101.98006,16.586171],[102.081449,16.502921],[102.214774,16.50212],[102.319677,16.446645],[102.418069,16.42892],[102.451762,16.383212],[102.406132,16.243479],[102.27999,16.049176],[102.386547,15.994114],[102.331666,15.805831],[102.373731,15.731598],[102.42055,15.696975],[102.518012,15.716018],[102.596043,15.704959],[102.692419,15.71948],[102.729368,15.667184],[102.789261,15.639511],[102.868584,15.636539],[102.903466,15.773043],[102.946461,15.789217],[102.906567,15.936521],[102.913388,15.984813],[102.864657,16.056746],[102.854838,16.278076],[102.89897,16.314017],[102.956383,16.414838],[103.09131,16.513101],[103.162623,16.643429],[103.168824,16.754482],[103.194404,16.822126],[103.113117,16.912818],[102.955453,16.841065],[102.900004,16.874345],[102.833186,16.875895],[102.822592,16.960877],[102.787401,17.013639],[102.693195,17.037978],[102.675831,16.943695],[102.611753,16.770036],[102.430782,16.789001],[102.336627,16.819878],[102.275494,16.88915],[102.205369,16.859488],[102.071269,16.885404]]]},"properties":{"LOCATION_TYPE":"level1","ADM0_A3":"THA","LOCATION_ID":"THA-40","NAME":"Khon Kaen","TYPE_EN":"Province"}},
{"type":"Feature","geometry":{"type":"Polygon","coordinates":[[[103.435682,17.990039],[103.399095,17.943789],[103.39956,17.866429],[103.37336,17.792351],[103.397544,17.748994],[103.395994,17.596471],[103.341837,17.582622],[103.280549,17.47653],[103.292176,17.384159],[103.247166,17.315119],[103.2698,17.266931],[103.396149,17.218949],[103.475059,17.216934],[103.590711,17.161072],[103.651224,17.10676],[103.650139,17.04387],[103.786255,16.951782],[103.782844,16.912095],[103.845372,16.843778],[103.937563,16.780061],[104.028462,16.85432],[104.072852,16.83259],[104.141892,16.894215],[104.239043,16.896178],[104.303277,16.934806],[104.394383,17.037436],[104.361775,17.082937],[104.444199,17.249309],[104.413503,17.420901],[104.229587,17.405682],[104.161322,17.411186],[104.058899,17.386019],[104.010013,17.468908],[104.076108,17.674994],[104.065411,17.72698],[104.010324,17.801188],[103.968724,17.768296],[103.850643,17.87493],[103.760778,17.872475],[103.725896,17.917408],[103.623009,17.97172],[103.589006,18.040139],[103.510199,18.064169],[103.435682,17.990039]]]},"properties":{"LOCATION_TYPE":"level1","ADM0_A3":"THA","LOCATION_ID":"THA-47","NAME":"Sakon Nakhon","TYPE_EN":"Province"}},
{"type":"Feature","geometry":{"type":"Polygon","coordinates":[[[100.211537,14.955082],[100.140327,14.923741],[100.052477,14.96273],[99.96995,14.909013],[99.871403,14.921854],[99.725986,14.96118],[99.656636,14.992832],[99.615966,14.94423],[99.418149,15.000868],[99.329989,15.069494],[99.279966,14.999782],[99.308285,14.895887],[99.283894,14.868653],[99.382906,14.766024],[99.437993,14.76543],[99.458973,14.690783],[99.529047,14.727913],[99.544446,14.795971],[99.678185,14.794214],[99.787325,14.6759],[99.867217,14.638435],[99.880705,14.547769],[99.825153,14.518365],[99.81027,14.210528],[99.766655,14.170841],[99.772546,14.103015],[99.81151,14.061778],[99.878844,14.065576],[99.986228,14.145597],[100.152109,14.140171],[100.220994,14.177145],[100.254997,14.226987],[100.282127,14.402687],[100.254067,14.48648],[100.196654,14.569344],[100.22487,14.654687],[100.210142,14.753518],[100.232363,14.789847],[100.211537,14.955082]]]},"properties":{"LOCATION_TYPE":"level1","ADM0_A3":"THA","LOCATION_ID":"THA-72","NAME":"Suphan Buri","TYPE_EN":"Province"}},
{"type":"Feature","geometry":{"type":"Polygon","coordinates":[[[100.211537,14.955082],[100.232363,14.789847],[100.341504,14.792792],[100.389149,14.750108],[100.477051,14.724786],[100.476586,14.835736],[100.433746,14.926505],[100.459533,14.969474],[100.442893,15.060373],[100.365016,15.094815],[100.309309,15.16755],[100.272205,15.112463],[100.303418,14.99446],[100.267245,14.953532],[100.211537,14.955082]]]},"properties":{"LOCATION_TYPE":"level1","ADM0_A3":"THA","LOCATION_ID":"THA-17","NAME":"Sing Buri","TYPE_EN":"Province"}},
{"type":"Feature","geometry":{"type":"Polygon","coordinates":[[[99.725986,14.96118],[99.871403,14.921854],[99.96995,14.909013],[100.052477,14.96273],[100.140327,14.923741],[100.211537,14.955082],[100.267245,14.953532],[100.303418,14.99446],[100.272205,15.112463],[100.309309,15.16755],[100.262594,15.288447],[100.205801,15.358391],[100.117641,15.421617],[100.057593,15.419679],[100.035269,15.381955],[100.058678,15.287284],[99.760609,15.317179],[99.718234,15.27067],[99.736373,15.200494],[99.807169,15.077995],[99.735339,15.013244],[99.725986,14.96118]]]},"properties":{"LOCATION_TYPE":"level1","ADM0_A3":"THA","LOCATION_ID":"THA-18","NAME":"Chai Nat","TYPE_EN":"Province"}},
{"type":"Feature","geometry":{"type":"Polygon","coordinates":[[[100.254067,14.48648],[100.414367,14.509089],[100.424134,14.454519],[100.499323,14.455475],[100.515653,14.6859],[100.477051,14.724786],[100.389149,14.750108],[100.341504,14.792792],[100.232363,14.789847],[100.210142,14.753518],[100.22487,14.654687],[100.196654,14.569344],[100.254067,14.48648]]]},"properties":{"LOCATION_TYPE":"level1","ADM0_A3":"THA","LOCATION_ID":"THA-15","NAME":"Ang Thong","TYPE_EN":"Province"}},
{"type":"Feature","geometry":{"type":"Polygon","coordinates":[[[101.193131,14.755921],[101.126365,14.842273],[101.084404,14.853228],[100.990663,14.81323],[100.954489,14.74972],[100.878783,14.778116],[100.829432,14.882554],[100.787058,14.871522],[100.719878,14.762148],[100.610479,14.692023],[100.594046,14.655927],[100.574358,14.589342],[100.623967,14.546528],[100.706649,14.569731],[100.756052,14.510071],[100.779926,14.332149],[100.821836,14.306853],[100.822766,14.241793],[100.865606,14.260654],[100.912425,14.213913],[101.02601,14.313597],[101.053501,14.369562],[101.125332,14.381293],[101.161505,14.347755],[101.242947,14.479788],[101.18817,14.537718],[101.20729,14.582211],[101.193131,14.755921]]]},"properties":{"LOCATION_TYPE":"level1","ADM0_A3":"THA","LOCATION_ID":"THA-19","NAME":"Saraburi","TYPE_EN":"Province"}},
{"type":"Feature","geometry":{"type":"Polygon","coordinates":[[[101.242947,14.479788],[101.282996,14.502836],[101.409294,14.424779],[101.482726,14.461288],[101.547838,14.427078],[101.619875,14.431884],[101.748653,14.316956],[101.765138,14.347626],[101.872366,14.367418],[101.896861,14.392972],[101.98285,14.342071],[101.961095,14.256701],[102.05282,14.18562],[102.16563,14.137794],[102.302314,14.128337],[102.361432,14.156139],[102.500648,14.132368],[102.594183,14.148672],[102.585656,14.195981],[102.617179,14.285743],[102.576044,14.370131],[102.559456,14.454674],[102.503439,14.510484],[102.485869,14.5757],[102.50809,14.657788],[102.442616,14.8485],[102.504524,14.808115],[102.567828,14.814626],[102.55496,14.94082],[102.672576,14.941672],[102.753863,14.984951],[102.780424,15.074972],[102.859541,15.157525],[102.982893,15.19375],[102.974211,15.306172],[102.991161,15.365522],[102.94181,15.503163],[102.837217,15.507891],[102.799338,15.544891],[102.789261,15.639511],[102.729368,15.667184],[102.692419,15.71948],[102.596043,15.704959],[102.518012,15.716018],[102.42055,15.696975],[102.373731,15.731598],[102.331666,15.805831],[102.240509,15.75276],[102.17581,15.745422],[102.146665,15.682299],[102.084653,15.619615],[102.040315,15.658683],[101.951173,15.534608],[101.959079,15.469805],[101.829681,15.388751],[101.64499,15.313458],[101.565408,15.253591],[101.406503,15.21411],[101.376272,15.260981],[101.300411,15.302012],[101.278656,15.239794],[101.280671,15.087684],[101.380613,15.061071],[101.449498,14.921699],[101.447017,14.861522],[101.346145,14.804497],[101.274935,14.729618],[101.193131,14.755921],[101.20729,14.582211],[101.18817,14.537718],[101.242947,14.479788]]]},"properties":{"LOCATION_TYPE":"level1","ADM0_A3":"THA","LOCATION_ID":"THA-30","NAME":"Nakhon Ratchasima","TYPE_EN":"Province"}},
{"type":"Feature","geometry":{"type":"Polygon","coordinates":[[[101.242947,14.479788],[101.161505,14.347755],[101.125332,14.381293],[101.053501,14.369562],[101.02601,14.313597],[100.912425,14.213913],[100.914492,14.020721],[100.905293,13.95535],[100.944567,13.968424],[101.140835,13.968424],[101.216127,14.046559],[101.325061,14.064336],[101.313279,14.1665],[101.515592,14.306311],[101.4804,14.366824],[101.409294,14.424779],[101.282996,14.502836],[101.242947,14.479788]]]},"properties":{"LOCATION_TYPE":"level1","ADM0_A3":"THA","LOCATION_ID":"THA-26","NAME":"Nakhon Nayok","TYPE_EN":"Province"}},
{"type":"Feature","geometry":{"type":"Polygon","coordinates":[[[100.912425,14.213913],[100.865606,14.260654],[100.822766,14.241793],[100.554152,14.113041],[100.350289,14.113712],[100.360004,14.003306],[100.506661,13.946436],[100.551517,13.947857],[100.678589,13.91804],[100.904828,13.949795],[100.905293,13.95535],[100.914492,14.020721],[100.912425,14.213913]]]},"properties":{"LOCATION_TYPE":"level1","ADM0_A3":"THA","LOCATION_ID":"THA-13","NAME":"Pathum Thani","TYPE_EN":"Province"}},
{"type":"Feature","geometry":{"type":"Polygon","coordinates":[[[99.279966,14.999782],[99.329989,15.069494],[99.418149,15.000868],[99.615966,14.94423],[99.656636,14.992832],[99.725986,14.96118],[99.735339,15.013244],[99.807169,15.077995],[99.736373,15.200494],[99.718234,15.27067],[99.760609,15.317179],[100.058678,15.287284],[100.035269,15.381955],[100.057593,15.419679],[99.972741,15.506289],[99.913623,15.516314],[99.870783,15.565381],[99.852438,15.636023],[99.77513,15.638632],[99.727071,15.679638],[99.662372,15.665116],[99.51096,15.560343],[99.468379,15.564813],[99.356861,15.659303],[99.241881,15.716173],[99.161937,15.773146],[99.121423,15.769813],[99.102819,15.625972],[99.042926,15.516107],[99.065922,15.484223],[99.057034,15.397329],[99.015641,15.266407],[98.980398,15.220622],[99.001017,15.077168],[99.069023,15.013942],[99.134497,15.022443],[99.279966,14.999782]]]},"properties":{"LOCATION_TYPE":"level1","ADM0_A3":"THA","LOCATION_ID":"THA-61","NAME":"Uthai Thani","TYPE_EN":"Province"}},
{"type":"Feature","geometry":{"type":"Polygon","coordinates":[[[103.113117,16.912818],[103.194404,16.822126],[103.168824,16.754482],[103.162623,16.643429],[103.193319,16.542272],[103.18226,16.373058],[103.338892,16.363756],[103.416923,16.280454],[103.448291,16.209269],[103.525599,16.209734],[103.634481,16.195627],[103.726568,16.221439],[103.749151,16.309005],[103.707706,16.384892],[103.805633,16.457239],[103.875293,16.466825],[103.933636,16.441865],[104.039624,16.440986],[104.06355,16.396674],[104.172949,16.445637],[104.244314,16.432873],[104.237648,16.527984],[104.185662,16.611906],[104.184421,16.666761],[104.072852,16.83259],[104.028462,16.85432],[103.937563,16.780061],[103.845372,16.843778],[103.782844,16.912095],[103.786255,16.951782],[103.650139,17.04387],[103.583269,17.100274],[103.506788,17.04449],[103.480227,16.900183],[103.399715,16.903],[103.237244,16.962117],[103.142263,16.957854],[103.113117,16.912818]]]},"properties":{"LOCATION_TYPE":"level1","ADM0_A3":"THA","LOCATION_ID":"THA-46","NAME":"Kalasin","TYPE_EN":"Province"}},
{"type":"Feature","geometry":{"type":"Polygon","coordinates":[[[104.244314,16.432873],[104.172949,16.445637],[104.06355,16.396674],[104.039624,16.440986],[103.933636,16.441865],[103.875293,16.466825],[103.805633,16.457239],[103.707706,16.384892],[103.749151,16.309005],[103.726568,16.221439],[103.634481,16.195627],[103.525599,16.209734],[103.476196,16.130437],[103.493249,15.915696],[103.468599,15.865647],[103.439092,15.721573],[103.339202,15.683978],[103.298842,15.607988],[103.328298,15.55763],[103.441159,15.510733],[103.417491,15.42787],[103.525547,15.435234],[103.591176,15.46518],[103.786099,15.438541],[103.845889,15.463036],[103.986036,15.410248],[104.084324,15.536287],[104.129489,15.564528],[104.211241,15.606515],[104.144527,15.708292],[104.111713,15.823272],[104.010013,15.798364],[104.01916,15.976286],[104.107889,15.982565],[104.109026,16.095969],[104.232636,16.167566],[104.355884,16.323397],[104.332578,16.330037],[104.312424,16.453311],[104.244314,16.432873]]]},"properties":{"LOCATION_TYPE":"level1","ADM0_A3":"THA","LOCATION_ID":"THA-45","NAME":"Roi Et","TYPE_EN":"Province"}},
{"type":"Feature","geometry":{"type":"Polygon","coordinates":[[[103.162623,16.643429],[103.09131,16.513101],[102.956383,16.414838],[102.89897,16.314017],[102.854838,16.278076],[102.864657,16.056746],[102.913388,15.984813],[102.906567,15.936521],[102.946461,15.789217],[103.008679,15.725759],[102.976847,15.671524],[103.085935,15.552126],[103.115753,15.482285],[103.343232,15.401722],[103.417491,15.42787],[103.441159,15.510733],[103.328298,15.55763],[103.298842,15.607988],[103.339202,15.683978],[103.439092,15.721573],[103.468599,15.865647],[103.493249,15.915696],[103.476196,16.130437],[103.525599,16.209734],[103.448291,16.209269],[103.416923,16.280454],[103.338892,16.363756],[103.18226,16.373058],[103.193319,16.542272],[103.162623,16.643429]]]},"properties":{"LOCATION_TYPE":"level1","ADM0_A3":"THA","LOCATION_ID":"THA-44","NAME":"Maha Sarakham","TYPE_EN":"Province"}},
{"type":"Feature","geometry":{"type":"Polygon","coordinates":[[[102.675831,16.943695],[102.556045,17.055781],[102.513051,17.133063],[102.512844,17.203963],[102.475533,17.238793],[102.477704,17.30866],[102.392179,17.495651],[102.376831,17.60784],[102.224903,17.639234],[102.12124,17.583242],[102.141394,17.508751],[102.07561,17.452036],[101.993392,17.449685],[102.022073,17.318711],[101.946367,17.198253],[101.977993,17.146654],[102.088374,17.104848],[102.146561,17.015318],[102.035147,16.945555],[102.071269,16.885404],[102.205369,16.859488],[102.275494,16.88915],[102.336627,16.819878],[102.430782,16.789001],[102.611753,16.770036],[102.675831,16.943695]]]},"properties":{"LOCATION_TYPE":"level1","ADM0_A3":"THA","LOCATION_ID":"THA-39","NAME":"Nong Bua Lam Phu","TYPE_EN":"Province"}},
{"type":"Feature","geometry":{"type":"Polygon","coordinates":[[[101.300411,15.302012],[101.23163,15.398569],[101.153547,15.392678],[101.04606,15.428826],[100.973403,15.482725],[100.884209,15.466317],[100.739619,15.497581],[100.728095,15.417276],[100.558648,15.261937],[100.49674,15.17481],[100.442893,15.060373],[100.459533,14.969474],[100.433746,14.926505],[100.476586,14.835736],[100.477051,14.724786],[100.515653,14.6859],[100.594046,14.655927],[100.610479,14.692023],[100.719878,14.762148],[100.787058,14.871522],[100.829432,14.882554],[100.878783,14.778116],[100.954489,14.74972],[100.990663,14.81323],[101.084404,14.853228],[101.126365,14.842273],[101.193131,14.755921],[101.274935,14.729618],[101.346145,14.804497],[101.447017,14.861522],[101.449498,14.921699],[101.380613,15.061071],[101.280671,15.087684],[101.278656,15.239794],[101.300411,15.302012]]]},"properties":{"LOCATION_TYPE":"level1","ADM0_A3":"THA","LOCATION_ID":"THA-16","NAME":"Lop Buri","TYPE_EN":"Province"}},
{"type":"Feature","geometry":{"type":"Polygon","coordinates":[[[102.675831,16.943695],[102.693195,17.037978],[102.787401,17.013639],[102.822592,16.960877],[102.833186,16.875895],[102.900004,16.874345],[102.955453,16.841065],[103.113117,16.912818],[103.142263,16.957854],[103.237244,16.962117],[103.399715,16.903],[103.480227,16.900183],[103.506788,17.04449],[103.583269,17.100274],[103.650139,17.04387],[103.651224,17.10676],[103.590711,17.161072],[103.475059,17.216934],[103.396149,17.218949],[103.2698,17.266931],[103.247166,17.315119],[103.292176,17.384159],[103.280549,17.47653],[103.341837,17.582622],[103.395994,17.596471],[103.397544,17.748994],[103.37336,17.792351],[103.39956,17.866429],[103.319513,17.834261],[103.265149,17.878806],[103.165104,17.802531],[103.05865,17.886376],[102.98775,17.822943],[102.949716,17.877023],[102.885018,17.885317],[102.850239,17.809869],[102.862332,17.726464],[102.735879,17.600244],[102.611287,17.618537],[102.609737,17.689308],[102.539612,17.750519],[102.473156,17.754317],[102.389079,17.89405],[102.290222,17.974588],[102.204749,18.018616],[102.163408,17.994793],[102.114212,18.058924],[102.058401,18.088405],[102.024553,17.981409],[102.04879,17.864336],[102.025122,17.733336],[102.074214,17.677319],[102.12124,17.583242],[102.224903,17.639234],[102.376831,17.60784],[102.392179,17.495651],[102.477704,17.30866],[102.475533,17.238793],[102.512844,17.203963],[102.513051,17.133063],[102.556045,17.055781],[102.675831,16.943695]]]},"properties":{"LOCATION_TYPE":"level1","ADM0_A3":"THA","LOCATION_ID":"THA-41","NAME":"Udon Thani","TYPE_EN":"Province"}},
{"type":"Feature","geometry":{"type":"Polygon","coordinates":[[[100.220994,14.177145],[100.276856,14.167172],[100.283213,14.116219],[100.350289,14.113712],[100.554152,14.113041],[100.822766,14.241793],[100.821836,14.306853],[100.779926,14.332149],[100.756052,14.510071],[100.706649,14.569731],[100.623967,14.546528],[100.574358,14.589342],[100.594046,14.655927],[100.515653,14.6859],[100.499323,14.455475],[100.424134,14.454519],[100.414367,14.509089],[100.254067,14.48648],[100.282127,14.402687],[100.254997,14.226987],[100.220994,14.177145]]]},"properties":{"LOCATION_TYPE":"level1","ADM0_A3":"THA","LOCATION_ID":"THA-14","NAME":"Phra Nakhon Si Ayutthaya","TYPE_EN":"Province"}},
{"type":"Feature","geometry":{"type":"Polygon","coordinates":[[[100.350289,14.113712],[100.283213,14.116219],[100.263679,14.029299],[100.294891,13.969122],[100.291171,13.891685],[100.335664,13.798719],[100.488368,13.798099],[100.551517,13.947857],[100.506661,13.946436],[100.360004,14.003306],[100.350289,14.113712]]]},"properties":{"LOCATION_TYPE":"level1","ADM0_A3":"THA","LOCATION_ID":"THA-12","NAME":"Nonthaburi","TYPE_EN":"Province"}},
{"type":"Feature","geometry":{"type":"Polygon","coordinates":[[[100.220994,14.177145],[100.152109,14.140171],[99.986228,14.145597],[99.878844,14.065576],[99.81151,14.061778],[99.807789,14.035216],[99.880085,13.944524],[99.942148,13.92561],[99.961372,13.84422],[99.948143,13.745415],[100.029688,13.738076],[100.078677,13.683687],[100.259338,13.661311],[100.331788,13.730092],[100.335664,13.798719],[100.291171,13.891685],[100.294891,13.969122],[100.263679,14.029299],[100.283213,14.116219],[100.276856,14.167172],[100.220994,14.177145]]]},"properties":{"LOCATION_TYPE":"level1","ADM0_A3":"THA","LOCATION_ID":"THA-73","NAME":"Nakhon Pathom","TYPE_EN":"Province"}},
{"type":"Feature","geometry":{"type":"Polygon","coordinates":[[[99.904424,16.688129],[99.860086,16.732235],[99.693119,16.731976],[99.555763,16.814788],[99.529047,16.875043],[99.387092,16.866103],[99.346009,16.887884],[99.301464,16.789079],[99.296813,16.723579],[99.249477,16.653247],[99.2394,16.541213],[99.17651,16.525193],[99.113982,16.475635],[99.006185,16.480002],[99.013316,16.3705],[98.997296,16.282056],[99.022463,16.200975],[99.010215,16.122014],[99.026183,16.030081],[99.06892,15.99675],[99.07879,15.868928],[99.162247,15.927788],[99.219195,15.931276],[99.28162,15.888798],[99.357946,15.915075],[99.456906,15.895232],[99.538865,15.916703],[99.613796,15.881072],[99.664697,15.784644],[99.729861,15.828336],[99.766448,15.926522],[99.828253,16.022123],[99.889696,16.072404],[99.932846,16.19697],[99.943388,16.277353],[99.9946,16.337866],[99.977546,16.362206],[100.032168,16.496177],[99.999871,16.555605],[99.917343,16.586275],[99.904424,16.688129]]]},"properties":{"LOCATION_TYPE":"level1","ADM0_A3":"THA","LOCATION_ID":"THA-62","NAME":"Kamphaeng Phet","TYPE_EN":"Province"}},
{"type":"Feature","geometry":{"type":"Polygon","coordinates":[[[99.687383,19.429796],[99.641753,19.501239],[99.589766,19.471809],[99.570078,19.402718],[99.57969,19.293086],[99.533749,19.072867],[99.399856,18.998427],[99.371434,18.97538],[99.347352,18.851304],[99.365232,18.764927],[99.323323,18.624832],[99.35407,18.606203],[99.314796,18.5298],[99.236455,18.475979],[99.104783,18.273562],[99.015331,18.242298],[99.057344,18.135379],[99.063132,18.056469],[99.116669,17.911543],[99.1762,17.861933],[99.161162,17.811807],[99.012076,17.610631],[99.033005,17.502937],[99.012541,17.422399],[99.045407,17.381446],[99.172686,17.33473],[99.21842,17.39576],[99.269941,17.392272],[99.280793,17.317755],[99.31738,17.260652],[99.390967,17.204325],[99.439853,17.226856],[99.477422,17.357468],[99.432205,17.39222],[99.414428,17.462836],[99.428846,17.601122],[99.47613,17.673547],[99.473391,17.728944],[99.38058,17.677113],[99.315416,17.732251],[99.374689,17.779018],[99.515404,17.941618],[99.612246,18.036419],[99.647282,18.023422],[99.723815,18.070887],[99.813525,18.219689],[99.913623,18.293612],[100.003591,18.404872],[100.057438,18.504426],[100.114851,18.565921],[100.108184,18.730123],[100.120949,18.811746],[100.073716,18.825389],[100.045966,18.891199],[99.964472,18.939568],[99.930831,18.985456],[99.843033,19.000753],[99.790219,19.059405],[99.709397,19.229085],[99.710483,19.318098],[99.687383,19.429796]]]},"properties":{"LOCATION_TYPE":"level1","ADM0_A3":"THA","LOCATION_ID":"THA-52","NAME":"Lampang","TYPE_EN":"Province"}},
{"type":"Feature","geometry":{"type":"Polygon","coordinates":[[[99.904424,16.688129],[99.888301,16.739082],[99.955687,16.865069],[100.118726,16.89592],[100.125083,16.971626],[100.010878,17.042113],[99.92742,17.122314],[99.982817,17.165645],[99.97119,17.255045],[100.013978,17.315843],[100.034184,17.432812],[100.019766,17.47374],[99.929591,17.57916],[99.96933,17.617194],[99.969175,17.704811],[99.896569,17.803694],[99.784845,17.784264],[99.74309,17.725223],[99.662217,17.797105],[99.549872,17.80682],[99.473391,17.728944],[99.47613,17.673547],[99.428846,17.601122],[99.414428,17.462836],[99.432205,17.39222],[99.477422,17.357468],[99.439853,17.226856],[99.390967,17.204325],[99.31738,17.260652],[99.318982,17.108568],[99.27976,17.059269],[99.281723,16.927727],[99.346009,16.887884],[99.387092,16.866103],[99.529047,16.875043],[99.555763,16.814788],[99.693119,16.731976],[99.860086,16.732235],[99.904424,16.688129]]]},"properties":{"LOCATION_TYPE":"level1","ADM0_A3":"THA","LOCATION_ID":"THA-64","NAME":"Sukhothai","TYPE_EN":"Province"}},
{"type":"Feature","geometry":{"type":"Polygon","coordinates":[[[100.442893,15.060373],[100.49674,15.17481],[100.558648,15.261937],[100.728095,15.417276],[100.739619,15.497581],[100.832533,15.625481],[100.795739,15.803661],[100.79853,15.862856],[100.755122,15.93063],[100.602728,15.952024],[100.506196,15.925643],[100.300783,15.940061],[100.268175,15.909391],[100.171281,15.954401],[100.091286,16.141315],[100.049842,16.171184],[100.024107,16.303269],[99.9946,16.337866],[99.943388,16.277353],[99.932846,16.19697],[99.889696,16.072404],[99.828253,16.022123],[99.766448,15.926522],[99.729861,15.828336],[99.664697,15.784644],[99.613796,15.881072],[99.538865,15.916703],[99.456906,15.895232],[99.357946,15.915075],[99.28162,15.888798],[99.219195,15.931276],[99.162247,15.927788],[99.07879,15.868928],[99.121423,15.769813],[99.161937,15.773146],[99.241881,15.716173],[99.356861,15.659303],[99.468379,15.564813],[99.51096,15.560343],[99.662372,15.665116],[99.727071,15.679638],[99.77513,15.638632],[99.852438,15.636023],[99.870783,15.565381],[99.913623,15.516314],[99.972741,15.506289],[100.057593,15.419679],[100.117641,15.421617],[100.205801,15.358391],[100.262594,15.288447],[100.309309,15.16755],[100.365016,15.094815],[100.442893,15.060373]]]},"properties":{"LOCATION_TYPE":"level1","ADM0_A3":"THA","LOCATION_ID":"THA-60","NAME":"Nakhon Sawan","TYPE_EN":"Province"}},
{"type":"Feature","geometry":{"type":"Polygon","coordinates":[[[101.790562,16.766496],[101.718732,16.773524],[101.718732,16.888814],[101.634965,17.046583],[101.606853,17.009065],[101.541534,17.001236],[101.468567,17.072963],[101.303822,17.079449],[101.209616,17.115984],[101.133703,17.037126],[101.119906,16.927288],[101.065594,16.906178],[101.005391,16.868764],[100.895527,16.765644],[100.926274,16.691075],[100.873822,16.661877],[100.837494,16.595266],[100.837907,16.532893],[100.791399,16.453466],[100.706081,16.414916],[100.668202,16.347013],[100.698174,16.251566],[100.633269,16.138473],[100.632338,16.051114],[100.770315,15.985975],[100.755122,15.93063],[100.79853,15.862856],[100.795739,15.803661],[100.832533,15.625481],[100.739619,15.497581],[100.884209,15.466317],[100.973403,15.482725],[101.04606,15.428826],[101.153547,15.392678],[101.23163,15.398569],[101.300411,15.302012],[101.370226,15.406295],[101.36542,15.557397],[101.395806,15.698784],[101.329867,15.753457],[101.327076,15.852211],[101.384024,15.953161],[101.341029,15.98148],[101.323976,16.075634],[101.364283,16.242859],[101.378753,16.357607],[101.505205,16.541032],[101.499779,16.614748],[101.598946,16.704226],[101.633208,16.683401],[101.751443,16.670352],[101.790562,16.766496]]]},"properties":{"LOCATION_TYPE":"level1","ADM0_A3":"THA","LOCATION_ID":"THA-67","NAME":"Phetchabun","TYPE_EN":"Province"}},
{"type":"Feature","geometry":{"type":"Polygon","coordinates":[[[100.668202,16.347013],[100.581902,16.4283],[100.548571,16.52664],[100.419948,16.53788],[100.287037,16.510181],[100.234327,16.593509],[100.118881,16.51646],[100.032168,16.496177],[99.977546,16.362206],[99.9946,16.337866],[100.024107,16.303269],[100.049842,16.171184],[100.091286,16.141315],[100.171281,15.954401],[100.268175,15.909391],[100.300783,15.940061],[100.506196,15.925643],[100.602728,15.952024],[100.755122,15.93063],[100.770315,15.985975],[100.632338,16.051114],[100.633269,16.138473],[100.698174,16.251566],[100.668202,16.347013]]]},"properties":{"LOCATION_TYPE":"level1","ADM0_A3":"THA","LOCATION_ID":"THA-66","NAME":"Phichit","TYPE_EN":"Province"}},
{"type":"Feature","geometry":{"type":"Polygon","coordinates":[[[102.331666,15.805831],[102.386547,15.994114],[102.27999,16.049176],[102.406132,16.243479],[102.451762,16.383212],[102.418069,16.42892],[102.319677,16.446645],[102.214774,16.50212],[102.081449,16.502921],[101.98006,16.586171],[101.955979,16.632964],[101.751443,16.670352],[101.633208,16.683401],[101.598946,16.704226],[101.499779,16.614748],[101.505205,16.541032],[101.378753,16.357607],[101.364283,16.242859],[101.323976,16.075634],[101.341029,15.98148],[101.384024,15.953161],[101.327076,15.852211],[101.329867,15.753457],[101.395806,15.698784],[101.36542,15.557397],[101.370226,15.406295],[101.300411,15.302012],[101.376272,15.260981],[101.406503,15.21411],[101.565408,15.253591],[101.64499,15.313458],[101.829681,15.388751],[101.959079,15.469805],[101.951173,15.534608],[102.040315,15.658683],[102.084653,15.619615],[102.146665,15.682299],[102.17581,15.745422],[102.240509,15.75276],[102.331666,15.805831]]]},"properties":{"LOCATION_TYPE":"level1","ADM0_A3":"THA","LOCATION_ID":"THA-36","NAME":"Chaiyaphum","TYPE_EN":"Province"}},
{"type":"Feature","geometry":{"type":"Polygon","coordinates":[[[100.352562,18.815079],[100.169421,18.829962],[100.120949,18.811746],[100.108184,18.730123],[100.114851,18.565921],[100.057438,18.504426],[100.003591,18.404872],[99.913623,18.293612],[99.813525,18.219689],[99.723815,18.070887],[99.647282,18.023422],[99.612246,18.036419],[99.515404,17.941618],[99.374689,17.779018],[99.315416,17.732251],[99.38058,17.677113],[99.473391,17.728944],[99.549872,17.80682],[99.662217,17.797105],[99.74309,17.725223],[99.784845,17.784264],[99.896569,17.803694],[99.950985,17.782326],[99.997235,17.828499],[100.129423,17.857231],[100.288484,17.958956],[100.364396,17.972857],[100.422119,18.015955],[100.405479,18.131168],[100.447544,18.150443],[100.503251,18.276042],[100.499323,18.345676],[100.541905,18.427067],[100.488988,18.493032],[100.40858,18.49683],[100.367962,18.664184],[100.394317,18.726738],[100.352562,18.815079]]]},"properties":{"LOCATION_TYPE":"level1","ADM0_A3":"THA","LOCATION_ID":"THA-54","NAME":"Phrae","TYPE_EN":"Province"}},
{"type":"Feature","geometry":{"type":"Polygon","coordinates":[[[99.314796,18.5298],[99.219815,18.591734],[99.222502,18.649017],[99.17651,18.706275],[99.043081,18.654779],[99.010629,18.667672],[98.926551,18.529102],[98.775088,18.443138],[98.715815,18.430865],[98.680933,18.301416],[98.780669,18.252891],[98.816377,18.143389],[98.80382,18.000891],[98.849915,17.969782],[98.910583,17.818551],[98.897664,17.745894],[98.839063,17.715379],[98.710389,17.756177],[98.740981,17.710728],[98.699847,17.609701],[98.721344,17.485264],[98.772607,17.483972],[98.864488,17.532574],[98.89322,17.617917],[98.932442,17.643988],[99.012076,17.610631],[99.161162,17.811807],[99.1762,17.861933],[99.116669,17.911543],[99.063132,18.056469],[99.057344,18.135379],[99.015331,18.242298],[99.104783,18.273562],[99.236455,18.475979],[99.314796,18.5298]]]},"properties":{"LOCATION_TYPE":"level1","ADM0_A3":"THA","LOCATION_ID":"THA-51","NAME":"Lamphun","TYPE_EN":"Province"}},
{"type":"Feature","geometry":{"type":"Polygon","coordinates":[[[101.140835,13.968424],[101.161815,13.850628],[101.210856,13.874942],[101.354052,13.859955],[101.54913,13.770478],[101.600496,13.780503],[101.674497,13.752804],[101.755784,13.801432],[101.828286,13.716812],[101.876242,13.723142],[101.906473,13.80877],[101.863168,13.827838],[101.869576,13.933207],[101.910813,13.965091],[101.912519,14.03581],[101.990912,14.066816],[102.045069,14.130869],[102.05282,14.18562],[101.961095,14.256701],[101.98285,14.342071],[101.896861,14.392972],[101.872366,14.367418],[101.765138,14.347626],[101.748653,14.316956],[101.619875,14.431884],[101.547838,14.427078],[101.482726,14.461288],[101.409294,14.424779],[101.4804,14.366824],[101.515592,14.306311],[101.313279,14.1665],[101.325061,14.064336],[101.216127,14.046559],[101.140835,13.968424]]]},"properties":{"LOCATION_TYPE":"level1","ADM0_A3":"THA","LOCATION_ID":"THA-25","NAME":"Prachin Buri","TYPE_EN":"Province"}},
{"type":"Feature","geometry":{"type":"Polygon","coordinates":[[[104.129489,15.564528],[104.151038,15.50063],[104.254081,15.367925],[104.391902,15.315319],[104.418257,15.284804],[104.435259,15.371853],[104.381929,15.434019],[104.403685,15.528381],[104.491948,15.534763],[104.512102,15.58339],[104.442442,15.638167],[104.424613,15.721263],[104.466058,15.912724],[104.563055,16.078192],[104.616281,16.120593],[104.807432,16.16059],[104.812859,16.19064],[104.668991,16.236994],[104.631268,16.215445],[104.559334,16.307739],[104.504557,16.338073],[104.403995,16.345152],[104.355884,16.323397],[104.232636,16.167566],[104.109026,16.095969],[104.107889,15.982565],[104.01916,15.976286],[104.010013,15.798364],[104.111713,15.823272],[104.144527,15.708292],[104.211241,15.606515],[104.129489,15.564528]]]},"properties":{"LOCATION_TYPE":"level1","ADM0_A3":"THA","LOCATION_ID":"THA-35","NAME":"Yasothon","TYPE_EN":"Province"}}
]}