{"type":"FeatureCollection", "features": [
{"type":"Feature","geometry":{"type":"Polygon","coordinates":[[[70.655564,39.494644],[70.622128,39.563529],[70.459967,39.599548],[70.20603,39.5241],[70.019684,39.568594],[69.830445,39.536244],[69.669421,39.577792],[69.496099,39.532575],[69.286189,39.539707],[69.29115,39.658872],[69.226296,39.751011],[69.313991,39.986914],[69.575474,40.1036],[69.969558,40.211603],[70.14717,40.136983],[70.627399,39.993891],[70.63944,40.084945],[70.845164,40.171813],[70.581821,40.221732],[70.501929,40.35082],[70.371394,40.364927],[70.353824,40.456136],[70.756177,40.69514],[70.696852,40.816218],[70.445705,41.025921],[70.363539,41.032432],[70.280392,40.877713],[70.009659,40.75803],[69.66012,40.638709],[69.435844,40.802679],[69.314198,40.729298],[69.313474,40.609357],[69.198029,40.545847],[69.306343,40.364979],[69.285259,40.218631],[69.197926,40.182975],[69.019229,40.232067],[68.601993,40.17543],[68.687052,40.110318],[68.930655,40.146801],[68.789372,39.993994],[68.877428,39.900563],[68.615842,39.828113],[68.605817,39.666882],[68.51745,39.54844],[68.337565,39.527924],[67.764525,39.622596],[67.507435,39.552936],[67.436483,39.485705],[67.378192,39.199495],[67.619831,39.151255],[67.690524,38.989611],[68.100938,38.979276],[68.153386,38.899403],[68.509855,38.951059],[68.58339,39.043586],[68.760744,39.075548],[69.065531,39.030383],[69.35802,39.108363],[69.50044,39.1858],[69.651594,39.115003],[69.736343,39.293364],[70.11663,39.311503],[70.485031,39.401988],[70.655564,39.494644]]]},"properties":{"LOCATION_TYPE":"level1","ADM0_A3":"TJK","LOCATION_ID":"TJK-SU","NAME":"Leninabad","TYPE_EN":"Region"}},
{"type":"Feature","geometry":{"type":"Polygon","coordinates":[[[72.228668,39.189502],[72.094751,39.275072],[72.049793,39.368864],[71.843501,39.285045],[71.732913,39.285097],[71.740251,39.448343],[71.492101,39.493663],[71.459545,39.612105],[71.236923,39.514488],[71.062928,39.495627],[71.009288,39.407622],[70.739744,39.386228],[70.655564,39.494644],[70.485031,39.401988],[70.11663,39.311503],[69.736343,39.293364],[69.651594,39.115003],[69.50044,39.1858],[69.35802,39.108363],[69.065531,39.030383],[68.760744,39.075548],[68.58339,39.043586],[68.509855,38.951059],[68.153386,38.899403],[68.037635,38.691645],[68.055153,38.536305],[68.183724,38.335491],[68.360664,38.174053],[68.238025,37.942716],[68.46593,37.916446],[68.543651,38.019411],[68.520707,38.107442],[68.60928,38.328152],[68.822032,38.326756],[68.99427,38.412333],[69.177101,38.435845],[69.381274,38.328048],[69.779441,38.590358],[69.924239,38.713994],[70.033018,38.7242],[70.167531,38.616429],[70.353308,38.606739],[70.439091,38.515686],[70.5935,38.658106],[70.549575,38.711384],[70.732665,38.803963],[70.781396,38.75934],[71.012596,38.796624],[71.071714,38.59966],[71.178167,38.60829],[71.284311,38.48623],[71.430813,38.477393],[71.597625,38.632474],[71.974243,38.735956],[72.062661,38.808071],[72.007419,38.884707],[72.228668,39.189502]],[[68.800802,38.591973],[68.842883,38.529747],[68.729623,38.479608],[68.709477,38.591078],[68.800802,38.591973]]]},"properties":{"LOCATION_TYPE":"level1","ADM0_A3":"TJK","LOCATION_ID":"TJK-X01~","NAME":"Tadzhikistan Territories","TYPE_EN":"Region"}},
{"type":"Feature","geometry":{"type":"Polygon","coordinates":[[[70.298583,37.998134],[70.482602,38.137363],[70.595773,38.338178],[70.761086,38.44352],[70.974045,38.473673],[71.334384,38.280662],[71.364512,38.206816],[71.255785,37.949881],[71.341154,37.893295],[71.501196,37.946212],[71.597727,37.89836],[71.497165,37.566545],[71.487037,37.267055],[71.431123,37.066989],[71.463059,36.948082],[71.61106,36.704841],[71.836576,36.699156],[72.259806,36.967305],[72.657714,37.028826],[72.760964,37.187499],[73.067509,37.315062],[73.276075,37.459472],[73.485261,37.480969],[73.753462,37.428388],[73.798213,37.22853],[74.163256,37.330074],[74.223924,37.403351],[74.529848,37.375756],[74.660383,37.393972],[74.862644,37.244601],[75.06842,37.312142],[75.164125,37.400638],[74.891893,37.599205],[74.965171,37.767463],[74.883212,37.843867],[74.892824,37.994013],[74.790711,38.081449],[74.771074,38.29154],[74.838253,38.379416],[74.776345,38.510674],[74.334201,38.666995],[74.140415,38.669217],[73.932882,38.529665],[73.797387,38.602839],[73.683698,38.854942],[73.81599,38.993771],[73.698168,39.078417],[73.602256,39.235772],[73.632642,39.448343],[73.367645,39.443795],[73.167864,39.355377],[72.835275,39.356204],[72.65048,39.393772],[72.31634,39.328815],[72.228668,39.189502],[72.007419,38.884707],[72.062661,38.808071],[71.974243,38.735956],[71.597625,38.632474],[71.430813,38.477393],[71.284311,38.48623],[71.178167,38.60829],[71.071714,38.59966],[71.012596,38.796624],[70.781396,38.75934],[70.732665,38.803963],[70.549575,38.711384],[70.5935,38.658106],[70.439091,38.515686],[70.355634,38.442047],[70.341319,38.155992],[70.298583,37.998134]]]},"properties":{"LOCATION_TYPE":"level1","ADM0_A3":"TJK","LOCATION_ID":"TJK-GB","NAME":"Gorno-Badakhshan","TYPE_EN":"Region"}},
{"type":"Feature","geometry":{"type":"Polygon","coordinates":[[[68.238025,37.942716],[68.122229,37.908333],[68.079648,37.806272],[67.829224,37.527943],[67.78535,37.096548],[67.87811,37.064431],[68.011125,36.930874],[68.307282,37.114221],[68.626901,37.206257],[68.668862,37.278294],[68.824615,37.260621],[69.005483,37.305528],[69.123615,37.169205],[69.323913,37.120991],[69.445197,37.23641],[69.37838,37.437406],[69.528655,37.586027],[69.80223,37.581506],[69.895247,37.61817],[70.016894,37.545978],[70.157867,37.541431],[70.283079,37.704831],[70.165205,37.889911],[70.298583,37.998134],[70.341319,38.155992],[70.355634,38.442047],[70.439091,38.515686],[70.353308,38.606739],[70.167531,38.616429],[70.033018,38.7242],[69.924239,38.713994],[69.779441,38.590358],[69.381274,38.328048],[69.177101,38.435845],[68.99427,38.412333],[68.822032,38.326756],[68.60928,38.328152],[68.520707,38.107442],[68.543651,38.019411],[68.46593,37.916446],[68.238025,37.942716]]]},"properties":{"LOCATION_TYPE":"level1","ADM0_A3":"TJK","LOCATION_ID":"TJK-KT","NAME":"Khatlon","TYPE_EN":"Region"}},
{"type":"Feature","geometry":{"type":"Polygon","coordinates":[[[68.800802,38.591973],[68.709477,38.591078],[68.729623,38.479608],[68.842883,38.529747],[68.800802,38.591973]]]},"properties":{"LOCATION_TYPE":"level1","ADM0_A3":"TJK","LOCATION_ID":"TJK-DU","NAME":"Dushanbe","TYPE_EN":"Independent City"}}
]}