{"type":"FeatureCollection", "features": [
{"type":"Feature","geometry":{"type":"Polygon","coordinates":[[[64.728549,36.85057],[64.76016,37.092621],[65.063088,37.233232],[65.501407,37.242276],[65.624087,37.345138],[65.668839,37.520553],[66.079666,37.440868],[66.294434,37.331211],[66.461452,37.324441],[66.518813,37.782708],[66.645782,37.945902],[66.554159,38.026853],[65.876681,38.272962],[65.60414,38.237409],[65.205301,38.449644],[64.977718,38.61227],[64.634897,38.744148],[64.337344,38.970956],[64.120613,38.96168],[63.709268,39.190891],[63.477551,39.402919],[62.593161,39.890228],[62.452808,40.009239],[62.353279,40.430402],[62.191842,40.499028],[62.044771,40.714984],[61.970822,41.01543],[61.877907,41.124984],[61.470077,41.29717],[61.281355,41.157282],[61.004318,41.229533],[60.980702,41.002614],[60.247517,41.000521],[60.252994,40.353403],[60.491791,40.301675],[60.517216,39.488959],[61.022301,39.513971],[61.222031,39.500638],[62.419477,38.52367],[62.829168,38.192992],[63.22873,38.060003],[63.708649,37.618376],[63.488766,37.344232],[63.500548,36.88271],[63.537032,36.850464],[64.728549,36.85057]]]},"properties":{"LOCATION_TYPE":"level1","ADM0_A3":"TKM","LOCATION_ID":"TKM-L","NAME":"Chardzhou","TYPE_EN":"Province"}},
{"type":"Feature","geometry":{"type":"Polygon","coordinates":[[[64.728549,36.85057],[63.537032,36.850464],[63.500548,36.88271],[63.488766,37.344232],[63.708649,37.618376],[63.22873,38.060003],[62.829168,38.192992],[62.419477,38.52367],[61.222031,39.500638],[61.022301,39.513971],[60.994706,39.321321],[60.770172,39.24732],[60.691159,38.939794],[60.459493,38.753966],[60.603051,38.301848],[60.853785,38.096202],[60.982562,37.900478],[60.892749,37.618221],[61.004318,37.353353],[61.457882,36.754243],[61.505528,36.664222],[61.511729,36.07276],[61.596478,35.952276],[61.459742,35.892021],[61.575498,35.767895],[61.419309,35.545891],[61.538703,35.452307],[62.033815,35.423989],[62.219023,35.30627],[62.621066,35.222709],[62.918206,35.388177],[63.080211,35.437063],[63.076646,35.6247],[63.183926,35.712343],[63.125273,35.860241],[63.342934,35.856262],[63.602298,35.962664],[63.765906,35.977288],[64.266134,36.152471],[64.444572,36.249985],[64.605855,36.461083],[64.592005,36.621073],[64.728549,36.85057]]]},"properties":{"LOCATION_TYPE":"level1","ADM0_A3":"TKM","LOCATION_ID":"TKM-M","NAME":"Mary","TYPE_EN":"Province"}},
{"type":"Feature","geometry":{"type":"Polygon","coordinates":[[[57.137914,38.262364],[57.344334,38.081062],[57.352395,37.967529],[57.691186,37.92027],[58.181182,37.774853],[58.371765,37.630366],[58.514288,37.691473],[58.861037,37.668089],[59.351653,37.493837],[59.37036,37.319429],[59.509473,37.189824],[60.019209,37.025803],[60.34229,36.637145],[61.075476,36.64779],[61.18596,36.577665],[61.152474,36.406306],[61.222754,36.117538],[61.173971,36.006485],[61.247352,35.876209],[61.231745,35.671881],[61.419309,35.545891],[61.575498,35.767895],[61.459742,35.892021],[61.596478,35.952276],[61.511729,36.07276],[61.505528,36.664222],[61.457882,36.754243],[61.004318,37.353353],[60.892749,37.618221],[60.982562,37.900478],[60.853785,38.096202],[60.603051,38.301848],[60.459493,38.753966],[60.691159,38.939794],[60.770172,39.24732],[60.994706,39.321321],[61.022301,39.513971],[60.517216,39.488959],[60.356606,39.476402],[60.265862,39.627659],[60.069698,39.588152],[60.001899,39.662205],[59.981435,40.000453],[59.184739,40.004173],[58.987542,40.1098],[58.398637,40.214187],[57.884715,40.097036],[57.479572,40.102307],[57.279843,40.031975],[57.165224,40.092308],[56.983788,39.990221],[57.101094,39.642852],[56.977122,39.566681],[56.672386,38.793756],[56.580505,38.611416],[56.593063,38.483749],[56.889479,38.467213],[57.137914,38.262364]]]},"properties":{"LOCATION_TYPE":"level1","ADM0_A3":"TKM","LOCATION_ID":"TKM-A","NAME":"Ahal","TYPE_EN":"Province"}},
{"type":"Feature","geometry":{"type":"Polygon","coordinates":[[[56.533721,41.298969],[55.87662,41.324507],[55.635498,41.264356],[55.429515,41.290814],[55.228391,41.472819],[54.950682,41.795564],[54.907067,41.932144],[54.738291,42.04821],[54.195276,42.318064],[54.047171,42.345401],[53.412274,42.258171],[52.978709,42.126629],[52.437671,41.748876],[52.595225,41.633734],[52.562185,41.519477],[52.815684,41.388739],[52.903819,41.689765],[52.821462,41.764879],[52.960297,41.984361],[53.121918,42.089993],[53.296723,42.078843],[53.681814,42.143948],[53.896658,42.078843],[54.019705,41.731513],[54.041352,41.534573],[54.311778,41.338284],[54.600434,41.192328],[54.76002,40.965033],[54.639903,40.838772],[54.010753,40.657864],[53.721039,40.625678],[53.541677,40.761623],[53.107432,40.773912],[52.958181,41.016262],[52.736583,40.484565],[52.698985,40.273871],[52.738455,40.053616],[52.884125,39.944892],[53.437266,40.002672],[53.567068,39.94953],[53.429861,39.762519],[53.577159,39.467841],[53.363536,39.538072],[53.178233,39.515692],[53.088715,39.383246],[53.394298,39.317043],[53.581309,39.330471],[53.747813,39.054429],[53.97755,38.90176],[53.826996,38.525458],[53.858897,38.206488],[53.80714,38.031968],[53.82488,37.744859],[53.913748,37.34276],[54.186594,37.323744],[54.616852,37.433013],[54.783663,37.517453],[54.85663,37.761133],[55.130309,37.95231],[55.423108,38.075894],[55.708672,38.118656],[55.978422,38.065895],[56.299747,38.080235],[56.436482,38.255082],[56.738996,38.269603],[57.038409,38.187283],[57.137914,38.262364],[56.889479,38.467213],[56.593063,38.483749],[56.580505,38.611416],[56.672386,38.793756],[56.977122,39.566681],[57.101094,39.642852],[56.983788,39.990221],[57.165224,40.092308],[57.078925,40.175636],[57.129051,40.304259],[57.028953,40.553701],[56.906222,40.670438],[56.778064,40.930629],[56.595233,41.117568],[56.533721,41.298969]]]},"properties":{"LOCATION_TYPE":"level1","ADM0_A3":"TKM","LOCATION_ID":"TKM-B","NAME":"Balkan","TYPE_EN":"Province"}},
{"type":"Feature","geometry":{"type":"Polygon","coordinates":[[[61.004318,41.229533],[60.860295,41.252987],[60.414534,41.235262],[60.094244,41.389516],[60.155635,41.603327],[60.049182,41.753499],[60.241108,41.808069],[59.983656,41.949043],[60.028201,42.199518],[59.866351,42.304215],[59.478157,42.285637],[59.2452,42.365348],[59.122003,42.537999],[58.89442,42.547843],[58.612267,42.780852],[58.493204,42.64546],[58.282675,42.68892],[57.997731,42.493428],[57.850453,42.191431],[57.619769,42.148178],[57.382264,42.163629],[56.950146,41.86605],[57.019599,41.465946],[57.153751,41.37236],[57.010194,41.254124],[56.533721,41.298969],[56.595233,41.117568],[56.778064,40.930629],[56.906222,40.670438],[57.028953,40.553701],[57.129051,40.304259],[57.078925,40.175636],[57.165224,40.092308],[57.279843,40.031975],[57.479572,40.102307],[57.884715,40.097036],[58.398637,40.214187],[58.987542,40.1098],[59.184739,40.004173],[59.981435,40.000453],[60.001899,39.662205],[60.069698,39.588152],[60.265862,39.627659],[60.356606,39.476402],[60.517216,39.488959],[60.491791,40.301675],[60.252994,40.353403],[60.247517,41.000521],[60.980702,41.002614],[61.004318,41.229533]]]},"properties":{"LOCATION_TYPE":"level1","ADM0_A3":"TKM","LOCATION_ID":"TKM-D","NAME":"Tashauz","TYPE_EN":"Province"}}
]}