{"type":"FeatureCollection", "features": [
{"type":"Feature","geometry":{"type":"Polygon","coordinates":[[[124.450531,-9.18019],[124.190766,-9.255141],[124.03004,-9.341974],[124.121085,-9.426917],[124.197463,-9.373174],[124.310066,-9.488722],[124.347893,-9.37462],[124.431815,-9.290801],[124.450531,-9.18019]]]},"properties":{"LOCATION_TYPE":"level1","ADM0_A3":"TLS","LOCATION_ID":"TLS-OE","NAME":"Ambeno","TYPE_EN":"District|Regencies"}},
{"type":"Feature","geometry":{"type":"Polygon","coordinates":[[[125.102942,-8.740268],[124.919507,-8.962016],[124.947856,-9.078515],[125.051829,-9.035003],[125.162365,-9.060634],[125.152654,-9.170824],[125.311246,-9.209515],[125.410619,-9.034125],[125.4131,-8.98219],[125.326335,-8.991441],[125.239312,-8.787009],[125.179212,-8.754452],[125.102942,-8.740268]]]},"properties":{"LOCATION_TYPE":"level1","ADM0_A3":"TLS","LOCATION_ID":"TLS-BO","NAME":"Bobonaro","TYPE_EN":"District|Regencies"}},
{"type":"Feature","geometry":{"type":"Polygon","coordinates":[[[125.152654,-9.170824],[124.974469,-9.191893],[125.061615,-9.485772],[125.196625,-9.424737],[125.378754,-9.28102],[125.487966,-9.240818],[125.410619,-9.034125],[125.311246,-9.209515],[125.152654,-9.170824]]]},"properties":{"LOCATION_TYPE":"level1","ADM0_A3":"TLS","LOCATION_ID":"TLS-CO","NAME":"Cova Lima","TYPE_EN":"District|Regencies"}},
{"type":"Feature","geometry":{"type":"Polygon","coordinates":[[[125.670088,-9.193273],[125.595466,-9.055313],[125.600427,-8.927982],[125.671947,-8.906691],[125.688277,-8.794605],[125.487979,-8.855635],[125.4131,-8.98219],[125.410619,-9.034125],[125.487966,-9.240818],[125.670088,-9.193273]]]},"properties":{"LOCATION_TYPE":"level1","ADM0_A3":"TLS","LOCATION_ID":"TLS-AN","NAME":"Ainaro","TYPE_EN":"District|Regencies"}},
{"type":"Feature","geometry":{"type":"Polygon","coordinates":[[[126.047537,-9.057306],[125.81044,-8.856875],[125.805221,-8.75316],[125.688277,-8.794605],[125.671947,-8.906691],[125.600427,-8.927982],[125.595466,-9.055313],[125.670088,-9.193273],[125.849864,-9.1242],[125.947113,-9.125746],[126.047537,-9.057306]]]},"properties":{"LOCATION_TYPE":"level1","ADM0_A3":"TLS","LOCATION_ID":"TLS-MF","NAME":"Manufahi","TYPE_EN":"District|Regencies"}},
{"type":"Feature","geometry":{"type":"Polygon","coordinates":[[[126.13795,-8.999933],[126.033682,-8.794037],[126.140032,-8.681072],[126.179203,-8.623711],[126.141832,-8.502822],[126.069102,-8.52158],[125.828544,-8.49091],[125.763673,-8.582835],[125.805221,-8.75316],[125.81044,-8.856875],[126.047537,-9.057306],[126.13795,-8.999933]]]},"properties":{"LOCATION_TYPE":"level1","ADM0_A3":"TLS","LOCATION_ID":"TLS-MT","NAME":"Manatuto","TYPE_EN":"District|Regencies"}},
{"type":"Feature","geometry":{"type":"Polygon","coordinates":[[[126.72837,-8.760989],[126.738962,-8.696471],[126.432211,-8.706393],[126.331132,-8.675387],[126.140032,-8.681072],[126.033682,-8.794037],[126.13795,-8.999933],[126.430186,-8.954685],[126.583263,-8.805841],[126.72837,-8.760989]]]},"properties":{"LOCATION_TYPE":"level1","ADM0_A3":"TLS","LOCATION_ID":"TLS-VI","NAME":"Viqueque","TYPE_EN":"District|Regencies"}},
{"type":"Feature","geometry":{"type":"Polygon","coordinates":[[[126.688197,-8.431192],[126.804281,-8.603867],[126.738962,-8.696471],[126.72837,-8.760989],[126.846202,-8.752537],[127.009288,-8.67669],[127.303233,-8.432306],[127.18629,-8.332452],[127.069591,-8.357599],[126.967052,-8.309015],[126.842133,-8.391046],[126.688197,-8.431192]]]},"properties":{"LOCATION_TYPE":"level1","ADM0_A3":"TLS","LOCATION_ID":"TLS-LA","NAME":"Lautém","TYPE_EN":"District|Regencies"}},
{"type":"Feature","geometry":{"type":"Polygon","coordinates":[[[126.141832,-8.502822],[126.179203,-8.623711],[126.140032,-8.681072],[126.331132,-8.675387],[126.432211,-8.706393],[126.738962,-8.696471],[126.804281,-8.603867],[126.688197,-8.431192],[126.548839,-8.486749],[126.411632,-8.419122],[126.240245,-8.494806],[126.141832,-8.502822]]]},"properties":{"LOCATION_TYPE":"level1","ADM0_A3":"TLS","LOCATION_ID":"TLS-BA","NAME":"Baucau","TYPE_EN":"District|Regencies"}},
{"type":"Feature","geometry":{"type":"Polygon","coordinates":[[[125.489831,-8.568212],[125.511853,-8.620249],[125.695925,-8.565007],[125.763673,-8.582835],[125.828544,-8.49091],[125.489831,-8.568212]]]},"properties":{"LOCATION_TYPE":"level1","ADM0_A3":"TLS","LOCATION_ID":"TLS-DI","NAME":"Dili","TYPE_EN":"District|Regencies"}},
{"type":"Feature","geometry":{"type":"Polygon","coordinates":[[[125.102942,-8.740268],[125.179212,-8.754452],[125.494749,-8.649756],[125.511853,-8.620249],[125.489831,-8.568212],[125.381033,-8.571466],[125.144298,-8.631443],[125.102942,-8.740268]]]},"properties":{"LOCATION_TYPE":"level1","ADM0_A3":"TLS","LOCATION_ID":"TLS-LI","NAME":"Liquica","TYPE_EN":"District|Regencies"}},
{"type":"Feature","geometry":{"type":"Polygon","coordinates":[[[125.494749,-8.649756],[125.179212,-8.754452],[125.239312,-8.787009],[125.326335,-8.991441],[125.4131,-8.98219],[125.487979,-8.855635],[125.433615,-8.794037],[125.494749,-8.649756]]]},"properties":{"LOCATION_TYPE":"level1","ADM0_A3":"TLS","LOCATION_ID":"TLS-ER","NAME":"Ermera","TYPE_EN":"District|Regencies"}},
{"type":"Feature","geometry":{"type":"Polygon","coordinates":[[[125.763673,-8.582835],[125.695925,-8.565007],[125.511853,-8.620249],[125.494749,-8.649756],[125.433615,-8.794037],[125.487979,-8.855635],[125.688277,-8.794605],[125.805221,-8.75316],[125.763673,-8.582835]]]},"properties":{"LOCATION_TYPE":"level1","ADM0_A3":"TLS","LOCATION_ID":"TLS-AL","NAME":"Aileu","TYPE_EN":"District|Regencies"}}
]}