{"type":"FeatureCollection", "features": [
{"type":"Feature","geometry":{"type":"Polygon","coordinates":[[[-173.95637,-18.567315],[-174.010976,-18.577895],[-174.072499,-18.633966],[-174.059438,-18.663507],[-173.962595,-18.663507],[-173.942087,-18.615818],[-173.95637,-18.567315]]]},"properties":{"LOCATION_TYPE":"level1","ADM0_A3":"TON","LOCATION_ID":"TON-05","NAME":"Vava'u","TYPE_EN":null}},
{"type":"Feature","geometry":{"type":"Polygon","coordinates":[[[-174.914744,-21.292169],[-174.976877,-21.359552],[-174.983632,-21.397719],[-174.91393,-21.444106],[-174.914744,-21.292169]]]},"properties":{"LOCATION_TYPE":"level1","ADM0_A3":"TON","LOCATION_ID":"TON-01","NAME":"Eua","TYPE_EN":null}},
{"type":"Feature","geometry":{"type":"Polygon","coordinates":[[[-175.065541,-21.123956],[-175.154978,-21.171808],[-175.249827,-21.111261],[-175.364817,-21.113946],[-175.325754,-21.173598],[-175.209665,-21.214451],[-175.148752,-21.267999],[-175.11738,-21.203058],[-175.060496,-21.163751],[-175.065541,-21.123956]]]},"properties":{"LOCATION_TYPE":"level1","ADM0_A3":"TON","LOCATION_ID":"TON-04","NAME":"Tongatapu","TYPE_EN":null}},
{"type":"Feature","geometry":{"type":"Polygon","coordinates":[[[-175.069285,-19.712009],[-175.096669,-19.720798],[-175.08727,-19.787693],[-175.047841,-19.781183],[-175.069285,-19.712009]]]},"properties":{"LOCATION_TYPE":"level1","ADM0_A3":"TON","LOCATION_ID":"TON-02","NAME":"Ha'apai","TYPE_EN":null}},
{"type":"Feature","geometry":{"type":"Polygon","coordinates":[[[-175.631337,-15.559503],[-175.686269,-15.602309],[-175.63915,-15.624282],[-175.631337,-15.559503]]]},"properties":{"LOCATION_TYPE":"level1","ADM0_A3":"TON","LOCATION_ID":"TON-03","NAME":"Niuas","TYPE_EN":null}}
]}