{"type":"FeatureCollection", "features": [
{"type":"Feature","geometry":{"type":"Polygon","coordinates":[[[-61.352612,10.804107],[-61.347232,10.735676],[-61.428545,10.71144],[-61.40976,10.56628],[-61.368962,10.565505],[-61.239151,10.591447],[-61.201323,10.632065],[-61.214294,10.71268],[-61.157192,10.769214],[-61.171582,10.803939],[-61.352612,10.804107]],[[-61.274523,10.607363],[-61.288682,10.62328],[-61.271267,10.640643],[-61.26548,10.619662],[-61.274523,10.607363]]]},"properties":{"LOCATION_TYPE":"level1","ADM0_A3":"TTO","LOCATION_ID":"TTO-TUP","NAME":"Tunapuna/Piarco","TYPE_EN":"Region"}},
{"type":"Feature","geometry":{"type":"Polygon","coordinates":[[[-61.490102,10.754625],[-61.511408,10.675834],[-61.495706,10.635641],[-61.462231,10.538117],[-61.40976,10.56628],[-61.428545,10.71144],[-61.347232,10.735676],[-61.352612,10.804107],[-61.400054,10.768256],[-61.490102,10.754625]]]},"properties":{"LOCATION_TYPE":"level1","ADM0_A3":"TTO","LOCATION_ID":"TTO-SJL","NAME":"San Juan-Laventille","TYPE_EN":"Region"}},
{"type":"Feature","geometry":{"type":"Polygon","coordinates":[[[-61.549085,10.667059],[-61.511408,10.675834],[-61.490102,10.754625],[-61.602122,10.747748],[-61.650014,10.687812],[-61.549085,10.667059]]]},"properties":{"LOCATION_TYPE":"level1","ADM0_A3":"TTO","LOCATION_ID":"TTO-DMN","NAME":"Diego Martin","TYPE_EN":"Region"}},
{"type":"Feature","geometry":{"type":"Polygon","coordinates":[[[-61.495706,10.635641],[-61.511408,10.675834],[-61.549085,10.667059],[-61.495706,10.635641]]]},"properties":{"LOCATION_TYPE":"level1","ADM0_A3":"TTO","LOCATION_ID":"TTO-POS","NAME":"Port of Spain","TYPE_EN":"City"}},
{"type":"Feature","geometry":{"type":"Polygon","coordinates":[[[-61.462295,10.522614],[-61.372527,10.511193],[-61.368962,10.565505],[-61.40976,10.56628],[-61.462231,10.538117],[-61.462295,10.522614]]]},"properties":{"LOCATION_TYPE":"level1","ADM0_A3":"TTO","LOCATION_ID":"TTO-CHA","NAME":"Chaguanas","TYPE_EN":"City"}},
{"type":"Feature","geometry":{"type":"Polygon","coordinates":[[[-61.459648,10.309705],[-61.427847,10.310017],[-61.311498,10.333065],[-61.243569,10.307123],[-61.197138,10.456365],[-61.239151,10.591447],[-61.368962,10.565505],[-61.372527,10.511193],[-61.462295,10.522614],[-61.487945,10.430121],[-61.459648,10.309705]]]},"properties":{"LOCATION_TYPE":"level1","ADM0_A3":"TTO","LOCATION_ID":"TTO-CTT","NAME":"Couva-Tabaquite-Talparo","TYPE_EN":"Region"}},
{"type":"Feature","geometry":{"type":"Polygon","coordinates":[[[-61.489913,10.2493],[-61.44149,10.259064],[-61.427847,10.310017],[-61.459648,10.309705],[-61.489913,10.2493]]]},"properties":{"LOCATION_TYPE":"level1","ADM0_A3":"TTO","LOCATION_ID":"TTO-SFO","NAME":"San Fernando","TYPE_EN":"City"}},
{"type":"Feature","geometry":{"type":"Polygon","coordinates":[[[-61.520787,10.24015],[-61.468801,10.185735],[-61.504147,10.069517],[-61.379093,10.072828],[-61.372837,10.217413],[-61.44149,10.259064],[-61.489913,10.2493],[-61.520787,10.24015]]]},"properties":{"LOCATION_TYPE":"level1","ADM0_A3":"TTO","LOCATION_ID":"TTO-PED","NAME":"Penal-Debe","TYPE_EN":"Region"}},
{"type":"Feature","geometry":{"type":"Polygon","coordinates":[[[-61.639312,10.210069],[-61.671114,10.14703],[-61.707387,10.16588],[-61.789174,10.140937],[-61.817047,10.081366],[-61.706695,10.08397],[-61.637034,10.057807],[-61.504147,10.069517],[-61.468801,10.185735],[-61.520787,10.24015],[-61.611806,10.247504],[-61.639312,10.210069]]]},"properties":{"LOCATION_TYPE":"level1","ADM0_A3":"TTO","LOCATION_ID":"TTO-SIP","NAME":"Siparia","TYPE_EN":"Region"}},
{"type":"Feature","geometry":{"type":"Polygon","coordinates":[[[-61.707387,10.16588],[-61.671114,10.14703],[-61.639312,10.210069],[-61.707387,10.16588]]]},"properties":{"LOCATION_TYPE":"level1","ADM0_A3":"TTO","LOCATION_ID":"TTO-PTF","NAME":"Point Fortin","TYPE_EN":"City"}},
{"type":"Feature","geometry":{"type":"Polygon","coordinates":[[[-61.177659,10.07518],[-61.19197,10.230125],[-61.243569,10.307123],[-61.311498,10.333065],[-61.427847,10.310017],[-61.44149,10.259064],[-61.372837,10.217413],[-61.379093,10.072828],[-61.253,10.083645],[-61.177659,10.07518]]]},"properties":{"LOCATION_TYPE":"level1","ADM0_A3":"TTO","LOCATION_ID":"TTO-PRT","NAME":"Princes Town","TYPE_EN":"Region"}},
{"type":"Feature","geometry":{"type":"Polygon","coordinates":[[[-61.038442,10.46365],[-61.197138,10.456365],[-61.243569,10.307123],[-61.19197,10.230125],[-61.177659,10.07518],[-60.996002,10.138251],[-60.998443,10.355943],[-61.038442,10.46365]]]},"properties":{"LOCATION_TYPE":"level1","ADM0_A3":"TTO","LOCATION_ID":"TTO-RCM","NAME":"Rio Claro-Mayaro","TYPE_EN":"Region"}},
{"type":"Feature","geometry":{"type":"Polygon","coordinates":[[[-61.171582,10.803939],[-61.157192,10.769214],[-61.214294,10.71268],[-61.201323,10.632065],[-61.239151,10.591447],[-61.197138,10.456365],[-61.038442,10.46365],[-61.013539,10.534491],[-61.032704,10.683539],[-60.949778,10.763495],[-60.948842,10.845282],[-61.078521,10.830959],[-61.171582,10.803939]]]},"properties":{"LOCATION_TYPE":"level1","ADM0_A3":"TTO","LOCATION_ID":"TTO-SGE","NAME":"Sangre Grande","TYPE_EN":"Region"}},
{"type":"Feature","geometry":{"type":"Polygon","coordinates":[[[-60.654711,11.307976],[-60.704242,11.240746],[-60.647125,11.204169],[-60.585113,11.25552],[-60.53303,11.266506],[-60.523061,11.343655],[-60.654711,11.307976]]]},"properties":{"LOCATION_TYPE":"level1","ADM0_A3":"TTO","LOCATION_ID":"TTO-ETO","NAME":"Eastern Tobago","TYPE_EN":"Region"}},
{"type":"Feature","geometry":{"type":"Polygon","coordinates":[[[-60.647125,11.204169],[-60.704242,11.240746],[-60.654711,11.307976],[-60.794342,11.21662],[-60.803334,11.143256],[-60.681304,11.207099],[-60.647125,11.204169]]]},"properties":{"LOCATION_TYPE":"level1","ADM0_A3":"TTO","LOCATION_ID":"TTO-WTO","NAME":"Western Tobago","TYPE_EN":"Region"}},
{"type":"Feature","geometry":{"type":"Polygon","coordinates":[[[-61.274523,10.607363],[-61.26548,10.619662],[-61.271267,10.640643],[-61.288682,10.62328],[-61.274523,10.607363]]]},"properties":{"LOCATION_TYPE":"level1","ADM0_A3":"TTO","LOCATION_ID":"TTO-ARI","NAME":"Arima","TYPE_EN":"City"}}
]}