{"type":"FeatureCollection", "features": [
{"type":"Feature","geometry":{"type":"Polygon","coordinates":[[[11.182341,32.262223],[11.247407,32.365725],[11.382541,32.438589],[11.370448,32.494218],[11.10726,32.678135],[11.134442,32.901455],[11.001582,33.0616],[10.508641,33.254095],[10.076471,33.096972],[9.909504,33.074803],[9.987535,32.975249],[9.924697,32.809651],[9.911209,32.675267],[9.750289,32.79557],[9.621356,32.790505],[9.524205,32.735418],[8.332627,32.526355],[9.019893,32.104863],[9.045008,32.071842],[9.264426,31.219336],[9.519708,30.228905],[9.743467,30.331328],[9.871314,30.355151],[10.101171,30.641697],[10.192225,30.731252],[10.270153,30.915633],[10.244832,31.078156],[10.108096,31.411831],[10.116881,31.494409],[10.263952,31.680496],[10.513549,31.757029],[10.584552,31.84028],[10.605946,31.953606],[10.683564,31.957017],[10.805624,32.032361],[10.873217,32.136696],[11.182341,32.262223]]]},"properties":{"LOCATION_TYPE":"level1","ADM0_A3":"TUN","LOCATION_ID":"TUN-83","NAME":"Tataouine","TYPE_EN":"Governorate"}},
{"type":"Feature","geometry":{"type":"MultiPolygon","coordinates":[[[[11.182341,32.262223],[11.444035,32.36849],[11.564131,32.465487],[11.449926,32.637957],[11.456541,32.902101],[11.505112,33.181225],[11.179535,33.211086],[11.170665,33.331773],[11.089929,33.454149],[11.108165,33.549628],[10.977875,33.643134],[10.909434,33.539618],[10.717133,33.483547],[10.716645,33.706936],[10.460216,33.652696],[10.272893,33.436874],[10.059366,33.328664],[9.740677,33.291172],[9.912295,33.208619],[9.909504,33.074803],[10.076471,33.096972],[10.508641,33.254095],[11.001582,33.0616],[11.134442,32.901455],[11.10726,32.678135],[11.370448,32.494218],[11.382541,32.438589],[11.247407,32.365725],[11.182341,32.262223]]],[[[10.991466,33.841702],[10.897797,33.87934],[10.736013,33.884752],[10.740154,33.715478],[10.80893,33.73432],[10.893709,33.658247],[11.060313,33.800727],[10.991466,33.841702]]]]},"properties":{"LOCATION_TYPE":"level1","ADM0_A3":"TUN","LOCATION_ID":"TUN-82","NAME":"Médenine","TYPE_EN":"Governorate"}},
{"type":"Feature","geometry":{"type":"Polygon","coordinates":[[[8.895998,37.018863],[8.802013,36.97309],[8.60251,36.939511],[8.623845,36.826074],[8.444011,36.796205],[8.407941,36.642622],[8.169919,36.525834],[8.349237,36.448784],[8.355423,36.356116],[8.591445,36.404393],[8.917317,36.438138],[9.011678,36.449248],[9.073741,36.542188],[9.020824,36.742874],[8.912821,36.784267],[8.977054,36.86713],[8.895998,37.018863]]]},"properties":{"LOCATION_TYPE":"level1","ADM0_A3":"TUN","LOCATION_ID":"TUN-32","NAME":"Jendouba","TYPE_EN":"Governorate"}},
{"type":"Feature","geometry":{"type":"Polygon","coordinates":[[[7.708286,33.410704],[7.709689,33.278151],[7.75072,33.207664],[7.871953,33.184125],[8.086824,33.094286],[8.282884,32.836369],[8.332627,32.526355],[9.524205,32.735418],[9.621356,32.790505],[9.750289,32.79557],[9.911209,32.675267],[9.924697,32.809651],[9.987535,32.975249],[9.909504,33.074803],[9.912295,33.208619],[9.740677,33.291172],[9.554435,33.482763],[9.588438,33.575031],[9.375997,33.720526],[9.268458,33.917723],[9.272334,34.059265],[9.335379,34.102415],[9.267838,34.204786],[9.031056,34.169853],[8.892512,34.118383],[8.669218,34.090943],[8.534032,33.91408],[7.918153,33.499351],[7.708286,33.410704]]]},"properties":{"LOCATION_TYPE":"level1","ADM0_A3":"TUN","LOCATION_ID":"TUN-73","NAME":"Kebili","TYPE_EN":"Governorate"}},
{"type":"Feature","geometry":{"type":"Polygon","coordinates":[[[7.708286,33.410704],[7.918153,33.499351],[8.534032,33.91408],[8.669218,34.090943],[8.357764,34.09208],[8.292445,34.17471],[8.166458,34.206465],[8.030962,34.314547],[8.100674,34.439035],[8.102483,34.536355],[7.831542,34.414386],[7.774285,34.260959],[7.631451,34.199102],[7.517453,34.095026],[7.479832,33.893901],[7.553006,33.658748],[7.708286,33.410704]]]},"properties":{"LOCATION_TYPE":"level1","ADM0_A3":"TUN","LOCATION_ID":"TUN-72","NAME":"Tozeur","TYPE_EN":"Governorate"}},
{"type":"Feature","geometry":{"type":"Polygon","coordinates":[[[8.102483,34.536355],[8.100674,34.439035],[8.030962,34.314547],[8.166458,34.206465],[8.292445,34.17471],[8.357764,34.09208],[8.669218,34.090943],[8.892512,34.118383],[9.031056,34.169853],[9.267838,34.204786],[9.4809,34.220909],[9.558518,34.252328],[9.562859,34.370564],[9.278121,34.55169],[9.242568,34.650495],[8.967598,34.697702],[8.805902,34.750644],[8.601367,34.681837],[8.569586,34.637421],[8.258714,34.741298],[8.236479,34.647654],[8.102483,34.536355]]]},"properties":{"LOCATION_TYPE":"level1","ADM0_A3":"TUN","LOCATION_ID":"TUN-71","NAME":"Gafsa","TYPE_EN":"Governorate"}},
{"type":"Feature","geometry":{"type":"Polygon","coordinates":[[[8.258714,34.741298],[8.569586,34.637421],[8.601367,34.681837],[8.805902,34.750644],[9.050952,34.867019],[9.113325,35.004091],[9.271093,35.051969],[9.262877,35.197593],[9.148207,35.249632],[9.326956,35.480677],[9.302926,35.519486],[9.082888,35.613847],[9.002221,35.703402],[8.699294,35.784095],[8.602349,35.648987],[8.440808,35.665369],[8.327225,35.621405],[8.336731,35.508376],[8.290016,35.402595],[8.317404,35.289475],[8.431299,35.241726],[8.313683,35.103078],[8.248881,34.901953],[8.258714,34.741298]]]},"properties":{"LOCATION_TYPE":"level1","ADM0_A3":"TUN","LOCATION_ID":"TUN-42","NAME":"Kassérine","TYPE_EN":"Governorate"}},
{"type":"Feature","geometry":{"type":"Polygon","coordinates":[[[8.327225,35.621405],[8.440808,35.665369],[8.602349,35.648987],[8.699294,35.784095],[9.002221,35.703402],[9.021755,35.825772],[9.125728,35.959614],[9.150222,36.045242],[9.027646,36.143401],[8.917317,36.438138],[8.591445,36.404393],[8.355423,36.356116],[8.307069,36.243629],[8.317094,36.145909],[8.24144,35.827737],[8.327225,35.621405]]]},"properties":{"LOCATION_TYPE":"level1","ADM0_A3":"TUN","LOCATION_ID":"TUN-33","NAME":"Le Kef","TYPE_EN":"Governorate"}},
{"type":"Feature","geometry":{"type":"Polygon","coordinates":[[[10.010092,34.173077],[9.930588,34.158225],[9.71365,34.248659],[9.558518,34.252328],[9.4809,34.220909],[9.267838,34.204786],[9.335379,34.102415],[9.272334,34.059265],[9.268458,33.917723],[9.375997,33.720526],[9.588438,33.575031],[9.554435,33.482763],[9.740677,33.291172],[10.059366,33.328664],[10.272893,33.436874],[10.460216,33.652696],[10.330251,33.702826],[10.163097,33.836249],[10.048839,33.983466],[10.010092,34.173077]]]},"properties":{"LOCATION_TYPE":"level1","ADM0_A3":"TUN","LOCATION_ID":"TUN-81","NAME":"Gabès","TYPE_EN":"Governorate"}},
{"type":"Feature","geometry":{"type":"Polygon","coordinates":[[[11.01588,35.092841],[10.903242,35.169068],[10.828104,35.165657],[10.623776,35.242449],[10.53174,35.151886],[10.420791,35.108633],[10.228709,35.146486],[10.051614,35.013987],[9.82646,34.65065],[9.839379,34.595951],[10.050219,34.546522],[10.035181,34.474433],[9.717526,34.319585],[9.71365,34.248659],[9.930588,34.158225],[10.010092,34.173077],[10.12672,34.325629],[10.378724,34.42308],[10.431895,34.496324],[10.597023,34.544713],[10.916336,34.873569],[10.917654,34.957424],[11.01588,35.092841]]]},"properties":{"LOCATION_TYPE":"level1","ADM0_A3":"TUN","LOCATION_ID":"TUN-61","NAME":"Sfax","TYPE_EN":"Governorate"}},
{"type":"Feature","geometry":{"type":"Polygon","coordinates":[[[11.013925,35.562905],[10.840352,35.460472],[10.60109,35.501994],[10.538871,35.420112],[10.356867,35.491994],[10.305656,35.576201],[10.174242,35.359134],[10.228709,35.146486],[10.420791,35.108633],[10.53174,35.151886],[10.623776,35.242449],[10.828104,35.165657],[10.903242,35.169068],[11.01588,35.092841],[11.111578,35.205595],[11.042233,35.334435],[11.05769,35.486733],[11.013925,35.562905]]]},"properties":{"LOCATION_TYPE":"level1","ADM0_A3":"TUN","LOCATION_ID":"TUN-53","NAME":"Mahdia","TYPE_EN":"Governorate"}},
{"type":"Feature","geometry":{"type":"Polygon","coordinates":[[[10.691335,35.789618],[10.60109,35.501994],[10.840352,35.460472],[11.013925,35.562905],[10.971816,35.654138],[10.841156,35.698798],[10.84142,35.766548],[10.691335,35.789618]]]},"properties":{"LOCATION_TYPE":"level1","ADM0_A3":"TUN","LOCATION_ID":"TUN-52","NAME":"Monastir","TYPE_EN":"Governorate"}},
{"type":"Feature","geometry":{"type":"Polygon","coordinates":[[[10.529378,36.350332],[10.365549,36.365067],[10.351751,36.238822],[10.267622,36.221407],[10.206488,36.133144],[10.253669,36.00633],[10.162408,35.819752],[10.305656,35.576201],[10.356867,35.491994],[10.538871,35.420112],[10.60109,35.501994],[10.691335,35.789618],[10.608572,35.855862],[10.479528,36.079327],[10.479267,36.216962],[10.529378,36.350332]]]},"properties":{"LOCATION_TYPE":"level1","ADM0_A3":"TUN","LOCATION_ID":"TUN-51","NAME":"Sousse","TYPE_EN":"Governorate"}},
{"type":"Feature","geometry":{"type":"Polygon","coordinates":[[[10.416751,36.729558],[10.355317,36.599937],[10.341209,36.470642],[10.365549,36.365067],[10.529378,36.350332],[10.799929,36.451885],[11.02214,36.788276],[11.116767,36.838412],[11.012706,37.084784],[10.733466,36.895812],[10.566905,36.863227],[10.538233,36.772026],[10.416751,36.729558]]]},"properties":{"LOCATION_TYPE":"level1","ADM0_A3":"TUN","LOCATION_ID":"TUN-21","NAME":"Nabeul","TYPE_EN":"Governorate"}},
{"type":"Feature","geometry":{"type":"Polygon","coordinates":[[[10.253882,36.791437],[10.211139,36.722229],[10.054715,36.689544],[9.971412,36.635387],[10.108407,36.570972],[10.258165,36.443693],[10.341209,36.470642],[10.355317,36.599937],[10.416751,36.729558],[10.253882,36.791437]]]},"properties":{"LOCATION_TYPE":"level1","ADM0_A3":"TUN","LOCATION_ID":"TUN-13","NAME":"Ben Arous (Tunis Sud)","TYPE_EN":"Governorate"}},
{"type":"Feature","geometry":{"type":"Polygon","coordinates":[[[10.337002,36.891836],[9.997922,36.771968],[10.054715,36.689544],[10.211139,36.722229],[10.253882,36.791437],[10.337002,36.891836]]]},"properties":{"LOCATION_TYPE":"level1","ADM0_A3":"TUN","LOCATION_ID":"TUN-11","NAME":"Tunis","TYPE_EN":"Governorate"}},
{"type":"Feature","geometry":{"type":"Polygon","coordinates":[[[10.218191,37.128933],[10.111662,37.110603],[9.98583,36.934774],[9.807856,36.956427],[9.55304,36.829277],[9.762536,36.718276],[9.856122,36.570352],[9.971412,36.635387],[10.054715,36.689544],[9.997922,36.771968],[10.337002,36.891836],[10.220063,36.97663],[10.174327,37.076239],[10.218191,37.128933]]]},"properties":{"LOCATION_TYPE":"level1","ADM0_A3":"TUN","LOCATION_ID":"TUN-14","NAME":"Manubah","TYPE_EN":"Governorate"}},
{"type":"Feature","geometry":{"type":"Polygon","coordinates":[[[9.079429,37.166813],[9.074361,37.07722],[9.193682,37.025286],[9.254195,36.908859],[9.36964,36.842609],[9.427053,36.733727],[9.55304,36.829277],[9.807856,36.956427],[9.98583,36.934774],[10.111662,37.110603],[10.218191,37.128933],[10.146251,37.236518],[10.05128,37.266588],[9.815929,37.151842],[9.771821,37.213324],[9.858897,37.328803],[9.66627,37.335435],[9.34254,37.235338],[9.210704,37.233832],[9.079429,37.166813]]]},"properties":{"LOCATION_TYPE":"level1","ADM0_A3":"TUN","LOCATION_ID":"TUN-23","NAME":"Bizerte","TYPE_EN":"Governorate"}},
{"type":"Feature","geometry":{"type":"Polygon","coordinates":[[[8.895998,37.018863],[8.977054,36.86713],[8.912821,36.784267],[9.020824,36.742874],[9.073741,36.542188],[9.011678,36.449248],[9.117511,36.373051],[9.318119,36.356127],[9.390621,36.439998],[9.57154,36.404987],[9.730755,36.442892],[9.856122,36.570352],[9.762536,36.718276],[9.55304,36.829277],[9.427053,36.733727],[9.36964,36.842609],[9.254195,36.908859],[9.193682,37.025286],[9.074361,37.07722],[9.079429,37.166813],[8.895998,37.018863]]]},"properties":{"LOCATION_TYPE":"level1","ADM0_A3":"TUN","LOCATION_ID":"TUN-31","NAME":"Béja","TYPE_EN":"Governorate"}},
{"type":"Feature","geometry":{"type":"Polygon","coordinates":[[[9.454235,35.48786],[9.277501,35.696116],[9.503121,35.737716],[9.489116,35.898998],[9.72812,36.066739],[9.72874,36.175518],[9.573711,36.252878],[9.676753,36.302591],[9.730755,36.442892],[9.57154,36.404987],[9.390621,36.439998],[9.318119,36.356127],[9.117511,36.373051],[9.011678,36.449248],[8.917317,36.438138],[9.027646,36.143401],[9.150222,36.045242],[9.125728,35.959614],[9.021755,35.825772],[9.002221,35.703402],[9.082888,35.613847],[9.302926,35.519486],[9.326956,35.480677],[9.454235,35.48786]]]},"properties":{"LOCATION_TYPE":"level1","ADM0_A3":"TUN","LOCATION_ID":"TUN-34","NAME":"Siliana","TYPE_EN":"Governorate"}},
{"type":"Feature","geometry":{"type":"Polygon","coordinates":[[[9.454235,35.48786],[9.326956,35.480677],[9.148207,35.249632],[9.262877,35.197593],[9.271093,35.051969],[9.113325,35.004091],[9.050952,34.867019],[8.805902,34.750644],[8.967598,34.697702],[9.242568,34.650495],[9.278121,34.55169],[9.562859,34.370564],[9.558518,34.252328],[9.71365,34.248659],[9.717526,34.319585],[10.035181,34.474433],[10.050219,34.546522],[9.839379,34.595951],[9.82646,34.65065],[10.051614,35.013987],[9.992186,35.145865],[9.707914,35.195836],[9.473458,35.366136],[9.454235,35.48786]]]},"properties":{"LOCATION_TYPE":"level1","ADM0_A3":"TUN","LOCATION_ID":"TUN-43","NAME":"Sidi Bou Zid","TYPE_EN":"Governorate"}},
{"type":"Feature","geometry":{"type":"Polygon","coordinates":[[[10.206488,36.133144],[10.03146,36.011239],[9.903148,36.068548],[9.72812,36.066739],[9.489116,35.898998],[9.503121,35.737716],[9.277501,35.696116],[9.454235,35.48786],[9.473458,35.366136],[9.707914,35.195836],[9.992186,35.145865],[10.051614,35.013987],[10.228709,35.146486],[10.174242,35.359134],[10.305656,35.576201],[10.162408,35.819752],[10.253669,36.00633],[10.206488,36.133144]]]},"properties":{"LOCATION_TYPE":"level1","ADM0_A3":"TUN","LOCATION_ID":"TUN-41","NAME":"Kairouan","TYPE_EN":"Governorate"}},
{"type":"Feature","geometry":{"type":"Polygon","coordinates":[[[10.341209,36.470642],[10.258165,36.443693],[10.108407,36.570972],[9.971412,36.635387],[9.856122,36.570352],[9.730755,36.442892],[9.676753,36.302591],[9.573711,36.252878],[9.72874,36.175518],[9.72812,36.066739],[9.903148,36.068548],[10.03146,36.011239],[10.206488,36.133144],[10.267622,36.221407],[10.351751,36.238822],[10.365549,36.365067],[10.341209,36.470642]]]},"properties":{"LOCATION_TYPE":"level1","ADM0_A3":"TUN","LOCATION_ID":"TUN-22","NAME":"Zaghouan","TYPE_EN":"Governorate"}}
]}