{"type":"FeatureCollection", "features": [
{"type":"Feature","geometry":{"type":"Polygon","coordinates":[[[43.440428,41.106588],[43.230622,41.17263],[42.957719,41.437007],[42.565184,41.567128],[42.451033,41.43137],[42.538727,41.191181],[42.279208,40.924918],[42.299155,40.84805],[42.53697,40.599176],[42.771903,40.625296],[42.829384,40.893539],[43.440428,41.106588]]]},"properties":{"LOCATION_TYPE":"level1","ADM0_A3":"TUR","LOCATION_ID":"TUR-75","NAME":"Ardahan","TYPE_EN":"Province"}},
{"type":"Feature","geometry":{"type":"Polygon","coordinates":[[[42.451033,41.43137],[42.158387,41.499897],[41.947961,41.505581],[41.800787,41.42569],[41.520763,41.514228],[41.390391,41.37934],[41.199747,41.301259],[41.385826,41.075348],[41.127443,40.81291],[41.365258,40.754696],[41.401329,40.555561],[41.65661,40.641241],[41.820838,40.587626],[42.024443,40.911896],[42.279208,40.924918],[42.538727,41.191181],[42.451033,41.43137]]]},"properties":{"LOCATION_TYPE":"level1","ADM0_A3":"TUR","LOCATION_ID":"TUR-08","NAME":"Artvin","TYPE_EN":"Province"}},
{"type":"Feature","geometry":{"type":"Polygon","coordinates":[[[41.896365,37.154283],[42.178541,37.306303],[42.353208,37.227031],[42.357238,37.109984],[42.561257,37.146623],[42.77158,37.374903],[42.937048,37.320152],[43.083706,37.368831],[43.362505,37.303908],[43.409268,37.464794],[43.38684,37.73364],[43.10293,37.766093],[43.023348,37.731651],[42.950485,37.625972],[42.235386,37.708551],[42.157045,37.646643],[41.81691,37.713822],[41.892565,37.435855],[41.723066,37.365601],[41.896365,37.154283]]]},"properties":{"LOCATION_TYPE":"level1","ADM0_A3":"TUR","LOCATION_ID":"TUR-73","NAME":"Sirnak","TYPE_EN":"Province"}},
{"type":"Feature","geometry":{"type":"Polygon","coordinates":[[[43.362505,37.303908],[43.479599,37.243361],[43.89363,37.224912],[43.990369,37.312504],[44.223171,37.254058],[44.180021,37.087608],[44.234281,36.983661],[44.57824,37.166415],[44.772336,37.161247],[44.801585,37.292686],[44.565941,37.447173],[44.59612,37.716381],[44.377942,37.854125],[44.205006,37.904768],[44.044268,37.901201],[43.977812,37.791285],[43.38684,37.73364],[43.409268,37.464794],[43.362505,37.303908]]]},"properties":{"LOCATION_TYPE":"level1","ADM0_A3":"TUR","LOCATION_ID":"TUR-30","NAME":"Hakkari","TYPE_EN":"Province"}},
{"type":"Feature","geometry":{"type":"Polygon","coordinates":[[[44.45825,39.64252],[44.682419,39.79721],[44.464345,39.97229],[44.255262,40.043397],[44.032433,40.008618],[43.665427,40.110163],[43.35629,40.04091],[43.318421,39.969318],[43.350047,39.803824],[43.531638,39.838499],[43.715503,39.728247],[43.973265,39.643162],[44.45825,39.64252]]]},"properties":{"LOCATION_TYPE":"level1","ADM0_A3":"TUR","LOCATION_ID":"TUR-76","NAME":"Iğdir","TYPE_EN":"Province"}},
{"type":"Feature","geometry":{"type":"Polygon","coordinates":[[[44.45825,39.64252],[43.973265,39.643162],[43.715503,39.728247],[43.531638,39.838499],[43.350047,39.803824],[43.318421,39.969318],[43.064483,39.989342],[42.757318,39.922137],[42.563738,39.951851],[42.38163,39.870642],[42.494905,39.748143],[42.431343,39.491388],[42.641253,39.235435],[42.62761,39.002426],[42.971982,39.104073],[43.243697,39.409869],[43.49226,39.31326],[44.047395,39.337514],[44.404814,39.43439],[44.45825,39.64252]]]},"properties":{"LOCATION_TYPE":"level1","ADM0_A3":"TUR","LOCATION_ID":"TUR-04","NAME":"Agri","TYPE_EN":"Province"}},
{"type":"Feature","geometry":{"type":"Polygon","coordinates":[[[44.047395,39.337514],[43.49226,39.31326],[43.243697,39.409869],[42.971982,39.104073],[43.003608,38.977259],[43.161221,38.872279],[42.875347,38.544211],[42.678047,38.404891],[42.786877,38.181132],[43.01632,38.15178],[42.983454,37.806401],[43.023348,37.731651],[43.10293,37.766093],[43.38684,37.73364],[43.977812,37.791285],[44.044268,37.901201],[44.205006,37.904768],[44.33381,38.10088],[44.424657,38.377038],[44.289524,38.382258],[44.275002,38.843573],[44.139197,38.993952],[44.186636,39.145131],[44.077702,39.200063],[44.047395,39.337514]]]},"properties":{"LOCATION_TYPE":"level1","ADM0_A3":"TUR","LOCATION_ID":"TUR-65","NAME":"Van","TYPE_EN":"Province"}},
{"type":"Feature","geometry":{"type":"Polygon","coordinates":[[[28.203024,41.540167],[27.972016,41.822252],[28.016775,41.972561],[27.807997,41.993484],[27.533182,41.908063],[27.273353,42.091747],[27.022619,42.073893],[26.837899,41.97522],[26.906193,41.66694],[26.780206,41.375563],[26.809764,41.330268],[27.239816,41.364762],[27.395982,41.264562],[27.601447,41.419694],[28.155729,41.492196],[28.203024,41.540167]]]},"properties":{"LOCATION_TYPE":"level1","ADM0_A3":"TUR","LOCATION_ID":"TUR-39","NAME":"Kirklareli","TYPE_EN":"Province"}},
{"type":"Feature","geometry":{"type":"Polygon","coordinates":[[[26.837899,41.97522],[26.623573,41.969041],[26.526112,41.824244],[26.333359,41.713036],[26.596288,41.59754],[26.636596,41.378457],[26.331705,41.254124],[26.359093,40.964684],[26.260391,40.920449],[26.053722,40.66059],[26.302582,40.601142],[26.780518,40.659368],[26.786407,40.725835],[26.716333,40.935047],[26.829298,41.172836],[26.809764,41.330268],[26.780206,41.375563],[26.906193,41.66694],[26.837899,41.97522]]]},"properties":{"LOCATION_TYPE":"level1","ADM0_A3":"TUR","LOCATION_ID":"TUR-22","NAME":"Edirne","TYPE_EN":"Province"}},
{"type":"Feature","geometry":{"type":"Polygon","coordinates":[[[43.440428,41.106588],[42.829384,40.893539],[42.771903,40.625296],[42.53697,40.599176],[42.53821,40.430711],[42.181229,40.29444],[42.230942,40.160495],[42.48457,40.058847],[42.563738,39.951851],[42.757318,39.922137],[43.064483,39.989342],[43.318421,39.969318],[43.35629,40.04091],[43.665427,40.110163],[43.721393,40.169384],[43.594217,40.345445],[43.729351,40.677105],[43.604863,40.963341],[43.440428,41.106588]]]},"properties":{"LOCATION_TYPE":"level1","ADM0_A3":"TUR","LOCATION_ID":"TUR-36","NAME":"Kars","TYPE_EN":"Province"}},
{"type":"Feature","geometry":{"type":"Polygon","coordinates":[[[41.896365,37.154283],[41.723066,37.365601],[41.892565,37.435855],[41.81691,37.713822],[41.520598,37.543316],[41.260252,37.572229],[41.07525,37.76493],[40.551561,37.729868],[40.097842,37.475801],[39.999967,37.375703],[40.013816,37.257519],[40.261409,36.922785],[40.708967,37.100476],[40.896449,37.122696],[41.20134,37.064974],[41.479773,37.075568],[41.896365,37.154283]]]},"properties":{"LOCATION_TYPE":"level1","ADM0_A3":"TUR","LOCATION_ID":"TUR-47","NAME":"Mardin","TYPE_EN":"Province"}},
{"type":"Feature","geometry":{"type":"Polygon","coordinates":[[[38.026005,36.835006],[38.190051,36.905526],[38.529358,36.833722],[38.66413,36.719517],[39.239599,36.661278],[39.765252,36.742151],[40.261409,36.922785],[40.013816,37.257519],[39.999967,37.375703],[39.884315,37.550111],[39.863231,37.777694],[39.588829,37.882985],[39.462636,37.9767],[39.188957,38.043053],[39.060283,37.987862],[38.86846,37.651449],[38.645631,37.624164],[38.515407,37.51107],[38.03988,37.445983],[37.840616,37.267855],[37.869348,37.065128],[38.007944,36.957073],[38.026005,36.835006]]]},"properties":{"LOCATION_TYPE":"level1","ADM0_A3":"TUR","LOCATION_ID":"TUR-63","NAME":"Sanliurfa","TYPE_EN":"Province"}},
{"type":"Feature","geometry":{"type":"Polygon","coordinates":[[[37.522144,36.6736],[37.117068,36.900014],[36.864012,36.936165],[36.659563,36.827243],[36.964699,36.75383],[37.014515,36.642261],[37.446117,36.634199],[37.522144,36.6736]]]},"properties":{"LOCATION_TYPE":"level1","ADM0_A3":"TUR","LOCATION_ID":"TUR-79","NAME":"Kilis","TYPE_EN":"Province"}},
{"type":"Feature","geometry":{"type":"Polygon","coordinates":[[[38.026005,36.835006],[38.007944,36.957073],[37.869348,37.065128],[37.840616,37.267855],[38.03988,37.445983],[37.843613,37.535564],[37.625125,37.518821],[37.61727,37.414409],[37.134199,37.309661],[36.937725,37.342165],[36.721201,37.271188],[36.451863,36.96069],[36.659563,36.827243],[36.864012,36.936165],[37.117068,36.900014],[37.522144,36.6736],[38.026005,36.835006]]]},"properties":{"LOCATION_TYPE":"level1","ADM0_A3":"TUR","LOCATION_ID":"TUR-27","NAME":"Gaziantep","TYPE_EN":"Province"}},
{"type":"Feature","geometry":{"type":"Polygon","coordinates":[[[36.659563,36.827243],[36.451863,36.96069],[36.061603,37.009679],[35.932524,36.872986],[36.058604,36.918443],[36.188975,36.801744],[36.189138,36.60399],[36.037446,36.527045],[35.788748,36.320258],[35.975434,36.0185],[35.922699,35.931586],[36.138497,35.819779],[36.196891,35.951708],[36.355538,36.022402],[36.360498,36.181669],[36.587771,36.324812],[36.535475,36.494001],[36.659563,36.827243]]]},"properties":{"LOCATION_TYPE":"level1","ADM0_A3":"TUR","LOCATION_ID":"TUR-31","NAME":"Hatay","TYPE_EN":"Province"}},
{"type":"Feature","geometry":{"type":"MultiPolygon","coordinates":[[[[28.203024,41.540167],[28.155729,41.492196],[28.193039,41.355305],[28.174734,41.080837],[28.625255,40.968411],[28.981944,41.001654],[29.109223,41.235297],[28.908458,41.266547],[28.384288,41.447455],[28.203024,41.540167]]],[[[29.253673,40.875474],[29.450947,41.008608],[29.581792,40.925254],[29.849372,41.029382],[29.884613,41.148993],[29.231781,41.240709],[29.130056,41.2119],[29.028087,40.982123],[29.253673,40.875474]]]]},"properties":{"LOCATION_TYPE":"level1","ADM0_A3":"TUR","LOCATION_ID":"TUR-34","NAME":"Istanbul","TYPE_EN":"Province"}},
{"type":"Feature","geometry":{"type":"Polygon","coordinates":[[[28.174734,41.080837],[28.193039,41.355305],[28.155729,41.492196],[27.601447,41.419694],[27.395982,41.264562],[27.239816,41.364762],[26.809764,41.330268],[26.829298,41.172836],[26.716333,40.935047],[26.786407,40.725835],[26.932444,40.714879],[26.96354,40.56102],[27.177745,40.632636],[27.424815,40.831285],[27.524181,40.989203],[27.737804,41.012641],[27.941254,40.971096],[28.174734,41.080837]]]},"properties":{"LOCATION_TYPE":"level1","ADM0_A3":"TUR","LOCATION_ID":"TUR-59","NAME":"Tekirdag","TYPE_EN":"Province"}},
{"type":"Feature","geometry":{"type":"MultiPolygon","coordinates":[[[[26.96354,40.56102],[26.932444,40.714879],[26.786407,40.725835],[26.780518,40.659368],[26.828949,40.601996],[26.219086,40.331448],[26.375824,40.15351],[26.444672,40.241645],[26.61671,40.359524],[26.68336,40.455471],[26.96354,40.56102]]],[[[26.667239,39.550848],[26.696696,39.710186],[27.022051,39.79292],[27.274232,39.772663],[27.43877,39.844467],[27.57218,40.315665],[27.337576,40.370307],[27.303396,40.458441],[27.013357,40.392483],[26.735606,40.403551],[26.500743,40.212958],[26.40797,40.193671],[26.311046,40.019477],[26.152599,39.942613],[26.152843,39.459215],[26.667239,39.550848]]],[[[26.012218,40.166571],[25.913341,40.241278],[25.759044,40.206732],[25.765961,40.097154],[26.012218,40.166571]]]]},"properties":{"LOCATION_TYPE":"level1","ADM0_A3":"TUR","LOCATION_ID":"TUR-17","NAME":"Çanakkale","TYPE_EN":"Province"}},
{"type":"Feature","geometry":{"type":"Polygon","coordinates":[[[40.352287,40.994102],[40.486862,40.67328],[40.489446,40.542125],[40.791753,40.629148],[41.127443,40.81291],[41.385826,41.075348],[41.199747,41.301259],[40.698253,41.098131],[40.352287,40.994102]]]},"properties":{"LOCATION_TYPE":"level1","ADM0_A3":"TUR","LOCATION_ID":"TUR-53","NAME":"Rize","TYPE_EN":"Province"}},
{"type":"Feature","geometry":{"type":"Polygon","coordinates":[[[39.148322,41.072455],[39.144412,40.771362],[39.578908,40.587755],[39.717297,40.657415],[39.833982,40.561013],[40.184555,40.510422],[40.489446,40.542125],[40.486862,40.67328],[40.352287,40.994102],[40.142751,40.922797],[39.592052,41.025092],[39.430186,41.112494],[39.148322,41.072455]]]},"properties":{"LOCATION_TYPE":"level1","ADM0_A3":"TUR","LOCATION_ID":"TUR-61","NAME":"Trabzon","TYPE_EN":"Province"}},
{"type":"Feature","geometry":{"type":"Polygon","coordinates":[[[38.114196,40.958161],[38.062928,40.846267],[38.063341,40.605222],[38.158322,40.523547],[38.274801,40.186075],[38.454222,40.099878],[38.761593,40.054946],[38.933262,40.071327],[38.907114,40.269868],[39.059766,40.351878],[38.842312,40.480165],[38.907734,40.686716],[39.144412,40.771362],[39.148322,41.072455],[38.927501,41.042629],[38.717621,40.954779],[38.330903,40.917873],[38.114196,40.958161]]]},"properties":{"LOCATION_TYPE":"level1","ADM0_A3":"TUR","LOCATION_ID":"TUR-28","NAME":"Giresun","TYPE_EN":"Province"}},
{"type":"Feature","geometry":{"type":"Polygon","coordinates":[[[37.151742,41.146788],[36.999117,40.97967],[36.705181,40.862493],[36.698877,40.806812],[37.013379,40.698937],[37.219672,40.697697],[37.634943,40.4612],[37.801858,40.335678],[38.008357,40.480992],[38.158322,40.523547],[38.063341,40.605222],[38.062928,40.846267],[38.114196,40.958161],[37.895763,40.982123],[37.65504,41.117621],[37.504731,41.042914],[37.151742,41.146788]]]},"properties":{"LOCATION_TYPE":"level1","ADM0_A3":"TUR","LOCATION_ID":"TUR-52","NAME":"Ordu","TYPE_EN":"Province"}},
{"type":"Feature","geometry":{"type":"Polygon","coordinates":[[[35.50012,41.641598],[35.460813,41.574233],[35.504841,41.284535],[35.296275,41.258257],[35.102385,41.385278],[34.888031,41.269807],[34.974847,41.087415],[35.089259,41.086924],[35.461123,41.029382],[35.706069,40.878823],[36.154827,40.901431],[36.242884,41.006955],[36.443078,40.870374],[36.705181,40.862493],[36.999117,40.97967],[37.151742,41.146788],[36.984874,41.294501],[36.619884,41.375067],[36.45102,41.240424],[36.134451,41.4619],[36.120453,41.627753],[35.893809,41.707465],[35.50012,41.641598]]]},"properties":{"LOCATION_TYPE":"level1","ADM0_A3":"TUR","LOCATION_ID":"TUR-55","NAME":"Samsun","TYPE_EN":"Province"}},
{"type":"Feature","geometry":{"type":"Polygon","coordinates":[[[34.216128,41.960142],[34.140376,41.767063],[34.532497,41.713165],[34.471932,41.310812],[34.837285,41.20162],[34.888031,41.269807],[35.102385,41.385278],[35.296275,41.258257],[35.504841,41.284535],[35.460813,41.574233],[35.50012,41.641598],[35.224783,41.761868],[35.098643,41.912665],[35.104503,42.021877],[34.694184,41.94595],[34.216128,41.960142]]]},"properties":{"LOCATION_TYPE":"level1","ADM0_A3":"TUR","LOCATION_ID":"TUR-57","NAME":"Sinop","TYPE_EN":"Province"}},
{"type":"Feature","geometry":{"type":"Polygon","coordinates":[[[32.798513,41.859687],[32.87297,41.682324],[32.817977,41.576351],[33.058852,41.53281],[33.115425,41.395419],[32.919366,41.294431],[32.929701,41.153302],[33.069227,41.093022],[33.408948,40.959852],[33.792181,41.093978],[33.820913,40.925358],[34.027205,40.860762],[34.256442,40.919389],[34.207659,41.039304],[34.471932,41.310812],[34.532497,41.713165],[34.140376,41.767063],[34.216128,41.960142],[33.324474,42.019029],[32.798513,41.859687]]]},"properties":{"LOCATION_TYPE":"level1","ADM0_A3":"TUR","LOCATION_ID":"TUR-37","NAME":"Kastamonu","TYPE_EN":"Province"}},
{"type":"Feature","geometry":{"type":"Polygon","coordinates":[[[32.134125,41.599433],[32.250668,41.536851],[32.287036,41.330764],[32.501205,41.346928],[32.817977,41.576351],[32.87297,41.682324],[32.798513,41.859687],[32.612559,41.839545],[32.263357,41.72016],[32.134125,41.599433]]]},"properties":{"LOCATION_TYPE":"level1","ADM0_A3":"TUR","LOCATION_ID":"TUR-74","NAME":"Bartın","TYPE_EN":"Province"}},
{"type":"Feature","geometry":{"type":"Polygon","coordinates":[[[31.346419,41.150734],[31.556038,41.059458],[31.799109,41.041798],[32.14936,41.019229],[32.198136,41.241864],[32.287036,41.330764],[32.250668,41.536851],[32.134125,41.599433],[31.658946,41.397935],[31.403575,41.316474],[31.346419,41.150734]]]},"properties":{"LOCATION_TYPE":"level1","ADM0_A3":"TUR","LOCATION_ID":"TUR-67","NAME":"Zinguldak","TYPE_EN":"Province"}},
{"type":"Feature","geometry":{"type":"Polygon","coordinates":[[[30.955867,41.082402],[30.869362,40.922257],[30.891169,40.726791],[31.248519,40.672094],[31.422279,40.724626],[31.511179,40.878181],[31.73343,40.910508],[31.799109,41.041798],[31.556038,41.059458],[31.346419,41.150734],[30.955867,41.082402]]]},"properties":{"LOCATION_TYPE":"level1","ADM0_A3":"TUR","LOCATION_ID":"TUR-81","NAME":"Düzce","TYPE_EN":"Province"}},
{"type":"Feature","geometry":{"type":"Polygon","coordinates":[[[30.42929,41.170565],[30.459154,40.935693],[30.264024,40.857171],[30.182995,40.646331],[29.926163,40.577033],[29.940839,40.533547],[30.080986,40.391437],[30.426288,40.394046],[30.625966,40.331492],[30.690768,40.574371],[30.82523,40.595791],[30.891169,40.726791],[30.869362,40.922257],[30.955867,41.082402],[30.42929,41.170565]]]},"properties":{"LOCATION_TYPE":"level1","ADM0_A3":"TUR","LOCATION_ID":"TUR-54","NAME":"Sakarya","TYPE_EN":"Province"}},
{"type":"Feature","geometry":{"type":"Polygon","coordinates":[[[29.884613,41.148993],[29.849372,41.029382],[29.581792,40.925254],[29.450947,41.008608],[29.253673,40.875474],[29.428722,40.776068],[29.428416,40.690876],[29.420665,40.563157],[29.788911,40.614679],[29.926163,40.577033],[30.182995,40.646331],[30.264024,40.857171],[30.459154,40.935693],[30.42929,41.170565],[30.271251,41.211168],[30.136892,41.143785],[29.884613,41.148993]]]},"properties":{"LOCATION_TYPE":"level1","ADM0_A3":"TUR","LOCATION_ID":"TUR-41","NAME":"Kocaeli","TYPE_EN":"Province"}},
{"type":"Feature","geometry":{"type":"Polygon","coordinates":[[[28.980317,40.464545],[28.97797,40.573232],[29.230508,40.511585],[29.420665,40.563157],[29.428416,40.690876],[28.986339,40.644761],[28.792654,40.55329],[28.980317,40.464545]]]},"properties":{"LOCATION_TYPE":"level1","ADM0_A3":"TUR","LOCATION_ID":"TUR-77","NAME":"Yalova","TYPE_EN":"Province"}},
{"type":"Feature","geometry":{"type":"Polygon","coordinates":[[[28.208071,40.39931],[28.098885,40.297153],[28.112837,40.15326],[28.281406,39.895756],[28.545886,39.745223],[28.689133,39.74729],[28.78029,39.618848],[28.967152,39.589057],[29.246102,39.579342],[29.399477,39.895911],[29.677703,39.906324],[29.718321,40.185506],[29.831906,40.2909],[29.846685,40.481845],[29.940839,40.533547],[29.926163,40.577033],[29.788911,40.614679],[29.420665,40.563157],[29.230508,40.511585],[28.97797,40.573232],[28.980317,40.464545],[28.771983,40.402533],[28.208071,40.39931]]]},"properties":{"LOCATION_TYPE":"level1","ADM0_A3":"TUR","LOCATION_ID":"TUR-16","NAME":"Bursa","TYPE_EN":"Province"}},
{"type":"Feature","geometry":{"type":"Polygon","coordinates":[[[27.57218,40.315665],[27.43877,39.844467],[27.274232,39.772663],[27.022051,39.79292],[26.696696,39.710186],[26.667239,39.550848],[26.893403,39.584377],[26.925955,39.485826],[26.670258,39.305976],[26.778708,39.170042],[27.049956,39.351242],[27.290975,39.464491],[27.420063,39.380284],[27.871198,39.344782],[28.125033,39.063042],[28.659471,39.156628],[28.811399,39.290574],[28.967152,39.589057],[28.78029,39.618848],[28.689133,39.74729],[28.545886,39.745223],[28.281406,39.895756],[28.112837,40.15326],[28.098885,40.297153],[28.208071,40.39931],[27.57218,40.315665]]]},"properties":{"LOCATION_TYPE":"level1","ADM0_A3":"TUR","LOCATION_ID":"TUR-10","NAME":"Balikesir","TYPE_EN":"Province"}},
{"type":"Feature","geometry":{"type":"Polygon","coordinates":[[[27.261797,37.888444],[27.583154,37.9844],[27.82934,37.969052],[28.254121,38.020057],[28.562319,38.106201],[28.447804,38.289937],[28.16286,38.308773],[28.095371,38.394608],[27.898897,38.342079],[27.630283,38.491501],[27.583257,38.569894],[27.380272,38.57594],[27.228447,38.734794],[27.327149,38.924937],[27.537679,39.041287],[27.420063,39.380284],[27.290975,39.464491],[27.049956,39.351242],[26.778708,39.170042],[26.883149,39.071601],[26.806488,38.950141],[27.013357,38.871161],[26.719086,38.720933],[26.93865,38.434231],[26.766856,38.364081],[26.611827,38.416246],[26.630382,38.519232],[26.505626,38.652655],[26.348643,38.621324],[26.475922,38.366889],[26.265391,38.286689],[26.607107,38.108303],[26.760265,38.216742],[26.949229,38.067369],[27.239106,37.987942],[27.261797,37.888444]]]},"properties":{"LOCATION_TYPE":"level1","ADM0_A3":"TUR","LOCATION_ID":"TUR-35","NAME":"Izmir","TYPE_EN":"Province"}},
{"type":"Feature","geometry":{"type":"Polygon","coordinates":[[[27.403451,37.412582],[27.545844,37.554504],[27.770429,37.476602],[28.141363,37.466757],[28.269934,37.577448],[28.608931,37.47748],[28.899559,37.709662],[28.770575,37.845236],[28.777706,38.028842],[28.698021,38.103824],[28.562319,38.106201],[28.254121,38.020057],[27.82934,37.969052],[27.583154,37.9844],[27.261797,37.888444],[27.190766,37.357327],[27.403451,37.412582]]]},"properties":{"LOCATION_TYPE":"level1","ADM0_A3":"TUR","LOCATION_ID":"TUR-09","NAME":"Aydin","TYPE_EN":"Province"}},
{"type":"Feature","geometry":{"type":"Polygon","coordinates":[[[29.261205,36.293579],[29.36196,36.463123],[29.575487,36.598955],[29.580241,36.716054],[29.688865,36.91431],[29.604012,37.008568],[29.390382,37.068642],[29.270389,36.911597],[29.090245,36.977872],[29.061823,37.102904],[28.811503,37.233542],[28.608931,37.47748],[28.269934,37.577448],[28.141363,37.466757],[27.770429,37.476602],[27.545844,37.554504],[27.403451,37.412582],[27.396821,37.323147],[27.615977,37.274726],[27.554535,37.130113],[27.302989,37.119574],[27.263194,36.963365],[27.780447,36.993598],[27.986583,37.035142],[28.04184,36.93891],[28.04184,36.719875],[28.111501,36.604193],[28.424815,36.829088],[28.603526,36.733547],[29.096365,36.665229],[29.124278,36.418158],[29.261205,36.293579]]]},"properties":{"LOCATION_TYPE":"level1","ADM0_A3":"TUR","LOCATION_ID":"TUR-48","NAME":"Mugla","TYPE_EN":"Province"}},
{"type":"Feature","geometry":{"type":"Polygon","coordinates":[[[32.571788,36.09398],[32.647238,36.269259],[32.651682,36.438035],[32.456241,36.673395],[32.426373,36.832119],[32.323536,36.95821],[31.81535,37.298499],[31.415478,37.354852],[31.331866,37.422238],[31.023461,37.35139],[30.934991,37.380251],[30.785542,37.235247],[30.440861,37.230829],[30.294926,37.304933],[29.90601,37.17215],[29.688865,36.91431],[29.580241,36.716054],[29.575487,36.598955],[29.36196,36.463123],[29.261205,36.293579],[29.668224,36.143785],[30.144705,36.25434],[30.254568,36.308295],[30.440766,36.239325],[30.569835,36.528022],[30.569835,36.781317],[30.686534,36.891181],[31.340831,36.80858],[31.407563,36.763414],[32.026052,36.543443],[32.365489,36.177965],[32.571788,36.09398]]]},"properties":{"LOCATION_TYPE":"level1","ADM0_A3":"TUR","LOCATION_ID":"TUR-07","NAME":"Antalya","TYPE_EN":"Province"}},
{"type":"Feature","geometry":{"type":"Polygon","coordinates":[[[34.933279,36.727484],[35.066728,36.795687],[35.081714,37.025957],[34.934953,37.083654],[34.909838,37.243231],[34.791603,37.387718],[34.51224,37.351984],[34.148955,37.155019],[33.870625,37.057738],[33.371948,36.988001],[32.979517,36.8038],[33.161211,36.61854],[33.052381,36.466612],[32.651682,36.438035],[32.647238,36.269259],[32.571788,36.09398],[32.803722,36.027167],[32.940929,36.103502],[33.5442,36.144477],[34.077891,36.328843],[34.077322,36.413886],[34.276215,36.586982],[34.554698,36.767646],[34.770763,36.816067],[34.933279,36.727484]]]},"properties":{"LOCATION_TYPE":"level1","ADM0_A3":"TUR","LOCATION_ID":"TUR-33","NAME":"Mersin","TYPE_EN":"Province"}},
{"type":"Feature","geometry":{"type":"Polygon","coordinates":[[[35.932524,36.872986],[36.061603,37.009679],[36.104844,37.122083],[35.969737,37.219672],[35.939583,37.369975],[36.110009,37.664346],[36.279884,37.669096],[36.359672,37.731754],[36.325669,37.91195],[36.418067,38.21883],[36.505503,38.322932],[36.400083,38.456568],[36.145939,38.395124],[35.979024,38.154958],[35.607677,37.953756],[35.629642,37.770244],[35.190648,37.818105],[35.0597,37.713538],[34.859712,37.716613],[34.86519,37.553031],[34.791603,37.387718],[34.909838,37.243231],[34.934953,37.083654],[35.081714,37.025957],[35.066728,36.795687],[34.933279,36.727484],[35.347992,36.544379],[35.513357,36.612982],[35.6067,36.740383],[35.805431,36.775092],[35.932524,36.872986]]]},"properties":{"LOCATION_TYPE":"level1","ADM0_A3":"TUR","LOCATION_ID":"TUR-01","NAME":"Adana","TYPE_EN":"Province"}},
{"type":"Feature","geometry":{"type":"Polygon","coordinates":[[[32.507091,40.705164],[32.52616,40.788746],[32.492208,40.86779],[32.14936,41.019229],[31.799109,41.041798],[31.73343,40.910508],[31.511179,40.878181],[31.422279,40.724626],[31.248519,40.672094],[30.891169,40.726791],[30.82523,40.595791],[30.690768,40.574371],[30.625966,40.331492],[30.73862,40.167807],[30.863574,40.142796],[31.007234,40.241601],[31.069246,40.411332],[31.25094,40.345961],[31.567924,40.308496],[31.821448,40.338417],[32.176775,40.431279],[32.315372,40.415182],[32.476705,40.538973],[32.507091,40.705164]]]},"properties":{"LOCATION_TYPE":"level1","ADM0_A3":"TUR","LOCATION_ID":"TUR-14","NAME":"Bolu","TYPE_EN":"Province"}},
{"type":"Feature","geometry":{"type":"Polygon","coordinates":[[[32.507091,40.705164],[32.476705,40.538973],[32.315372,40.415182],[32.176775,40.431279],[31.821448,40.338417],[31.567924,40.308496],[31.25094,40.345961],[31.069246,40.411332],[31.007234,40.241601],[30.863574,40.142796],[30.922072,40.020012],[31.24691,40.05771],[31.726984,40.023526],[31.845013,39.876068],[31.896999,39.620605],[31.991154,39.49591],[32.042727,39.275122],[31.861446,39.171434],[32.126959,39.034233],[32.282299,39.063533],[32.478669,38.997155],[32.676073,39.033819],[32.860041,39.157197],[33.062406,39.222077],[33.320581,39.119886],[33.374428,39.022554],[33.36616,38.798692],[33.466619,38.643585],[33.933257,38.792258],[33.930053,39.001082],[33.544961,39.210914],[33.524497,39.266777],[33.273092,39.727496],[33.372739,39.981597],[33.562069,40.016474],[33.59519,40.339554],[33.398199,40.396243],[33.271386,40.331079],[32.95864,40.594008],[32.665118,40.697904],[32.507091,40.705164]]]},"properties":{"LOCATION_TYPE":"level1","ADM0_A3":"TUR","LOCATION_ID":"TUR-06","NAME":"Ankara","TYPE_EN":"Province"}},
{"type":"Feature","geometry":{"type":"Polygon","coordinates":[[[30.625966,40.331492],[30.426288,40.394046],[30.080986,40.391437],[29.940839,40.533547],[29.846685,40.481845],[29.831906,40.2909],[29.718321,40.185506],[29.677703,39.906324],[29.716254,39.709256],[29.94549,39.607609],[30.136073,39.638821],[30.245214,39.849661],[30.439517,39.936193],[30.555376,40.11458],[30.73862,40.167807],[30.625966,40.331492]]]},"properties":{"LOCATION_TYPE":"level1","ADM0_A3":"TUR","LOCATION_ID":"TUR-11","NAME":"Bilecik","TYPE_EN":"Province"}},
{"type":"Feature","geometry":{"type":"Polygon","coordinates":[[[30.73862,40.167807],[30.555376,40.11458],[30.439517,39.936193],[30.245214,39.849661],[30.136073,39.638821],[30.284488,39.509708],[30.441791,39.206289],[30.621211,39.086917],[30.868535,39.210863],[30.962172,39.154587],[31.257658,39.281944],[31.452789,39.091206],[31.697838,39.092627],[31.861446,39.171434],[32.042727,39.275122],[31.991154,39.49591],[31.896999,39.620605],[31.845013,39.876068],[31.726984,40.023526],[31.24691,40.05771],[30.922072,40.020012],[30.863574,40.142796],[30.73862,40.167807]]]},"properties":{"LOCATION_TYPE":"level1","ADM0_A3":"TUR","LOCATION_ID":"TUR-26","NAME":"Eskisehir","TYPE_EN":"Province"}},
{"type":"Feature","geometry":{"type":"Polygon","coordinates":[[[32.52616,40.788746],[32.507091,40.705164],[32.665118,40.697904],[32.95864,40.594008],[33.271386,40.331079],[33.398199,40.396243],[33.59519,40.339554],[33.96416,40.265501],[34.150195,40.422959],[34.091387,40.531092],[34.027205,40.860762],[33.820913,40.925358],[33.792181,41.093978],[33.408948,40.959852],[33.069227,41.093022],[32.52616,40.788746]]]},"properties":{"LOCATION_TYPE":"level1","ADM0_A3":"TUR","LOCATION_ID":"TUR-18","NAME":"Çankiri","TYPE_EN":"Province"}},
{"type":"Feature","geometry":{"type":"Polygon","coordinates":[[[32.52616,40.788746],[33.069227,41.093022],[32.929701,41.153302],[32.919366,41.294431],[33.115425,41.395419],[33.058852,41.53281],[32.817977,41.576351],[32.501205,41.346928],[32.287036,41.330764],[32.198136,41.241864],[32.14936,41.019229],[32.492208,40.86779],[32.52616,40.788746]]]},"properties":{"LOCATION_TYPE":"level1","ADM0_A3":"TUR","LOCATION_ID":"TUR-78","NAME":"Karabük","TYPE_EN":"Province"}},
{"type":"Feature","geometry":{"type":"Polygon","coordinates":[[[36.705181,40.862493],[36.443078,40.870374],[36.493824,40.745575],[36.397293,40.58804],[36.13581,40.443682],[35.842288,40.505177],[35.686432,40.31046],[35.509802,40.188633],[35.65739,40.086752],[36.006412,40.114658],[36.088681,39.923713],[36.48752,39.965933],[36.666941,40.034456],[36.733913,40.19132],[37.350826,40.259042],[37.524149,40.316997],[37.634943,40.4612],[37.219672,40.697697],[37.013379,40.698937],[36.698877,40.806812],[36.705181,40.862493]]]},"properties":{"LOCATION_TYPE":"level1","ADM0_A3":"TUR","LOCATION_ID":"TUR-60","NAME":"Tokat","TYPE_EN":"Province"}},
{"type":"Feature","geometry":{"type":"Polygon","coordinates":[[[38.158322,40.523547],[38.008357,40.480992],[37.801858,40.335678],[37.634943,40.4612],[37.524149,40.316997],[37.350826,40.259042],[36.733913,40.19132],[36.666941,40.034456],[36.48752,39.965933],[36.088681,39.923713],[36.213015,39.724397],[35.81986,39.334447],[36.111522,39.205695],[36.45207,39.198202],[36.899795,39.133451],[36.936278,39.044206],[36.747452,38.599401],[37.284371,38.603587],[37.59691,38.834322],[37.551641,38.96943],[37.93198,39.062345],[38.212273,39.087563],[38.361721,39.150272],[38.355623,39.526477],[38.406679,39.95074],[38.737202,39.965494],[38.761593,40.054946],[38.454222,40.099878],[38.274801,40.186075],[38.158322,40.523547]]]},"properties":{"LOCATION_TYPE":"level1","ADM0_A3":"TUR","LOCATION_ID":"TUR-58","NAME":"Sivas","TYPE_EN":"Province"}},
{"type":"Feature","geometry":{"type":"Polygon","coordinates":[[[34.471932,41.310812],[34.207659,41.039304],[34.256442,40.919389],[34.027205,40.860762],[34.091387,40.531092],[34.150195,40.422959],[33.96416,40.265501],[34.097588,40.024327],[34.052526,39.907616],[34.458497,40.000711],[34.791603,39.997714],[35.177936,40.10254],[35.327281,40.23403],[35.434664,40.452725],[35.432391,40.607651],[35.108793,40.689119],[35.031485,40.818206],[35.089259,41.086924],[34.974847,41.087415],[34.888031,41.269807],[34.837285,41.20162],[34.471932,41.310812]]]},"properties":{"LOCATION_TYPE":"level1","ADM0_A3":"TUR","LOCATION_ID":"TUR-19","NAME":"Çorum","TYPE_EN":"Province"}},
{"type":"Feature","geometry":{"type":"Polygon","coordinates":[[[35.089259,41.086924],[35.031485,40.818206],[35.108793,40.689119],[35.432391,40.607651],[35.434664,40.452725],[35.327281,40.23403],[35.509802,40.188633],[35.686432,40.31046],[35.842288,40.505177],[36.13581,40.443682],[36.397293,40.58804],[36.493824,40.745575],[36.443078,40.870374],[36.242884,41.006955],[36.154827,40.901431],[35.706069,40.878823],[35.461123,41.029382],[35.089259,41.086924]]]},"properties":{"LOCATION_TYPE":"level1","ADM0_A3":"TUR","LOCATION_ID":"TUR-05","NAME":"Amasya","TYPE_EN":"Province"}},
{"type":"Feature","geometry":{"type":"Polygon","coordinates":[[[29.677703,39.906324],[29.399477,39.895911],[29.246102,39.579342],[28.967152,39.589057],[28.811399,39.290574],[28.659471,39.156628],[28.909895,39.05958],[28.990923,38.948011],[29.032264,38.730143],[29.529288,38.762957],[29.571353,38.865225],[29.841311,38.852513],[29.88813,38.706862],[30.095662,38.804195],[30.253482,39.080664],[30.441791,39.206289],[30.284488,39.509708],[30.136073,39.638821],[29.94549,39.607609],[29.716254,39.709256],[29.677703,39.906324]]]},"properties":{"LOCATION_TYPE":"level1","ADM0_A3":"TUR","LOCATION_ID":"TUR-43","NAME":"Kütahya","TYPE_EN":"Province"}},
{"type":"Feature","geometry":{"type":"Polygon","coordinates":[[[33.466619,38.643585],[33.36616,38.798692],[33.374428,39.022554],[33.320581,39.119886],[33.062406,39.222077],[32.860041,39.157197],[32.676073,39.033819],[32.478669,38.997155],[32.282299,39.063533],[32.126959,39.034233],[31.861446,39.171434],[31.697838,39.092627],[31.714891,38.92765],[31.594795,38.666374],[31.430774,38.514109],[31.254351,38.422978],[31.28329,38.350063],[31.620737,38.104651],[31.447104,38.002771],[31.450721,37.780743],[31.329179,37.638866],[31.331866,37.422238],[31.415478,37.354852],[31.81535,37.298499],[32.323536,36.95821],[32.426373,36.832119],[32.456241,36.673395],[32.711626,36.855477],[32.609824,36.97609],[32.628737,37.077866],[33.01321,37.458567],[33.412669,37.511328],[33.638908,37.647031],[33.778331,37.631967],[33.804686,37.503809],[34.057281,37.285166],[34.148955,37.155019],[34.51224,37.351984],[34.389147,37.486472],[34.445474,37.71713],[34.159807,38.002254],[33.456077,37.93324],[33.264668,38.204464],[33.367504,38.531524],[33.466619,38.643585]]]},"properties":{"LOCATION_TYPE":"level1","ADM0_A3":"TUR","LOCATION_ID":"TUR-42","NAME":"Konya","TYPE_EN":"Province"}},
{"type":"Feature","geometry":{"type":"Polygon","coordinates":[[[34.148955,37.155019],[34.057281,37.285166],[33.804686,37.503809],[33.778331,37.631967],[33.638908,37.647031],[33.412669,37.511328],[33.01321,37.458567],[32.628737,37.077866],[32.609824,36.97609],[32.711626,36.855477],[32.456241,36.673395],[32.651682,36.438035],[33.052381,36.466612],[33.161211,36.61854],[32.979517,36.8038],[33.371948,36.988001],[33.870625,37.057738],[34.148955,37.155019]]]},"properties":{"LOCATION_TYPE":"level1","ADM0_A3":"TUR","LOCATION_ID":"TUR-70","NAME":"Karaman","TYPE_EN":"Province"}},
{"type":"Feature","geometry":{"type":"Polygon","coordinates":[[[34.51224,37.351984],[34.791603,37.387718],[34.86519,37.553031],[34.859712,37.716613],[35.0597,37.713538],[35.190648,37.818105],[35.205634,38.176611],[35.043991,38.178135],[34.915006,38.379389],[34.489812,38.38851],[34.159807,38.002254],[34.445474,37.71713],[34.389147,37.486472],[34.51224,37.351984]]]},"properties":{"LOCATION_TYPE":"level1","ADM0_A3":"TUR","LOCATION_ID":"TUR-51","NAME":"Nigde","TYPE_EN":"Province"}},
{"type":"Feature","geometry":{"type":"Polygon","coordinates":[[[35.190648,37.818105],[35.629642,37.770244],[35.607677,37.953756],[35.979024,38.154958],[36.145939,38.395124],[36.400083,38.456568],[36.505503,38.322932],[36.747452,38.599401],[36.936278,39.044206],[36.899795,39.133451],[36.45207,39.198202],[36.111522,39.205695],[35.81986,39.334447],[35.735731,39.24391],[35.25483,39.013304],[35.027764,39.041131],[34.95273,38.84812],[35.069105,38.704873],[35.070966,38.565838],[34.915006,38.379389],[35.043991,38.178135],[35.205634,38.176611],[35.190648,37.818105]]]},"properties":{"LOCATION_TYPE":"level1","ADM0_A3":"TUR","LOCATION_ID":"TUR-38","NAME":"Kayseri","TYPE_EN":"Province"}},
{"type":"Feature","geometry":{"type":"Polygon","coordinates":[[[31.254351,38.422978],[31.099632,38.515195],[30.781098,38.277741],[30.530158,38.193018],[30.211107,37.961895],[30.165322,37.810406],[30.015254,37.776506],[30.123464,37.71682],[30.336578,37.84614],[30.512898,37.709275],[30.706477,37.670647],[30.766422,37.542102],[30.934991,37.380251],[31.023461,37.35139],[31.331866,37.422238],[31.329179,37.638866],[31.450721,37.780743],[31.447104,38.002771],[31.620737,38.104651],[31.28329,38.350063],[31.254351,38.422978]]]},"properties":{"LOCATION_TYPE":"level1","ADM0_A3":"TUR","LOCATION_ID":"TUR-32","NAME":"Isparta","TYPE_EN":"Province"}},
{"type":"Feature","geometry":{"type":"Polygon","coordinates":[[[28.659471,39.156628],[28.125033,39.063042],[27.871198,39.344782],[27.420063,39.380284],[27.537679,39.041287],[27.327149,38.924937],[27.228447,38.734794],[27.380272,38.57594],[27.583257,38.569894],[27.630283,38.491501],[27.898897,38.342079],[28.095371,38.394608],[28.16286,38.308773],[28.447804,38.289937],[28.562319,38.106201],[28.698021,38.103824],[28.930979,38.255133],[28.894908,38.363188],[28.917853,38.653687],[29.032264,38.730143],[28.990923,38.948011],[28.909895,39.05958],[28.659471,39.156628]]]},"properties":{"LOCATION_TYPE":"level1","ADM0_A3":"TUR","LOCATION_ID":"TUR-45","NAME":"Manisa","TYPE_EN":"Province"}},
{"type":"Feature","geometry":{"type":"Polygon","coordinates":[[[28.698021,38.103824],[28.777706,38.028842],[28.770575,37.845236],[28.899559,37.709662],[28.608931,37.47748],[28.811503,37.233542],[29.061823,37.102904],[29.090245,36.977872],[29.270389,36.911597],[29.390382,37.068642],[29.41467,37.174682],[29.584479,37.409991],[29.538073,37.57626],[29.845548,37.759349],[29.664061,37.853685],[29.664784,37.955771],[30.013186,38.166611],[30.025485,38.258182],[29.89154,38.424838],[29.753254,38.45016],[29.62768,38.309574],[29.219126,38.213275],[28.930979,38.255133],[28.698021,38.103824]]]},"properties":{"LOCATION_TYPE":"level1","ADM0_A3":"TUR","LOCATION_ID":"TUR-20","NAME":"Denizli","TYPE_EN":"Province"}},
{"type":"Feature","geometry":{"type":"Polygon","coordinates":[[[29.845548,37.759349],[29.538073,37.57626],[29.584479,37.409991],[29.41467,37.174682],[29.390382,37.068642],[29.604012,37.008568],[29.688865,36.91431],[29.90601,37.17215],[30.294926,37.304933],[30.440861,37.230829],[30.785542,37.235247],[30.934991,37.380251],[30.766422,37.542102],[30.706477,37.670647],[30.512898,37.709275],[30.336578,37.84614],[30.123464,37.71682],[30.015254,37.776506],[29.845548,37.759349]]]},"properties":{"LOCATION_TYPE":"level1","ADM0_A3":"TUR","LOCATION_ID":"TUR-15","NAME":"Burdur","TYPE_EN":"Province"}},
{"type":"Feature","geometry":{"type":"Polygon","coordinates":[[[33.930053,39.001082],[33.933257,38.792258],[33.466619,38.643585],[33.367504,38.531524],[33.264668,38.204464],[33.456077,37.93324],[34.159807,38.002254],[34.489812,38.38851],[34.360105,38.473208],[34.389457,38.571754],[34.220372,38.650794],[34.235668,38.926849],[34.099655,38.899951],[33.930053,39.001082]]]},"properties":{"LOCATION_TYPE":"level1","ADM0_A3":"TUR","LOCATION_ID":"TUR-68","NAME":"Aksaray","TYPE_EN":"Province"}},
{"type":"Feature","geometry":{"type":"Polygon","coordinates":[[[34.489812,38.38851],[34.915006,38.379389],[35.070966,38.565838],[35.069105,38.704873],[34.95273,38.84812],[35.027764,39.041131],[34.973504,39.187789],[34.737136,39.400257],[34.590375,39.37168],[34.671713,39.110869],[34.235668,38.926849],[34.220372,38.650794],[34.389457,38.571754],[34.360105,38.473208],[34.489812,38.38851]]]},"properties":{"LOCATION_TYPE":"level1","ADM0_A3":"TUR","LOCATION_ID":"TUR-50","NAME":"Nevsehir","TYPE_EN":"Province"}},
{"type":"Feature","geometry":{"type":"Polygon","coordinates":[[[35.509802,40.188633],[35.327281,40.23403],[35.177936,40.10254],[34.791603,39.997714],[34.458497,40.000711],[34.052526,39.907616],[34.0733,39.825735],[34.395038,39.700729],[34.573735,39.50516],[34.737136,39.400257],[34.973504,39.187789],[35.027764,39.041131],[35.25483,39.013304],[35.735731,39.24391],[35.81986,39.334447],[36.213015,39.724397],[36.088681,39.923713],[36.006412,40.114658],[35.65739,40.086752],[35.509802,40.188633]]]},"properties":{"LOCATION_TYPE":"level1","ADM0_A3":"TUR","LOCATION_ID":"TUR-66","NAME":"Yozgat","TYPE_EN":"Province"}},
{"type":"Feature","geometry":{"type":"Polygon","coordinates":[[[33.930053,39.001082],[34.099655,38.899951],[34.235668,38.926849],[34.671713,39.110869],[34.590375,39.37168],[34.737136,39.400257],[34.573735,39.50516],[34.395038,39.700729],[34.0733,39.825735],[33.912793,39.706879],[33.798899,39.520405],[33.636635,39.418705],[33.524497,39.266777],[33.544961,39.210914],[33.930053,39.001082]]]},"properties":{"LOCATION_TYPE":"level1","ADM0_A3":"TUR","LOCATION_ID":"TUR-40","NAME":"Kirsehir","TYPE_EN":"Province"}},
{"type":"Feature","geometry":{"type":"Polygon","coordinates":[[[29.88813,38.706862],[29.841311,38.852513],[29.571353,38.865225],[29.529288,38.762957],[29.032264,38.730143],[28.917853,38.653687],[28.894908,38.363188],[28.930979,38.255133],[29.219126,38.213275],[29.62768,38.309574],[29.753254,38.45016],[29.88813,38.706862]]]},"properties":{"LOCATION_TYPE":"level1","ADM0_A3":"TUR","LOCATION_ID":"TUR-64","NAME":"Usak","TYPE_EN":"Province"}},
{"type":"Feature","geometry":{"type":"Polygon","coordinates":[[[38.761593,40.054946],[38.737202,39.965494],[38.406679,39.95074],[38.355623,39.526477],[38.361721,39.150272],[38.687902,39.022967],[38.745677,39.037773],[38.720355,39.157869],[38.836834,39.338736],[39.033308,39.446197],[39.318872,39.500793],[39.703758,39.500897],[39.85641,39.571538],[39.988702,39.532394],[40.185899,39.582959],[40.554765,39.548956],[40.618844,39.532445],[40.680029,39.687655],[40.466915,39.913456],[40.242226,39.936581],[40.281397,40.047168],[40.117893,40.072696],[39.869122,40.014819],[39.622006,39.893767],[39.385431,39.893328],[38.933262,40.071327],[38.761593,40.054946]]]},"properties":{"LOCATION_TYPE":"level1","ADM0_A3":"TUR","LOCATION_ID":"TUR-24","NAME":"Erzincan","TYPE_EN":"Province"}},
{"type":"Feature","geometry":{"type":"Polygon","coordinates":[[[40.554765,39.548956],[40.185899,39.582959],[39.988702,39.532394],[39.85641,39.571538],[39.703758,39.500897],[39.318872,39.500793],[39.033308,39.446197],[38.836834,39.338736],[38.720355,39.157869],[38.745677,39.037773],[38.813063,38.877162],[38.998788,38.897471],[39.475555,38.763267],[39.853619,38.895766],[39.879148,39.05927],[40.015057,39.097355],[40.041618,39.338013],[40.301654,39.421057],[40.554765,39.548956]]]},"properties":{"LOCATION_TYPE":"level1","ADM0_A3":"TUR","LOCATION_ID":"TUR-62","NAME":"Tunceli","TYPE_EN":"Province"}},
{"type":"Feature","geometry":{"type":"Polygon","coordinates":[[[29.88813,38.706862],[29.753254,38.45016],[29.89154,38.424838],[30.025485,38.258182],[30.013186,38.166611],[29.664784,37.955771],[29.664061,37.853685],[29.845548,37.759349],[30.015254,37.776506],[30.165322,37.810406],[30.211107,37.961895],[30.530158,38.193018],[30.781098,38.277741],[31.099632,38.515195],[31.254351,38.422978],[31.430774,38.514109],[31.594795,38.666374],[31.714891,38.92765],[31.697838,39.092627],[31.452789,39.091206],[31.257658,39.281944],[30.962172,39.154587],[30.868535,39.210863],[30.621211,39.086917],[30.441791,39.206289],[30.253482,39.080664],[30.095662,38.804195],[29.88813,38.706862]]]},"properties":{"LOCATION_TYPE":"level1","ADM0_A3":"TUR","LOCATION_ID":"TUR-03","NAME":"Afyonkarahisar","TYPE_EN":"Province"}},
{"type":"Feature","geometry":{"type":"Polygon","coordinates":[[[33.524497,39.266777],[33.636635,39.418705],[33.798899,39.520405],[33.912793,39.706879],[34.0733,39.825735],[34.052526,39.907616],[34.097588,40.024327],[33.96416,40.265501],[33.59519,40.339554],[33.562069,40.016474],[33.372739,39.981597],[33.273092,39.727496],[33.524497,39.266777]]]},"properties":{"LOCATION_TYPE":"level1","ADM0_A3":"TUR","LOCATION_ID":"TUR-71","NAME":"Kinkkale","TYPE_EN":"Province"}},
{"type":"Feature","geometry":{"type":"Polygon","coordinates":[[[36.505503,38.322932],[36.418067,38.21883],[36.325669,37.91195],[36.359672,37.731754],[36.279884,37.669096],[36.220249,37.506445],[36.303552,37.349064],[36.550565,37.389708],[36.721201,37.271188],[36.937725,37.342165],[37.134199,37.309661],[37.61727,37.414409],[37.625125,37.518821],[37.457073,37.589644],[37.422243,37.694134],[37.565284,37.820482],[37.782325,38.278362],[37.733645,38.346213],[37.225873,38.526331],[37.284371,38.603587],[36.747452,38.599401],[36.505503,38.322932]]]},"properties":{"LOCATION_TYPE":"level1","ADM0_A3":"TUR","LOCATION_ID":"TUR-46","NAME":"K. Maras","TYPE_EN":"Province"}},
{"type":"Feature","geometry":{"type":"Polygon","coordinates":[[[42.431343,39.491388],[42.198696,39.426147],[42.155701,39.299074],[41.83448,39.168798],[41.662605,39.198796],[41.445564,39.371835],[41.205061,39.365659],[41.270277,39.116295],[41.16434,38.887911],[41.259632,38.739186],[41.420552,38.534599],[41.531243,38.554391],[41.866623,38.602786],[42.037672,38.713425],[41.999432,38.795307],[42.310007,38.945685],[42.473408,38.931577],[42.62761,39.002426],[42.641253,39.235435],[42.431343,39.491388]]]},"properties":{"LOCATION_TYPE":"level1","ADM0_A3":"TUR","LOCATION_ID":"TUR-49","NAME":"Mus","TYPE_EN":"Province"}},
{"type":"Feature","geometry":{"type":"Polygon","coordinates":[[[42.431343,39.491388],[42.494905,39.748143],[42.38163,39.870642],[42.563738,39.951851],[42.48457,40.058847],[42.230942,40.160495],[42.181229,40.29444],[42.53821,40.430711],[42.53697,40.599176],[42.299155,40.84805],[42.279208,40.924918],[42.024443,40.911896],[41.820838,40.587626],[41.65661,40.641241],[41.401329,40.555561],[41.365258,40.754696],[41.127443,40.81291],[40.791753,40.629148],[40.489446,40.542125],[40.574712,40.283821],[40.747828,40.149178],[40.480971,40.0366],[40.281397,40.047168],[40.242226,39.936581],[40.466915,39.913456],[40.680029,39.687655],[40.618844,39.532445],[40.855005,39.580995],[41.118348,39.463741],[41.205061,39.365659],[41.445564,39.371835],[41.662605,39.198796],[41.83448,39.168798],[42.155701,39.299074],[42.198696,39.426147],[42.431343,39.491388]]]},"properties":{"LOCATION_TYPE":"level1","ADM0_A3":"TUR","LOCATION_ID":"TUR-25","NAME":"Erzurum","TYPE_EN":"Province"}},
{"type":"Feature","geometry":{"type":"Polygon","coordinates":[[[38.361721,39.150272],[38.212273,39.087563],[37.93198,39.062345],[37.551641,38.96943],[37.59691,38.834322],[37.284371,38.603587],[37.225873,38.526331],[37.733645,38.346213],[37.782325,38.278362],[37.565284,37.820482],[38.127627,37.904973],[38.217337,38.040469],[38.430864,38.214128],[38.603463,38.110439],[38.803244,38.090337],[39.114853,38.192708],[39.114853,38.343525],[38.992173,38.326033],[38.810479,38.44029],[38.481713,38.475946],[38.348905,38.595629],[38.483574,38.753035],[38.618656,38.748229],[38.616796,39.020306],[38.687902,39.022967],[38.361721,39.150272]]]},"properties":{"LOCATION_TYPE":"level1","ADM0_A3":"TUR","LOCATION_ID":"TUR-44","NAME":"Malatya","TYPE_EN":"Province"}},
{"type":"Feature","geometry":{"type":"Polygon","coordinates":[[[40.015057,39.097355],[39.879148,39.05927],[39.853619,38.895766],[39.475555,38.763267],[38.998788,38.897471],[38.813063,38.877162],[38.745677,39.037773],[38.687902,39.022967],[38.616796,39.020306],[38.618656,38.748229],[38.483574,38.753035],[38.348905,38.595629],[38.481713,38.475946],[38.810479,38.44029],[38.992173,38.326033],[39.114853,38.343525],[39.420261,38.340192],[39.78427,38.402669],[39.966171,38.469435],[40.301241,38.477988],[40.233234,38.630356],[40.382166,38.82515],[40.303824,38.915584],[40.361185,39.22944],[40.015057,39.097355]]]},"properties":{"LOCATION_TYPE":"level1","ADM0_A3":"TUR","LOCATION_ID":"TUR-23","NAME":"Elazig","TYPE_EN":"Province"}},
{"type":"Feature","geometry":{"type":"Polygon","coordinates":[[[42.62761,39.002426],[42.473408,38.931577],[42.310007,38.945685],[41.999432,38.795307],[42.037672,38.713425],[41.866623,38.602786],[41.531243,38.554391],[41.616096,38.52876],[41.677281,38.221362],[41.888224,38.183251],[42.060203,38.22715],[42.250889,38.116692],[42.668538,37.944196],[42.786877,38.181132],[42.678047,38.404891],[42.875347,38.544211],[43.161221,38.872279],[43.003608,38.977259],[42.971982,39.104073],[42.62761,39.002426]]]},"properties":{"LOCATION_TYPE":"level1","ADM0_A3":"TUR","LOCATION_ID":"TUR-13","NAME":"Bitlis","TYPE_EN":"Province"}},
{"type":"Feature","geometry":{"type":"Polygon","coordinates":[[[40.554765,39.548956],[40.301654,39.421057],[40.041618,39.338013],[40.015057,39.097355],[40.361185,39.22944],[40.303824,38.915584],[40.382166,38.82515],[40.233234,38.630356],[40.301241,38.477988],[40.644889,38.619297],[40.900274,38.600797],[41.259632,38.739186],[41.16434,38.887911],[41.270277,39.116295],[41.205061,39.365659],[41.118348,39.463741],[40.855005,39.580995],[40.618844,39.532445],[40.554765,39.548956]]]},"properties":{"LOCATION_TYPE":"level1","ADM0_A3":"TUR","LOCATION_ID":"TUR-12","NAME":"Bingöl","TYPE_EN":"Province"}},
{"type":"Feature","geometry":{"type":"Polygon","coordinates":[[[36.279884,37.669096],[36.110009,37.664346],[35.939583,37.369975],[35.969737,37.219672],[36.104844,37.122083],[36.061603,37.009679],[36.451863,36.96069],[36.721201,37.271188],[36.550565,37.389708],[36.303552,37.349064],[36.220249,37.506445],[36.279884,37.669096]]]},"properties":{"LOCATION_TYPE":"level1","ADM0_A3":"TUR","LOCATION_ID":"TUR-80","NAME":"Osmaniye","TYPE_EN":"Province"}},
{"type":"Feature","geometry":{"type":"Polygon","coordinates":[[[37.625125,37.518821],[37.843613,37.535564],[38.03988,37.445983],[38.515407,37.51107],[38.645631,37.624164],[38.86846,37.651449],[39.060283,37.987862],[39.188957,38.043053],[39.114853,38.192708],[38.803244,38.090337],[38.603463,38.110439],[38.430864,38.214128],[38.217337,38.040469],[38.127627,37.904973],[37.565284,37.820482],[37.422243,37.694134],[37.457073,37.589644],[37.625125,37.518821]]]},"properties":{"LOCATION_TYPE":"level1","ADM0_A3":"TUR","LOCATION_ID":"TUR-02","NAME":"Adiyaman","TYPE_EN":"Province"}},
{"type":"Feature","geometry":{"type":"Polygon","coordinates":[[[41.259632,38.739186],[40.900274,38.600797],[40.644889,38.619297],[40.301241,38.477988],[39.966171,38.469435],[39.78427,38.402669],[39.420261,38.340192],[39.114853,38.343525],[39.114853,38.192708],[39.188957,38.043053],[39.462636,37.9767],[39.588829,37.882985],[39.863231,37.777694],[39.884315,37.550111],[39.999967,37.375703],[40.097842,37.475801],[40.551561,37.729868],[41.07525,37.76493],[41.035459,37.862082],[41.21457,38.11509],[41.271621,38.453002],[41.420552,38.534599],[41.259632,38.739186]]]},"properties":{"LOCATION_TYPE":"level1","ADM0_A3":"TUR","LOCATION_ID":"TUR-21","NAME":"Diyarbakir","TYPE_EN":"Province"}},
{"type":"Feature","geometry":{"type":"Polygon","coordinates":[[[41.420552,38.534599],[41.271621,38.453002],[41.21457,38.11509],[41.035459,37.862082],[41.07525,37.76493],[41.260252,37.572229],[41.520598,37.543316],[41.81691,37.713822],[41.710664,37.807796],[41.421379,37.94417],[41.677281,38.221362],[41.616096,38.52876],[41.531243,38.554391],[41.420552,38.534599]]]},"properties":{"LOCATION_TYPE":"level1","ADM0_A3":"TUR","LOCATION_ID":"TUR-72","NAME":"Batman","TYPE_EN":"Province"}},
{"type":"Feature","geometry":{"type":"Polygon","coordinates":[[[42.786877,38.181132],[42.668538,37.944196],[42.250889,38.116692],[42.060203,38.22715],[41.888224,38.183251],[41.677281,38.221362],[41.421379,37.94417],[41.710664,37.807796],[41.81691,37.713822],[42.157045,37.646643],[42.235386,37.708551],[42.950485,37.625972],[43.023348,37.731651],[42.983454,37.806401],[43.01632,38.15178],[42.786877,38.181132]]]},"properties":{"LOCATION_TYPE":"level1","ADM0_A3":"TUR","LOCATION_ID":"TUR-56","NAME":"Siirt","TYPE_EN":"Province"}},
{"type":"Feature","geometry":{"type":"Polygon","coordinates":[[[40.281397,40.047168],[40.480971,40.0366],[40.747828,40.149178],[40.574712,40.283821],[40.489446,40.542125],[40.184555,40.510422],[39.833982,40.561013],[39.860027,40.266948],[39.811451,40.143958],[39.869122,40.014819],[40.117893,40.072696],[40.281397,40.047168]]]},"properties":{"LOCATION_TYPE":"level1","ADM0_A3":"TUR","LOCATION_ID":"TUR-69","NAME":"Bayburt","TYPE_EN":"Province"}},
{"type":"Feature","geometry":{"type":"Polygon","coordinates":[[[39.833982,40.561013],[39.717297,40.657415],[39.578908,40.587755],[39.144412,40.771362],[38.907734,40.686716],[38.842312,40.480165],[39.059766,40.351878],[38.907114,40.269868],[38.933262,40.071327],[39.385431,39.893328],[39.622006,39.893767],[39.869122,40.014819],[39.811451,40.143958],[39.860027,40.266948],[39.833982,40.561013]]]},"properties":{"LOCATION_TYPE":"level1","ADM0_A3":"TUR","LOCATION_ID":"TUR-29","NAME":"Gümüshane","TYPE_EN":"Province"}}
]}