{"type":"FeatureCollection", "features": [
{"type":"Feature","geometry":{"type":"Polygon","coordinates":[[[120.97169,24.951768],[121.068404,24.910599],[121.302188,24.763579],[121.286995,24.656893],[121.412259,24.59545],[121.483314,24.681078],[121.449052,24.797324],[121.350144,24.855331],[121.330248,24.972636],[121.408641,25.040151],[121.287414,25.123679],[121.059337,25.050238],[120.97169,24.951768]]]},"properties":{"LOCATION_TYPE":"level1","ADM0_A3":"TWN","LOCATION_ID":"TWN-TAO","NAME":"Taoyuan","TYPE_EN":"County"}},
{"type":"Feature","geometry":{"type":"Polygon","coordinates":[[[120.914643,24.85342],[121.024169,24.814558],[120.960245,24.715029],[121.078532,24.596277],[121.069644,24.502691],[121.225242,24.503673],[121.262552,24.433315],[121.316451,24.436002],[121.412259,24.59545],[121.286995,24.656893],[121.302188,24.763579],[121.068404,24.910599],[120.97169,24.951768],[120.914643,24.85342]]]},"properties":{"LOCATION_TYPE":"level1","ADM0_A3":"TWN","LOCATION_ID":"TWN-HSQ","NAME":"Hsinchu","TYPE_EN":"County"}},
{"type":"Feature","geometry":{"type":"Polygon","coordinates":[[[120.872709,24.747757],[120.960245,24.715029],[121.024169,24.814558],[120.914643,24.85342],[120.872709,24.747757]]]},"properties":{"LOCATION_TYPE":"level1","ADM0_A3":"TWN","LOCATION_ID":"TWN-HSZ","NAME":"Hsinchu City","TYPE_EN":"Provincial City"}},
{"type":"Feature","geometry":{"type":"Polygon","coordinates":[[[120.62133,24.455984],[120.755606,24.331693],[120.852603,24.292006],[120.943037,24.340892],[121.043082,24.303297],[121.262552,24.433315],[121.225242,24.503673],[121.069644,24.502691],[121.078532,24.596277],[120.960245,24.715029],[120.872709,24.747757],[120.823009,24.685045],[120.702159,24.607001],[120.62133,24.455984]]]},"properties":{"LOCATION_TYPE":"level1","ADM0_A3":"TWN","LOCATION_ID":"TWN-MIA","NAME":"Miaoli","TYPE_EN":"County"}},
{"type":"Feature","geometry":{"type":"Polygon","coordinates":[[[120.475388,24.207095],[120.66724,24.020085],[120.78656,24.029619],[120.8294,24.108994],[120.982621,24.12553],[121.167519,24.222811],[121.343477,24.235472],[121.4567,24.37275],[121.316451,24.436002],[121.262552,24.433315],[121.043082,24.303297],[120.943037,24.340892],[120.852603,24.292006],[120.755606,24.331693],[120.62133,24.455984],[120.570811,24.404934],[120.475388,24.207095]]]},"properties":{"LOCATION_TYPE":"level1","ADM0_A3":"TWN","LOCATION_ID":"TWN-TXG","NAME":"Taichung City","TYPE_EN":"Special Municipality"}},
{"type":"Feature","geometry":{"type":"Polygon","coordinates":[[[120.243934,23.838454],[120.385138,23.830897],[120.647448,23.774932],[120.62657,23.854203],[120.66724,24.020085],[120.475388,24.207095],[120.340099,24.021796],[120.243934,23.838454]]]},"properties":{"LOCATION_TYPE":"level1","ADM0_A3":"TWN","LOCATION_ID":"TWN-CHA","NAME":"Changhua","TYPE_EN":"County"}},
{"type":"Feature","geometry":{"type":"Polygon","coordinates":[[[120.124262,23.520021],[120.23817,23.519133],[120.392579,23.623726],[120.494072,23.640056],[120.653855,23.57205],[120.740672,23.616311],[120.636285,23.64357],[120.647448,23.774932],[120.385138,23.830897],[120.243934,23.838454],[120.18922,23.774807],[120.124262,23.520021]]]},"properties":{"LOCATION_TYPE":"level1","ADM0_A3":"TWN","LOCATION_ID":"TWN-YUN","NAME":"Yunlin","TYPE_EN":"County"}},
{"type":"Feature","geometry":{"type":"Polygon","coordinates":[[[120.116527,23.317897],[120.197656,23.300025],[120.319199,23.390149],[120.438881,23.41392],[120.533553,23.329377],[120.530659,23.253516],[120.653442,23.22866],[120.706772,23.296925],[120.962157,23.475389],[120.832449,23.481513],[120.824801,23.591067],[120.740672,23.616311],[120.653855,23.57205],[120.494072,23.640056],[120.392579,23.623726],[120.23817,23.519133],[120.124262,23.520021],[120.116527,23.317897]],[[120.454591,23.445339],[120.37687,23.475312],[120.453144,23.517273],[120.454591,23.445339]]]},"properties":{"LOCATION_TYPE":"level1","ADM0_A3":"TWN","LOCATION_ID":"TWN-CYQ","NAME":"Chiayi","TYPE_EN":"County"}},
{"type":"Feature","geometry":{"type":"Polygon","coordinates":[[[120.167491,22.931871],[120.347724,22.896122],[120.567039,23.093113],[120.653442,23.22866],[120.530659,23.253516],[120.533553,23.329377],[120.438881,23.41392],[120.319199,23.390149],[120.197656,23.300025],[120.116527,23.317897],[120.059418,23.151028],[120.170258,23.013373],[120.167491,22.931871]]]},"properties":{"LOCATION_TYPE":"level1","ADM0_A3":"TWN","LOCATION_ID":"TWN-TNN","NAME":"Tainan City","TYPE_EN":"Special Municipality"}},
{"type":"Feature","geometry":{"type":"Polygon","coordinates":[[[120.411864,22.482887],[120.472781,22.837211],[120.630911,22.883927],[120.853326,22.858321],[120.832242,22.978391],[120.881025,23.02428],[120.887846,23.168354],[120.920919,23.240494],[121.049594,23.299353],[120.992439,23.365344],[121.019311,23.436683],[120.962157,23.475389],[120.706772,23.296925],[120.653442,23.22866],[120.567039,23.093113],[120.347724,22.896122],[120.167491,22.931871],[120.239594,22.659084],[120.331228,22.519721],[120.411864,22.482887]]]},"properties":{"LOCATION_TYPE":"level1","ADM0_A3":"TWN","LOCATION_ID":"TWN-KHH","NAME":"Kaohsiung City","TYPE_EN":"Special Municipality"}},
{"type":"Feature","geometry":{"type":"Polygon","coordinates":[[[120.875987,22.237698],[120.820047,22.253061],[120.753488,22.367576],[120.752247,22.598879],[120.786974,22.671433],[120.891774,22.716908],[120.910584,22.800831],[120.853326,22.858321],[120.630911,22.883927],[120.472781,22.837211],[120.411864,22.482887],[120.569672,22.373847],[120.696951,22.113227],[120.704356,21.981391],[120.841563,21.925482],[120.879242,22.055813],[120.875987,22.237698]]]},"properties":{"LOCATION_TYPE":"level1","ADM0_A3":"TWN","LOCATION_ID":"TWN-PIF","NAME":"Pingtung","TYPE_EN":"County"}},
{"type":"Feature","geometry":{"type":"Polygon","coordinates":[[[121.479501,23.435197],[121.419287,23.353562],[121.328956,23.164633],[121.270045,23.110476],[121.190463,23.200186],[121.073055,23.245248],[121.049594,23.299353],[120.920919,23.240494],[120.887846,23.168354],[120.881025,23.02428],[120.832242,22.978391],[120.853326,22.858321],[120.910584,22.800831],[120.891774,22.716908],[120.786974,22.671433],[120.752247,22.598879],[120.753488,22.367576],[120.820047,22.253061],[120.875987,22.237698],[120.886567,22.365953],[120.948253,22.526801],[121.021007,22.647895],[121.141449,22.741767],[121.190278,22.843166],[121.299571,22.959174],[121.400076,23.145494],[121.408865,23.254584],[121.479501,23.435197]]]},"properties":{"LOCATION_TYPE":"level1","ADM0_A3":"TWN","LOCATION_ID":"TWN-TTT","NAME":"Taitung","TYPE_EN":"County"}},
{"type":"Feature","geometry":{"type":"Polygon","coordinates":[[[121.763345,24.325804],[121.646508,24.369986],[121.604443,24.330582],[121.4567,24.37275],[121.343477,24.235472],[121.290561,24.17514],[121.326786,24.08915],[121.267978,23.989389],[121.274438,23.901332],[121.215992,23.771263],[121.244259,23.699303],[121.221263,23.608508],[121.13486,23.523603],[121.078636,23.516989],[121.019311,23.436683],[120.992439,23.365344],[121.049594,23.299353],[121.073055,23.245248],[121.190463,23.200186],[121.270045,23.110476],[121.328956,23.164633],[121.419287,23.353562],[121.479501,23.435197],[121.521495,23.658677],[121.628917,24.02619],[121.607432,24.07685],[121.662852,24.193101],[121.763345,24.325804]]]},"properties":{"LOCATION_TYPE":"level1","ADM0_A3":"TWN","LOCATION_ID":"TWN-HUA","NAME":"Hualien","TYPE_EN":"County"}},
{"type":"Feature","geometry":{"type":"Polygon","coordinates":[[[121.972333,24.987068],[121.845772,24.961448],[121.774666,24.873262],[121.598552,24.786446],[121.59726,24.736966],[121.483314,24.681078],[121.412259,24.59545],[121.316451,24.436002],[121.4567,24.37275],[121.604443,24.330582],[121.646508,24.369986],[121.763345,24.325804],[121.78004,24.432685],[121.855968,24.550523],[121.814952,24.644355],[121.823497,24.854926],[121.972333,24.987068]]]},"properties":{"LOCATION_TYPE":"level1","ADM0_A3":"TWN","LOCATION_ID":"TWN-ILA","NAME":"Yilan","TYPE_EN":"County"}},
{"type":"Feature","geometry":{"type":"Polygon","coordinates":[[[121.761267,25.142604],[121.688831,25.075111],[121.633124,25.141153],[121.689261,25.169472],[121.597911,25.27143],[121.539724,25.287421],[121.43629,25.241441],[121.378754,25.157945],[121.287414,25.123679],[121.408641,25.040151],[121.330248,24.972636],[121.350144,24.855331],[121.449052,24.797324],[121.483314,24.681078],[121.59726,24.736966],[121.598552,24.786446],[121.774666,24.873262],[121.845772,24.961448],[121.972333,24.987068],[121.90919,25.036038],[121.892833,25.113674],[121.761267,25.142604]],[[121.602841,24.970621],[121.497008,25.039454],[121.462178,25.120172],[121.564498,25.205852],[121.655241,25.024364],[121.602841,24.970621]]]},"properties":{"LOCATION_TYPE":"level1","ADM0_A3":"TWN","LOCATION_ID":"TWN-TPQ","NAME":"New Taipei City","TYPE_EN":"Special Municipality"}},
{"type":"Feature","geometry":{"type":"Polygon","coordinates":[[[121.689261,25.169472],[121.633124,25.141153],[121.688831,25.075111],[121.761267,25.142604],[121.689261,25.169472]]]},"properties":{"LOCATION_TYPE":"level1","ADM0_A3":"TWN","LOCATION_ID":"TWN-KEE","NAME":"Keelung City","TYPE_EN":"Provincial City"}},
{"type":"Feature","geometry":{"type":"Polygon","coordinates":[[[118.394216,24.522691],[118.372856,24.433201],[118.448785,24.415513],[118.44959,24.505528],[118.394216,24.522691]]]},"properties":{"LOCATION_TYPE":"level1","ADM0_A3":"TWN","LOCATION_ID":"TWN-KIN","NAME":"Kinmen","TYPE_EN":"County"}},
{"type":"Feature","geometry":{"type":"Polygon","coordinates":[[[119.64796,23.603461],[119.567231,23.588528],[119.587169,23.548814],[119.64796,23.603461]]]},"properties":{"LOCATION_TYPE":"level1","ADM0_A3":"TWN","LOCATION_ID":"TWN-PEN","NAME":"Penghu","TYPE_EN":"County"}},
{"type":"Feature","geometry":{"type":"Polygon","coordinates":[[[121.343477,24.235472],[121.167519,24.222811],[120.982621,24.12553],[120.8294,24.108994],[120.78656,24.029619],[120.66724,24.020085],[120.62657,23.854203],[120.647448,23.774932],[120.636285,23.64357],[120.740672,23.616311],[120.824801,23.591067],[120.832449,23.481513],[120.962157,23.475389],[121.019311,23.436683],[121.078636,23.516989],[121.13486,23.523603],[121.221263,23.608508],[121.244259,23.699303],[121.215992,23.771263],[121.274438,23.901332],[121.267978,23.989389],[121.326786,24.08915],[121.290561,24.17514],[121.343477,24.235472]]]},"properties":{"LOCATION_TYPE":"level1","ADM0_A3":"TWN","LOCATION_ID":"TWN-NAN","NAME":"Nantou","TYPE_EN":"County"}},
{"type":"Feature","geometry":{"type":"Polygon","coordinates":[[[121.602841,24.970621],[121.655241,25.024364],[121.564498,25.205852],[121.462178,25.120172],[121.497008,25.039454],[121.602841,24.970621]]]},"properties":{"LOCATION_TYPE":"level1","ADM0_A3":"TWN","LOCATION_ID":"TWN-TPE","NAME":"Taipei City","TYPE_EN":"Special Municipality"}},
{"type":"Feature","geometry":{"type":"Polygon","coordinates":[[[120.454591,23.445339],[120.453144,23.517273],[120.37687,23.475312],[120.454591,23.445339]]]},"properties":{"LOCATION_TYPE":"level1","ADM0_A3":"TWN","LOCATION_ID":"TWN-CYI","NAME":"Chiayi City","TYPE_EN":"Provincial City"}}
]}