{"type":"FeatureCollection", "features": [
{"type":"Feature","geometry":{"type":"Polygon","coordinates":[[[34.078491,-9.510186],[33.895947,-9.263517],[33.795901,-9.006323],[33.853262,-8.913564],[34.111644,-8.833207],[34.475033,-8.825508],[34.732485,-8.605159],[34.690627,-8.434007],[34.91635,-8.147978],[35.063524,-8.035633],[34.909632,-7.935123],[34.359898,-7.813631],[33.894603,-7.836937],[33.938528,-7.499025],[33.584028,-7.147729],[33.484913,-6.942832],[33.267665,-6.955596],[33.036154,-6.866919],[32.792345,-6.946862],[32.690542,-7.093779],[32.552773,-7.103649],[32.273824,-7.210051],[32.197033,-7.495511],[32.0943,-7.534424],[32.010171,-7.789085],[32.511329,-8.098678],[32.742322,-8.404758],[32.632148,-8.464909],[32.50182,-8.214589],[32.278061,-8.345123],[32.287363,-8.569089],[32.009034,-8.782616],[32.14949,-8.949893],[32.145574,-9.070265],[32.383015,-9.133912],[32.518046,-9.258245],[32.713228,-9.28584],[33.404245,-9.604891],[33.734612,-9.584117],[33.86525,-9.66959],[34.078491,-9.510186]]]},"properties":{"LOCATION_TYPE":"level1","ADM0_A3":"TZA","LOCATION_ID":"TZA-14","NAME":"Mbeya","TYPE_EN":"Region"}},
{"type":"Feature","geometry":{"type":"Polygon","coordinates":[[[34.580088,-10.531845],[34.691557,-10.522665],[35.119231,-10.191316],[35.21597,-10.042022],[35.123779,-9.759921],[35.229716,-9.712533],[35.696974,-9.339895],[35.680231,-9.246929],[35.365418,-9.008649],[35.102744,-8.960174],[35.113899,-8.781701],[34.732485,-8.605159],[34.475033,-8.825508],[34.111644,-8.833207],[33.853262,-8.913564],[33.795901,-9.006323],[33.895947,-9.263517],[34.078491,-9.510186],[34.4833,-9.946162],[34.58531,-10.300662],[34.580088,-10.531845]]]},"properties":{"LOCATION_TYPE":"level1","ADM0_A3":"TZA","LOCATION_ID":"TZA-29","NAME":"Njombe","TYPE_EN":"Region"}},
{"type":"Feature","geometry":{"type":"Polygon","coordinates":[[[34.580088,-10.531845],[34.672436,-10.739498],[34.592958,-11.016174],[34.759149,-11.337498],[34.886583,-11.375429],[34.964615,-11.573556],[35.654805,-11.57831],[35.826371,-11.413462],[36.168055,-11.578724],[36.199681,-11.701507],[36.747038,-11.66647],[36.820109,-11.573556],[37.044384,-11.595674],[37.226595,-11.693755],[37.427824,-11.722591],[37.783667,-11.55888],[37.875238,-11.319101],[38.093357,-11.25631],[37.992958,-10.817014],[37.821702,-10.49848],[37.717522,-10.426857],[37.162311,-10.29286],[36.871166,-10.159483],[36.877264,-9.953862],[37.10557,-9.679099],[37.143087,-9.561225],[36.868582,-9.712533],[36.66415,-9.908852],[36.492791,-9.61316],[36.364427,-9.727261],[35.972616,-9.8086],[35.76188,-9.81077],[35.933549,-9.38413],[35.899752,-9.188741],[35.696974,-9.339895],[35.229716,-9.712533],[35.123779,-9.759921],[35.21597,-10.042022],[35.119231,-10.191316],[34.691557,-10.522665],[34.580088,-10.531845]]]},"properties":{"LOCATION_TYPE":"level1","ADM0_A3":"TZA","LOCATION_ID":"TZA-21","NAME":"Ruvuma","TYPE_EN":"Region"}},
{"type":"Feature","geometry":{"type":"Polygon","coordinates":[[[30.818815,-2.990495],[30.799753,-3.274579],[30.640538,-3.33287],[30.46892,-3.513014],[30.003005,-4.271935],[29.728293,-4.461587],[29.404179,-4.449805],[29.321032,-4.836345],[29.377824,-5.087544],[29.593521,-5.620328],[29.60303,-5.781661],[29.476113,-6.002113],[29.525515,-6.273104],[29.738629,-6.652409],[29.969113,-6.80304],[30.242837,-6.580683],[30.393215,-6.393615],[30.184235,-5.901087],[30.118813,-5.520335],[30.007399,-5.334713],[30.270225,-5.32076],[30.408718,-5.190174],[30.729939,-5.191414],[30.922588,-5.261384],[31.062218,-5.49863],[31.211666,-5.461785],[31.227583,-4.95918],[31.397701,-4.832056],[31.490926,-4.620545],[31.416615,-4.356323],[31.347059,-4.219535],[31.376204,-3.966889],[31.217867,-3.636419],[31.110277,-3.220113],[31.005374,-3.144356],[31.068936,-2.93858],[30.98212,-2.838689],[30.818815,-2.990495]]]},"properties":{"LOCATION_TYPE":"level1","ADM0_A3":"TZA","LOCATION_ID":"TZA-08","NAME":"Kigoma","TYPE_EN":"Region"}},
{"type":"Feature","geometry":{"type":"Polygon","coordinates":[[[30.29446,-7.149433],[30.577794,-6.945691],[30.904587,-6.902119],[30.991732,-6.934798],[31.078877,-7.218019],[31.383884,-7.239805],[31.438349,-7.305163],[31.492815,-7.708208],[32.010171,-7.789085],[32.0943,-7.534424],[32.197033,-7.495511],[32.273824,-7.210051],[32.552773,-7.103649],[32.614475,-6.600734],[32.737051,-6.447203],[32.512259,-6.360852],[32.178326,-6.076838],[32.053062,-5.770914],[31.79778,-5.718617],[31.618153,-5.826827],[31.162264,-5.760113],[31.062218,-5.49863],[30.922588,-5.261384],[30.729939,-5.191414],[30.408718,-5.190174],[30.270225,-5.32076],[30.007399,-5.334713],[30.118813,-5.520335],[30.184235,-5.901087],[30.393215,-6.393615],[30.242837,-6.580683],[29.969113,-6.80304],[30.090855,-6.890018],[30.29446,-7.149433]]]},"properties":{"LOCATION_TYPE":"level1","ADM0_A3":"TZA","LOCATION_ID":"TZA-28","NAME":"Katavi","TYPE_EN":"Region"}},
{"type":"Feature","geometry":{"type":"Polygon","coordinates":[[[30.29446,-7.149433],[30.441635,-7.596331],[30.654955,-7.92737],[30.828278,-8.388117],[30.959536,-8.550485],[31.119836,-8.616631],[31.353311,-8.587175],[31.539036,-8.70355],[31.672671,-8.913047],[31.936634,-8.93258],[32.145574,-9.070265],[32.14949,-8.949893],[32.009034,-8.782616],[32.287363,-8.569089],[32.278061,-8.345123],[32.50182,-8.214589],[32.632148,-8.464909],[32.742322,-8.404758],[32.511329,-8.098678],[32.010171,-7.789085],[31.492815,-7.708208],[31.438349,-7.305163],[31.383884,-7.239805],[31.078877,-7.218019],[30.991732,-6.934798],[30.904587,-6.902119],[30.577794,-6.945691],[30.29446,-7.149433]]]},"properties":{"LOCATION_TYPE":"level1","ADM0_A3":"TZA","LOCATION_ID":"TZA-20","NAME":"Rukwa","TYPE_EN":"Region"}},
{"type":"Feature","geometry":{"type":"Polygon","coordinates":[[[32.722268,-1.002573],[31.991411,-1.002573],[30.828381,-1.002573],[30.511657,-1.07337],[30.555323,-1.31842],[30.737534,-1.406683],[30.831017,-1.594165],[30.829932,-1.960551],[30.887809,-2.082507],[30.834376,-2.345334],[30.674799,-2.351742],[30.508091,-2.463466],[30.416003,-2.645574],[30.415797,-2.851659],[30.818815,-2.990495],[30.98212,-2.838689],[30.874922,-2.684158],[31.019139,-2.532906],[31.166873,-2.279647],[31.363853,-2.265577],[31.56435,-2.353514],[31.877155,-2.148034],[32.703875,-1.468799],[32.722268,-1.002573]]]},"properties":{"LOCATION_TYPE":"level1","ADM0_A3":"TZA","LOCATION_ID":"TZA-05","NAME":"Kagera","TYPE_EN":"Region"}},
{"type":"Feature","geometry":{"type":"Polygon","coordinates":[[[38.093357,-11.25631],[38.25661,-11.27714],[38.492255,-11.413462],[38.654209,-11.275796],[38.896261,-11.167689],[39.286625,-11.15415],[39.482685,-10.999224],[39.760498,-10.943104],[40.008131,-10.811122],[40.421026,-10.503751],[40.232107,-10.200453],[39.976404,-10.178293],[39.6804,-10.36345],[39.591,-10.573463],[39.421708,-10.334873],[39.165909,-10.389546],[38.802934,-10.547986],[38.580002,-10.537858],[38.314179,-10.646275],[38.167934,-10.804663],[37.992958,-10.817014],[38.093357,-11.25631]]]},"properties":{"LOCATION_TYPE":"level1","ADM0_A3":"TZA","LOCATION_ID":"TZA-17","NAME":"Mtwara","TYPE_EN":"Region"}},
{"type":"Feature","geometry":{"type":"Polygon","coordinates":[[[35.246367,-1.706823],[34.000022,-1.002573],[32.722268,-1.002573],[32.703875,-1.468799],[33.334431,-1.473605],[33.456077,-1.521251],[33.464449,-1.682584],[33.300738,-1.834255],[33.358099,-2.167878],[34.169625,-2.19599],[34.478547,-2.424865],[34.657761,-2.49132],[35.207598,-2.487031],[35.327384,-2.18736],[35.224858,-2.101163],[35.246367,-1.706823]]]},"properties":{"LOCATION_TYPE":"level1","ADM0_A3":"TZA","LOCATION_ID":"TZA-13","NAME":"Mara","TYPE_EN":"Region"}},
{"type":"Feature","geometry":{"type":"Polygon","coordinates":[[[35.246367,-1.706823],[35.224858,-2.101163],[35.327384,-2.18736],[35.207598,-2.487031],[35.150134,-2.868558],[35.035619,-2.967519],[34.901157,-2.883131],[34.892475,-3.596886],[34.760494,-3.801835],[34.892165,-3.909477],[35.379371,-3.624275],[35.733664,-3.687113],[35.940163,-3.644842],[36.246595,-4.10856],[36.530721,-4.082128],[36.500956,-3.784213],[36.577127,-3.665357],[36.828378,-3.634972],[37.062369,-3.491001],[37.060302,-3.309617],[36.896901,-3.15774],[36.9092,-2.997233],[37.140607,-2.857293],[37.424212,-2.922754],[36.059535,-2.160952],[35.246367,-1.706823]]]},"properties":{"LOCATION_TYPE":"level1","ADM0_A3":"TZA","LOCATION_ID":"TZA-01","NAME":"Arusha","TYPE_EN":"Region"}},
{"type":"Feature","geometry":{"type":"Polygon","coordinates":[[[37.424212,-2.922754],[37.140607,-2.857293],[36.9092,-2.997233],[36.896901,-3.15774],[37.060302,-3.309617],[37.062369,-3.491001],[37.287988,-3.494567],[37.467408,-3.817028],[37.506889,-4.074996],[37.496761,-4.383453],[37.761034,-4.586851],[38.029855,-4.63858],[38.416175,-4.119981],[37.770955,-3.655435],[37.590294,-3.404081],[37.700055,-3.31437],[37.644865,-3.045963],[37.424212,-2.922754]]]},"properties":{"LOCATION_TYPE":"level1","ADM0_A3":"TZA","LOCATION_ID":"TZA-09","NAME":"Kilimanjaro","TYPE_EN":"Region"}},
{"type":"Feature","geometry":{"type":"Polygon","coordinates":[[[38.416175,-4.119981],[38.029855,-4.63858],[37.97146,-4.805598],[38.040397,-4.961041],[37.749562,-5.008635],[37.591742,-4.978249],[37.389274,-5.205522],[37.343592,-5.446386],[37.179571,-5.787088],[37.060715,-5.86791],[37.215021,-6.043972],[37.52725,-5.839385],[37.627915,-5.980151],[37.801548,-5.894627],[38.146954,-5.858143],[38.343841,-5.981443],[38.555507,-6.018185],[38.800299,-5.96309],[38.83253,-5.815606],[39.138682,-5.103204],[39.207042,-4.872328],[39.190603,-4.677504],[38.416175,-4.119981]]]},"properties":{"LOCATION_TYPE":"level1","ADM0_A3":"TZA","LOCATION_ID":"TZA-25","NAME":"Tanga","TYPE_EN":"Region"}},
{"type":"Feature","geometry":{"type":"Polygon","coordinates":[[[39.284671,-8.318609],[39.183273,-8.285695],[38.802211,-8.38264],[38.503831,-8.359696],[38.289167,-8.175883],[37.991718,-8.07992],[37.801238,-7.943391],[37.368603,-8.499429],[37.305558,-8.809229],[37.359508,-9.142336],[37.257809,-9.197836],[37.143087,-9.561225],[37.10557,-9.679099],[36.877264,-9.953862],[36.871166,-10.159483],[37.162311,-10.29286],[37.717522,-10.426857],[37.821702,-10.49848],[37.992958,-10.817014],[38.167934,-10.804663],[38.314179,-10.646275],[38.580002,-10.537858],[38.802934,-10.547986],[39.165909,-10.389546],[39.421708,-10.334873],[39.591,-10.573463],[39.6804,-10.36345],[39.976404,-10.178293],[39.77947,-9.930108],[39.650727,-9.444757],[39.643809,-9.18906],[39.493337,-9.079522],[39.408946,-8.870212],[39.284671,-8.318609]]]},"properties":{"LOCATION_TYPE":"level1","ADM0_A3":"TZA","LOCATION_ID":"TZA-12","NAME":"Lindi","TYPE_EN":"Region"}},
{"type":"Feature","geometry":{"type":"Polygon","coordinates":[[[39.434744,-7.181736],[39.357836,-6.960195],[39.104828,-6.912394],[39.048294,-6.737056],[39.129161,-6.561944],[38.852224,-6.348728],[38.800299,-5.96309],[38.555507,-6.018185],[38.343841,-5.981443],[38.146954,-5.858143],[37.801548,-5.894627],[38.057037,-6.251918],[38.02324,-6.640731],[38.30374,-6.691891],[38.285963,-6.885368],[38.515613,-7.042981],[38.302706,-7.319088],[38.360377,-7.521918],[37.871725,-7.61969],[37.801238,-7.943391],[37.991718,-8.07992],[38.289167,-8.175883],[38.503831,-8.359696],[38.802211,-8.38264],[39.183273,-8.285695],[39.284671,-8.318609],[39.454356,-8.010431],[39.443533,-7.832615],[39.296235,-7.688409],[39.303966,-7.4485],[39.434744,-7.181736]]]},"properties":{"LOCATION_TYPE":"level1","ADM0_A3":"TZA","LOCATION_ID":"TZA-19","NAME":"Pwani","TYPE_EN":"Region"}},
{"type":"Feature","geometry":{"type":"Polygon","coordinates":[[[39.129161,-6.561944],[39.048294,-6.737056],[39.104828,-6.912394],[39.357836,-6.960195],[39.434744,-7.181736],[39.547537,-7.118259],[39.464529,-6.85768],[39.293712,-6.815199],[39.129161,-6.561944]]]},"properties":{"LOCATION_TYPE":"level1","ADM0_A3":"TZA","LOCATION_ID":"TZA-02","NAME":"Dar-Es-Salaam","TYPE_EN":"Region"}},
{"type":"Feature","geometry":{"type":"Polygon","coordinates":[[[39.390675,-6.000413],[39.27412,-6.033947],[39.308116,-6.245701],[39.375662,-6.363377],[39.569509,-6.420831],[39.524913,-6.175063],[39.390675,-6.000413]]]},"properties":{"LOCATION_TYPE":"level1","ADM0_A3":"TZA","LOCATION_ID":"TZA-11","NAME":"Zanzibar South and Central","TYPE_EN":"Region"}},
{"type":"Feature","geometry":{"type":"Polygon","coordinates":[[[39.197943,-6.033587],[39.27412,-6.033947],[39.390675,-6.000413],[39.355724,-5.803806],[39.19044,-5.914239],[39.197943,-6.033587]]]},"properties":{"LOCATION_TYPE":"level1","ADM0_A3":"TZA","LOCATION_ID":"TZA-07","NAME":"Kaskazini-Unguja","TYPE_EN":"Region"}},
{"type":"Feature","geometry":{"type":"Polygon","coordinates":[[[39.308116,-6.245701],[39.27412,-6.033947],[39.197943,-6.033587],[39.177013,-6.157892],[39.308116,-6.245701]]]},"properties":{"LOCATION_TYPE":"level1","ADM0_A3":"TZA","LOCATION_ID":"TZA-15","NAME":"Zanzibar West","TYPE_EN":"Region"}},
{"type":"Feature","geometry":{"type":"Polygon","coordinates":[[[39.855902,-5.182319],[39.742524,-5.161798],[39.643077,-5.413995],[39.796072,-5.406834],[39.855902,-5.182319]]]},"properties":{"LOCATION_TYPE":"level1","ADM0_A3":"TZA","LOCATION_ID":"TZA-10","NAME":"Kusini-Pemba","TYPE_EN":"Region"}},
{"type":"Feature","geometry":{"type":"Polygon","coordinates":[[[39.742524,-5.161798],[39.855902,-5.182319],[39.805919,-4.96087],[39.677257,-4.945082],[39.742524,-5.161798]]]},"properties":{"LOCATION_TYPE":"level1","ADM0_A3":"TZA","LOCATION_ID":"TZA-06","NAME":"Kaskazini-Pemba","TYPE_EN":"Region"}},
{"type":"Feature","geometry":{"type":"Polygon","coordinates":[[[37.801238,-7.943391],[37.871725,-7.61969],[38.360377,-7.521918],[38.302706,-7.319088],[38.515613,-7.042981],[38.285963,-6.885368],[38.30374,-6.691891],[38.02324,-6.640731],[38.057037,-6.251918],[37.801548,-5.894627],[37.627915,-5.980151],[37.52725,-5.839385],[37.215021,-6.043972],[37.060715,-5.86791],[36.861657,-6.002114],[36.857523,-6.343488],[36.762129,-6.445084],[36.640792,-6.778966],[36.640896,-7.0035],[36.558833,-7.054091],[36.477805,-7.370403],[36.517286,-7.500782],[36.777011,-7.577883],[36.847395,-7.783762],[36.765849,-7.956258],[36.507777,-7.942822],[36.315541,-8.060386],[36.30934,-8.180327],[36.094469,-8.242442],[35.910708,-8.502892],[35.627314,-8.730836],[35.341233,-8.6881],[35.365418,-9.008649],[35.680231,-9.246929],[35.696974,-9.339895],[35.899752,-9.188741],[35.933549,-9.38413],[35.76188,-9.81077],[35.972616,-9.8086],[36.364427,-9.727261],[36.492791,-9.61316],[36.66415,-9.908852],[36.868582,-9.712533],[37.143087,-9.561225],[37.257809,-9.197836],[37.359508,-9.142336],[37.305558,-8.809229],[37.368603,-8.499429],[37.801238,-7.943391]]]},"properties":{"LOCATION_TYPE":"level1","ADM0_A3":"TZA","LOCATION_ID":"TZA-16","NAME":"Morogoro","TYPE_EN":"Region"}},
{"type":"Feature","geometry":{"type":"Polygon","coordinates":[[[36.861657,-6.002114],[36.725128,-5.955812],[36.570099,-5.748848],[36.444939,-5.681307],[36.244227,-5.457754],[36.31213,-5.119687],[36.360706,-4.67589],[36.306239,-4.481432],[36.299211,-4.184809],[35.820377,-4.362421],[35.661317,-4.568403],[35.510319,-4.861563],[35.340923,-4.854484],[35.319426,-4.948948],[35.075513,-5.11576],[35.139695,-5.404734],[35.338546,-5.700272],[35.210905,-5.951884],[35.222998,-6.355529],[35.185997,-6.715249],[35.06001,-6.721036],[35.080887,-6.920456],[35.177936,-6.978902],[35.443036,-6.93322],[35.539051,-7.005567],[35.982848,-7.130624],[36.242987,-7.172275],[36.338588,-7.326994],[36.477805,-7.370403],[36.558833,-7.054091],[36.640896,-7.0035],[36.640792,-6.778966],[36.762129,-6.445084],[36.857523,-6.343488],[36.861657,-6.002114]]]},"properties":{"LOCATION_TYPE":"level1","ADM0_A3":"TZA","LOCATION_ID":"TZA-03","NAME":"Dodoma","TYPE_EN":"Region"}},
{"type":"Feature","geometry":{"type":"Polygon","coordinates":[[[37.060715,-5.86791],[37.179571,-5.787088],[37.343592,-5.446386],[37.389274,-5.205522],[37.591742,-4.978249],[37.749562,-5.008635],[38.040397,-4.961041],[37.97146,-4.805598],[38.029855,-4.63858],[37.761034,-4.586851],[37.496761,-4.383453],[37.506889,-4.074996],[37.467408,-3.817028],[37.287988,-3.494567],[37.062369,-3.491001],[36.828378,-3.634972],[36.577127,-3.665357],[36.500956,-3.784213],[36.530721,-4.082128],[36.246595,-4.10856],[35.940163,-3.644842],[35.733664,-3.687113],[35.379371,-3.624275],[34.892165,-3.909477],[35.017015,-4.107553],[34.869221,-4.381128],[35.14476,-4.723536],[35.340923,-4.854484],[35.510319,-4.861563],[35.661317,-4.568403],[35.820377,-4.362421],[36.299211,-4.184809],[36.306239,-4.481432],[36.360706,-4.67589],[36.31213,-5.119687],[36.244227,-5.457754],[36.444939,-5.681307],[36.570099,-5.748848],[36.725128,-5.955812],[36.861657,-6.002114],[37.060715,-5.86791]]]},"properties":{"LOCATION_TYPE":"level1","ADM0_A3":"TZA","LOCATION_ID":"TZA-26","NAME":"Manyara","TYPE_EN":"Region"}},
{"type":"Feature","geometry":{"type":"Polygon","coordinates":[[[35.340923,-4.854484],[35.14476,-4.723536],[34.869221,-4.381128],[35.017015,-4.107553],[34.892165,-3.909477],[34.760494,-3.801835],[34.412918,-3.960895],[34.288791,-4.036497],[33.960129,-4.492542],[33.915894,-4.850608],[33.929433,-5.150486],[34.231327,-5.389955],[34.056867,-5.593457],[34.002917,-6.06888],[34.015319,-6.218948],[33.518606,-6.620577],[33.484913,-6.942832],[33.584028,-7.147729],[33.938528,-7.499025],[34.173966,-7.313817],[34.358038,-7.325806],[34.426457,-7.218112],[34.720703,-7.157082],[34.769485,-6.990064],[34.91945,-6.889657],[35.080887,-6.920456],[35.06001,-6.721036],[35.185997,-6.715249],[35.222998,-6.355529],[35.210905,-5.951884],[35.338546,-5.700272],[35.139695,-5.404734],[35.075513,-5.11576],[35.319426,-4.948948],[35.340923,-4.854484]]]},"properties":{"LOCATION_TYPE":"level1","ADM0_A3":"TZA","LOCATION_ID":"TZA-23","NAME":"Singida","TYPE_EN":"Region"}},
{"type":"Feature","geometry":{"type":"Polygon","coordinates":[[[34.288791,-4.036497],[33.984004,-4.022131],[33.5955,-3.879608],[33.181985,-3.959293],[32.983031,-3.905343],[32.71297,-3.979705],[32.616335,-4.281185],[32.46761,-4.208683],[32.371079,-4.3849],[32.211399,-4.316997],[31.971723,-4.430169],[31.959218,-4.144036],[31.690603,-4.037944],[31.612779,-4.246407],[31.416615,-4.356323],[31.490926,-4.620545],[31.397701,-4.832056],[31.227583,-4.95918],[31.211666,-5.461785],[31.062218,-5.49863],[31.162264,-5.760113],[31.618153,-5.826827],[31.79778,-5.718617],[32.053062,-5.770914],[32.178326,-6.076838],[32.512259,-6.360852],[32.737051,-6.447203],[32.614475,-6.600734],[32.552773,-7.103649],[32.690542,-7.093779],[32.792345,-6.946862],[33.036154,-6.866919],[33.267665,-6.955596],[33.484913,-6.942832],[33.518606,-6.620577],[34.015319,-6.218948],[34.002917,-6.06888],[34.056867,-5.593457],[34.231327,-5.389955],[33.929433,-5.150486],[33.915894,-4.850608],[33.960129,-4.492542],[34.288791,-4.036497]]]},"properties":{"LOCATION_TYPE":"level1","ADM0_A3":"TZA","LOCATION_ID":"TZA-24","NAME":"Tabora","TYPE_EN":"Region"}},
{"type":"Feature","geometry":{"type":"Polygon","coordinates":[[[36.477805,-7.370403],[36.338588,-7.326994],[36.242987,-7.172275],[35.982848,-7.130624],[35.539051,-7.005567],[35.443036,-6.93322],[35.177936,-6.978902],[35.080887,-6.920456],[34.91945,-6.889657],[34.769485,-6.990064],[34.720703,-7.157082],[34.426457,-7.218112],[34.358038,-7.325806],[34.173966,-7.313817],[33.938528,-7.499025],[33.894603,-7.836937],[34.359898,-7.813631],[34.909632,-7.935123],[35.063524,-8.035633],[34.91635,-8.147978],[34.690627,-8.434007],[34.732485,-8.605159],[35.113899,-8.781701],[35.102744,-8.960174],[35.365418,-9.008649],[35.341233,-8.6881],[35.627314,-8.730836],[35.910708,-8.502892],[36.094469,-8.242442],[36.30934,-8.180327],[36.315541,-8.060386],[36.507777,-7.942822],[36.765849,-7.956258],[36.847395,-7.783762],[36.777011,-7.577883],[36.517286,-7.500782],[36.477805,-7.370403]]]},"properties":{"LOCATION_TYPE":"level1","ADM0_A3":"TZA","LOCATION_ID":"TZA-04","NAME":"Iringa","TYPE_EN":"Region"}},
{"type":"Feature","geometry":{"type":"Polygon","coordinates":[[[32.703875,-1.468799],[31.877155,-2.148034],[31.980469,-2.411553],[32.534826,-2.81114],[32.596734,-2.960281],[32.510398,-3.197789],[32.533756,-3.371112],[32.862108,-3.255046],[33.109948,-3.432607],[33.213921,-3.327549],[33.422901,-3.27396],[33.529458,-2.972841],[33.498555,-2.860807],[33.764585,-2.755387],[33.485497,-2.40917],[33.358099,-2.167878],[33.300738,-1.834255],[33.464449,-1.682584],[33.456077,-1.521251],[33.334431,-1.473605],[32.703875,-1.468799]]]},"properties":{"LOCATION_TYPE":"level1","ADM0_A3":"TZA","LOCATION_ID":"TZA-18","NAME":"Mwanza","TYPE_EN":"Region"}},
{"type":"Feature","geometry":{"type":"Polygon","coordinates":[[[35.207598,-2.487031],[34.657761,-2.49132],[34.478547,-2.424865],[34.169625,-2.19599],[33.358099,-2.167878],[33.485497,-2.40917],[33.764585,-2.755387],[33.498555,-2.860807],[33.529458,-2.972841],[33.422901,-3.27396],[33.909283,-3.515726],[34.158298,-3.550164],[34.266912,-3.815074],[34.412918,-3.960895],[34.760494,-3.801835],[34.892475,-3.596886],[34.901157,-2.883131],[35.035619,-2.967519],[35.150134,-2.868558],[35.207598,-2.487031]]]},"properties":{"LOCATION_TYPE":"level1","ADM0_A3":"TZA","LOCATION_ID":"TZA-30","NAME":"Simiyu","TYPE_EN":"Region"}},
{"type":"Feature","geometry":{"type":"Polygon","coordinates":[[[31.416615,-4.356323],[31.612779,-4.246407],[31.690603,-4.037944],[31.69098,-3.904728],[31.835197,-3.742923],[32.134184,-3.672573],[32.116596,-3.394692],[32.250156,-3.236391],[32.346377,-3.319074],[32.510398,-3.197789],[32.596734,-2.960281],[32.534826,-2.81114],[31.980469,-2.411553],[31.877155,-2.148034],[31.56435,-2.353514],[31.363853,-2.265577],[31.166873,-2.279647],[31.019139,-2.532906],[30.874922,-2.684158],[30.98212,-2.838689],[31.068936,-2.93858],[31.005374,-3.144356],[31.110277,-3.220113],[31.217867,-3.636419],[31.376204,-3.966889],[31.347059,-4.219535],[31.416615,-4.356323]]]},"properties":{"LOCATION_TYPE":"level1","ADM0_A3":"TZA","LOCATION_ID":"TZA-27","NAME":"Geita","TYPE_EN":"Region"}},
{"type":"Feature","geometry":{"type":"Polygon","coordinates":[[[31.690603,-4.037944],[31.959218,-4.144036],[31.971723,-4.430169],[32.211399,-4.316997],[32.371079,-4.3849],[32.46761,-4.208683],[32.616335,-4.281185],[32.71297,-3.979705],[32.983031,-3.905343],[33.181985,-3.959293],[33.5955,-3.879608],[33.984004,-4.022131],[34.288791,-4.036497],[34.412918,-3.960895],[34.266912,-3.815074],[34.158298,-3.550164],[33.909283,-3.515726],[33.422901,-3.27396],[33.213921,-3.327549],[33.109948,-3.432607],[32.862108,-3.255046],[32.533756,-3.371112],[32.510398,-3.197789],[32.346377,-3.319074],[32.250156,-3.236391],[32.116596,-3.394692],[32.134184,-3.672573],[31.835197,-3.742923],[31.69098,-3.904728],[31.690603,-4.037944]]]},"properties":{"LOCATION_TYPE":"level1","ADM0_A3":"TZA","LOCATION_ID":"TZA-22","NAME":"Shinyanga","TYPE_EN":"Region"}}
]}