{"type":"FeatureCollection", "features": [
{"type":"Feature","geometry":{"type":"Polygon","coordinates":[[[30.460829,-1.063428],[30.589999,-0.805687],[30.456157,-0.82336],[30.272706,-0.754941],[30.187336,-0.724813],[30.058248,-0.760005],[30.068377,-1.086703],[30.209557,-1.184889],[30.29095,-1.152621],[30.460829,-1.063428]]]},"properties":{"LOCATION_TYPE":"level1","ADM0_A3":"UGA","LOCATION_ID":"UGA-411","NAME":"Ntungamo","TYPE_EN":"District"}},
{"type":"Feature","geometry":{"type":"Polygon","coordinates":[[[30.460829,-1.063428],[30.638626,-1.07337],[30.828381,-1.002573],[31.280493,-1.002573],[31.181074,-0.742435],[31.07493,-0.652725],[30.865331,-0.695099],[30.765182,-0.605027],[30.647463,-0.612055],[30.589999,-0.805687],[30.460829,-1.063428]]]},"properties":{"LOCATION_TYPE":"level1","ADM0_A3":"UGA","LOCATION_ID":"UGA-417","NAME":"Isingiro","TYPE_EN":"County"}},
{"type":"Feature","geometry":{"type":"Polygon","coordinates":[[[29.825024,-1.323881],[29.897896,-1.469625],[30.147183,-1.345085],[30.29095,-1.152621],[30.209557,-1.184889],[30.068377,-1.086703],[29.900118,-1.044122],[29.754598,-1.075645],[29.825024,-1.323881]]]},"properties":{"LOCATION_TYPE":"level1","ADM0_A3":"UGA","LOCATION_ID":"UGA-404","NAME":"Kabale","TYPE_EN":"District"}},
{"type":"Feature","geometry":{"type":"Polygon","coordinates":[[[29.825024,-1.323881],[29.754598,-1.075645],[29.551518,-0.990305],[29.577915,-1.38839],[29.825024,-1.323881]]]},"properties":{"LOCATION_TYPE":"level1","ADM0_A3":"UGA","LOCATION_ID":"UGA-408","NAME":"Kisoro","TYPE_EN":"District"}},
{"type":"Feature","geometry":{"type":"Polygon","coordinates":[[[31.986193,-1.002573],[31.986193,-0.773906],[31.751892,-0.731945],[31.621467,-0.469962],[31.459224,-0.603741],[31.236988,-0.464106],[31.134777,-0.528415],[31.07493,-0.652725],[31.181074,-0.742435],[31.280493,-1.002573],[31.986193,-1.002573]]]},"properties":{"LOCATION_TYPE":"level1","ADM0_A3":"UGA","LOCATION_ID":"UGA-110","NAME":"Rakai","TYPE_EN":"District"}},
{"type":"Feature","geometry":{"type":"Polygon","coordinates":[[[31.986193,-1.002573],[32.847225,-1.002573],[32.847225,-0.462103],[32.847225,-0.163091],[32.605022,-0.163091],[32.493138,-0.163091],[32.248192,-0.158388],[31.935653,-0.126762],[31.974514,-0.230425],[31.986193,-0.773906],[31.986193,-1.002573]]]},"properties":{"LOCATION_TYPE":"level1","ADM0_A3":"UGA","LOCATION_ID":"UGA-101","NAME":"Kalangala","TYPE_EN":"District"}},
{"type":"Feature","geometry":{"type":"Polygon","coordinates":[[[33.426415,-1.002573],[33.426208,0.213734],[33.387037,0.302617],[33.272855,0.350246],[33.078298,0.09101],[33.013764,-0.146987],[32.847225,-0.462103],[32.847225,-1.002573],[33.426415,-1.002573]]]},"properties":{"LOCATION_TYPE":"level1","ADM0_A3":"UGA","LOCATION_ID":"UGA-120","NAME":"Buvuma","TYPE_EN":"District"}},
{"type":"Feature","geometry":{"type":"Polygon","coordinates":[[[33.631777,-1.002573],[33.631777,-0.103464],[33.737595,-0.068013],[33.654348,0.073148],[33.684694,0.321686],[33.608833,0.442247],[33.565734,0.45067],[33.504254,0.346865],[33.387037,0.302617],[33.426208,0.213734],[33.426415,-1.002573],[33.631777,-1.002573]]]},"properties":{"LOCATION_TYPE":"level1","ADM0_A3":"UGA","LOCATION_ID":"UGA-214","NAME":"Mayuge","TYPE_EN":"District"}},
{"type":"Feature","geometry":{"type":"Polygon","coordinates":[[[33.631777,-1.002573],[33.904214,-1.002573],[33.894809,-0.662749],[33.953514,-0.154356],[33.890468,0.090073],[33.960266,0.198677],[33.877033,0.344217],[33.892536,0.473925],[33.828997,0.3832],[33.684694,0.321686],[33.654348,0.073148],[33.737595,-0.068013],[33.631777,-0.103464],[33.631777,-1.002573]]]},"properties":{"LOCATION_TYPE":"level1","ADM0_A3":"UGA","LOCATION_ID":"UGA-230","NAME":"Namayingo","TYPE_EN":"District"}},
{"type":"Feature","geometry":{"type":"Polygon","coordinates":[[[33.527716,3.771431],[33.564701,3.655359],[33.743398,3.353129],[33.906179,3.243678],[34.157636,3.197066],[34.386253,3.081673],[34.545556,3.097501],[34.434001,3.182029],[34.382118,3.466043],[34.439686,3.667736],[34.278868,3.709723],[34.061104,4.007767],[33.977078,4.219692],[33.527716,3.771431]]]},"properties":{"LOCATION_TYPE":"level1","ADM0_A3":"UGA","LOCATION_ID":"UGA-315","NAME":"Kaabong","TYPE_EN":"District"}},
{"type":"Feature","geometry":{"type":"Polygon","coordinates":[[[33.527716,3.771431],[33.263688,3.75367],[33.28404,3.561405],[33.108638,3.467857],[32.939082,3.467857],[32.769526,3.391849],[32.782837,3.179935],[33.064514,3.132503],[33.155412,3.017656],[33.214314,3.188023],[33.360048,3.195982],[33.389311,3.299489],[33.550025,3.268741],[33.681386,3.25143],[33.743398,3.353129],[33.564701,3.655359],[33.527716,3.771431]]]},"properties":{"LOCATION_TYPE":"level1","ADM0_A3":"UGA","LOCATION_ID":"UGA-305","NAME":"Kitgum","TYPE_EN":"District"}},
{"type":"Feature","geometry":{"type":"Polygon","coordinates":[[[33.263688,3.75367],[33.143486,3.774086],[33.01724,3.87718],[32.756429,3.769022],[32.371801,3.731065],[32.187782,3.61916],[32.175929,3.527234],[32.357445,3.286692],[32.515153,3.135804],[32.782837,3.179935],[32.769526,3.391849],[32.939082,3.467857],[33.108638,3.467857],[33.28404,3.561405],[33.263688,3.75367]]]},"properties":{"LOCATION_TYPE":"level1","ADM0_A3":"UGA","LOCATION_ID":"UGA-327","NAME":"Lamwo","TYPE_EN":"District"}},
{"type":"Feature","geometry":{"type":"Polygon","coordinates":[[[32.175929,3.527234],[32.054226,3.559572],[32.04159,3.321141],[31.930899,3.036197],[31.625052,2.957394],[31.536401,2.868637],[31.402249,2.955505],[31.392844,2.785515],[31.42354,2.617308],[31.747414,2.796794],[31.984882,2.800338],[32.201083,2.729453],[32.1787,3.053209],[32.357445,3.286692],[32.175929,3.527234]]]},"properties":{"LOCATION_TYPE":"level1","ADM0_A3":"UGA","LOCATION_ID":"UGA-319","NAME":"Amuru","TYPE_EN":"District"}},
{"type":"Feature","geometry":{"type":"Polygon","coordinates":[[[32.022236,3.58642],[31.885753,3.497504],[31.693291,3.486351],[31.524515,3.144666],[31.512423,3.118595],[31.402249,2.955505],[31.536401,2.868637],[31.625052,2.957394],[31.930899,3.036197],[32.04159,3.321141],[32.054226,3.559572],[32.022236,3.58642]]]},"properties":{"LOCATION_TYPE":"level1","ADM0_A3":"UGA","LOCATION_ID":"UGA-301","NAME":"Adjumani","TYPE_EN":"District"}},
{"type":"Feature","geometry":{"type":"Polygon","coordinates":[[[32.022236,3.58642],[31.780985,3.815815],[31.613945,3.697014],[31.463744,3.457955],[31.460652,3.219272],[31.524515,3.144666],[31.693291,3.486351],[31.885753,3.497504],[32.022236,3.58642]]]},"properties":{"LOCATION_TYPE":"level1","ADM0_A3":"UGA","LOCATION_ID":"UGA-309","NAME":"Moyo","TYPE_EN":"District"}},
{"type":"Feature","geometry":{"type":"Polygon","coordinates":[[[31.613945,3.697014],[31.505446,3.659855],[31.29502,3.774189],[31.068677,3.731737],[31.037108,3.53278],[31.053743,3.312976],[31.205465,3.334887],[31.42416,3.130688],[31.512423,3.118595],[31.524515,3.144666],[31.460652,3.219272],[31.463744,3.457955],[31.613945,3.697014]]]},"properties":{"LOCATION_TYPE":"level1","ADM0_A3":"UGA","LOCATION_ID":"UGA-313","NAME":"Yumbe","TYPE_EN":"District"}},
{"type":"Feature","geometry":{"type":"Polygon","coordinates":[[[31.068677,3.731737],[30.944447,3.679286],[30.865692,3.548958],[30.904933,3.386035],[31.053743,3.312976],[31.037108,3.53278],[31.068677,3.731737]]]},"properties":{"LOCATION_TYPE":"level1","ADM0_A3":"UGA","LOCATION_ID":"UGA-316","NAME":"Koboko","TYPE_EN":"County"}},
{"type":"Feature","geometry":{"type":"Polygon","coordinates":[[[34.545556,3.097501],[34.386253,3.081673],[34.251687,2.832773],[34.438463,2.77533],[34.644838,2.640947],[34.754633,2.484144],[34.841614,2.113011],[34.922343,2.210719],[34.865603,2.347506],[34.923584,2.477318],[34.81868,2.597982],[34.730107,2.85285],[34.574664,2.946126],[34.545556,3.097501]]]},"properties":{"LOCATION_TYPE":"level1","ADM0_A3":"UGA","LOCATION_ID":"UGA-308","NAME":"Moroto","TYPE_EN":"District"}},
{"type":"Feature","geometry":{"type":"Polygon","coordinates":[[[34.560065,1.093149],[34.548414,1.200392],[34.566575,1.373389],[34.433175,1.445623],[34.328479,1.299973],[34.524229,1.162255],[34.507485,1.102518],[34.560065,1.093149]]]},"properties":{"LOCATION_TYPE":"level1","ADM0_A3":"UGA","LOCATION_ID":"UGA-206","NAME":"Kapchorwa","TYPE_EN":"District"}},
{"type":"Feature","geometry":{"type":"Polygon","coordinates":[[[34.560065,1.093149],[34.580452,1.152541],[34.797907,1.231916],[34.780747,1.371789],[34.7422,1.419449],[34.548414,1.200392],[34.560065,1.093149]]]},"properties":{"LOCATION_TYPE":"level1","ADM0_A3":"UGA","LOCATION_ID":"UGA-218","NAME":"Bukwa","TYPE_EN":"County"}},
{"type":"Feature","geometry":{"type":"Polygon","coordinates":[[[34.922343,2.210719],[34.841614,2.113011],[34.788821,1.681064],[34.637275,1.540857],[34.7422,1.419449],[34.780747,1.371789],[34.978671,1.675945],[34.967509,2.101914],[34.922343,2.210719]]]},"properties":{"LOCATION_TYPE":"level1","ADM0_A3":"UGA","LOCATION_ID":"UGA-324","NAME":"Amudat","TYPE_EN":"District"}},
{"type":"Feature","geometry":{"type":"Polygon","coordinates":[[[34.131588,0.569433],[33.957132,0.564152],[33.892536,0.473925],[33.877033,0.344217],[33.960266,0.198677],[34.087976,0.367369],[34.131588,0.569433]]]},"properties":{"LOCATION_TYPE":"level1","ADM0_A3":"UGA","LOCATION_ID":"UGA-202","NAME":"Busia","TYPE_EN":"District"}},
{"type":"Feature","geometry":{"type":"Polygon","coordinates":[[[34.296252,0.746746],[34.163734,0.828063],[34.084979,0.902322],[33.923439,0.816798],[33.865148,0.684558],[33.957132,0.564152],[34.131588,0.569433],[34.296252,0.746746]]]},"properties":{"LOCATION_TYPE":"level1","ADM0_A3":"UGA","LOCATION_ID":"UGA-212","NAME":"Tororo","TYPE_EN":"District"}},
{"type":"Feature","geometry":{"type":"Polygon","coordinates":[[[34.463346,0.999992],[34.263573,0.999164],[34.163734,0.828063],[34.296252,0.746746],[34.388009,0.815817],[34.463346,0.999992]]]},"properties":{"LOCATION_TYPE":"level1","ADM0_A3":"UGA","LOCATION_ID":"UGA-221","NAME":"Manafwa","TYPE_EN":"District"}},
{"type":"Feature","geometry":{"type":"Polygon","coordinates":[[[34.507485,1.102518],[34.357107,1.086446],[34.263573,0.999164],[34.463346,0.999992],[34.507485,1.102518]]]},"properties":{"LOCATION_TYPE":"level1","ADM0_A3":"UGA","LOCATION_ID":"UGA-223","NAME":"Bududa","TYPE_EN":"District"}},
{"type":"Feature","geometry":{"type":"Polygon","coordinates":[[[30.763416,3.123437],[30.915767,3.117226],[31.053743,3.312976],[30.904933,3.386035],[30.763416,3.123437]]]},"properties":{"LOCATION_TYPE":"level1","ADM0_A3":"UGA","LOCATION_ID":"UGA-320","NAME":"Maracha","TYPE_EN":"District"}},
{"type":"Feature","geometry":{"type":"Polygon","coordinates":[[[30.770779,2.675847],[30.966048,2.737264],[31.048305,2.588893],[31.251974,2.635576],[31.392844,2.785515],[31.402249,2.955505],[31.512423,3.118595],[31.42416,3.130688],[31.205465,3.334887],[31.053743,3.312976],[30.915767,3.117226],[30.763416,3.123437],[30.745079,3.036302],[30.85484,2.89321],[30.770779,2.675847]]]},"properties":{"LOCATION_TYPE":"level1","ADM0_A3":"UGA","LOCATION_ID":"UGA-303","NAME":"Arua","TYPE_EN":"County"}},
{"type":"Feature","geometry":{"type":"Polygon","coordinates":[[[30.770779,2.675847],[30.724925,2.440782],[30.87179,2.332055],[30.968011,2.405436],[31.048305,2.588893],[30.966048,2.737264],[30.770779,2.675847]]]},"properties":{"LOCATION_TYPE":"level1","ADM0_A3":"UGA","LOCATION_ID":"UGA-331","NAME":"Zombo","TYPE_EN":"District"}},
{"type":"Feature","geometry":{"type":"Polygon","coordinates":[[[30.968011,2.405436],[31.055241,2.290249],[31.177559,2.30291],[31.280096,2.151441],[31.345673,2.179558],[31.466948,2.355515],[31.4778,2.519175],[31.42354,2.617308],[31.392844,2.785515],[31.251974,2.635576],[31.048305,2.588893],[30.968011,2.405436]]]},"properties":{"LOCATION_TYPE":"level1","ADM0_A3":"UGA","LOCATION_ID":"UGA-310","NAME":"Nebbi","TYPE_EN":"District"}},
{"type":"Feature","geometry":{"type":"Polygon","coordinates":[[[31.075539,1.840649],[31.326968,1.821],[31.361425,1.738189],[31.549215,1.757854],[31.645203,1.921034],[31.539616,2.065017],[31.545909,2.277794],[31.345673,2.179558],[31.280096,2.151441],[31.242826,2.051168],[31.075539,1.840649]]]},"properties":{"LOCATION_TYPE":"level1","ADM0_A3":"UGA","LOCATION_ID":"UGA-419","NAME":"Buliisa","TYPE_EN":"County"}},
{"type":"Feature","geometry":{"type":"Polygon","coordinates":[[[30.553704,1.335632],[30.548141,1.074198],[30.675494,1.054325],[31.209909,1.219512],[31.290525,1.213518],[31.513767,1.361313],[31.446381,1.408131],[31.429224,1.598042],[31.361425,1.738189],[31.326968,1.821],[31.075539,1.840649],[30.681724,1.500349],[30.553704,1.335632]]]},"properties":{"LOCATION_TYPE":"level1","ADM0_A3":"UGA","LOCATION_ID":"UGA-403","NAME":"Hoima","TYPE_EN":"District"}},
{"type":"Feature","geometry":{"type":"Polygon","coordinates":[[[30.553704,1.335632],[30.445562,1.212795],[30.238857,1.136004],[30.183483,0.954602],[30.252035,0.852972],[30.170386,0.714685],[30.357593,0.818843],[30.52716,0.985935],[30.548141,1.074198],[30.553704,1.335632]]]},"properties":{"LOCATION_TYPE":"level1","ADM0_A3":"UGA","LOCATION_ID":"UGA-423","NAME":"Ntoroko","TYPE_EN":"District"}},
{"type":"Feature","geometry":{"type":"Polygon","coordinates":[[[30.183483,0.954602],[29.928281,0.785018],[29.940477,0.498317],[29.903909,0.438229],[29.998097,0.433566],[30.170386,0.714685],[30.252035,0.852972],[30.183483,0.954602]]]},"properties":{"LOCATION_TYPE":"level1","ADM0_A3":"UGA","LOCATION_ID":"UGA-401","NAME":"Bundibugyo","TYPE_EN":"District"}},
{"type":"Feature","geometry":{"type":"Polygon","coordinates":[[[29.832628,0.336983],[30.059315,0.367501],[30.26871,0.263489],[30.361796,0.227635],[30.376265,0.485345],[30.428148,0.541208],[30.440654,0.761969],[30.54535,0.929504],[30.52716,0.985935],[30.357593,0.818843],[30.170386,0.714685],[29.998097,0.433566],[29.903909,0.438229],[29.832628,0.336983]]]},"properties":{"LOCATION_TYPE":"level1","ADM0_A3":"UGA","LOCATION_ID":"UGA-405","NAME":"Kabarole","TYPE_EN":"District"}},
{"type":"Feature","geometry":{"type":"Polygon","coordinates":[[[29.832628,0.336983],[29.800641,0.172445],[29.711809,0.099582],[29.681262,-0.137897],[30.004369,-0.174108],[30.20656,-0.079271],[30.26871,0.263489],[30.059315,0.367501],[29.832628,0.336983]]]},"properties":{"LOCATION_TYPE":"level1","ADM0_A3":"UGA","LOCATION_ID":"UGA-406","NAME":"Kasese","TYPE_EN":"District"}},
{"type":"Feature","geometry":{"type":"Polygon","coordinates":[[[29.643858,-0.357993],[29.914101,-0.401741],[30.023993,-0.35072],[30.137809,-0.41744],[30.145659,-0.307548],[30.323373,-0.211648],[30.249658,-0.119889],[30.20656,-0.079271],[30.004369,-0.174108],[29.681262,-0.137897],[29.643858,-0.357993]]]},"properties":{"LOCATION_TYPE":"level1","ADM0_A3":"UGA","LOCATION_ID":"UGA-424","NAME":"Rubirizi","TYPE_EN":"District"}},
{"type":"Feature","geometry":{"type":"Polygon","coordinates":[[[29.629385,-0.442401],[29.710053,-0.432325],[29.727209,-0.60973],[29.839531,-0.75889],[29.830252,-0.923974],[29.900118,-1.044122],[30.068377,-1.086703],[30.058248,-0.760005],[29.913348,-0.621564],[29.942596,-0.505033],[29.914101,-0.401741],[29.643858,-0.357993],[29.629385,-0.442401]]]},"properties":{"LOCATION_TYPE":"level1","ADM0_A3":"UGA","LOCATION_ID":"UGA-412","NAME":"Rukungiri","TYPE_EN":"District"}},
{"type":"Feature","geometry":{"type":"Polygon","coordinates":[[[29.551518,-0.990305],[29.754598,-1.075645],[29.900118,-1.044122],[29.830252,-0.923974],[29.839531,-0.75889],[29.727209,-0.60973],[29.710053,-0.432325],[29.629385,-0.442401],[29.610781,-0.863977],[29.551518,-0.990305]]]},"properties":{"LOCATION_TYPE":"level1","ADM0_A3":"UGA","LOCATION_ID":"UGA-414","NAME":"Kanungu","TYPE_EN":"District"}},
{"type":"Feature","geometry":{"type":"Polygon","coordinates":[[[33.297224,0.943715],[33.133887,1.055014],[33.113627,1.13895],[32.961327,1.181685],[32.936109,1.082673],[33.04897,0.663164],[33.221259,0.671846],[33.297224,0.943715]]]},"properties":{"LOCATION_TYPE":"level1","ADM0_A3":"UGA","LOCATION_ID":"UGA-205","NAME":"Kamuli","TYPE_EN":"District"}},
{"type":"Feature","geometry":{"type":"Polygon","coordinates":[[[33.221259,0.671846],[33.517055,0.547512],[33.513043,0.667176],[33.420425,0.727956],[33.427345,0.87142],[33.338772,1.079263],[33.297224,0.943715],[33.221259,0.671846]]]},"properties":{"LOCATION_TYPE":"level1","ADM0_A3":"UGA","LOCATION_ID":"UGA-229","NAME":"Luuka","TYPE_EN":"District"}},
{"type":"Feature","geometry":{"type":"Polygon","coordinates":[[[33.338772,1.079263],[33.442538,1.28757],[33.405021,1.335526],[33.208033,1.368871],[32.964221,1.473554],[32.811362,1.475207],[32.961327,1.181685],[33.113627,1.13895],[33.133887,1.055014],[33.297224,0.943715],[33.338772,1.079263]]]},"properties":{"LOCATION_TYPE":"level1","ADM0_A3":"UGA","LOCATION_ID":"UGA-226","NAME":"Buyende","TYPE_EN":"District"}},
{"type":"Feature","geometry":{"type":"Polygon","coordinates":[[[33.221259,0.671846],[33.04897,0.663164],[33.09858,0.544205],[33.272855,0.350246],[33.387037,0.302617],[33.504254,0.346865],[33.565734,0.45067],[33.517055,0.547512],[33.221259,0.671846]]]},"properties":{"LOCATION_TYPE":"level1","ADM0_A3":"UGA","LOCATION_ID":"UGA-204","NAME":"Jinja","TYPE_EN":"District"}},
{"type":"Feature","geometry":{"type":"Polygon","coordinates":[[[32.302866,1.648582],[32.594734,1.651889],[32.773328,1.801544],[32.888256,1.808159],[32.989336,1.715451],[33.02472,1.817389],[32.868206,1.949881],[32.88805,2.074706],[32.812809,2.106745],[32.549731,2.180344],[32.470703,2.050619],[32.346791,2.072664],[32.34152,1.867897],[32.162823,1.778212],[32.101534,1.665635],[32.104222,1.647807],[32.302866,1.648582]]]},"properties":{"LOCATION_TYPE":"level1","ADM0_A3":"UGA","LOCATION_ID":"UGA-302","NAME":"Apac","TYPE_EN":"District"}},
{"type":"Feature","geometry":{"type":"Polygon","coordinates":[[[32.302866,1.648582],[32.104222,1.647807],[31.959528,1.475931],[32.081587,1.412963],[32.406012,1.090425],[32.62394,0.96805],[32.6399,1.135797],[32.780253,1.081226],[32.776222,1.330927],[32.687959,1.470531],[32.302866,1.648582]]]},"properties":{"LOCATION_TYPE":"level1","ADM0_A3":"UGA","LOCATION_ID":"UGA-109","NAME":"Nakasongola","TYPE_EN":"District"}},
{"type":"Feature","geometry":{"type":"Polygon","coordinates":[[[32.104222,1.647807],[32.101534,1.665635],[31.904372,1.690662],[31.875575,1.964229],[31.75079,2.060217],[31.755406,2.298284],[31.545909,2.277794],[31.539616,2.065017],[31.645203,1.921034],[31.549215,1.757854],[31.361425,1.738189],[31.429224,1.598042],[31.446381,1.408131],[31.513767,1.361313],[31.760883,1.323589],[31.822275,1.357075],[31.959528,1.475931],[32.104222,1.647807]]]},"properties":{"LOCATION_TYPE":"level1","ADM0_A3":"UGA","LOCATION_ID":"UGA-409","NAME":"Masindi","TYPE_EN":"District"}},
{"type":"Feature","geometry":{"type":"Polygon","coordinates":[[[32.780253,1.081226],[32.792655,0.845272],[32.858594,0.723419],[33.031641,0.586999],[33.09858,0.544205],[33.04897,0.663164],[32.936109,1.082673],[32.961327,1.181685],[32.811362,1.475207],[32.687959,1.470531],[32.776222,1.330927],[32.780253,1.081226]]]},"properties":{"LOCATION_TYPE":"level1","ADM0_A3":"UGA","LOCATION_ID":"UGA-112","NAME":"Kayunga","TYPE_EN":"District"}},
{"type":"Feature","geometry":{"type":"Polygon","coordinates":[[[32.780253,1.081226],[32.6399,1.135797],[32.62394,0.96805],[32.406012,1.090425],[32.463112,0.866061],[32.454795,0.653345],[32.330358,0.546117],[32.670182,0.556452],[32.753387,0.587555],[32.792655,0.845272],[32.780253,1.081226]]]},"properties":{"LOCATION_TYPE":"level1","ADM0_A3":"UGA","LOCATION_ID":"UGA-104","NAME":"Luweero","TYPE_EN":"County"}},
{"type":"Feature","geometry":{"type":"Polygon","coordinates":[[[32.989336,1.715451],[32.888256,1.808159],[32.773328,1.801544],[32.594734,1.651889],[32.302866,1.648582],[32.687959,1.470531],[32.811362,1.475207],[32.964221,1.473554],[32.943344,1.645585],[32.989336,1.715451]]]},"properties":{"LOCATION_TYPE":"level1","ADM0_A3":"UGA","LOCATION_ID":"UGA-314","NAME":"Amolatar","TYPE_EN":"County"}},
{"type":"Feature","geometry":{"type":"Polygon","coordinates":[[[32.1837,0.702438],[32.071872,0.635775],[31.95343,0.648488],[31.90227,0.59614],[31.969036,0.425556],[31.948798,0.295708],[31.821448,0.283032],[31.911469,0.220969],[32.141281,0.255768],[32.264744,0.267244],[32.263059,0.434573],[32.222664,0.574125],[32.1837,0.702438]]]},"properties":{"LOCATION_TYPE":"level1","ADM0_A3":"UGA","LOCATION_ID":"UGA-114","NAME":"Mityana","TYPE_EN":"County"}},
{"type":"Feature","geometry":{"type":"Polygon","coordinates":[[[32.1837,0.702438],[32.219202,0.808053],[32.043243,0.909557],[31.952989,1.103925],[31.674665,0.866061],[31.835493,0.803299],[31.95343,0.648488],[32.071872,0.635775],[32.1837,0.702438]]]},"properties":{"LOCATION_TYPE":"level1","ADM0_A3":"UGA","LOCATION_ID":"UGA-103","NAME":"Kiboga","TYPE_EN":"District"}},
{"type":"Feature","geometry":{"type":"Polygon","coordinates":[[[32.264744,0.267244],[32.128119,0.127773],[32.02565,0.116387],[31.855785,-0.007351],[31.935653,-0.126762],[32.248192,-0.158388],[32.226901,0.04961],[32.423685,0.264842],[32.368969,0.434573],[32.263059,0.434573],[32.264744,0.267244]]]},"properties":{"LOCATION_TYPE":"level1","ADM0_A3":"UGA","LOCATION_ID":"UGA-106","NAME":"Mpigi","TYPE_EN":"District"}},
{"type":"Feature","geometry":{"type":"Polygon","coordinates":[[[32.264744,0.267244],[32.141281,0.255768],[31.793479,0.050107],[31.855785,-0.007351],[32.02565,0.116387],[32.128119,0.127773],[32.264744,0.267244]]]},"properties":{"LOCATION_TYPE":"level1","ADM0_A3":"UGA","LOCATION_ID":"UGA-119","NAME":"Butambala","TYPE_EN":"District"}},
{"type":"Feature","geometry":{"type":"Polygon","coordinates":[[[31.821448,0.283032],[31.574952,0.337551],[31.336831,0.253013],[31.33476,0.200557],[31.591798,0.049351],[31.648849,0.047129],[31.793479,0.050107],[32.141281,0.255768],[31.911469,0.220969],[31.821448,0.283032]]]},"properties":{"LOCATION_TYPE":"level1","ADM0_A3":"UGA","LOCATION_ID":"UGA-121","NAME":"Gomba","TYPE_EN":"District"}},
{"type":"Feature","geometry":{"type":"Polygon","coordinates":[[[32.263059,0.434573],[32.368969,0.434573],[32.423685,0.264842],[32.226901,0.04961],[32.248192,-0.158388],[32.493138,-0.163091],[32.621709,0.002377],[32.664187,0.287631],[32.547295,0.27373],[32.535823,0.442557],[32.659537,0.50369],[32.670182,0.556452],[32.330358,0.546117],[32.222664,0.574125],[32.263059,0.434573]]]},"properties":{"LOCATION_TYPE":"level1","ADM0_A3":"UGA","LOCATION_ID":"UGA-113","NAME":"Wakiso","TYPE_EN":"District"}},
{"type":"Feature","geometry":{"type":"Polygon","coordinates":[[[32.1837,0.702438],[32.222664,0.574125],[32.330358,0.546117],[32.454795,0.653345],[32.463112,0.866061],[32.406012,1.090425],[32.081587,1.412963],[31.959528,1.475931],[31.822275,1.357075],[31.932854,1.221381],[31.952989,1.103925],[32.043243,0.909557],[32.219202,0.808053],[32.1837,0.702438]]]},"properties":{"LOCATION_TYPE":"level1","ADM0_A3":"UGA","LOCATION_ID":"UGA-115","NAME":"Nakaseke","TYPE_EN":"District"}},
{"type":"Feature","geometry":{"type":"Polygon","coordinates":[[[31.822275,1.357075],[31.760883,1.323589],[31.513767,1.361313],[31.290525,1.213518],[31.521311,1.027379],[31.438112,0.861498],[31.674665,0.866061],[31.952989,1.103925],[31.932854,1.221381],[31.822275,1.357075]]]},"properties":{"LOCATION_TYPE":"level1","ADM0_A3":"UGA","LOCATION_ID":"UGA-123","NAME":"Kyankwanzi","TYPE_EN":"District"}},
{"type":"Feature","geometry":{"type":"Polygon","coordinates":[[[32.964221,1.473554],[33.208033,1.368871],[33.254807,1.699213],[33.354202,1.716753],[33.443778,1.88743],[33.371224,2.019309],[33.291229,2.039462],[33.24038,1.903889],[33.129069,1.833222],[33.094549,1.717053],[32.989336,1.715451],[32.943344,1.645585],[32.964221,1.473554]]]},"properties":{"LOCATION_TYPE":"level1","ADM0_A3":"UGA","LOCATION_ID":"UGA-213","NAME":"Kaberamaido","TYPE_EN":"District"}},
{"type":"Feature","geometry":{"type":"Polygon","coordinates":[[[32.88805,2.074706],[32.868206,1.949881],[33.02472,1.817389],[32.989336,1.715451],[33.094549,1.717053],[33.129069,1.833222],[33.24038,1.903889],[33.291229,2.039462],[33.173407,2.111499],[33.085867,2.066282],[32.88805,2.074706]]]},"properties":{"LOCATION_TYPE":"level1","ADM0_A3":"UGA","LOCATION_ID":"UGA-318","NAME":"Dokolo","TYPE_EN":"County"}},
{"type":"Feature","geometry":{"type":"Polygon","coordinates":[[[30.54535,0.929504],[30.440654,0.761969],[30.428148,0.541208],[30.52375,0.430827],[30.550394,0.297457],[30.780625,0.419445],[30.883714,0.414291],[30.95244,0.57236],[30.937264,0.697839],[30.818925,0.83566],[30.54535,0.929504]]]},"properties":{"LOCATION_TYPE":"level1","ADM0_A3":"UGA","LOCATION_ID":"UGA-415","NAME":"Kyenjojo","TYPE_EN":"District"}},
{"type":"Feature","geometry":{"type":"Polygon","coordinates":[[[30.428148,0.541208],[30.376265,0.485345],[30.361796,0.227635],[30.26871,0.263489],[30.20656,-0.079271],[30.249658,-0.119889],[30.416469,-0.172754],[30.400689,-0.028337],[30.474864,0.100356],[30.644097,0.163417],[30.852787,0.185778],[30.919795,0.283712],[30.883714,0.414291],[30.780625,0.419445],[30.550394,0.297457],[30.52375,0.430827],[30.428148,0.541208]]]},"properties":{"LOCATION_TYPE":"level1","ADM0_A3":"UGA","LOCATION_ID":"UGA-413","NAME":"Kamwenge","TYPE_EN":"District"}},
{"type":"Feature","geometry":{"type":"Polygon","coordinates":[[[31.008785,0.206706],[31.1264,0.344837],[31.214353,0.622391],[30.937264,0.697839],[30.95244,0.57236],[30.883714,0.414291],[30.919795,0.283712],[30.852787,0.185778],[31.000723,0.202314],[31.008785,0.206706]]]},"properties":{"LOCATION_TYPE":"level1","ADM0_A3":"UGA","LOCATION_ID":"UGA-421","NAME":"Kyegegwa","TYPE_EN":"District"}},
{"type":"Feature","geometry":{"type":"Polygon","coordinates":[[[31.000723,0.202314],[31.077618,-0.044441],[31.309025,-0.100407],[31.278226,-0.260862],[31.46054,-0.314916],[31.607235,-0.262178],[31.550354,0.018294],[31.591798,0.049351],[31.33476,0.200557],[31.008785,0.206706],[31.000723,0.202314]]]},"properties":{"LOCATION_TYPE":"level1","ADM0_A3":"UGA","LOCATION_ID":"UGA-111","NAME":"Sembabule","TYPE_EN":"District"}},
{"type":"Feature","geometry":{"type":"Polygon","coordinates":[[[31.438112,0.861498],[31.521311,1.027379],[31.290525,1.213518],[31.209909,1.219512],[30.675494,1.054325],[30.548141,1.074198],[30.52716,0.985935],[30.54535,0.929504],[30.818925,0.83566],[30.937264,0.697839],[31.214353,0.622391],[31.364318,0.698821],[31.438112,0.861498]]]},"properties":{"LOCATION_TYPE":"level1","ADM0_A3":"UGA","LOCATION_ID":"UGA-407","NAME":"Kibale","TYPE_EN":"District"}},
{"type":"Feature","geometry":{"type":"Polygon","coordinates":[[[31.438112,0.861498],[31.364318,0.698821],[31.214353,0.622391],[31.1264,0.344837],[31.008785,0.206706],[31.33476,0.200557],[31.336831,0.253013],[31.574952,0.337551],[31.821448,0.283032],[31.948798,0.295708],[31.969036,0.425556],[31.90227,0.59614],[31.95343,0.648488],[31.835493,0.803299],[31.674665,0.866061],[31.438112,0.861498]]]},"properties":{"LOCATION_TYPE":"level1","ADM0_A3":"UGA","LOCATION_ID":"UGA-107","NAME":"Mubende","TYPE_EN":"District"}},
{"type":"Feature","geometry":{"type":"Polygon","coordinates":[[[32.811052,2.474862],[32.775292,2.578603],[32.663671,2.603821],[32.486007,2.607955],[32.362397,2.469617],[32.241991,2.460496],[32.260078,2.256839],[32.346791,2.072664],[32.470703,2.050619],[32.549731,2.180344],[32.581712,2.363654],[32.690439,2.463416],[32.811052,2.474862]]]},"properties":{"LOCATION_TYPE":"level1","ADM0_A3":"UGA","LOCATION_ID":"UGA-321","NAME":"Oyam","TYPE_EN":"County"}},
{"type":"Feature","geometry":{"type":"Polygon","coordinates":[[[32.811052,2.474862],[32.760756,2.342356],[32.827692,2.227022],[32.812809,2.106745],[32.88805,2.074706],[33.085867,2.066282],[33.079404,2.222497],[32.982932,2.307275],[32.965392,2.453444],[33.014657,2.533231],[32.822214,2.63772],[32.775292,2.578603],[32.811052,2.474862]]]},"properties":{"LOCATION_TYPE":"level1","ADM0_A3":"UGA","LOCATION_ID":"UGA-307","NAME":"Lira","TYPE_EN":"District"}},
{"type":"Feature","geometry":{"type":"Polygon","coordinates":[[[32.811052,2.474862],[32.690439,2.463416],[32.581712,2.363654],[32.549731,2.180344],[32.812809,2.106745],[32.827692,2.227022],[32.760756,2.342356],[32.811052,2.474862]]]},"properties":{"LOCATION_TYPE":"level1","ADM0_A3":"UGA","LOCATION_ID":"UGA-326","NAME":"Kole","TYPE_EN":"District"}},
{"type":"Feature","geometry":{"type":"Polygon","coordinates":[[[32.775292,2.578603],[32.822214,2.63772],[33.014657,2.533231],[33.128655,2.611831],[33.210956,2.745782],[33.228496,2.883181],[33.155412,3.017656],[33.064514,3.132503],[32.782837,3.179935],[32.515153,3.135804],[32.638763,2.842333],[32.7324,2.732082],[32.663671,2.603821],[32.775292,2.578603]]]},"properties":{"LOCATION_TYPE":"level1","ADM0_A3":"UGA","LOCATION_ID":"UGA-312","NAME":"Pader","TYPE_EN":"District"}},
{"type":"Feature","geometry":{"type":"Polygon","coordinates":[[[30.621521,-0.227221],[30.585226,-0.138786],[30.734365,0.120245],[30.644097,0.163417],[30.474864,0.100356],[30.400689,-0.028337],[30.416469,-0.172754],[30.249658,-0.119889],[30.323373,-0.211648],[30.503596,-0.255901],[30.621521,-0.227221]]]},"properties":{"LOCATION_TYPE":"level1","ADM0_A3":"UGA","LOCATION_ID":"UGA-416","NAME":"Ibanda","TYPE_EN":"County"}},
{"type":"Feature","geometry":{"type":"Polygon","coordinates":[[[30.503596,-0.255901],[30.470006,-0.445967],[30.425151,-0.630297],[30.272706,-0.754941],[30.456157,-0.82336],[30.589999,-0.805687],[30.647463,-0.612055],[30.765182,-0.605027],[30.809727,-0.497747],[30.675265,-0.386849],[30.621521,-0.227221],[30.503596,-0.255901]]]},"properties":{"LOCATION_TYPE":"level1","ADM0_A3":"UGA","LOCATION_ID":"UGA-410","NAME":"Mbarara","TYPE_EN":"County"}},
{"type":"Feature","geometry":{"type":"Polygon","coordinates":[[[32.515153,3.135804],[32.357445,3.286692],[32.1787,3.053209],[32.201083,2.729453],[32.362397,2.469617],[32.486007,2.607955],[32.663671,2.603821],[32.7324,2.732082],[32.638763,2.842333],[32.515153,3.135804]]]},"properties":{"LOCATION_TYPE":"level1","ADM0_A3":"UGA","LOCATION_ID":"UGA-304","NAME":"Gulu","TYPE_EN":"County"}},
{"type":"Feature","geometry":{"type":"Polygon","coordinates":[[[32.346791,2.072664],[32.260078,2.256839],[32.179876,2.230614],[31.91984,2.359727],[31.755406,2.298284],[31.75079,2.060217],[31.875575,1.964229],[31.904372,1.690662],[32.101534,1.665635],[32.162823,1.778212],[32.34152,1.867897],[32.346791,2.072664]]]},"properties":{"LOCATION_TYPE":"level1","ADM0_A3":"UGA","LOCATION_ID":"UGA-420","NAME":"Kiryandongo","TYPE_EN":"District"}},
{"type":"Feature","geometry":{"type":"Polygon","coordinates":[[[33.565734,0.45067],[33.608833,0.442247],[33.661543,0.600067],[33.630537,0.732927],[33.531835,0.880928],[33.427345,0.87142],[33.420425,0.727956],[33.513043,0.667176],[33.517055,0.547512],[33.565734,0.45067]]]},"properties":{"LOCATION_TYPE":"level1","ADM0_A3":"UGA","LOCATION_ID":"UGA-203","NAME":"Iganga","TYPE_EN":"District"}},
{"type":"Feature","geometry":{"type":"Polygon","coordinates":[[[31.278226,-0.260862],[31.236988,-0.464106],[31.459224,-0.603741],[31.621467,-0.469962],[31.618621,-0.378879],[31.721089,-0.262178],[31.607235,-0.262178],[31.46054,-0.314916],[31.278226,-0.260862]]]},"properties":{"LOCATION_TYPE":"level1","ADM0_A3":"UGA","LOCATION_ID":"UGA-124","NAME":"Lwengo","TYPE_EN":"District"}},
{"type":"Feature","geometry":{"type":"Polygon","coordinates":[[[31.607235,-0.262178],[31.721089,-0.262178],[31.755246,-0.205251],[31.648849,0.047129],[31.591798,0.049351],[31.550354,0.018294],[31.607235,-0.262178]]]},"properties":{"LOCATION_TYPE":"level1","ADM0_A3":"UGA","LOCATION_ID":"UGA-118","NAME":"Bukomansimbi","TYPE_EN":"District"}},
{"type":"Feature","geometry":{"type":"Polygon","coordinates":[[[31.855785,-0.007351],[31.793479,0.050107],[31.648849,0.047129],[31.755246,-0.205251],[31.721089,-0.262178],[31.974514,-0.230425],[31.935653,-0.126762],[31.855785,-0.007351]]]},"properties":{"LOCATION_TYPE":"level1","ADM0_A3":"UGA","LOCATION_ID":"UGA-122","NAME":"Kalungu","TYPE_EN":"District"}},
{"type":"Feature","geometry":{"type":"Polygon","coordinates":[[[32.659537,0.50369],[32.535823,0.442557],[32.547295,0.27373],[32.664187,0.287631],[32.659537,0.50369]]]},"properties":{"LOCATION_TYPE":"level1","ADM0_A3":"UGA","LOCATION_ID":"UGA-102","NAME":"Kampala","TYPE_EN":"District"}},
{"type":"Feature","geometry":{"type":"Polygon","coordinates":[[[33.531835,0.880928],[33.632914,1.087634],[33.442538,1.28757],[33.338772,1.079263],[33.427345,0.87142],[33.531835,0.880928]]]},"properties":{"LOCATION_TYPE":"level1","ADM0_A3":"UGA","LOCATION_ID":"UGA-220","NAME":"Kaliro","TYPE_EN":"County"}},
{"type":"Feature","geometry":{"type":"Polygon","coordinates":[[[33.550025,3.268741],[33.389311,3.299489],[33.360048,3.195982],[33.214314,3.188023],[33.155412,3.017656],[33.228496,2.883181],[33.210956,2.745782],[33.128655,2.611831],[33.432099,2.629349],[33.534212,2.596431],[33.603768,2.783345],[33.555044,3.195722],[33.550025,3.268741]]]},"properties":{"LOCATION_TYPE":"level1","ADM0_A3":"UGA","LOCATION_ID":"UGA-322","NAME":"Agago","TYPE_EN":"District"}},
{"type":"Feature","geometry":{"type":"Polygon","coordinates":[[[33.555044,3.195722],[33.678697,3.178442],[33.670534,3.053922],[33.842406,2.932878],[33.847371,2.668545],[33.950621,2.616895],[34.011315,2.756133],[34.226056,2.724537],[34.251687,2.832773],[34.386253,3.081673],[34.157636,3.197066],[33.906179,3.243678],[33.743398,3.353129],[33.681386,3.25143],[33.550025,3.268741],[33.555044,3.195722]]]},"properties":{"LOCATION_TYPE":"level1","ADM0_A3":"UGA","LOCATION_ID":"UGA-306","NAME":"Kotido","TYPE_EN":"County"}},
{"type":"Feature","geometry":{"type":"Polygon","coordinates":[[[33.555044,3.195722],[33.603768,2.783345],[33.534212,2.596431],[33.651207,2.45644],[33.771717,2.50114],[34.006121,2.502432],[33.950621,2.616895],[33.847371,2.668545],[33.842406,2.932878],[33.670534,3.053922],[33.678697,3.178442],[33.555044,3.195722]]]},"properties":{"LOCATION_TYPE":"level1","ADM0_A3":"UGA","LOCATION_ID":"UGA-317","NAME":"Abim","TYPE_EN":"County"}},
{"type":"Feature","geometry":{"type":"Polygon","coordinates":[[[33.014657,2.533231],[32.965392,2.453444],[33.170029,2.441751],[33.392205,2.339433],[33.546097,2.355929],[33.637771,2.360373],[33.651207,2.45644],[33.534212,2.596431],[33.432099,2.629349],[33.128655,2.611831],[33.014657,2.533231]]]},"properties":{"LOCATION_TYPE":"level1","ADM0_A3":"UGA","LOCATION_ID":"UGA-330","NAME":"Otuke","TYPE_EN":"District"}},
{"type":"Feature","geometry":{"type":"Polygon","coordinates":[[[33.371224,2.019309],[33.470753,2.128346],[33.546097,2.355929],[33.392205,2.339433],[33.170029,2.441751],[32.965392,2.453444],[32.982932,2.307275],[33.079404,2.222497],[33.085867,2.066282],[33.173407,2.111499],[33.291229,2.039462],[33.371224,2.019309]]]},"properties":{"LOCATION_TYPE":"level1","ADM0_A3":"UGA","LOCATION_ID":"UGA-323","NAME":"Alebtong","TYPE_EN":"District"}},
{"type":"Feature","geometry":{"type":"Polygon","coordinates":[[[33.443778,1.88743],[33.530905,2.012927],[33.781639,1.774001],[33.809027,1.70832],[33.869902,1.771313],[33.905662,2.304304],[33.723658,2.412876],[33.637771,2.360373],[33.546097,2.355929],[33.470753,2.128346],[33.371224,2.019309],[33.443778,1.88743]]]},"properties":{"LOCATION_TYPE":"level1","ADM0_A3":"UGA","LOCATION_ID":"UGA-216","NAME":"Amuria","TYPE_EN":"District"}},
{"type":"Feature","geometry":{"type":"Polygon","coordinates":[[[33.809027,1.70832],[33.810577,1.668271],[33.895844,1.638453],[34.21169,1.63127],[34.211845,1.954638],[34.202905,2.11137],[33.905662,2.304304],[33.869902,1.771313],[33.809027,1.70832]]]},"properties":{"LOCATION_TYPE":"level1","ADM0_A3":"UGA","LOCATION_ID":"UGA-207","NAME":"Katakwi","TYPE_EN":"County"}},
{"type":"Feature","geometry":{"type":"Polygon","coordinates":[[[33.405021,1.335526],[33.559327,1.3301],[33.666917,1.413144],[33.715394,1.591655],[33.579302,1.567661],[33.354202,1.716753],[33.254807,1.699213],[33.208033,1.368871],[33.405021,1.335526]]]},"properties":{"LOCATION_TYPE":"level1","ADM0_A3":"UGA","LOCATION_ID":"UGA-232","NAME":"Serere","TYPE_EN":"District"}},
{"type":"Feature","geometry":{"type":"Polygon","coordinates":[[[33.354202,1.716753],[33.579302,1.567661],[33.715394,1.591655],[33.810577,1.668271],[33.809027,1.70832],[33.781639,1.774001],[33.530905,2.012927],[33.443778,1.88743],[33.354202,1.716753]]]},"properties":{"LOCATION_TYPE":"level1","ADM0_A3":"UGA","LOCATION_ID":"UGA-211","NAME":"Soroti","TYPE_EN":"District"}},
{"type":"Feature","geometry":{"type":"Polygon","coordinates":[[[33.442538,1.28757],[33.632914,1.087634],[33.903776,1.167893],[34.129834,1.114506],[34.116502,1.177861],[33.926643,1.246177],[33.789183,1.313564],[33.559327,1.3301],[33.405021,1.335526],[33.442538,1.28757]]]},"properties":{"LOCATION_TYPE":"level1","ADM0_A3":"UGA","LOCATION_ID":"UGA-210","NAME":"Pallisa","TYPE_EN":"District"}},
{"type":"Feature","geometry":{"type":"Polygon","coordinates":[[[30.644097,0.163417],[30.734365,0.120245],[30.585226,-0.138786],[30.621521,-0.227221],[30.675265,-0.386849],[30.809727,-0.497747],[30.765182,-0.605027],[30.865331,-0.695099],[31.07493,-0.652725],[31.134777,-0.528415],[31.065525,-0.276262],[31.077618,-0.044441],[31.000723,0.202314],[30.852787,0.185778],[30.644097,0.163417]]]},"properties":{"LOCATION_TYPE":"level1","ADM0_A3":"UGA","LOCATION_ID":"UGA-410","NAME":"Mbarara","TYPE_EN":"District"}},
{"type":"Feature","geometry":{"type":"Polygon","coordinates":[[[31.278226,-0.260862],[31.309025,-0.100407],[31.077618,-0.044441],[31.065525,-0.276262],[31.134777,-0.528415],[31.236988,-0.464106],[31.278226,-0.260862]]]},"properties":{"LOCATION_TYPE":"level1","ADM0_A3":"UGA","LOCATION_ID":"UGA-116","NAME":"Lyantonde","TYPE_EN":"District"}},
{"type":"Feature","geometry":{"type":"Polygon","coordinates":[[[31.621467,-0.469962],[31.751892,-0.731945],[31.986193,-0.773906],[31.974514,-0.230425],[31.721089,-0.262178],[31.618621,-0.378879],[31.621467,-0.469962]]]},"properties":{"LOCATION_TYPE":"level1","ADM0_A3":"UGA","LOCATION_ID":"UGA-105","NAME":"Masaka","TYPE_EN":"District"}},
{"type":"Feature","geometry":{"type":"Polygon","coordinates":[[[32.792655,0.845272],[32.753387,0.587555],[32.670182,0.556452],[32.659537,0.50369],[32.664187,0.287631],[32.621709,0.002377],[32.493138,-0.163091],[32.605022,-0.163091],[33.020544,0.359973],[32.985018,0.510154],[33.031641,0.586999],[32.858594,0.723419],[32.792655,0.845272]]]},"properties":{"LOCATION_TYPE":"level1","ADM0_A3":"UGA","LOCATION_ID":"UGA-108","NAME":"Mukono","TYPE_EN":"District"}},
{"type":"Feature","geometry":{"type":"Polygon","coordinates":[[[33.031641,0.586999],[32.985018,0.510154],[33.020544,0.359973],[32.605022,-0.163091],[32.847225,-0.163091],[32.847225,-0.462103],[33.013764,-0.146987],[33.078298,0.09101],[33.272855,0.350246],[33.09858,0.544205],[33.031641,0.586999]]]},"properties":{"LOCATION_TYPE":"level1","ADM0_A3":"UGA","LOCATION_ID":"UGA-117","NAME":"Buikwe","TYPE_EN":"District"}},
{"type":"Feature","geometry":{"type":"Polygon","coordinates":[[[34.377675,1.557218],[34.502835,1.591841],[34.637275,1.540857],[34.788821,1.681064],[34.841614,2.113011],[34.754633,2.484144],[34.635239,2.477767],[34.63044,2.12261],[34.448062,2.069816],[34.308879,1.964229],[34.211845,1.954638],[34.21169,1.63127],[34.229673,1.555719],[34.377675,1.557218]]]},"properties":{"LOCATION_TYPE":"level1","ADM0_A3":"UGA","LOCATION_ID":"UGA-311","NAME":"Nakapiripirit","TYPE_EN":"District"}},
{"type":"Feature","geometry":{"type":"Polygon","coordinates":[[[34.637275,1.540857],[34.502835,1.591841],[34.377675,1.557218],[34.433175,1.445623],[34.566575,1.373389],[34.548414,1.200392],[34.7422,1.419449],[34.637275,1.540857]]]},"properties":{"LOCATION_TYPE":"level1","ADM0_A3":"UGA","LOCATION_ID":"UGA-228","NAME":"Kween","TYPE_EN":"District"}},
{"type":"Feature","geometry":{"type":"Polygon","coordinates":[[[30.323373,-0.211648],[30.145659,-0.307548],[30.137809,-0.41744],[30.326195,-0.49201],[30.470006,-0.445967],[30.503596,-0.255901],[30.323373,-0.211648]]]},"properties":{"LOCATION_TYPE":"level1","ADM0_A3":"UGA","LOCATION_ID":"UGA-325","NAME":"Buhweju","TYPE_EN":"District"}},
{"type":"Feature","geometry":{"type":"Polygon","coordinates":[[[30.470006,-0.445967],[30.326195,-0.49201],[30.314421,-0.6176],[30.165282,-0.633299],[30.187336,-0.724813],[30.272706,-0.754941],[30.425151,-0.630297],[30.470006,-0.445967]]]},"properties":{"LOCATION_TYPE":"level1","ADM0_A3":"UGA","LOCATION_ID":"UGA-425","NAME":"Sheema","TYPE_EN":"District"}},
{"type":"Feature","geometry":{"type":"Polygon","coordinates":[[[30.187336,-0.724813],[30.165282,-0.633299],[30.082863,-0.539106],[29.942596,-0.505033],[29.913348,-0.621564],[30.058248,-0.760005],[30.187336,-0.724813]]]},"properties":{"LOCATION_TYPE":"level1","ADM0_A3":"UGA","LOCATION_ID":"UGA-422","NAME":"Mitooma","TYPE_EN":"District"}},
{"type":"Feature","geometry":{"type":"Polygon","coordinates":[[[29.942596,-0.505033],[30.082863,-0.539106],[30.165282,-0.633299],[30.314421,-0.6176],[30.326195,-0.49201],[30.137809,-0.41744],[30.023993,-0.35072],[29.914101,-0.401741],[29.942596,-0.505033]]]},"properties":{"LOCATION_TYPE":"level1","ADM0_A3":"UGA","LOCATION_ID":"UGA-402","NAME":"Bushenyi","TYPE_EN":"District"}},
{"type":"Feature","geometry":{"type":"Polygon","coordinates":[[[34.377675,1.557218],[34.229673,1.555719],[34.268121,1.399656],[34.21417,1.24163],[34.524229,1.162255],[34.328479,1.299973],[34.433175,1.445623],[34.377675,1.557218]]]},"properties":{"LOCATION_TYPE":"level1","ADM0_A3":"UGA","LOCATION_ID":"UGA-225","NAME":"Bulambuli","TYPE_EN":"County"}},
{"type":"Feature","geometry":{"type":"Polygon","coordinates":[[[34.357107,1.086446],[34.507485,1.102518],[34.524229,1.162255],[34.21417,1.24163],[34.156913,1.163185],[34.357107,1.086446]]]},"properties":{"LOCATION_TYPE":"level1","ADM0_A3":"UGA","LOCATION_ID":"UGA-215","NAME":"Sironko","TYPE_EN":"County"}},
{"type":"Feature","geometry":{"type":"Polygon","coordinates":[[[33.630537,0.732927],[33.661543,0.600067],[33.608833,0.442247],[33.684694,0.321686],[33.828997,0.3832],[33.892536,0.473925],[33.957132,0.564152],[33.865148,0.684558],[33.837449,0.689622],[33.630537,0.732927]]]},"properties":{"LOCATION_TYPE":"level1","ADM0_A3":"UGA","LOCATION_ID":"UGA-201","NAME":"Bugiri","TYPE_EN":"District"}},
{"type":"Feature","geometry":{"type":"Polygon","coordinates":[[[32.362397,2.469617],[32.201083,2.729453],[31.984882,2.800338],[31.747414,2.796794],[31.42354,2.617308],[31.4778,2.519175],[31.466948,2.355515],[31.345673,2.179558],[31.545909,2.277794],[31.755406,2.298284],[31.91984,2.359727],[32.179876,2.230614],[32.260078,2.256839],[32.241991,2.460496],[32.362397,2.469617]]]},"properties":{"LOCATION_TYPE":"level1","ADM0_A3":"UGA","LOCATION_ID":"UGA-329","NAME":"Nwoya","TYPE_EN":"District"}},
{"type":"Feature","geometry":{"type":"Polygon","coordinates":[[[34.129834,1.114506],[34.069166,1.034046],[34.084979,0.902322],[34.163734,0.828063],[34.263573,0.999164],[34.357107,1.086446],[34.156913,1.163185],[34.116502,1.177861],[34.129834,1.114506]]]},"properties":{"LOCATION_TYPE":"level1","ADM0_A3":"UGA","LOCATION_ID":"UGA-209","NAME":"Mbale","TYPE_EN":"County"}},
{"type":"Feature","geometry":{"type":"Polygon","coordinates":[[[34.129834,1.114506],[33.903776,1.167893],[33.84365,0.938961],[34.069166,1.034046],[34.129834,1.114506]]]},"properties":{"LOCATION_TYPE":"level1","ADM0_A3":"UGA","LOCATION_ID":"UGA-217","NAME":"Budaka","TYPE_EN":"County"}},
{"type":"Feature","geometry":{"type":"Polygon","coordinates":[[[34.069166,1.034046],[33.84365,0.938961],[33.742881,0.936119],[33.837449,0.689622],[33.865148,0.684558],[33.923439,0.816798],[34.084979,0.902322],[34.069166,1.034046]]]},"properties":{"LOCATION_TYPE":"level1","ADM0_A3":"UGA","LOCATION_ID":"UGA-219","NAME":"Butaleja","TYPE_EN":"County"}},
{"type":"Feature","geometry":{"type":"Polygon","coordinates":[[[33.84365,0.938961],[33.903776,1.167893],[33.632914,1.087634],[33.742881,0.936119],[33.84365,0.938961]]]},"properties":{"LOCATION_TYPE":"level1","ADM0_A3":"UGA","LOCATION_ID":"UGA-227","NAME":"Kibuku","TYPE_EN":"County"}},
{"type":"Feature","geometry":{"type":"Polygon","coordinates":[[[34.251687,2.832773],[34.226056,2.724537],[34.011315,2.756133],[33.950621,2.616895],[34.006121,2.502432],[33.771717,2.50114],[33.651207,2.45644],[33.637771,2.360373],[33.723658,2.412876],[33.905662,2.304304],[34.202905,2.11137],[34.211845,1.954638],[34.308879,1.964229],[34.448062,2.069816],[34.63044,2.12261],[34.635239,2.477767],[34.754633,2.484144],[34.644838,2.640947],[34.438463,2.77533],[34.251687,2.832773]]]},"properties":{"LOCATION_TYPE":"level1","ADM0_A3":"UGA","LOCATION_ID":"UGA-328","NAME":"Napak","TYPE_EN":"District"}},
{"type":"Feature","geometry":{"type":"Polygon","coordinates":[[[34.229673,1.555719],[34.21169,1.63127],[33.895844,1.638453],[33.789183,1.313564],[33.926643,1.246177],[34.002183,1.295243],[34.042703,1.494951],[34.229673,1.555719]]]},"properties":{"LOCATION_TYPE":"level1","ADM0_A3":"UGA","LOCATION_ID":"UGA-208","NAME":"Kumi","TYPE_EN":"District"}},
{"type":"Feature","geometry":{"type":"Polygon","coordinates":[[[33.810577,1.668271],[33.715394,1.591655],[33.666917,1.413144],[33.559327,1.3301],[33.789183,1.313564],[33.895844,1.638453],[33.810577,1.668271]]]},"properties":{"LOCATION_TYPE":"level1","ADM0_A3":"UGA","LOCATION_ID":"UGA-231","NAME":"Ngora","TYPE_EN":"District"}},
{"type":"Feature","geometry":{"type":"Polygon","coordinates":[[[34.116502,1.177861],[34.156913,1.163185],[34.21417,1.24163],[34.268121,1.399656],[34.229673,1.555719],[34.042703,1.494951],[34.002183,1.295243],[33.926643,1.246177],[34.116502,1.177861]]]},"properties":{"LOCATION_TYPE":"level1","ADM0_A3":"UGA","LOCATION_ID":"UGA-224","NAME":"Bukedea","TYPE_EN":"District"}},
{"type":"Feature","geometry":{"type":"Polygon","coordinates":[[[33.630537,0.732927],[33.837449,0.689622],[33.742881,0.936119],[33.632914,1.087634],[33.531835,0.880928],[33.630537,0.732927]]]},"properties":{"LOCATION_TYPE":"level1","ADM0_A3":"UGA","LOCATION_ID":"UGA-222","NAME":"Namutumba","TYPE_EN":"County"}}
]}