{"type":"FeatureCollection", "features": [
{"type":"Feature","geometry":{"type":"Polygon","coordinates":[[[33.400576,52.344343],[33.196506,52.368949],[32.926858,52.246915],[32.725423,52.252083],[32.528433,52.316213],[32.394281,52.326807],[32.339504,52.287249],[32.306741,52.141185],[32.233309,52.080853],[32.095591,52.040726],[31.892037,52.036179],[31.82584,52.104056],[31.649933,52.096847],[31.474854,52.117776],[31.304425,52.097493],[31.252438,52.044499],[31.134823,52.076667],[30.959329,52.074678],[30.940519,52.020082],[30.80306,51.939131],[30.661983,51.819422],[30.613821,51.702918],[30.570309,51.69992],[30.534136,51.553263],[30.584004,51.542256],[30.587879,51.427353],[30.638315,51.33586],[30.554657,51.242507],[30.515895,51.224755],[30.512329,51.01668],[30.624674,51.000221],[30.662863,50.965003],[30.655111,50.891984],[30.780168,50.843564],[30.737638,50.760209],[30.938763,50.747471],[31.083664,50.768736],[31.205207,50.670783],[31.179885,50.587662],[31.275177,50.520767],[31.462917,50.500225],[31.618256,50.518932],[31.748429,50.553194],[31.847441,50.623939],[32.030841,50.504411],[32.011152,50.428085],[32.082052,50.41036],[32.139155,50.350105],[32.223594,50.343232],[32.288293,50.389173],[32.375936,50.408913],[32.503215,50.370182],[32.727284,50.357908],[32.883399,50.401317],[33.009231,50.479994],[33.061528,50.538414],[33.10137,50.660164],[33.163899,50.753595],[33.125141,50.776927],[33.182089,50.97092],[33.064783,51.066289],[32.944532,51.094789],[32.967476,51.182148],[33.018843,51.192483],[33.07362,51.285087],[33.000394,51.378518],[33.110879,51.372007],[33.111654,51.467608],[33.186895,51.515926],[33.151031,51.559282],[33.153202,51.693098],[33.062044,51.792911],[33.160695,51.904222],[33.366263,51.9467],[33.373395,52.047004],[33.449463,52.087544],[33.3304,52.151184],[33.317843,52.209837],[33.400576,52.344343]]]},"properties":{"LOCATION_TYPE":"level1","ADM0_A3":"UKR","LOCATION_ID":"UKR-74","NAME":"Chernihiv","TYPE_EN":"Region"}},
{"type":"Feature","geometry":{"type":"Polygon","coordinates":[[[25.547396,51.919442],[25.351971,51.921483],[25.1833,51.94975],[25.002742,51.910476],[24.721829,51.882338],[24.639767,51.892131],[24.39079,51.880013],[24.296119,51.808131],[24.244132,51.718214],[23.981306,51.586],[23.749692,51.644472],[23.594353,51.604965],[23.614817,51.49722],[23.697602,51.404435],[23.63404,51.339296],[23.742664,51.216255],[23.874749,51.13613],[23.911749,51.00681],[23.979342,50.937512],[24.130237,50.868937],[24.130857,50.839069],[23.969937,50.825168],[23.974278,50.776178],[24.074943,50.690189],[24.108165,50.630287],[24.164706,50.640217],[24.247854,50.581771],[24.379474,50.600943],[24.434251,50.549008],[24.538379,50.511232],[24.45673,50.461365],[24.50422,50.410618],[24.590985,50.417],[24.77299,50.340545],[24.931895,50.370156],[25.063773,50.334499],[25.063463,50.294812],[25.195031,50.369742],[25.093435,50.464982],[25.166971,50.498158],[25.148057,50.552832],[25.270789,50.539629],[25.294973,50.615722],[25.364633,50.658975],[25.440236,50.654273],[25.602861,50.706879],[25.836542,50.636264],[25.867858,50.693366],[25.868323,50.781293],[26.01157,50.895473],[25.988626,50.95875],[26.089757,50.97601],[26.023973,51.073472],[26.056425,51.183853],[25.928888,51.23956],[25.8075,51.332061],[25.821298,51.372524],[25.553975,51.357537],[25.556146,51.535149],[25.602861,51.581916],[25.514546,51.615429],[25.523693,51.72475],[25.628131,51.804487],[25.654848,51.89306],[25.547396,51.919442]]]},"properties":{"LOCATION_TYPE":"level1","ADM0_A3":"UKR","LOCATION_ID":"UKR-07","NAME":"Volyn","TYPE_EN":"Region"}},
{"type":"Feature","geometry":{"type":"Polygon","coordinates":[[[25.547396,51.919442],[25.654848,51.89306],[25.628131,51.804487],[25.523693,51.72475],[25.514546,51.615429],[25.602861,51.581916],[25.556146,51.535149],[25.553975,51.357537],[25.821298,51.372524],[25.8075,51.332061],[25.928888,51.23956],[26.056425,51.183853],[26.023973,51.073472],[26.089757,50.97601],[25.988626,50.95875],[26.01157,50.895473],[25.868323,50.781293],[25.867858,50.693366],[25.836542,50.636264],[25.602861,50.706879],[25.440236,50.654273],[25.364633,50.658975],[25.294973,50.615722],[25.270789,50.539629],[25.148057,50.552832],[25.166971,50.498158],[25.093435,50.464982],[25.195031,50.369742],[25.063463,50.294812],[25.175652,50.293985],[25.207485,50.250111],[25.202317,50.094979],[25.367579,50.013123],[25.467056,50.105211],[25.69283,50.173114],[25.80905,50.17916],[25.947181,50.264529],[26.059061,50.265149],[26.165824,50.242102],[26.233159,50.152288],[26.303439,50.175542],[26.399195,50.248871],[26.464669,50.248458],[26.637372,50.355531],[26.745531,50.466687],[26.909087,50.531541],[26.976421,50.519191],[27.126179,50.581977],[27.192273,50.541205],[27.192428,50.618487],[27.2717,50.737368],[27.227207,50.795453],[27.239919,50.890382],[27.198165,50.990893],[27.294541,51.043655],[27.358155,51.141969],[27.449105,51.227933],[27.418203,51.297722],[27.477941,51.315292],[27.502125,51.44022],[27.666146,51.490191],[27.705161,51.568352],[27.477268,51.623672],[27.388385,51.590728],[27.254026,51.595379],[27.20359,51.655143],[27.177855,51.747075],[27.021585,51.764542],[26.854774,51.749349],[26.665741,51.801387],[26.4456,51.805599],[26.407773,51.850609],[26.175332,51.856707],[26.080764,51.900657],[25.767915,51.928511],[25.547396,51.919442]]]},"properties":{"LOCATION_TYPE":"level1","ADM0_A3":"UKR","LOCATION_ID":"UKR-56","NAME":"Rivne","TYPE_EN":"Region"}},
{"type":"Feature","geometry":{"type":"Polygon","coordinates":[[[29.35326,51.377055],[29.297002,51.373713],[29.221038,51.466963],[29.226515,51.519053],[29.160421,51.603311],[29.043581,51.626178],[28.954594,51.563262],[28.799875,51.532618],[28.703963,51.442623],[28.630893,51.46363],[28.603918,51.553547],[28.488369,51.572021],[28.346879,51.525151],[28.21004,51.651965],[28.070824,51.557629],[27.936051,51.567009],[27.812545,51.602019],[27.787327,51.510914],[27.666146,51.490191],[27.502125,51.44022],[27.477941,51.315292],[27.418203,51.297722],[27.449105,51.227933],[27.358155,51.141969],[27.294541,51.043655],[27.198165,50.990893],[27.239919,50.890382],[27.227207,50.795453],[27.2717,50.737368],[27.192428,50.618487],[27.192273,50.541205],[27.260383,50.490148],[27.228912,50.394883],[27.471895,50.251765],[27.605943,50.206652],[27.645992,50.169109],[27.621188,50.079347],[27.663666,50.032554],[27.547756,50.007542],[27.588115,49.897937],[27.66072,49.79895],[27.868046,49.760064],[28.025401,49.760374],[28.267453,49.788227],[28.390495,49.777143],[28.430854,49.807761],[28.571001,49.786651],[28.710475,49.79355],[28.835377,49.8814],[28.909585,49.872383],[28.942296,49.787969],[29.004204,49.730918],[28.956093,49.691334],[29.002034,49.590462],[29.268632,49.586224],[29.447226,49.650871],[29.419476,49.712418],[29.437459,49.790837],[29.630057,49.863468],[29.733514,49.947443],[29.676101,50.008524],[29.696462,50.25776],[29.613263,50.318944],[29.581172,50.391317],[29.494097,50.423202],[29.479369,50.59376],[29.592334,50.711091],[29.570268,50.769305],[29.488516,50.788735],[29.507584,50.858886],[29.422577,50.945108],[29.462006,50.969706],[29.482935,51.072335],[29.346974,51.144785],[29.270493,51.236873],[29.349454,51.265967],[29.389194,51.317462],[29.35326,51.377055]]]},"properties":{"LOCATION_TYPE":"level1","ADM0_A3":"UKR","LOCATION_ID":"UKR-18","NAME":"Zhytomyr","TYPE_EN":"Region"}},
{"type":"Feature","geometry":{"type":"Polygon","coordinates":[[[30.554657,51.242507],[30.355129,51.305267],[30.329032,51.388622],[30.14863,51.48443],[29.886268,51.464793],[29.828649,51.429963],[29.737905,51.439497],[29.699975,51.483706],[29.618016,51.485644],[29.505465,51.437456],[29.466294,51.385056],[29.35326,51.377055],[29.389194,51.317462],[29.349454,51.265967],[29.270493,51.236873],[29.346974,51.144785],[29.482935,51.072335],[29.462006,50.969706],[29.422577,50.945108],[29.507584,50.858886],[29.488516,50.788735],[29.570268,50.769305],[29.592334,50.711091],[29.479369,50.59376],[29.494097,50.423202],[29.581172,50.391317],[29.613263,50.318944],[29.696462,50.25776],[29.676101,50.008524],[29.733514,49.947443],[29.630057,49.863468],[29.437459,49.790837],[29.419476,49.712418],[29.447226,49.650871],[29.514716,49.632836],[29.496267,49.572788],[29.562051,49.535685],[29.560811,49.412721],[29.499833,49.365669],[29.697237,49.22728],[29.777904,49.170642],[29.862343,49.173846],[29.920066,49.246245],[30.104085,49.298283],[30.349548,49.258053],[30.41988,49.335955],[30.494191,49.32407],[30.615217,49.354869],[30.730042,49.321589],[30.868173,49.360631],[31.077308,49.4907],[31.155856,49.556381],[31.128209,49.61444],[31.172754,49.66808],[31.212028,49.85396],[31.336,49.896748],[31.430206,49.906101],[31.47594,49.854657],[31.570921,49.862693],[31.70745,49.846673],[31.873848,50.030771],[31.849612,50.094979],[32.069495,50.238691],[32.139155,50.350105],[32.082052,50.41036],[32.011152,50.428085],[32.030841,50.504411],[31.847441,50.623939],[31.748429,50.553194],[31.618256,50.518932],[31.462917,50.500225],[31.275177,50.520767],[31.179885,50.587662],[31.205207,50.670783],[31.083664,50.768736],[30.938763,50.747471],[30.737638,50.760209],[30.780168,50.843564],[30.655111,50.891984],[30.662863,50.965003],[30.624674,51.000221],[30.512329,51.01668],[30.515895,51.224755],[30.554657,51.242507]],[[30.753677,50.289158],[30.608697,50.242508],[30.654384,50.155983],[30.626992,50.09625],[30.648198,50.033693],[30.585565,50.014155],[30.520806,50.190074],[30.455843,50.222244],[30.413718,50.303915],[30.238242,50.414672],[30.217439,50.542432],[30.270165,50.633393],[30.334014,50.663014],[30.432652,50.662447],[30.475767,50.595864],[30.647182,50.575179],[30.73858,50.668153],[30.834853,50.638797],[30.842339,50.583979],[30.750572,50.506299],[30.760252,50.43988],[30.846046,50.353493],[30.753677,50.289158]]]},"properties":{"LOCATION_TYPE":"level1","ADM0_A3":"UKR","LOCATION_ID":"UKR-32","NAME":"Kiev","TYPE_EN":"Region"}},
{"type":"Feature","geometry":{"type":"Polygon","coordinates":[[[22.865014,49.013237],[22.744482,49.045535],[22.642886,49.043157],[22.539637,49.0722],[22.520516,48.992928],[22.448996,48.971431],[22.322492,48.700336],[22.153717,48.585873],[22.13284,48.404798],[22.271849,48.403455],[22.308126,48.293694],[22.357116,48.243103],[22.481449,48.242586],[22.55576,48.177164],[22.600098,48.101122],[22.745722,48.116289],[22.861581,48.028387],[22.939302,48.00565],[23.063119,48.007458],[23.118619,48.091536],[23.231377,48.079728],[23.360052,47.993144],[23.460821,47.971337],[23.563243,48.005753],[23.780078,47.987511],[23.876609,47.93444],[23.977275,47.962293],[24.231006,47.897026],[24.428514,47.952526],[24.569808,47.937289],[24.639251,48.04761],[24.538379,48.134478],[24.541479,48.212768],[24.494919,48.266615],[24.305421,48.388313],[24.256587,48.353095],[24.144552,48.375084],[24.136956,48.527478],[23.942653,48.470375],[23.894852,48.549621],[23.781732,48.603442],[23.780492,48.638065],[23.674504,48.654472],[23.61244,48.703823],[23.532859,48.723693],[23.377984,48.737077],[23.179805,48.79033],[23.105029,48.871333],[23.01165,48.854719],[22.891967,48.93536],[22.865014,49.013237]]]},"properties":{"LOCATION_TYPE":"level1","ADM0_A3":"UKR","LOCATION_ID":"UKR-21","NAME":"Transcarpathia","TYPE_EN":"Region"}},
{"type":"Feature","geometry":{"type":"Polygon","coordinates":[[[24.928858,47.713938],[25.017418,47.724582],[25.121908,47.770315],[25.218956,47.878474],[25.261744,47.898576],[25.752516,47.934595],[25.918087,47.968158],[26.125723,47.978416],[26.173058,47.993144],[26.286953,48.124712],[26.30349,48.212045],[26.617889,48.258968],[26.699434,48.325113],[26.842785,48.39374],[26.943244,48.351262],[27.02634,48.397099],[27.175788,48.361804],[27.246481,48.373741],[27.342186,48.436114],[27.420217,48.417149],[27.50383,48.472365],[27.438202,48.602538],[27.370402,48.629719],[27.294696,48.616051],[27.247567,48.570421],[27.113363,48.55931],[26.94526,48.581376],[26.884954,48.543549],[26.787595,48.568276],[26.687653,48.492544],[26.566368,48.457353],[26.47056,48.538071],[26.38054,48.517091],[26.149495,48.53957],[26.145774,48.596362],[26.062317,48.62835],[25.911628,48.588146],[25.793547,48.670053],[25.636193,48.678114],[25.564983,48.62096],[25.604412,48.532387],[25.585136,48.39286],[25.447367,48.400043],[25.292648,48.340202],[25.141339,48.186413],[24.989152,48.100165],[24.93453,48.013452],[24.93484,47.94741],[24.980935,47.828399],[24.928858,47.713938]]]},"properties":{"LOCATION_TYPE":"level1","ADM0_A3":"UKR","LOCATION_ID":"UKR-77","NAME":"Chernivtsi","TYPE_EN":"Region"}},
{"type":"Feature","geometry":{"type":"Polygon","coordinates":[[[24.928858,47.713938],[24.980935,47.828399],[24.93484,47.94741],[24.93453,48.013452],[24.989152,48.100165],[25.141339,48.186413],[25.292648,48.340202],[25.447367,48.400043],[25.585136,48.39286],[25.604412,48.532387],[25.564983,48.62096],[25.636193,48.678114],[25.629371,48.760073],[25.430779,48.849448],[25.3513,48.849577],[25.277196,48.781416],[25.183094,48.903604],[25.119635,48.951379],[24.978145,48.977114],[24.942126,49.025173],[24.991322,49.057213],[24.966776,49.112972],[24.870916,49.11168],[24.880838,49.201752],[24.837223,49.265934],[24.832883,49.339573],[24.70705,49.491786],[24.57233,49.524678],[24.449908,49.516694],[24.386915,49.391456],[24.363609,49.236582],[24.441227,49.194104],[24.158195,49.134986],[24.06833,49.143073],[23.905704,49.107184],[23.754757,49.114935],[23.681635,49.083051],[23.641637,49.010756],[23.576473,48.968639],[23.548982,48.880428],[23.575337,48.833867],[23.532859,48.723693],[23.61244,48.703823],[23.674504,48.654472],[23.780492,48.638065],[23.781732,48.603442],[23.894852,48.549621],[23.942653,48.470375],[24.136956,48.527478],[24.144552,48.375084],[24.256587,48.353095],[24.305421,48.388313],[24.494919,48.266615],[24.541479,48.212768],[24.538379,48.134478],[24.639251,48.04761],[24.569808,47.937289],[24.649275,47.895217],[24.661471,47.853876],[24.793659,47.804473],[24.877789,47.718742],[24.928858,47.713938]]]},"properties":{"LOCATION_TYPE":"level1","ADM0_A3":"UKR","LOCATION_ID":"UKR-26","NAME":"Ivano-Frankivs'k","TYPE_EN":"Region"}},
{"type":"Feature","geometry":{"type":"Polygon","coordinates":[[[28.862085,48.000502],[28.950356,47.934801],[29.017226,47.931081],[29.123989,47.975987],[29.186621,47.883642],[29.186724,47.818219],[29.238608,47.756001],[29.196956,47.717502],[29.182074,47.613219],[29.117426,47.533327],[29.163884,47.439379],[29.232613,47.44633],[29.35891,47.352718],[29.409553,47.279751],[29.480867,47.338274],[29.556573,47.324038],[29.530373,47.123688],[29.60303,47.04576],[29.558691,46.94574],[29.696151,46.904683],[29.754132,46.85802],[29.843635,46.854144],[29.930658,46.803087],[29.952621,46.724694],[29.916086,46.518815],[29.994944,46.498532],[30.060005,46.436805],[30.08114,46.374199],[29.918669,46.373656],[29.847769,46.341462],[29.72695,46.455796],[29.654396,46.422697],[29.598586,46.363063],[29.475079,46.432257],[29.283256,46.397427],[29.200677,46.35712],[29.206775,46.502511],[29.162747,46.538091],[28.945809,46.454788],[28.919247,46.404662],[28.945809,46.304978],[28.93351,46.258986],[29.015365,46.182609],[28.946429,46.105094],[28.958935,46.021016],[28.93196,45.993163],[28.757603,45.961175],[28.729181,45.938644],[28.738276,45.837565],[28.669753,45.77731],[28.576684,45.761911],[28.56144,45.71659],[28.474003,45.657938],[28.536893,45.579803],[28.480928,45.501978],[28.270501,45.521512],[28.199498,45.461774],[28.266884,45.440483],[28.330239,45.322919],[28.577046,45.248092],[28.710061,45.226956],[28.816308,45.326072],[28.929893,45.279098],[28.96648,45.319871],[29.322117,45.443842],[29.569699,45.394956],[29.650262,45.346122],[29.67449,45.213568],[29.728038,45.236884],[29.756196,45.321234],[29.747406,45.463446],[29.621104,45.454413],[29.661632,45.525865],[29.589692,45.559068],[29.603201,45.691311],[29.685313,45.70425],[29.745942,45.622626],[29.865001,45.672349],[29.802419,45.737494],[29.952891,45.771959],[29.968516,45.838935],[30.061209,45.813463],[30.138438,45.81977],[30.261404,45.895494],[30.371267,45.997952],[30.494151,46.080471],[30.653494,46.259589],[30.686534,46.320014],[30.772472,46.39643],[30.754893,46.515855],[30.802582,46.560248],[30.866954,46.555813],[30.991384,46.601264],[31.18686,46.629136],[31.162212,46.825385],[31.056379,46.897396],[31.03731,46.953129],[31.214508,46.974497],[31.294555,47.050462],[31.2235,47.165829],[31.116427,47.18234],[31.171979,47.240579],[31.14981,47.272283],[31.039635,47.25094],[30.915302,47.276701],[30.83386,47.429508],[30.868173,47.543455],[30.779858,47.633734],[30.588242,47.636317],[30.475897,47.622106],[30.420345,47.648358],[30.394559,47.792174],[30.322108,47.837184],[30.297872,47.944877],[30.215965,47.998776],[30.221701,48.074069],[30.293066,48.135718],[30.083466,48.143728],[29.996753,48.220985],[29.891799,48.185018],[29.774803,48.203105],[29.665869,48.168946],[29.679822,48.092207],[29.497197,48.092827],[29.434669,48.113136],[29.246308,48.084507],[29.103991,48.143573],[29.046114,48.083112],[28.862085,48.000502]]]},"properties":{"LOCATION_TYPE":"level1","ADM0_A3":"UKR","LOCATION_ID":"UKR-51","NAME":"Odessa","TYPE_EN":"Region"}},
{"type":"Feature","geometry":{"type":"Polygon","coordinates":[[[27.50383,48.472365],[27.627026,48.451256],[27.751773,48.451979],[27.864841,48.398907],[27.92644,48.339428],[28.055941,48.321496],[28.131078,48.239589],[28.199911,48.211735],[28.294479,48.236488],[28.436899,48.149853],[28.519323,48.149129],[28.799255,48.111793],[28.862085,48.000502],[29.046114,48.083112],[29.103991,48.143573],[29.246308,48.084507],[29.434669,48.113136],[29.497197,48.092827],[29.679822,48.092207],[29.665869,48.168946],[29.774803,48.203105],[29.738165,48.270077],[29.777129,48.347644],[29.858571,48.417174],[29.940064,48.3756],[30.076128,48.455079],[29.961303,48.476215],[30.021351,48.537761],[29.959133,48.651501],[29.859087,48.69832],[29.888078,48.736457],[29.772478,48.769297],[29.674861,48.987449],[29.596984,49.023261],[29.704058,49.128268],[29.697237,49.22728],[29.499833,49.365669],[29.560811,49.412721],[29.562051,49.535685],[29.496267,49.572788],[29.514716,49.632836],[29.447226,49.650871],[29.268632,49.586224],[29.002034,49.590462],[28.956093,49.691334],[29.004204,49.730918],[28.942296,49.787969],[28.909585,49.872383],[28.835377,49.8814],[28.710475,49.79355],[28.571001,49.786651],[28.430854,49.807761],[28.390495,49.777143],[28.267453,49.788227],[28.025401,49.760374],[27.868046,49.760064],[27.751516,49.673506],[27.809238,49.617954],[27.732137,49.526228],[27.729347,49.488607],[27.877348,49.276889],[27.888975,49.162581],[27.767174,49.11602],[27.639791,49.15638],[27.500472,49.126149],[27.398669,49.020677],[27.372107,48.93014],[27.424559,48.77679],[27.396189,48.7609],[27.370402,48.629719],[27.438202,48.602538],[27.50383,48.472365]]]},"properties":{"LOCATION_TYPE":"level1","ADM0_A3":"UKR","LOCATION_ID":"UKR-05","NAME":"Vinnytsya","TYPE_EN":"Region"}},
{"type":"Feature","geometry":{"type":"Polygon","coordinates":[[[24.108165,50.630287],[24.106466,50.538622],[24.010658,50.492785],[23.981306,50.40478],[23.747522,50.38938],[23.565311,50.257812],[23.436429,50.193475],[23.101463,49.957107],[22.826648,49.697381],[22.777348,49.680483],[22.640922,49.528761],[22.679576,49.418948],[22.724225,49.367065],[22.737764,49.275391],[22.705725,49.168835],[22.853416,49.084757],[22.865014,49.013237],[22.891967,48.93536],[23.01165,48.854719],[23.105029,48.871333],[23.179805,48.79033],[23.377984,48.737077],[23.532859,48.723693],[23.575337,48.833867],[23.548982,48.880428],[23.576473,48.968639],[23.641637,49.010756],[23.681635,49.083051],[23.754757,49.114935],[23.905704,49.107184],[24.06833,49.143073],[24.158195,49.134986],[24.441227,49.194104],[24.363609,49.236582],[24.386915,49.391456],[24.449908,49.516694],[24.57233,49.524678],[24.70705,49.491786],[24.729065,49.555012],[24.948173,49.627152],[25.016127,49.713452],[25.105837,49.729316],[25.098861,49.81727],[25.240041,49.835046],[25.389799,49.880056],[25.428143,49.954936],[25.367579,50.013123],[25.202317,50.094979],[25.207485,50.250111],[25.175652,50.293985],[25.063463,50.294812],[25.063773,50.334499],[24.931895,50.370156],[24.77299,50.340545],[24.590985,50.417],[24.50422,50.410618],[24.45673,50.461365],[24.538379,50.511232],[24.434251,50.549008],[24.379474,50.600943],[24.247854,50.581771],[24.164706,50.640217],[24.108165,50.630287]]]},"properties":{"LOCATION_TYPE":"level1","ADM0_A3":"UKR","LOCATION_ID":"UKR-46","NAME":"L'viv","TYPE_EN":"Region"}},
{"type":"Feature","geometry":{"type":"Polygon","coordinates":[[[35.69221,50.344168],[35.570159,50.376461],[35.52272,50.459505],[35.425258,50.500485],[35.377716,50.621821],[35.445412,50.687502],[35.438488,50.762381],[35.37906,50.797211],[35.341749,50.91586],[35.278084,50.992651],[35.308676,51.047325],[35.172561,51.040632],[35.123778,51.091327],[35.09918,51.183182],[34.961824,51.215325],[34.74809,51.164733],[34.642774,51.180624],[34.622413,51.224756],[34.40899,51.253126],[34.281762,51.226435],[34.185954,51.248914],[34.283623,51.301237],[34.280315,51.361259],[34.219647,51.427275],[34.223678,51.514764],[34.160323,51.576129],[34.127973,51.680748],[34.37633,51.708602],[34.414157,51.736456],[34.385735,51.817665],[34.231016,51.894534],[34.068235,52.031011],[34.05573,52.170331],[33.957751,52.224695],[33.804065,52.354609],[33.687948,52.355823],[33.531679,52.288825],[33.499433,52.340992],[33.400576,52.344343],[33.317843,52.209837],[33.3304,52.151184],[33.449463,52.087544],[33.373395,52.047004],[33.366263,51.9467],[33.160695,51.904222],[33.062044,51.792911],[33.153202,51.693098],[33.151031,51.559282],[33.186895,51.515926],[33.111654,51.467608],[33.110879,51.372007],[33.000394,51.378518],[33.07362,51.285087],[33.018843,51.192483],[32.967476,51.182148],[32.944532,51.094789],[33.064783,51.066289],[33.182089,50.97092],[33.125141,50.776927],[33.163899,50.753595],[33.10137,50.660164],[33.061528,50.538414],[33.194026,50.51733],[33.284821,50.545985],[33.340064,50.525237],[33.644954,50.485472],[33.72066,50.462657],[33.813006,50.511956],[33.913103,50.530275],[34.047617,50.470976],[34.07914,50.49728],[34.245796,50.53459],[34.258509,50.435733],[34.377985,50.342509],[34.503972,50.175361],[34.633731,50.114797],[34.81434,50.159574],[34.908237,50.145958],[35.015879,50.172132],[35.135406,50.244995],[35.252557,50.268922],[35.426034,50.329641],[35.493834,50.30215],[35.69221,50.344168]]]},"properties":{"LOCATION_TYPE":"level1","ADM0_A3":"UKR","LOCATION_ID":"UKR-59","NAME":"Sumy","TYPE_EN":"Region"}},
{"type":"Feature","geometry":{"type":"Polygon","coordinates":[[[38.022924,49.909142],[37.915856,50.003306],[37.72765,50.078701],[37.588641,50.21461],[37.599183,50.290885],[37.480017,50.340029],[37.435265,50.424934],[37.285197,50.41527],[37.197037,50.362405],[37.051722,50.335327],[36.914056,50.339099],[36.682649,50.260654],[36.594386,50.20443],[36.536405,50.267527],[36.400186,50.306646],[36.269031,50.281376],[36.169296,50.383696],[36.105837,50.42111],[35.83743,50.423228],[35.69221,50.344168],[35.493834,50.30215],[35.426034,50.329641],[35.252557,50.268922],[35.135406,50.244995],[35.015879,50.172132],[34.908237,50.145958],[34.913197,50.055679],[34.841471,50.000049],[34.888186,49.917651],[35.191113,49.831997],[35.191268,49.774662],[35.239017,49.704512],[35.419833,49.637332],[35.475075,49.560386],[35.396217,49.540749],[35.31369,49.467834],[35.36056,49.392024],[35.263254,49.311667],[35.188478,49.292005],[35.024612,49.317197],[34.9549,49.239553],[34.983942,49.163718],[35.147808,49.153434],[35.361335,49.022021],[35.45642,48.976597],[35.559773,48.971611],[35.783687,48.934533],[35.930655,48.976391],[36.022019,48.900116],[36.000315,48.854383],[36.072145,48.829113],[36.170692,48.757748],[36.137774,48.720541],[36.270944,48.647005],[36.266758,48.601091],[36.342154,48.531379],[36.454964,48.63822],[36.576145,48.60463],[36.725438,48.625921],[36.69004,48.77754],[36.82538,48.773199],[36.903102,48.799244],[36.999168,48.766894],[37.024593,48.815315],[37.181173,48.83149],[37.220912,48.897558],[37.314343,48.926523],[37.291812,48.979853],[37.373771,49.05251],[37.60125,49.144649],[37.546939,49.227228],[37.771163,49.204361],[37.847334,49.23175],[37.92614,49.283865],[37.885057,49.313063],[37.863612,49.417191],[37.963244,49.52013],[37.944485,49.596792],[38.000348,49.656504],[38.004843,49.750504],[38.064736,49.83732],[38.022924,49.909142]]]},"properties":{"LOCATION_TYPE":"level1","ADM0_A3":"UKR","LOCATION_ID":"UKR-63","NAME":"Kharkiv","TYPE_EN":"Region"}},
{"type":"Feature","geometry":{"type":"Polygon","coordinates":[[[39.03618,47.857003],[39.092942,47.832094],[39.319698,47.846021],[39.391631,47.822612],[39.600611,47.829485],[39.70076,47.811527],[39.759051,47.832947],[39.794397,47.971311],[39.842973,48.036397],[39.843077,48.119751],[39.993248,48.27323],[39.884831,48.278992],[39.815895,48.308164],[39.924105,48.376118],[39.842146,48.499056],[39.809177,48.583754],[39.63172,48.586906],[39.70293,48.746586],[39.824163,48.815626],[39.934957,48.786687],[40.019603,48.813146],[39.89651,48.879912],[39.758741,48.895415],[39.673991,48.970139],[39.681123,49.020316],[39.918731,49.047808],[39.952114,49.124548],[40.141663,49.245781],[40.159543,49.333579],[40.040894,49.455484],[40.05433,49.519769],[40.115515,49.590566],[39.974025,49.602555],[39.9147,49.562971],[39.801529,49.542197],[39.622935,49.613459],[39.570432,49.713297],[39.443618,49.749523],[39.327656,49.72632],[39.238049,49.765129],[39.182755,49.858508],[39.117126,49.864399],[39.032273,49.807349],[38.937395,49.803473],[38.852233,49.865795],[38.687282,49.913802],[38.664337,49.962688],[38.497526,49.948167],[38.34415,49.992092],[38.299915,50.060511],[38.173928,50.06015],[38.166176,49.94057],[38.022924,49.909142],[38.064736,49.83732],[38.004843,49.750504],[38.000348,49.656504],[37.944485,49.596792],[37.963244,49.52013],[37.863612,49.417191],[37.885057,49.313063],[37.92614,49.283865],[37.847334,49.23175],[37.895289,49.156302],[37.966189,49.132557],[38.070472,49.14806],[38.041017,49.069951],[38.077604,49.003624],[38.05776,48.937065],[38.210102,48.923939],[38.275163,48.841851],[38.303843,48.728525],[38.248756,48.663593],[38.26674,48.536469],[38.302138,48.459032],[38.406266,48.437354],[38.480577,48.357617],[38.417583,48.328368],[38.460888,48.272403],[38.560985,48.278862],[38.63049,48.165949],[38.814045,48.111431],[38.800247,48.056679],[38.86231,48.020118],[39.027107,48.006631],[39.055529,47.917386],[39.03618,47.857003]]]},"properties":{"LOCATION_TYPE":"level1","ADM0_A3":"UKR","LOCATION_ID":"UKR-09","NAME":"Luhans'k","TYPE_EN":"Region"}},
{"type":"Feature","geometry":{"type":"Polygon","coordinates":[[[39.03618,47.857003],[39.055529,47.917386],[39.027107,48.006631],[38.86231,48.020118],[38.800247,48.056679],[38.814045,48.111431],[38.63049,48.165949],[38.560985,48.278862],[38.460888,48.272403],[38.417583,48.328368],[38.480577,48.357617],[38.406266,48.437354],[38.302138,48.459032],[38.26674,48.536469],[38.248756,48.663593],[38.303843,48.728525],[38.275163,48.841851],[38.210102,48.923939],[38.05776,48.937065],[38.077604,49.003624],[38.041017,49.069951],[38.070472,49.14806],[37.966189,49.132557],[37.895289,49.156302],[37.847334,49.23175],[37.771163,49.204361],[37.546939,49.227228],[37.60125,49.144649],[37.373771,49.05251],[37.291812,48.979853],[37.314343,48.926523],[37.220912,48.897558],[37.181173,48.83149],[37.024593,48.815315],[36.999168,48.766894],[36.903102,48.799244],[36.82538,48.773199],[36.69004,48.77754],[36.725438,48.625921],[36.892095,48.537864],[36.808947,48.413143],[36.812358,48.330745],[36.905582,48.294443],[36.927183,48.201503],[36.871941,48.167448],[36.89256,48.067557],[36.839023,48.034484],[36.66508,48.088073],[36.57506,48.05823],[36.57661,47.970716],[36.534442,47.905035],[36.576145,47.844212],[36.649577,47.789745],[36.720012,47.657763],[36.893335,47.550896],[36.987541,47.552524],[37.099886,47.477826],[37.220912,47.455269],[37.163654,47.345896],[37.100196,47.362742],[37.072394,47.300602],[36.913954,47.283626],[36.941136,47.215956],[36.864448,47.182443],[36.967491,47.135469],[37.010951,47.065629],[37.118489,47.028189],[37.009555,46.914837],[37.037764,46.876664],[37.208181,46.93358],[37.295421,46.920233],[37.335216,46.882473],[37.482921,47.035956],[37.58074,47.090399],[37.753266,47.075263],[37.861095,47.101508],[38.130056,47.074652],[38.216645,47.103258],[38.203487,47.192314],[38.284722,47.241149],[38.201006,47.290629],[38.257954,47.393232],[38.260331,47.492942],[38.293404,47.562783],[38.352935,47.607095],[38.562225,47.626629],[38.677876,47.685178],[38.734514,47.677143],[38.770997,47.780831],[38.877244,47.86124],[39.03618,47.857003]]]},"properties":{"LOCATION_TYPE":"level1","ADM0_A3":"UKR","LOCATION_ID":"UKR-14","NAME":"Donets'k","TYPE_EN":"Region"}},
{"type":"Feature","geometry":{"type":"Polygon","coordinates":[[[31.816288,46.483006],[32.007823,46.448961],[32.06186,46.393785],[31.968272,46.35106],[31.816742,46.347968],[32.115408,46.214545],[32.239268,46.195258],[32.262462,46.128241],[32.503429,46.076117],[32.588227,46.104397],[32.789806,46.134345],[32.913097,46.11518],[33.122895,46.135891],[33.293468,46.135688],[33.423839,46.05329],[33.485525,46.053168],[33.532481,46.121527],[33.596528,46.155748],[33.755207,46.193372],[33.846216,46.195705],[34.025902,46.116364],[34.105243,46.095361],[34.235923,46.097695],[34.361937,46.055691],[34.464614,45.955347],[34.529954,45.981016],[34.688637,45.974015],[34.784314,45.899341],[34.788981,45.803664],[34.952331,45.721989],[35.001891,45.729003],[34.87436,45.926093],[34.824229,46.077948],[34.81129,46.166246],[34.838878,46.207668],[35.030772,46.251776],[35.105056,46.295058],[35.059648,46.306011],[35.035309,46.456415],[34.857645,46.541733],[34.759098,46.550182],[34.72184,46.602634],[34.732692,46.662294],[34.686803,46.72428],[34.796667,46.831741],[34.717809,46.928505],[34.603759,46.965557],[34.509553,47.1133],[34.476222,47.269518],[34.298403,47.272102],[34.203732,47.478394],[34.058211,47.48072],[33.901786,47.514464],[33.654411,47.486818],[33.584441,47.514723],[33.562892,47.575365],[33.476748,47.529916],[33.370604,47.515498],[33.089278,47.582858],[33.115684,47.529709],[33.124056,47.416383],[33.105091,47.272412],[33.134908,47.230968],[33.04866,47.182624],[32.976158,47.186784],[32.915025,47.103533],[33.059357,47.021471],[33.001324,46.950959],[32.849861,46.866597],[32.822059,46.826961],[32.701963,46.825773],[32.632148,46.860809],[32.522594,46.833137],[32.389321,46.839519],[32.358728,46.801433],[32.222664,46.804973],[32.171608,46.746708],[32.071976,46.746785],[31.964905,46.7221],[32.022797,46.629136],[32.335785,46.562161],[32.409028,46.568915],[32.427013,46.498847],[32.361013,46.466864],[32.276134,46.470893],[32.111664,46.512437],[31.851736,46.521959],[31.816288,46.483006]]]},"properties":{"LOCATION_TYPE":"level1","ADM0_A3":"UKR","LOCATION_ID":"UKR-65","NAME":"Kherson","TYPE_EN":null}},
{"type":"Feature","geometry":{"type":"Polygon","coordinates":[[[35.279541,46.255145],[35.380138,46.368476],[35.510509,46.457221],[35.628673,46.498481],[35.771169,46.601264],[35.901622,46.652737],[36.189464,46.669013],[36.284353,46.63642],[36.371104,46.708441],[36.524099,46.758857],[36.696056,46.779975],[36.8296,46.731879],[36.886241,46.804023],[37.037764,46.876664],[37.009555,46.914837],[37.118489,47.028189],[37.010951,47.065629],[36.967491,47.135469],[36.864448,47.182443],[36.941136,47.215956],[36.913954,47.283626],[37.072394,47.300602],[37.100196,47.362742],[37.163654,47.345896],[37.220912,47.455269],[37.099886,47.477826],[36.987541,47.552524],[36.893335,47.550896],[36.720012,47.657763],[36.649577,47.789745],[36.576145,47.844212],[36.307893,47.813826],[36.078656,47.845168],[36.114675,47.939813],[35.978921,48.026371],[35.963986,48.089106],[35.808853,48.066834],[35.674133,48.126985],[35.546595,48.084533],[35.340045,48.103989],[35.245115,48.130189],[35.028643,48.11944],[34.943118,48.080993],[34.876559,48.084042],[34.816201,48.025803],[34.915058,47.942862],[34.819766,47.90674],[34.818371,47.866665],[34.895783,47.834781],[34.886326,47.760134],[34.945444,47.738895],[34.90002,47.591824],[34.916143,47.530872],[34.832634,47.525911],[34.58376,47.567174],[34.445939,47.522888],[34.203732,47.478394],[34.298403,47.272102],[34.476222,47.269518],[34.509553,47.1133],[34.603759,46.965557],[34.717809,46.928505],[34.796667,46.831741],[34.686803,46.72428],[34.732692,46.662294],[34.72184,46.602634],[34.759098,46.550182],[34.857645,46.541733],[35.035309,46.456415],[35.059648,46.306011],[35.105056,46.295058],[35.213715,46.411811],[35.291759,46.336412],[35.264799,46.260504],[35.279541,46.255145]]]},"properties":{"LOCATION_TYPE":"level1","ADM0_A3":"UKR","LOCATION_ID":"UKR-23","NAME":"Zaporizhzhya","TYPE_EN":"Region"}},
{"type":"Feature","geometry":{"type":"MultiPolygon","coordinates":[[[[31.816288,46.483006],[31.851736,46.521959],[31.756358,46.554267],[31.581554,46.545233],[31.641449,46.482082],[31.72641,46.500881],[31.816288,46.483006]]],[[[31.964905,46.7221],[32.071976,46.746785],[32.171608,46.746708],[32.222664,46.804973],[32.358728,46.801433],[32.389321,46.839519],[32.522594,46.833137],[32.632148,46.860809],[32.701963,46.825773],[32.822059,46.826961],[32.849861,46.866597],[33.001324,46.950959],[33.059357,47.021471],[32.915025,47.103533],[32.976158,47.186784],[33.04866,47.182624],[33.134908,47.230968],[33.105091,47.272412],[33.124056,47.416383],[33.115684,47.529709],[33.089278,47.582858],[33.0052,47.591695],[33.014347,47.662621],[32.983755,47.710008],[33.083387,47.728767],[33.060287,47.775585],[33.069124,47.910978],[33.035276,47.96653],[32.979259,48.042753],[32.884019,48.028955],[32.682739,47.954851],[32.676228,47.841886],[32.640055,47.799563],[32.467042,47.781089],[32.234446,47.820441],[32.13869,47.747525],[31.985883,47.812947],[31.86806,47.795119],[31.866045,47.880385],[31.709517,48.016863],[31.760263,48.092465],[31.499401,48.119027],[31.414496,48.10771],[31.25032,48.120939],[31.183451,48.207962],[31.007028,48.211192],[30.912666,48.157629],[30.840991,48.181142],[30.704772,48.181581],[30.626224,48.146467],[30.501787,48.163572],[30.347533,48.163572],[30.293066,48.135718],[30.221701,48.074069],[30.215965,47.998776],[30.297872,47.944877],[30.322108,47.837184],[30.394559,47.792174],[30.420345,47.648358],[30.475897,47.622106],[30.588242,47.636317],[30.779858,47.633734],[30.868173,47.543455],[30.83386,47.429508],[30.915302,47.276701],[31.039635,47.25094],[31.14981,47.272283],[31.171979,47.240579],[31.116427,47.18234],[31.2235,47.165829],[31.294555,47.050462],[31.214508,46.974497],[31.03731,46.953129],[31.056379,46.897396],[31.162212,46.825385],[31.18686,46.629136],[31.337657,46.601264],[31.480968,46.64643],[31.578868,46.617336],[31.674083,46.653225],[31.858409,46.629136],[31.964905,46.7221]]]]},"properties":{"LOCATION_TYPE":"level1","ADM0_A3":"UKR","LOCATION_ID":"UKR-48","NAME":"Mykolayiv","TYPE_EN":"Region"}},
{"type":"Feature","geometry":{"type":"Polygon","coordinates":[[[33.061528,50.538414],[33.009231,50.479994],[32.883399,50.401317],[32.727284,50.357908],[32.503215,50.370182],[32.375936,50.408913],[32.288293,50.389173],[32.223594,50.343232],[32.139155,50.350105],[32.069495,50.238691],[32.140705,50.182312],[32.267623,50.128],[32.255065,50.062836],[32.329428,50.051777],[32.409009,49.975555],[32.409009,49.89866],[32.363844,49.88109],[32.427148,49.807244],[32.568379,49.757222],[32.584347,49.698776],[32.692971,49.671645],[32.754415,49.547157],[32.675918,49.48189],[32.789348,49.333888],[32.788728,49.2618],[33.038221,49.18196],[33.142039,49.130231],[33.204103,49.070907],[33.297069,49.064861],[33.299394,48.995459],[33.37572,48.941277],[33.456439,48.941742],[33.542687,48.902958],[33.651621,48.899289],[33.778486,48.922544],[33.91946,48.865803],[34.040176,48.807822],[34.161977,48.784387],[34.237476,48.746276],[34.315921,48.839603],[34.276647,48.888386],[34.301193,48.963885],[34.430436,49.074602],[34.836665,49.180719],[34.983942,49.163718],[34.9549,49.239553],[35.024612,49.317197],[35.188478,49.292005],[35.263254,49.311667],[35.36056,49.392024],[35.31369,49.467834],[35.396217,49.540749],[35.475075,49.560386],[35.419833,49.637332],[35.239017,49.704512],[35.191268,49.774662],[35.191113,49.831997],[34.888186,49.917651],[34.841471,50.000049],[34.913197,50.055679],[34.908237,50.145958],[34.81434,50.159574],[34.633731,50.114797],[34.503972,50.175361],[34.377985,50.342509],[34.258509,50.435733],[34.245796,50.53459],[34.07914,50.49728],[34.047617,50.470976],[33.913103,50.530275],[33.813006,50.511956],[33.72066,50.462657],[33.644954,50.485472],[33.340064,50.525237],[33.284821,50.545985],[33.194026,50.51733],[33.061528,50.538414]]]},"properties":{"LOCATION_TYPE":"level1","ADM0_A3":"UKR","LOCATION_ID":"UKR-53","NAME":"Poltava","TYPE_EN":"Region"}},
{"type":"Feature","geometry":{"type":"Polygon","coordinates":[[[27.192273,50.541205],[27.126179,50.581977],[26.976421,50.519191],[26.909087,50.531541],[26.745531,50.466687],[26.637372,50.355531],[26.464669,50.248458],[26.399195,50.248871],[26.303439,50.175542],[26.233159,50.152288],[26.271658,50.117458],[26.1512,49.957158],[26.186753,49.821869],[26.234554,49.772311],[26.205512,49.710041],[26.252537,49.662008],[26.208664,49.566949],[26.148409,49.516513],[26.229128,49.397011],[26.256258,49.293632],[26.199156,49.17457],[26.231609,49.079459],[26.192955,48.90239],[26.23874,48.818829],[26.235484,48.684961],[26.316306,48.642768],[26.306694,48.605612],[26.38054,48.517091],[26.47056,48.538071],[26.566368,48.457353],[26.687653,48.492544],[26.787595,48.568276],[26.884954,48.543549],[26.94526,48.581376],[27.113363,48.55931],[27.247567,48.570421],[27.294696,48.616051],[27.370402,48.629719],[27.396189,48.7609],[27.424559,48.77679],[27.372107,48.93014],[27.398669,49.020677],[27.500472,49.126149],[27.639791,49.15638],[27.767174,49.11602],[27.888975,49.162581],[27.877348,49.276889],[27.729347,49.488607],[27.732137,49.526228],[27.809238,49.617954],[27.751516,49.673506],[27.868046,49.760064],[27.66072,49.79895],[27.588115,49.897937],[27.547756,50.007542],[27.663666,50.032554],[27.621188,50.079347],[27.645992,50.169109],[27.605943,50.206652],[27.471895,50.251765],[27.228912,50.394883],[27.260383,50.490148],[27.192273,50.541205]]]},"properties":{"LOCATION_TYPE":"level1","ADM0_A3":"UKR","LOCATION_ID":"UKR-68","NAME":"Khmel'nyts'kyy","TYPE_EN":"Region"}},
{"type":"Feature","geometry":{"type":"Polygon","coordinates":[[[26.233159,50.152288],[26.165824,50.242102],[26.059061,50.265149],[25.947181,50.264529],[25.80905,50.17916],[25.69283,50.173114],[25.467056,50.105211],[25.367579,50.013123],[25.428143,49.954936],[25.389799,49.880056],[25.240041,49.835046],[25.098861,49.81727],[25.105837,49.729316],[25.016127,49.713452],[24.948173,49.627152],[24.729065,49.555012],[24.70705,49.491786],[24.832883,49.339573],[24.837223,49.265934],[24.880838,49.201752],[24.870916,49.11168],[24.966776,49.112972],[24.991322,49.057213],[24.942126,49.025173],[24.978145,48.977114],[25.119635,48.951379],[25.183094,48.903604],[25.277196,48.781416],[25.3513,48.849577],[25.430779,48.849448],[25.629371,48.760073],[25.636193,48.678114],[25.793547,48.670053],[25.911628,48.588146],[26.062317,48.62835],[26.145774,48.596362],[26.149495,48.53957],[26.38054,48.517091],[26.306694,48.605612],[26.316306,48.642768],[26.235484,48.684961],[26.23874,48.818829],[26.192955,48.90239],[26.231609,49.079459],[26.199156,49.17457],[26.256258,49.293632],[26.229128,49.397011],[26.148409,49.516513],[26.208664,49.566949],[26.252537,49.662008],[26.205512,49.710041],[26.234554,49.772311],[26.186753,49.821869],[26.1512,49.957158],[26.271658,50.117458],[26.233159,50.152288]]]},"properties":{"LOCATION_TYPE":"level1","ADM0_A3":"UKR","LOCATION_ID":"UKR-61","NAME":"Ternopil'","TYPE_EN":"Region"}},
{"type":"Feature","geometry":{"type":"Polygon","coordinates":[[[34.983942,49.163718],[34.836665,49.180719],[34.430436,49.074602],[34.301193,48.963885],[34.276647,48.888386],[34.315921,48.839603],[34.237476,48.746276],[34.161977,48.784387],[34.040176,48.807822],[33.91946,48.865803],[33.85011,48.793715],[33.658287,48.806169],[33.55757,48.771985],[33.60351,48.720334],[33.756524,48.6977],[33.799829,48.653155],[33.722521,48.616568],[33.477678,48.541043],[33.441401,48.513111],[33.484499,48.443917],[33.516177,48.242689],[33.396391,48.173236],[33.225859,48.132876],[33.057497,48.025803],[33.035276,47.96653],[33.069124,47.910978],[33.060287,47.775585],[33.083387,47.728767],[32.983755,47.710008],[33.014347,47.662621],[33.0052,47.591695],[33.089278,47.582858],[33.370604,47.515498],[33.476748,47.529916],[33.562892,47.575365],[33.584441,47.514723],[33.654411,47.486818],[33.901786,47.514464],[34.058211,47.48072],[34.203732,47.478394],[34.445939,47.522888],[34.58376,47.567174],[34.832634,47.525911],[34.916143,47.530872],[34.90002,47.591824],[34.945444,47.738895],[34.886326,47.760134],[34.895783,47.834781],[34.818371,47.866665],[34.819766,47.90674],[34.915058,47.942862],[34.816201,48.025803],[34.876559,48.084042],[34.943118,48.080993],[35.028643,48.11944],[35.245115,48.130189],[35.340045,48.103989],[35.546595,48.084533],[35.674133,48.126985],[35.808853,48.066834],[35.963986,48.089106],[35.978921,48.026371],[36.114675,47.939813],[36.078656,47.845168],[36.307893,47.813826],[36.576145,47.844212],[36.534442,47.905035],[36.57661,47.970716],[36.57506,48.05823],[36.66508,48.088073],[36.839023,48.034484],[36.89256,48.067557],[36.871941,48.167448],[36.927183,48.201503],[36.905582,48.294443],[36.812358,48.330745],[36.808947,48.413143],[36.892095,48.537864],[36.725438,48.625921],[36.576145,48.60463],[36.454964,48.63822],[36.342154,48.531379],[36.266758,48.601091],[36.270944,48.647005],[36.137774,48.720541],[36.170692,48.757748],[36.072145,48.829113],[36.000315,48.854383],[36.022019,48.900116],[35.930655,48.976391],[35.783687,48.934533],[35.559773,48.971611],[35.45642,48.976597],[35.361335,49.022021],[35.147808,49.153434],[34.983942,49.163718]]]},"properties":{"LOCATION_TYPE":"level1","ADM0_A3":"UKR","LOCATION_ID":"UKR-12","NAME":"Dnipropetrovs'k","TYPE_EN":"Region"}},
{"type":"Feature","geometry":{"type":"Polygon","coordinates":[[[32.069495,50.238691],[31.849612,50.094979],[31.873848,50.030771],[31.70745,49.846673],[31.570921,49.862693],[31.47594,49.854657],[31.430206,49.906101],[31.336,49.896748],[31.212028,49.85396],[31.172754,49.66808],[31.128209,49.61444],[31.155856,49.556381],[31.077308,49.4907],[30.868173,49.360631],[30.730042,49.321589],[30.615217,49.354869],[30.494191,49.32407],[30.41988,49.335955],[30.349548,49.258053],[30.104085,49.298283],[29.920066,49.246245],[29.862343,49.173846],[29.777904,49.170642],[29.697237,49.22728],[29.704058,49.128268],[29.596984,49.023261],[29.674861,48.987449],[29.772478,48.769297],[29.888078,48.736457],[29.859087,48.69832],[29.959133,48.651501],[30.021351,48.537761],[29.961303,48.476215],[30.076128,48.455079],[30.174365,48.489237],[30.255239,48.48531],[30.384947,48.530526],[30.574082,48.56515],[30.540906,48.619255],[30.601419,48.663852],[30.615372,48.722194],[30.702292,48.765189],[30.938143,48.756223],[31.054828,48.728189],[31.179885,48.750978],[31.332899,48.723848],[31.462297,48.761107],[31.527306,48.835211],[31.544101,48.924197],[31.651123,48.917428],[31.689467,48.944532],[31.810183,48.923887],[31.894932,48.861772],[32.031616,48.927815],[32.136674,48.919495],[32.149387,48.980111],[32.241423,49.052045],[32.331908,49.089769],[32.380484,49.043208],[32.555512,48.952465],[32.634318,48.946005],[32.683049,48.986313],[32.782371,48.96373],[32.8449,49.00117],[32.752709,49.188161],[32.788728,49.2618],[32.789348,49.333888],[32.675918,49.48189],[32.754415,49.547157],[32.692971,49.671645],[32.584347,49.698776],[32.568379,49.757222],[32.427148,49.807244],[32.363844,49.88109],[32.409009,49.89866],[32.409009,49.975555],[32.329428,50.051777],[32.255065,50.062836],[32.267623,50.128],[32.140705,50.182312],[32.069495,50.238691]]]},"properties":{"LOCATION_TYPE":"level1","ADM0_A3":"UKR","LOCATION_ID":"UKR-71","NAME":"Cherkasy","TYPE_EN":"Region"}},
{"type":"Feature","geometry":{"type":"Polygon","coordinates":[[[32.788728,49.2618],[32.752709,49.188161],[32.8449,49.00117],[32.782371,48.96373],[32.683049,48.986313],[32.634318,48.946005],[32.555512,48.952465],[32.380484,49.043208],[32.331908,49.089769],[32.241423,49.052045],[32.149387,48.980111],[32.136674,48.919495],[32.031616,48.927815],[31.894932,48.861772],[31.810183,48.923887],[31.689467,48.944532],[31.651123,48.917428],[31.544101,48.924197],[31.527306,48.835211],[31.462297,48.761107],[31.332899,48.723848],[31.179885,48.750978],[31.054828,48.728189],[30.938143,48.756223],[30.702292,48.765189],[30.615372,48.722194],[30.601419,48.663852],[30.540906,48.619255],[30.574082,48.56515],[30.384947,48.530526],[30.255239,48.48531],[30.174365,48.489237],[30.076128,48.455079],[29.940064,48.3756],[29.858571,48.417174],[29.777129,48.347644],[29.738165,48.270077],[29.774803,48.203105],[29.891799,48.185018],[29.996753,48.220985],[30.083466,48.143728],[30.293066,48.135718],[30.347533,48.163572],[30.501787,48.163572],[30.626224,48.146467],[30.704772,48.181581],[30.840991,48.181142],[30.912666,48.157629],[31.007028,48.211192],[31.183451,48.207962],[31.25032,48.120939],[31.414496,48.10771],[31.499401,48.119027],[31.760263,48.092465],[31.709517,48.016863],[31.866045,47.880385],[31.86806,47.795119],[31.985883,47.812947],[32.13869,47.747525],[32.234446,47.820441],[32.467042,47.781089],[32.640055,47.799563],[32.676228,47.841886],[32.682739,47.954851],[32.884019,48.028955],[32.979259,48.042753],[33.035276,47.96653],[33.057497,48.025803],[33.225859,48.132876],[33.396391,48.173236],[33.516177,48.242689],[33.484499,48.443917],[33.441401,48.513111],[33.477678,48.541043],[33.722521,48.616568],[33.799829,48.653155],[33.756524,48.6977],[33.60351,48.720334],[33.55757,48.771985],[33.658287,48.806169],[33.85011,48.793715],[33.91946,48.865803],[33.778486,48.922544],[33.651621,48.899289],[33.542687,48.902958],[33.456439,48.941742],[33.37572,48.941277],[33.299394,48.995459],[33.297069,49.064861],[33.204103,49.070907],[33.142039,49.130231],[33.038221,49.18196],[32.788728,49.2618]]]},"properties":{"LOCATION_TYPE":"level1","ADM0_A3":"UKR","LOCATION_ID":"UKR-35","NAME":"Kirovohrad","TYPE_EN":"Region"}},
{"type":"Feature","geometry":{"type":"Polygon","coordinates":[[[30.753677,50.289158],[30.846046,50.353493],[30.760252,50.43988],[30.750572,50.506299],[30.842339,50.583979],[30.834853,50.638797],[30.73858,50.668153],[30.647182,50.575179],[30.475767,50.595864],[30.432652,50.662447],[30.334014,50.663014],[30.270165,50.633393],[30.217439,50.542432],[30.238242,50.414672],[30.413718,50.303915],[30.455843,50.222244],[30.520806,50.190074],[30.585565,50.014155],[30.648198,50.033693],[30.626992,50.09625],[30.654384,50.155983],[30.608697,50.242508],[30.753677,50.289158]]]},"properties":{"LOCATION_TYPE":"level1","ADM0_A3":"UKR","LOCATION_ID":"UKR-30","NAME":"Kiev City","TYPE_EN":"Municipality"}}
]}