{"type":"FeatureCollection", "features": [
{"type":"Feature","geometry":{"type":"Polygon","coordinates":[[[-169.532338,16.733059],[-169.547678,16.727362],[-169.541697,16.72191],[-169.532338,16.733059]]]},"properties":{"LOCATION_TYPE":"level1","ADM0_A3":"UMI","LOCATION_ID":"UMI-67","NAME":"Johnston Atoll","TYPE_EN":null}},
{"type":"Feature","geometry":{"type":"Polygon","coordinates":[[[-160.029978,-0.376153],[-160.02477,-0.388767],[-160.012441,-0.382094],[-160.008901,-0.372491],[-160.029978,-0.376153]]]},"properties":{"LOCATION_TYPE":"level1","ADM0_A3":"UMI","LOCATION_ID":"UMI-86","NAME":"Jarvis Island","TYPE_EN":null}},
{"type":"Feature","geometry":{"type":"Polygon","coordinates":[[[-176.485829,0.196519],[-176.479319,0.190334],[-176.476877,0.197455],[-176.485829,0.196519]]]},"properties":{"LOCATION_TYPE":"level1","ADM0_A3":"UMI","LOCATION_ID":"UMI-81","NAME":"Baker Island","TYPE_EN":null}},
{"type":"Feature","geometry":{"type":"Polygon","coordinates":[[[-176.636179,0.790188],[-176.636098,0.803412],[-176.640492,0.801988],[-176.636179,0.790188]]]},"properties":{"LOCATION_TYPE":"level1","ADM0_A3":"UMI","LOCATION_ID":"UMI-84","NAME":"Howland Island","TYPE_EN":null}},
{"type":"Feature","geometry":{"type":"Polygon","coordinates":[[[166.619395,19.281643],[166.644216,19.27558],[166.638194,19.286444],[166.619395,19.281643]]]},"properties":{"LOCATION_TYPE":"level1","ADM0_A3":"UMI","LOCATION_ID":"UMI-79","NAME":"Wake Atoll","TYPE_EN":null}},
{"type":"Feature","geometry":{"type":"Polygon","coordinates":[[[-177.357655,28.214423],[-177.378,28.212836],[-177.372182,28.202338],[-177.357655,28.214423]]]},"properties":{"LOCATION_TYPE":"level1","ADM0_A3":"UMI","LOCATION_ID":"UMI-71","NAME":"Midway Islands","TYPE_EN":null}},
{"type":"Feature","geometry":{"type":"Polygon","coordinates":[[[-75.024322,18.417263],[-75.017812,18.396674],[-75.003163,18.397732],[-75.006988,18.415147],[-75.024322,18.417263]]]},"properties":{"LOCATION_TYPE":"level1","ADM0_A3":"UMI","LOCATION_ID":"UMI-76","NAME":"Navassa Island","TYPE_EN":null}},
{"type":"Feature","geometry":{"type":"Polygon","coordinates":[[[-162.060862,5.887193],[-162.07136,5.890163],[-162.08731,5.883857],[-162.091135,5.871649],[-162.073069,5.869371],[-162.061106,5.87344],[-162.060862,5.887193]]]},"properties":{"LOCATION_TYPE":"level1","ADM0_A3":"UMI","LOCATION_ID":"UMI-95","NAME":"Palmyra Atoll","TYPE_EN":null}}
]}