{"type":"FeatureCollection", "features": [
{"type":"Feature","geometry":{"type":"Polygon","coordinates":[[[-58.038978,-31.508637],[-57.988626,-31.642822],[-58.059268,-31.811494],[-58.168615,-31.846014],[-58.148306,-32.0629],[-58.186547,-32.15292],[-58.101591,-32.31136],[-58.191459,-32.491891],[-58.110995,-32.484735],[-57.995602,-32.582094],[-57.784607,-32.607622],[-57.75727,-32.558271],[-57.583508,-32.536153],[-57.470259,-32.445099],[-57.251151,-32.437555],[-57.039665,-32.363399],[-56.927476,-32.405257],[-56.72524,-32.411458],[-56.559359,-32.492487],[-56.505977,-32.356526],[-56.358751,-32.231882],[-56.244856,-31.907096],[-56.321595,-31.751292],[-56.462414,-31.864876],[-56.651549,-31.846325],[-56.841305,-31.793356],[-57.177176,-31.794441],[-57.369671,-31.690778],[-57.595368,-31.610577],[-57.742516,-31.583085],[-57.795924,-31.512546],[-57.906615,-31.470585],[-58.038978,-31.508637]]]},"properties":{"LOCATION_TYPE":"level1","ADM0_A3":"URY","LOCATION_ID":"URY-PA","NAME":"Paysandú","TYPE_EN":"Department"}},
{"type":"Feature","geometry":{"type":"Polygon","coordinates":[[[-56.017018,-31.074296],[-56.011357,-30.798222],[-56.23509,-30.565368],[-56.372601,-30.48589],[-56.673745,-30.211281],[-56.831281,-30.102037],[-57.102272,-30.121158],[-57.212601,-30.287349],[-57.535992,-30.27443],[-57.652729,-30.329104],[-57.849617,-30.48527],[-57.88579,-30.589863],[-57.799397,-30.791461],[-57.701279,-30.764944],[-57.572088,-30.863335],[-57.479225,-30.875376],[-57.071369,-31.077948],[-56.910448,-31.043893],[-56.678525,-31.041929],[-56.415517,-30.887055],[-56.183258,-30.937491],[-56.017018,-31.074296]]]},"properties":{"LOCATION_TYPE":"level1","ADM0_A3":"URY","LOCATION_ID":"URY-AR","NAME":"Artigas","TYPE_EN":"Department"}},
{"type":"Feature","geometry":{"type":"Polygon","coordinates":[[[-57.799397,-30.791461],[-57.807242,-30.90757],[-57.911732,-30.947361],[-57.855249,-31.058982],[-57.905117,-31.240986],[-58.038978,-31.508637],[-57.906615,-31.470585],[-57.795924,-31.512546],[-57.742516,-31.583085],[-57.595368,-31.610577],[-57.369671,-31.690778],[-57.177176,-31.794441],[-56.841305,-31.793356],[-56.651549,-31.846325],[-56.462414,-31.864876],[-56.321595,-31.751292],[-56.353945,-31.599673],[-56.321492,-31.519316],[-56.187133,-31.395241],[-56.158014,-31.304652],[-56.009874,-31.081945],[-56.017018,-31.074296],[-56.183258,-30.937491],[-56.415517,-30.887055],[-56.678525,-31.041929],[-56.910448,-31.043893],[-57.071369,-31.077948],[-57.479225,-30.875376],[-57.572088,-30.863335],[-57.701279,-30.764944],[-57.799397,-30.791461]]]},"properties":{"LOCATION_TYPE":"level1","ADM0_A3":"URY","LOCATION_ID":"URY-SA","NAME":"Salto","TYPE_EN":"Department"}},
{"type":"Feature","geometry":{"type":"Polygon","coordinates":[[[-54.467221,-31.664237],[-54.483155,-31.583911],[-54.591521,-31.471049],[-54.819776,-31.435289],[-54.969637,-31.340825],[-55.087253,-31.326769],[-55.259981,-31.228687],[-55.353852,-31.056294],[-55.591873,-30.848348],[-55.731891,-30.945397],[-55.86426,-31.076758],[-56.009874,-31.081945],[-56.158014,-31.304652],[-56.097681,-31.256076],[-55.856869,-31.366922],[-55.786719,-31.51513],[-55.686828,-31.565567],[-55.602518,-31.806069],[-55.347624,-31.797904],[-55.100404,-31.822915],[-54.887213,-31.874953],[-54.654514,-32.122845],[-54.589401,-32.109616],[-54.504109,-31.842449],[-54.520258,-31.73212],[-54.467221,-31.664237]]]},"properties":{"LOCATION_TYPE":"level1","ADM0_A3":"URY","LOCATION_ID":"URY-RV","NAME":"Rivera","TYPE_EN":"Department"}},
{"type":"Feature","geometry":{"type":"Polygon","coordinates":[[[-53.520662,-33.124979],[-53.768547,-33.189343],[-53.988818,-33.390468],[-54.125709,-33.465347],[-54.347814,-33.616552],[-54.427499,-33.864496],[-54.482147,-33.926043],[-54.460882,-34.095025],[-54.492095,-34.20122],[-54.492586,-34.390769],[-54.538164,-34.440843],[-54.498632,-34.546315],[-54.535529,-34.655249],[-54.530792,-34.806899],[-54.306467,-34.707696],[-54.145904,-34.667576],[-54.124623,-34.610447],[-53.972239,-34.487237],[-53.764882,-34.390395],[-53.779897,-34.336033],[-53.711008,-34.198826],[-53.539459,-34.062433],[-53.473053,-33.834568],[-53.411283,-33.74228],[-53.539647,-33.649263],[-53.514016,-33.394911],[-53.520662,-33.124979]]]},"properties":{"LOCATION_TYPE":"level1","ADM0_A3":"URY","LOCATION_ID":"URY-RO","NAME":"Rocha","TYPE_EN":"Department"}},
{"type":"Feature","geometry":{"type":"Polygon","coordinates":[[[-53.182836,-32.799904],[-53.379992,-32.789471],[-53.499959,-32.750197],[-53.834047,-32.765958],[-53.968406,-32.707719],[-54.036722,-32.760842],[-54.286319,-32.731283],[-54.495066,-32.754641],[-54.596714,-32.821045],[-54.819646,-32.83815],[-55.007154,-32.940005],[-55.00997,-33.024961],[-55.111075,-33.118237],[-55.091076,-33.25244],[-55.12464,-33.381838],[-54.998937,-33.342306],[-54.835717,-33.337706],[-54.714665,-33.396049],[-54.504342,-33.448036],[-54.354635,-33.357188],[-54.125709,-33.465347],[-53.988818,-33.390468],[-53.768547,-33.189343],[-53.520662,-33.124979],[-53.327309,-32.973645],[-53.298835,-32.889102],[-53.182836,-32.799904]]]},"properties":{"LOCATION_TYPE":"level1","ADM0_A3":"URY","LOCATION_ID":"URY-TT","NAME":"Treinta y Tres","TYPE_EN":"Department"}},
{"type":"Feature","geometry":{"type":"Polygon","coordinates":[[[-54.467221,-31.664237],[-54.520258,-31.73212],[-54.504109,-31.842449],[-54.589401,-32.109616],[-54.654514,-32.122845],[-54.755696,-32.101916],[-54.839619,-32.310482],[-55.039968,-32.468664],[-55.205074,-32.457088],[-55.328426,-32.493882],[-55.320778,-32.890809],[-55.15947,-33.017674],[-55.00997,-33.024961],[-55.007154,-32.940005],[-54.819646,-32.83815],[-54.596714,-32.821045],[-54.495066,-32.754641],[-54.286319,-32.731283],[-54.036722,-32.760842],[-53.968406,-32.707719],[-53.834047,-32.765958],[-53.499959,-32.750197],[-53.379992,-32.789471],[-53.182836,-32.799904],[-53.110836,-32.722394],[-53.186129,-32.64674],[-53.415624,-32.564161],[-53.5613,-32.449543],[-53.648684,-32.338645],[-53.670595,-32.226404],[-53.771829,-32.047087],[-54.068814,-31.879913],[-54.135063,-31.908956],[-54.274228,-31.823379],[-54.467221,-31.664237]]]},"properties":{"LOCATION_TYPE":"level1","ADM0_A3":"URY","LOCATION_ID":"URY-CL","NAME":"Cerro Largo","TYPE_EN":"Department"}},
{"type":"Feature","geometry":{"type":"Polygon","coordinates":[[[-54.530792,-34.806899],[-54.535529,-34.655249],[-54.498632,-34.546315],[-54.538164,-34.440843],[-54.492586,-34.390769],[-54.492095,-34.20122],[-54.460882,-34.095025],[-54.482147,-33.926043],[-54.574157,-34.039834],[-54.689654,-34.071925],[-54.779958,-34.201788],[-54.844399,-34.392887],[-55.083066,-34.51164],[-55.167661,-34.517634],[-55.281142,-34.597009],[-55.473275,-34.621917],[-55.373764,-34.802872],[-55.260243,-34.897638],[-55.082143,-34.883966],[-54.93932,-34.969903],[-54.530792,-34.806899]]]},"properties":{"LOCATION_TYPE":"level1","ADM0_A3":"URY","LOCATION_ID":"URY-MA","NAME":"Maldonado","TYPE_EN":"Department"}},
{"type":"Feature","geometry":{"type":"Polygon","coordinates":[[[-55.373764,-34.802872],[-55.473275,-34.621917],[-55.544227,-34.499858],[-55.536966,-34.39542],[-55.619106,-34.207731],[-55.902164,-34.270983],[-55.998644,-34.244369],[-56.13556,-34.364569],[-56.350663,-34.357334],[-56.401332,-34.432988],[-56.398025,-34.527091],[-56.471922,-34.596699],[-56.364151,-34.734107],[-56.232505,-34.761702],[-56.147136,-34.724702],[-56.035876,-34.779582],[-56.03839,-34.885804],[-55.792051,-34.774134],[-55.601794,-34.772415],[-55.373764,-34.802872]]]},"properties":{"LOCATION_TYPE":"level1","ADM0_A3":"URY","LOCATION_ID":"URY-CA","NAME":"Canelones","TYPE_EN":"Department"}},
{"type":"Feature","geometry":{"type":"Polygon","coordinates":[[[-56.03839,-34.885804],[-56.035876,-34.779582],[-56.147136,-34.724702],[-56.232505,-34.761702],[-56.364151,-34.734107],[-56.364591,-34.793535],[-56.311269,-34.906183],[-56.149892,-34.920343],[-56.03839,-34.885804]]]},"properties":{"LOCATION_TYPE":"level1","ADM0_A3":"URY","LOCATION_ID":"URY-MO","NAME":"Montevideo","TYPE_EN":"Department"}},
{"type":"Feature","geometry":{"type":"Polygon","coordinates":[[[-56.364591,-34.793535],[-56.364151,-34.734107],[-56.471922,-34.596699],[-56.398025,-34.527091],[-56.401332,-34.432988],[-56.44443,-34.17781],[-56.418695,-34.05544],[-56.462698,-33.902426],[-56.602922,-33.849716],[-56.89045,-33.988364],[-57.077725,-33.962991],[-56.941945,-34.147631],[-57.090954,-34.227213],[-57.105992,-34.404101],[-57.167478,-34.44825],[-56.795289,-34.698492],[-56.364591,-34.793535]]]},"properties":{"LOCATION_TYPE":"level1","ADM0_A3":"URY","LOCATION_ID":"URY-SJ","NAME":"San José","TYPE_EN":"Department"}},
{"type":"Feature","geometry":{"type":"Polygon","coordinates":[[[-57.167478,-34.44825],[-57.105992,-34.404101],[-57.090954,-34.227213],[-56.941945,-34.147631],[-57.077725,-33.962991],[-57.292957,-33.946351],[-57.393184,-33.89607],[-57.654176,-33.938135],[-57.85021,-33.86186],[-57.994155,-33.862119],[-58.039553,-33.803983],[-58.185642,-33.781969],[-58.415617,-33.875615],[-58.196197,-34.159438],[-58.076975,-34.19199],[-57.82251,-34.475109],[-57.624177,-34.430452],[-57.537914,-34.453614],[-57.167478,-34.44825]]]},"properties":{"LOCATION_TYPE":"level1","ADM0_A3":"URY","LOCATION_ID":"URY-CO","NAME":"Colonia","TYPE_EN":"Department"}},
{"type":"Feature","geometry":{"type":"Polygon","coordinates":[[[-58.415617,-33.875615],[-58.185642,-33.781969],[-58.039553,-33.803983],[-57.994155,-33.862119],[-57.85021,-33.86186],[-57.654176,-33.938135],[-57.393184,-33.89607],[-57.292957,-33.946351],[-57.077725,-33.962991],[-57.183713,-33.759076],[-57.174386,-33.596915],[-57.258412,-33.541363],[-57.336701,-33.354915],[-57.127128,-33.123094],[-57.240092,-33.115653],[-57.546585,-33.025426],[-57.650455,-33.085009],[-57.868529,-33.044339],[-58.060275,-33.144178],[-58.02839,-33.205053],[-58.223598,-33.308044],[-58.391524,-33.424446],[-58.433217,-33.527765],[-58.415617,-33.875615]]]},"properties":{"LOCATION_TYPE":"level1","ADM0_A3":"URY","LOCATION_ID":"URY-SO","NAME":"Soriano","TYPE_EN":"Department"}},
{"type":"Feature","geometry":{"type":"Polygon","coordinates":[[[-58.391524,-33.424446],[-58.223598,-33.308044],[-58.02839,-33.205053],[-58.060275,-33.144178],[-57.868529,-33.044339],[-57.650455,-33.085009],[-57.546585,-33.025426],[-57.240092,-33.115653],[-57.127128,-33.123094],[-57.118498,-33.019845],[-56.877892,-32.984756],[-56.804563,-32.889103],[-56.666794,-32.843266],[-56.559359,-32.492487],[-56.72524,-32.411458],[-56.927476,-32.405257],[-57.039665,-32.363399],[-57.251151,-32.437555],[-57.470259,-32.445099],[-57.583508,-32.536153],[-57.75727,-32.558271],[-57.784607,-32.607622],[-57.995602,-32.582094],[-58.110995,-32.484735],[-58.191459,-32.491891],[-58.157216,-32.575128],[-58.120473,-32.819268],[-58.048492,-32.911716],[-58.076975,-33.030694],[-58.174428,-33.110447],[-58.310292,-33.108819],[-58.366933,-33.153741],[-58.349233,-33.28281],[-58.391524,-33.424446]]]},"properties":{"LOCATION_TYPE":"level1","ADM0_A3":"URY","LOCATION_ID":"URY-RN","NAME":"Río Negro","TYPE_EN":"Department"}},
{"type":"Feature","geometry":{"type":"Polygon","coordinates":[[[-56.559359,-32.492487],[-56.666794,-32.843266],[-56.361567,-32.814793],[-56.224857,-32.823009],[-56.16946,-32.725961],[-56.013811,-32.699968],[-55.927072,-32.614546],[-55.830411,-32.63377],[-55.748478,-32.522201],[-55.564432,-32.510573],[-55.496168,-32.444686],[-55.328426,-32.493882],[-55.205074,-32.457088],[-55.039968,-32.468664],[-54.839619,-32.310482],[-54.755696,-32.101916],[-54.654514,-32.122845],[-54.887213,-31.874953],[-55.100404,-31.822915],[-55.347624,-31.797904],[-55.602518,-31.806069],[-55.686828,-31.565567],[-55.786719,-31.51513],[-55.856869,-31.366922],[-56.097681,-31.256076],[-56.158014,-31.304652],[-56.187133,-31.395241],[-56.321492,-31.519316],[-56.353945,-31.599673],[-56.321595,-31.751292],[-56.244856,-31.907096],[-56.358751,-32.231882],[-56.505977,-32.356526],[-56.559359,-32.492487]]]},"properties":{"LOCATION_TYPE":"level1","ADM0_A3":"URY","LOCATION_ID":"URY-TA","NAME":"Tacuarembó","TYPE_EN":"Department"}},
{"type":"Feature","geometry":{"type":"Polygon","coordinates":[[[-55.328426,-32.493882],[-55.496168,-32.444686],[-55.564432,-32.510573],[-55.748478,-32.522201],[-55.830411,-32.63377],[-55.927072,-32.614546],[-56.013811,-32.699968],[-56.16946,-32.725961],[-56.224857,-32.823009],[-56.361567,-32.814793],[-56.666794,-32.843266],[-56.804563,-32.889103],[-56.877892,-32.984756],[-57.118498,-33.019845],[-57.127128,-33.123094],[-57.028219,-33.184331],[-56.883318,-33.192702],[-56.808775,-33.272594],[-56.681108,-33.299156],[-56.532978,-33.495526],[-56.280254,-33.428967],[-56.247931,-33.475941],[-56.09564,-33.492632],[-56.021717,-33.43367],[-55.885188,-33.435375],[-55.717756,-33.367265],[-55.622362,-33.361116],[-55.303906,-33.19632],[-55.111075,-33.118237],[-55.00997,-33.024961],[-55.15947,-33.017674],[-55.320778,-32.890809],[-55.328426,-32.493882]]]},"properties":{"LOCATION_TYPE":"level1","ADM0_A3":"URY","LOCATION_ID":"URY-DU","NAME":"Durazno","TYPE_EN":"Department"}},
{"type":"Feature","geometry":{"type":"Polygon","coordinates":[[[-57.127128,-33.123094],[-57.336701,-33.354915],[-57.258412,-33.541363],[-57.174386,-33.596915],[-57.183713,-33.759076],[-57.077725,-33.962991],[-56.89045,-33.988364],[-56.602922,-33.849716],[-56.462698,-33.902426],[-56.42177,-33.762952],[-56.532978,-33.495526],[-56.681108,-33.299156],[-56.808775,-33.272594],[-56.883318,-33.192702],[-57.028219,-33.184331],[-57.127128,-33.123094]]]},"properties":{"LOCATION_TYPE":"level1","ADM0_A3":"URY","LOCATION_ID":"URY-FS","NAME":"Flores","TYPE_EN":"Department"}},
{"type":"Feature","geometry":{"type":"Polygon","coordinates":[[[-55.111075,-33.118237],[-55.303906,-33.19632],[-55.622362,-33.361116],[-55.717756,-33.367265],[-55.885188,-33.435375],[-56.021717,-33.43367],[-56.09564,-33.492632],[-56.247931,-33.475941],[-56.280254,-33.428967],[-56.532978,-33.495526],[-56.42177,-33.762952],[-56.462698,-33.902426],[-56.418695,-34.05544],[-56.44443,-34.17781],[-56.401332,-34.432988],[-56.350663,-34.357334],[-56.13556,-34.364569],[-55.998644,-34.244369],[-55.902164,-34.270983],[-55.619106,-34.207731],[-55.347391,-33.880206],[-55.292098,-33.7074],[-55.321553,-33.610041],[-55.230112,-33.563842],[-55.109886,-33.439974],[-55.12464,-33.381838],[-55.091076,-33.25244],[-55.111075,-33.118237]]]},"properties":{"LOCATION_TYPE":"level1","ADM0_A3":"URY","LOCATION_ID":"URY-FD","NAME":"Florida","TYPE_EN":"Department"}},
{"type":"Feature","geometry":{"type":"Polygon","coordinates":[[[-55.619106,-34.207731],[-55.536966,-34.39542],[-55.544227,-34.499858],[-55.473275,-34.621917],[-55.281142,-34.597009],[-55.167661,-34.517634],[-55.083066,-34.51164],[-54.844399,-34.392887],[-54.779958,-34.201788],[-54.689654,-34.071925],[-54.574157,-34.039834],[-54.482147,-33.926043],[-54.427499,-33.864496],[-54.347814,-33.616552],[-54.125709,-33.465347],[-54.354635,-33.357188],[-54.504342,-33.448036],[-54.714665,-33.396049],[-54.835717,-33.337706],[-54.998937,-33.342306],[-55.12464,-33.381838],[-55.109886,-33.439974],[-55.230112,-33.563842],[-55.321553,-33.610041],[-55.292098,-33.7074],[-55.347391,-33.880206],[-55.619106,-34.207731]]]},"properties":{"LOCATION_TYPE":"level1","ADM0_A3":"URY","LOCATION_ID":"URY-LA","NAME":"Lavalleja","TYPE_EN":"Department"}}
]}