{"type":"FeatureCollection", "features": [
{"type":"Feature","geometry":{"type":"MultiPolygon","coordinates":[[[[70.756293,40.695578],[70.353824,40.456136],[70.501929,40.35082],[70.581821,40.221732],[70.707188,40.200183],[71.053213,40.274235],[71.365132,40.294131],[71.673072,40.147886],[72.099299,40.426371],[72.228328,40.459606],[72.221721,40.560419],[71.86903,40.624446],[71.581812,40.774256],[71.270978,40.616901],[70.931464,40.774747],[70.756293,40.695578]]],[[[71.008564,40.157757],[70.952961,40.079208],[71.113674,39.874466],[71.221058,39.931724],[71.008564,40.157757]]]]},"properties":{"LOCATION_TYPE":"level1","ADM0_A3":"UZB","LOCATION_ID":"UZB-FA","NAME":"Ferghana","TYPE_EN":"Region"}},
{"type":"Feature","geometry":{"type":"Polygon","coordinates":[[[70.470782,41.404879],[70.169288,41.578342],[70.453663,41.71208],[70.550091,41.824063],[70.825113,41.93633],[71.217854,42.206365],[71.014042,42.287704],[70.734266,42.197296],[70.610243,42.02741],[70.45542,42.093737],[70.315067,42.034593],[70.13637,41.848093],[69.870856,41.699575],[69.624566,41.66831],[69.044447,41.379181],[69.039176,41.220276],[68.746274,41.0638],[68.649524,40.951691],[69.053801,40.658294],[69.124029,40.459546],[69.07364,40.216941],[69.285259,40.218631],[69.306343,40.364979],[69.198029,40.545847],[69.313474,40.609357],[69.314198,40.729298],[69.435844,40.802679],[69.66012,40.638709],[70.280392,40.877713],[70.363539,41.032432],[70.458006,41.015737],[70.401419,41.319365],[70.470782,41.404879]],[[69.243448,41.219172],[69.155887,41.288259],[69.223172,41.403276],[69.34819,41.370166],[69.243448,41.219172]]]},"properties":{"LOCATION_TYPE":"level1","ADM0_A3":"UZB","LOCATION_ID":"UZB-TO","NAME":"Tashkent","TYPE_EN":"Region"}},
{"type":"Feature","geometry":{"type":"Polygon","coordinates":[[[70.470782,41.404879],[70.401419,41.319365],[70.458006,41.015737],[70.696852,40.816218],[70.756293,40.695578],[70.931464,40.774747],[71.270978,40.616901],[71.581812,40.774256],[71.644237,40.889959],[72.165859,40.906883],[72.195486,41.006358],[72.169889,41.168651],[71.871613,41.194489],[71.863034,41.312208],[71.68413,41.534055],[71.585532,41.323525],[71.412571,41.334687],[71.421459,41.162088],[71.276145,41.113151],[70.914203,41.193042],[70.75628,41.269627],[70.759691,41.372515],[70.633807,41.467496],[70.470782,41.404879]]]},"properties":{"LOCATION_TYPE":"level1","ADM0_A3":"UZB","LOCATION_ID":"UZB-NG","NAME":"Namangan","TYPE_EN":"Region"}},
{"type":"Feature","geometry":{"type":"Polygon","coordinates":[[[72.228328,40.459606],[72.370497,40.38565],[72.447908,40.560471],[72.585781,40.508743],[72.748355,40.575096],[72.783908,40.669663],[73.118048,40.782938],[73.00343,40.870168],[72.619474,40.88009],[72.476744,41.011813],[72.195486,41.006358],[72.165859,40.906883],[71.644237,40.889959],[71.581812,40.774256],[71.86903,40.624446],[72.221721,40.560419],[72.228328,40.459606]]]},"properties":{"LOCATION_TYPE":"level1","ADM0_A3":"UZB","LOCATION_ID":"UZB-AN","NAME":"Andijon","TYPE_EN":"Region"}},
{"type":"Feature","geometry":{"type":"MultiPolygon","coordinates":[[[[69.07364,40.216941],[69.124029,40.459546],[69.053801,40.658294],[68.649524,40.951691],[68.549696,40.835028],[68.627418,40.667131],[68.461743,40.584656],[68.266497,40.662703],[68.098614,40.309271],[68.109672,40.232893],[68.364437,40.225659],[68.664057,40.282451],[68.642732,40.183691],[69.07364,40.216941]]],[[[68.640276,39.848136],[68.748341,39.826149],[68.789372,39.993994],[68.696545,40.111739],[68.638322,40.046677],[68.640276,39.848136]]]]},"properties":{"LOCATION_TYPE":"level1","ADM0_A3":"UZB","LOCATION_ID":"UZB-SI","NAME":"Sirdaryo","TYPE_EN":"Region"}},
{"type":"Feature","geometry":{"type":"Polygon","coordinates":[[[68.642732,40.183691],[68.664057,40.282451],[68.364437,40.225659],[68.109672,40.232893],[68.098614,40.309271],[68.266497,40.662703],[68.067504,40.788002],[68.131324,41.029641],[68.02115,41.059149],[67.937434,41.20038],[66.81528,41.141883],[66.75789,41.15314],[66.61426,41.084159],[66.631313,40.944736],[66.759781,40.890579],[66.801225,40.775212],[66.620151,40.4951],[66.883029,40.47815],[66.91233,40.248655],[67.066429,39.999109],[67.459945,39.938183],[67.503715,39.824236],[67.37349,39.774213],[67.294838,39.59562],[67.436483,39.485705],[67.507435,39.552936],[67.764525,39.622596],[68.337565,39.527924],[68.51745,39.54844],[68.605817,39.666882],[68.640276,39.848136],[68.638322,40.046677],[68.696545,40.111739],[68.642732,40.183691]]]},"properties":{"LOCATION_TYPE":"level1","ADM0_A3":"UZB","LOCATION_ID":"UZB-JI","NAME":"Jizzakh","TYPE_EN":"Region"}},
{"type":"Feature","geometry":{"type":"Polygon","coordinates":[[[67.436483,39.485705],[67.294838,39.59562],[67.37349,39.774213],[67.503715,39.824236],[67.459945,39.938183],[67.066429,39.999109],[66.91233,40.248655],[66.883029,40.47815],[66.620151,40.4951],[66.522999,40.620932],[66.208807,40.537939],[66.198265,40.28457],[66.094343,40.051225],[65.878594,40.015749],[65.527091,40.14618],[65.435262,39.90573],[65.293565,39.925832],[65.143084,39.866172],[65.224991,39.700988],[65.255583,39.491802],[65.682585,39.483378],[65.815291,39.552935],[66.088556,39.319616],[66.388796,39.397854],[66.510597,39.340131],[66.688571,39.430565],[66.873727,39.405089],[66.894656,39.304449],[67.119655,39.33716],[67.358697,39.290431],[67.436483,39.485705]]]},"properties":{"LOCATION_TYPE":"level1","ADM0_A3":"UZB","LOCATION_ID":"UZB-SA","NAME":"Samarkand","TYPE_EN":"Region"}},
{"type":"Feature","geometry":{"type":"Polygon","coordinates":[[[67.358697,39.290431],[67.119655,39.33716],[66.894656,39.304449],[66.873727,39.405089],[66.688571,39.430565],[66.510597,39.340131],[66.388796,39.397854],[66.088556,39.319616],[65.815291,39.552935],[65.682585,39.483378],[65.255583,39.491802],[65.137813,39.464258],[64.931262,39.341191],[64.878965,39.161176],[64.521313,39.056066],[64.367566,38.940374],[64.634897,38.744148],[64.977718,38.61227],[65.205301,38.449644],[65.60414,38.237409],[65.876681,38.272962],[66.231078,38.148784],[66.306939,38.08039],[66.554159,38.026853],[66.636524,37.966593],[66.895121,38.273892],[67.110974,38.376263],[67.16265,38.503722],[67.38889,38.708077],[67.559422,38.770295],[67.515807,38.944031],[67.673254,39.002978],[67.678587,39.105935],[67.35008,39.219829],[67.358697,39.290431]]]},"properties":{"LOCATION_TYPE":"level1","ADM0_A3":"UZB","LOCATION_ID":"UZB-QA","NAME":"Kashkadarya","TYPE_EN":"Region"}},
{"type":"Feature","geometry":{"type":"Polygon","coordinates":[[[67.673254,39.002978],[67.515807,38.944031],[67.559422,38.770295],[67.38889,38.708077],[67.16265,38.503722],[67.110974,38.376263],[66.895121,38.273892],[66.636524,37.966593],[66.518813,37.782708],[66.497005,37.397744],[66.694099,37.343406],[67.005915,37.384386],[67.236753,37.192408],[67.482371,37.277364],[67.785092,37.20357],[67.829224,37.527943],[68.079648,37.806272],[68.122229,37.908333],[68.248733,37.948951],[68.360664,38.174053],[68.183724,38.335491],[68.055153,38.536305],[68.037635,38.691645],[68.172562,38.845279],[68.085642,38.993771],[67.845243,38.973772],[67.673254,39.002978]]]},"properties":{"LOCATION_TYPE":"level1","ADM0_A3":"UZB","LOCATION_ID":"UZB-SU","NAME":"Surkhandarya","TYPE_EN":"Region"}},
{"type":"Feature","geometry":{"type":"Polygon","coordinates":[[[62.028321,43.480922],[61.985704,43.493341],[61.161672,44.168106],[61.036305,44.382822],[59.675768,45.029139],[58.582191,45.548694],[58.531445,45.558719],[57.478279,45.336924],[55.978422,44.996221],[55.976769,43.616383],[55.977389,42.698532],[55.978422,41.321717],[56.793463,41.288334],[57.010194,41.254124],[57.153751,41.37236],[57.019599,41.465946],[56.960481,41.647201],[56.950146,41.86605],[57.115511,41.952092],[57.207805,42.07056],[57.382264,42.163629],[57.619769,42.148178],[57.850453,42.191431],[57.997731,42.493428],[58.282675,42.68892],[58.493204,42.64546],[58.612267,42.780852],[58.89442,42.547843],[59.122003,42.537999],[59.2452,42.365348],[59.478157,42.285637],[59.866351,42.304215],[60.028201,42.199518],[59.983656,41.949043],[60.141144,41.874221],[60.296868,42.003431],[60.458977,41.966638],[60.549979,41.777321],[61.091806,41.413597],[61.357165,41.298151],[61.44641,41.386286],[61.711303,41.35484],[61.8638,41.28456],[62.153499,40.998893],[62.239488,40.998971],[62.464642,41.094675],[62.18037,41.392306],[61.751611,41.834191],[61.995885,41.980022],[61.862095,42.167426],[61.881629,42.396896],[62.465418,43.231212],[62.185331,43.313946],[62.028321,43.480922]]]},"properties":{"LOCATION_TYPE":"level1","ADM0_A3":"UZB","LOCATION_ID":"UZB-QR","NAME":"Karakalpakstan","TYPE_EN":"Automonous Region"}},
{"type":"Feature","geometry":{"type":"Polygon","coordinates":[[[66.75789,41.15314],[66.688208,41.199192],[66.538863,41.740761],[66.504137,41.993484],[66.017241,41.997619],[66.013727,42.40302],[66.053208,42.440873],[66.101267,42.990323],[65.795239,42.877203],[65.51691,43.297229],[65.271447,43.417015],[64.956531,43.69736],[64.855038,43.712914],[64.426744,43.547033],[63.208007,43.627467],[62.028321,43.480922],[62.185331,43.313946],[62.465418,43.231212],[61.881629,42.396896],[61.862095,42.167426],[61.995885,41.980022],[61.751611,41.834191],[62.18037,41.392306],[62.534767,41.493282],[62.843741,41.254614],[62.978564,41.074599],[63.222322,41.010314],[63.677333,40.804306],[63.854222,40.757952],[63.985015,40.932799],[64.1017,40.930474],[64.164694,40.797484],[64.435478,40.773015],[64.488395,40.878229],[64.802019,40.926934],[64.846512,40.770406],[65.014409,40.715086],[65.317491,40.699118],[65.13404,40.336143],[64.8754,40.366761],[64.782589,40.075332],[64.590042,39.907797],[64.678151,39.805788],[64.983248,39.699877],[65.137813,39.464258],[65.255583,39.491802],[65.224991,39.700988],[65.143084,39.866172],[65.293565,39.925832],[65.435262,39.90573],[65.527091,40.14618],[65.878594,40.015749],[66.094343,40.051225],[66.198265,40.28457],[66.208807,40.537939],[66.522999,40.620932],[66.620151,40.4951],[66.801225,40.775212],[66.759781,40.890579],[66.631313,40.944736],[66.61426,41.084159],[66.75789,41.15314]]]},"properties":{"LOCATION_TYPE":"level1","ADM0_A3":"UZB","LOCATION_ID":"UZB-NW","NAME":"Navoi","TYPE_EN":"Region"}},
{"type":"Feature","geometry":{"type":"Polygon","coordinates":[[[60.141144,41.874221],[60.049182,41.753499],[60.155635,41.603327],[60.071713,41.514366],[60.094244,41.389516],[60.414534,41.235262],[60.538144,41.213248],[60.860295,41.252987],[61.09966,41.2241],[61.281355,41.157282],[61.470077,41.29717],[61.654355,41.249421],[61.877907,41.124984],[61.970822,41.01543],[62.044771,40.714984],[62.187061,40.505516],[62.447279,40.788312],[62.239488,40.998971],[62.153499,40.998893],[61.8638,41.28456],[61.711303,41.35484],[61.44641,41.386286],[61.357165,41.298151],[61.091806,41.413597],[60.549979,41.777321],[60.458977,41.966638],[60.296868,42.003431],[60.141144,41.874221]]]},"properties":{"LOCATION_TYPE":"level1","ADM0_A3":"UZB","LOCATION_ID":"UZB-XO","NAME":"Khorezm","TYPE_EN":"Region"}},
{"type":"Feature","geometry":{"type":"Polygon","coordinates":[[[62.187061,40.505516],[62.353279,40.430402],[62.439682,40.172898],[62.452808,40.009239],[62.593161,39.890228],[63.477551,39.402919],[63.709268,39.190891],[64.120613,38.96168],[64.367566,38.940374],[64.521313,39.056066],[64.878965,39.161176],[64.931262,39.341191],[65.137813,39.464258],[64.983248,39.699877],[64.678151,39.805788],[64.590042,39.907797],[64.782589,40.075332],[64.8754,40.366761],[65.13404,40.336143],[65.317491,40.699118],[65.014409,40.715086],[64.846512,40.770406],[64.802019,40.926934],[64.488395,40.878229],[64.435478,40.773015],[64.164694,40.797484],[64.1017,40.930474],[63.985015,40.932799],[63.854222,40.757952],[63.677333,40.804306],[63.222322,41.010314],[62.978564,41.074599],[62.843741,41.254614],[62.534767,41.493282],[62.18037,41.392306],[62.464642,41.094675],[62.239488,40.998971],[62.447279,40.788312],[62.187061,40.505516]]]},"properties":{"LOCATION_TYPE":"level1","ADM0_A3":"UZB","LOCATION_ID":"UZB-BU","NAME":"Bukhoro","TYPE_EN":"Region"}},
{"type":"Feature","geometry":{"type":"Polygon","coordinates":[[[69.243448,41.219172],[69.34819,41.370166],[69.223172,41.403276],[69.155887,41.288259],[69.243448,41.219172]]]},"properties":{"LOCATION_TYPE":"level1","ADM0_A3":"UZB","LOCATION_ID":"UZB-TK","NAME":"Tashkent","TYPE_EN":"Region"}}
]}