{"type":"FeatureCollection", "features": [
{"type":"Feature","geometry":{"type":"Polygon","coordinates":[[[-61.194,13.036851],[-61.249257,13.016343],[-61.22643,12.99315],[-61.194,13.036851]]]},"properties":{"LOCATION_TYPE":"level1","ADM0_A3":"VCT","LOCATION_ID":"VCT-06","NAME":"Grenadines","TYPE_EN":"Parish"}},
{"type":"Feature","geometry":{"type":"Polygon","coordinates":[[[-61.237904,13.163366],[-61.192773,13.216687],[-61.198851,13.239298],[-61.271352,13.18651],[-61.237904,13.163366]]]},"properties":{"LOCATION_TYPE":"level1","ADM0_A3":"VCT","LOCATION_ID":"VCT-02","NAME":"Saint Andrew","TYPE_EN":"Parish"}},
{"type":"Feature","geometry":{"type":"Polygon","coordinates":[[[-61.135536,13.197849],[-61.192773,13.216687],[-61.237904,13.163366],[-61.185211,13.132514],[-61.135536,13.197849]]]},"properties":{"LOCATION_TYPE":"level1","ADM0_A3":"VCT","LOCATION_ID":"VCT-04","NAME":"Saint George","TYPE_EN":"Parish"}},
{"type":"Feature","geometry":{"type":"Polygon","coordinates":[[[-61.171259,13.379952],[-61.170662,13.292398],[-61.187706,13.262898],[-61.198851,13.239298],[-61.192773,13.216687],[-61.135536,13.197849],[-61.123931,13.308254],[-61.144032,13.374091],[-61.171259,13.379952]]]},"properties":{"LOCATION_TYPE":"level1","ADM0_A3":"VCT","LOCATION_ID":"VCT-01","NAME":"Charlotte","TYPE_EN":"Parish"}},
{"type":"Feature","geometry":{"type":"Polygon","coordinates":[[[-61.268386,13.265908],[-61.227897,13.255334],[-61.187706,13.262898],[-61.170662,13.292398],[-61.171259,13.379952],[-61.212026,13.368883],[-61.243398,13.294379],[-61.268386,13.265908]]]},"properties":{"LOCATION_TYPE":"level1","ADM0_A3":"VCT","LOCATION_ID":"VCT-03","NAME":"Saint David","TYPE_EN":"Parish"}},
{"type":"Feature","geometry":{"type":"Polygon","coordinates":[[[-61.271352,13.18651],[-61.198851,13.239298],[-61.187706,13.262898],[-61.227897,13.255334],[-61.268386,13.265908],[-61.271352,13.18651]]]},"properties":{"LOCATION_TYPE":"level1","ADM0_A3":"VCT","LOCATION_ID":"VCT-05","NAME":"Saint Patrick","TYPE_EN":"Parish"}}
]}