{"type":"FeatureCollection", "features": [
{"type":"Feature","geometry":{"type":"MultiPolygon","coordinates":[[[[-60.267998,7.921262],[-60.129219,8.028813],[-60.019458,8.06031],[-59.99331,8.168521],[-59.848461,8.227742],[-59.815595,8.287764],[-60.020985,8.55801],[-60.197825,8.623847],[-60.371897,8.635403],[-60.461578,8.534369],[-60.606313,8.551093],[-60.692454,8.604682],[-60.984771,8.570543],[-60.992421,8.512193],[-61.18102,8.493394],[-61.284047,8.397203],[-61.34911,8.479315],[-61.434234,8.479153],[-61.523061,8.596625],[-61.209462,8.609036],[-61.12682,8.814521],[-61.09968,8.960354],[-61.006581,9.048774],[-60.983998,9.167385],[-60.821889,9.272773],[-60.783803,9.338609],[-60.862294,9.456122],[-61.053212,9.581285],[-61.130116,9.572496],[-61.337822,9.712115],[-61.439168,9.818411],[-61.582931,9.872163],[-61.592519,9.781968],[-61.7901,9.830667],[-61.876765,9.823682],[-62.025383,9.957357],[-62.196476,10.019678],[-62.257721,9.937812],[-62.242991,9.842841],[-62.325366,9.718851],[-62.44024,9.54102],[-62.320532,9.357336],[-62.304693,9.196648],[-62.202115,9.070971],[-62.05308,9.045366],[-62.084189,8.944829],[-62.012618,8.855196],[-62.087393,8.725127],[-62.435899,8.513822],[-62.52654,8.513434],[-62.597646,8.447986],[-62.247177,8.313808],[-61.635199,8.28704],[-61.609205,8.118523],[-61.394077,7.87753],[-61.319197,7.820582],[-61.024461,7.940678],[-60.93966,7.920964],[-60.796955,7.757046],[-60.539064,7.916933],[-60.267998,7.921262]]],[[[-60.951361,8.827825],[-61.059969,8.798163],[-61.167108,8.699385],[-61.093874,8.633744],[-60.846576,8.637715],[-60.686043,8.789015],[-60.737598,8.866613],[-60.861699,8.870245],[-60.951361,8.827825]]]]},"properties":{"LOCATION_TYPE":"level1","ADM0_A3":"VEN","LOCATION_ID":"VEN-Y","NAME":"Delta Amacuro","TYPE_EN":"State"}},
{"type":"Feature","geometry":{"type":"Polygon","coordinates":[[[-60.267998,7.921262],[-60.539064,7.916933],[-60.796955,7.757046],[-60.93966,7.920964],[-61.024461,7.940678],[-61.319197,7.820582],[-61.394077,7.87753],[-61.609205,8.118523],[-61.635199,8.28704],[-62.247177,8.313808],[-62.597646,8.447986],[-62.685832,8.385716],[-62.757714,8.379825],[-62.879102,8.274121],[-62.9769,8.309519],[-63.17464,8.313446],[-63.330806,8.213892],[-63.415762,8.213039],[-63.491597,8.145627],[-63.682929,8.15821],[-63.839896,8.11041],[-63.961,7.973622],[-64.138586,7.974423],[-64.231629,8.071446],[-64.352397,8.008969],[-64.523627,7.996282],[-64.523162,7.773686],[-64.62034,7.774384],[-64.857328,7.659817],[-65.103695,7.83438],[-65.356651,7.869417],[-65.648158,7.899906],[-65.746576,7.854689],[-65.939458,7.67917],[-66.130893,7.683821],[-66.215694,7.641291],[-66.330519,7.648422],[-66.440461,7.580442],[-66.595723,7.339552],[-66.995156,7.156824],[-67.089827,7.065667],[-67.034378,6.913067],[-67.049545,6.755273],[-67.103392,6.701452],[-67.170236,6.429375],[-67.275035,6.367467],[-67.322345,6.272512],[-67.450972,6.198035],[-67.456299,6.193224],[-67.396217,6.124846],[-67.189485,6.110893],[-67.144604,5.974261],[-67.199614,5.713579],[-67.09254,5.719315],[-66.977327,5.622344],[-66.81757,5.694252],[-66.694942,5.699058],[-66.535313,5.753138],[-66.345531,5.922197],[-66.220474,5.73164],[-66.117328,5.785254],[-65.99346,5.796287],[-65.827113,6.110196],[-65.633327,6.147351],[-65.580255,6.080637],[-65.638339,5.85432],[-65.608858,5.714897],[-65.471063,5.768356],[-65.265933,5.773937],[-65.253014,5.629243],[-65.132996,5.5131],[-65.175344,5.421297],[-65.135683,5.311356],[-65.288438,5.248905],[-65.222163,5.143924],[-65.184104,4.999773],[-65.085066,4.799216],[-64.941999,4.625196],[-64.702221,4.587653],[-64.660105,4.541868],[-64.629202,4.288162],[-64.648024,4.207905],[-64.58967,4.118871],[-64.364981,4.151867],[-64.240596,4.142022],[-64.125099,4.088485],[-64.063811,3.911597],[-63.996425,3.880798],[-63.87514,3.949812],[-63.622804,3.935213],[-63.510666,3.854546],[-63.4254,3.968364],[-63.285977,3.920821],[-62.997054,3.599135],[-62.889412,3.560817],[-62.749576,3.660372],[-62.788798,3.899401],[-62.766216,4.020712],[-62.560957,4.037791],[-62.536979,4.125408],[-62.384172,4.173467],[-62.192659,4.094738],[-62.035046,4.159876],[-61.931486,4.146415],[-61.71889,4.254651],[-61.542104,4.263023],[-61.458182,4.419137],[-61.333228,4.423865],[-61.297262,4.52373],[-61.151198,4.492053],[-61.011956,4.518304],[-60.9478,4.573598],[-60.903435,4.699585],[-60.763677,4.755086],[-60.612626,4.900581],[-60.598674,4.99688],[-60.664303,5.170254],[-60.739854,5.202138],[-61.379608,5.9053],[-61.269382,6.107225],[-61.121562,6.186652],[-61.160913,6.342353],[-61.138977,6.424803],[-61.204787,6.595826],[-61.12983,6.715844],[-60.933821,6.731735],[-60.79352,6.793824],[-60.721534,6.759692],[-60.620688,6.845888],[-60.420958,6.942213],[-60.292336,7.105252],[-60.372021,7.172277],[-60.475322,7.188503],[-60.548005,7.125509],[-60.643064,7.220904],[-60.601774,7.330148],[-60.730578,7.525433],[-60.601257,7.63385],[-60.582086,7.736325],[-60.503279,7.820867],[-60.37476,7.823606],[-60.267998,7.921262]]]},"properties":{"LOCATION_TYPE":"level1","ADM0_A3":"VEN","LOCATION_ID":"VEN-F","NAME":"Bolívar","TYPE_EN":"State"}},
{"type":"Feature","geometry":{"type":"Polygon","coordinates":[[[-64.648024,4.207905],[-64.629202,4.288162],[-64.660105,4.541868],[-64.702221,4.587653],[-64.941999,4.625196],[-65.085066,4.799216],[-65.184104,4.999773],[-65.222163,5.143924],[-65.288438,5.248905],[-65.135683,5.311356],[-65.175344,5.421297],[-65.132996,5.5131],[-65.253014,5.629243],[-65.265933,5.773937],[-65.471063,5.768356],[-65.608858,5.714897],[-65.638339,5.85432],[-65.580255,6.080637],[-65.633327,6.147351],[-65.827113,6.110196],[-65.99346,5.796287],[-66.117328,5.785254],[-66.220474,5.73164],[-66.345531,5.922197],[-66.535313,5.753138],[-66.694942,5.699058],[-66.81757,5.694252],[-66.977327,5.622344],[-67.09254,5.719315],[-67.199614,5.713579],[-67.144604,5.974261],[-67.189485,6.110893],[-67.396217,6.124846],[-67.456299,6.193224],[-67.491199,6.114486],[-67.428567,6.03847],[-67.601218,5.820576],[-67.64907,5.65609],[-67.614292,5.553667],[-67.647003,5.483362],[-67.809784,5.37882],[-67.843684,5.297249],[-67.793092,5.063335],[-67.865078,4.512077],[-67.781982,4.338884],[-67.804926,4.268474],[-67.740176,4.118716],[-67.631759,3.761865],[-67.471407,3.680061],[-67.403917,3.504464],[-67.304647,3.425709],[-67.395804,3.266572],[-67.452183,3.243679],[-67.838619,2.88613],[-67.626591,2.813421],[-67.575586,2.691103],[-67.485204,2.661906],[-67.325421,2.47463],[-67.197625,2.402025],[-67.217675,2.284513],[-67.135148,2.003341],[-67.066832,1.894123],[-66.882502,1.326018],[-66.875061,1.22251],[-66.407079,0.802071],[-66.346204,0.759386],[-66.156345,0.733031],[-65.974082,0.80698],[-65.871969,0.90899],[-65.74544,0.974154],[-65.582943,0.977668],[-65.517004,0.862791],[-65.587336,0.739129],[-65.56049,0.656033],[-65.45122,0.69014],[-65.327196,0.910281],[-65.203044,0.923821],[-65.136769,1.126909],[-65.022486,1.139983],[-64.839293,1.270828],[-64.730876,1.247574],[-64.604217,1.331289],[-64.551197,1.419527],[-64.40901,1.507506],[-64.301523,1.446657],[-64.129724,1.57807],[-64.080864,1.647394],[-64.053605,1.89371],[-63.99503,1.958021],[-63.762641,1.985668],[-63.617533,2.101165],[-63.411758,2.149379],[-63.372639,2.266839],[-63.384834,2.420577],[-63.704091,2.437578],[-63.831319,2.428638],[-64.047972,2.471323],[-63.997872,2.705986],[-64.105953,2.947211],[-64.222923,3.123996],[-64.245609,3.41894],[-64.202976,3.594717],[-64.324157,3.724115],[-64.531431,3.853513],[-64.662896,3.996992],[-64.727104,4.140782],[-64.80126,4.188531],[-64.791622,4.284417],[-64.648024,4.207905]]]},"properties":{"LOCATION_TYPE":"level1","ADM0_A3":"VEN","LOCATION_ID":"VEN-Z","NAME":"Amazonas","TYPE_EN":"State"}},
{"type":"Feature","geometry":{"type":"MultiPolygon","coordinates":[[[[-71.218535,9.187002],[-71.273549,9.135077],[-71.514801,9.048977],[-71.686147,9.061957],[-71.75886,9.120063],[-71.730377,9.355414],[-71.967519,9.498236],[-71.998931,9.654731],[-72.124379,9.826077],[-72.043691,9.929592],[-71.982493,10.088284],[-71.897694,10.139228],[-71.779042,10.341742],[-71.629547,10.454006],[-71.576283,10.721096],[-71.693593,10.837144],[-71.769765,11.10635],[-71.856923,11.216986],[-71.93932,11.380764],[-71.96052,11.591254],[-71.674428,11.684719],[-71.507069,11.709784],[-71.449458,11.795457],[-71.97108,11.661925],[-72.007926,11.624615],[-72.256593,11.167795],[-72.481488,11.132526],[-72.57647,10.957368],[-72.706126,10.811253],[-72.754392,10.674853],[-72.907561,10.452464],[-72.935621,10.175194],[-72.987711,9.999417],[-72.977634,9.838057],[-73.12362,9.561252],[-73.178448,9.523037],[-73.377816,9.164687],[-73.176175,9.190939],[-73.009725,9.295377],[-72.936396,9.099187],[-72.826687,9.141691],[-72.783072,9.059939],[-72.67543,8.651514],[-72.45627,8.403933],[-72.415609,8.382691],[-72.344803,8.491782],[-72.240727,8.429873],[-72.048594,8.483255],[-71.944931,8.611413],[-71.848813,8.671073],[-71.721327,8.621955],[-71.673527,8.718796],[-71.225595,9.048389],[-71.147383,9.127815],[-71.218535,9.187002]]],[[[-71.062446,9.617403],[-70.859623,9.599466],[-70.64129,9.791961],[-70.661159,9.904512],[-70.806809,9.983939],[-70.848202,10.099823],[-70.710795,10.194158],[-70.658085,10.304772],[-70.737718,10.344382],[-70.778697,10.453626],[-70.903134,10.442903],[-71.022119,10.52773],[-71.081005,10.638576],[-71.08842,10.766992],[-71.25611,10.926439],[-71.282012,10.991441],[-71.458323,10.974921],[-71.422027,10.902777],[-71.445912,10.79621],[-71.531361,10.752672],[-71.526479,10.544745],[-71.363881,10.219957],[-71.267812,10.151923],[-71.206939,9.980618],[-71.072418,9.857856],[-71.04186,9.760891],[-71.062446,9.617403]]]]},"properties":{"LOCATION_TYPE":"level1","ADM0_A3":"VEN","LOCATION_ID":"VEN-V","NAME":"Zulia","TYPE_EN":"State"}},
{"type":"Feature","geometry":{"type":"Polygon","coordinates":[[[-72.415609,8.382691],[-72.335761,8.103899],[-72.487793,7.94918],[-72.451774,7.832805],[-72.482005,7.508018],[-72.395812,7.407492],[-72.188534,7.449804],[-72.0688,7.375002],[-71.875013,7.421485],[-71.841552,7.494762],[-71.667558,7.547472],[-71.382898,7.48975],[-71.490902,7.629793],[-71.483564,7.684492],[-71.531468,7.752705],[-71.507723,8.005403],[-71.588855,8.057286],[-71.720914,8.054031],[-71.796206,8.151725],[-71.89248,8.171724],[-71.777965,8.459432],[-71.82313,8.590303],[-71.944931,8.611413],[-72.048594,8.483255],[-72.240727,8.429873],[-72.344803,8.491782],[-72.415609,8.382691]]]},"properties":{"LOCATION_TYPE":"level1","ADM0_A3":"VEN","LOCATION_ID":"VEN-S","NAME":"Táchira","TYPE_EN":"State"}},
{"type":"Feature","geometry":{"type":"Polygon","coordinates":[[[-72.395812,7.407492],[-72.206208,7.381876],[-72.153343,7.192585],[-72.080996,7.066598],[-71.993818,7.012855],[-71.832639,6.986448],[-71.654304,7.053369],[-71.283525,7.018849],[-71.184048,6.962574],[-70.961323,7.009444],[-70.903445,7.063188],[-70.703302,7.09993],[-70.578607,7.085822],[-70.52091,7.015594],[-70.319062,6.938286],[-70.15778,6.979523],[-70.096621,6.944435],[-69.443638,6.122237],[-69.311346,6.146215],[-69.246104,6.080664],[-69.061129,6.217839],[-68.829127,6.187789],[-68.635315,6.13588],[-68.449021,6.194998],[-68.304172,6.176988],[-68.146508,6.223781],[-67.924144,6.234556],[-67.839136,6.307523],[-67.573984,6.266234],[-67.450972,6.198035],[-67.322345,6.272512],[-67.275035,6.367467],[-67.170236,6.429375],[-67.103392,6.701452],[-67.049545,6.755273],[-67.034378,6.913067],[-67.089827,7.065667],[-66.995156,7.156824],[-66.595723,7.339552],[-66.440461,7.580442],[-66.330519,7.648422],[-66.330054,7.703535],[-66.55203,7.79384],[-66.764782,7.755108],[-67.056754,7.797457],[-67.226485,7.798517],[-67.3379,7.889079],[-67.53812,7.917011],[-67.544218,7.958765],[-67.605299,7.999409],[-68.054368,8.04845],[-68.256578,7.956517],[-68.386234,7.99158],[-68.461268,7.947345],[-68.650249,7.965897],[-68.72983,7.915848],[-68.88672,7.911275],[-68.970281,7.999383],[-69.054307,7.980185],[-69.212592,8.075761],[-69.44095,8.071652],[-69.733697,7.844431],[-70.086595,7.710744],[-70.133517,7.629328],[-70.299528,7.59039],[-70.368335,7.45045],[-70.460241,7.423061],[-70.547833,7.333713],[-70.666896,7.287411],[-70.946775,7.307978],[-71.019975,7.361877],[-71.189163,7.404174],[-71.24885,7.454532],[-71.472195,7.462801],[-71.639575,7.432337],[-71.841552,7.494762],[-71.875013,7.421485],[-72.0688,7.375002],[-72.188534,7.449804],[-72.395812,7.407492]]]},"properties":{"LOCATION_TYPE":"level1","ADM0_A3":"VEN","LOCATION_ID":"VEN-C","NAME":"Apure","TYPE_EN":"State"}},
{"type":"Feature","geometry":{"type":"Polygon","coordinates":[[[-71.218535,9.187002],[-71.147383,9.127815],[-71.225595,9.048389],[-71.673527,8.718796],[-71.721327,8.621955],[-71.848813,8.671073],[-71.944931,8.611413],[-71.82313,8.590303],[-71.777965,8.459432],[-71.89248,8.171724],[-71.796206,8.151725],[-71.720914,8.054031],[-71.588855,8.057286],[-71.507723,8.005403],[-71.531468,7.752705],[-71.483564,7.684492],[-71.462144,7.769526],[-71.090461,8.067544],[-71.01181,8.206657],[-71.077542,8.376337],[-70.837712,8.725463],[-70.768569,8.78148],[-70.577469,8.856669],[-70.534681,8.955345],[-70.580027,9.040224],[-70.677257,8.98586],[-70.854378,9.128694],[-70.917733,9.302869],[-71.058672,9.33793],[-71.151723,9.28852],[-71.218535,9.187002]]]},"properties":{"LOCATION_TYPE":"level1","ADM0_A3":"VEN","LOCATION_ID":"VEN-L","NAME":"Mérida","TYPE_EN":"State"}},
{"type":"Feature","geometry":{"type":"Polygon","coordinates":[[[-71.058672,9.33793],[-70.917733,9.302869],[-70.854378,9.128694],[-70.677257,8.98586],[-70.580027,9.040224],[-70.534681,8.955345],[-70.426729,9.022473],[-70.182455,9.007874],[-70.113363,9.031542],[-70.059362,9.236827],[-70.131114,9.27455],[-70.032981,9.430329],[-70.109281,9.517145],[-70.130804,9.624142],[-70.021715,9.709718],[-70.217698,9.84666],[-70.402545,9.921074],[-70.530418,9.939704],[-70.60863,10.031559],[-70.661159,9.904512],[-70.64129,9.791961],[-70.859623,9.599466],[-71.062446,9.617403],[-71.09024,9.555406],[-71.058672,9.33793]]]},"properties":{"LOCATION_TYPE":"level1","ADM0_A3":"VEN","LOCATION_ID":"VEN-T","NAME":"Trujillo","TYPE_EN":"State"}},
{"type":"Feature","geometry":{"type":"Polygon","coordinates":[[[-71.282012,10.991441],[-71.25611,10.926439],[-71.08842,10.766992],[-71.081005,10.638576],[-71.022119,10.52773],[-70.903134,10.442903],[-70.778697,10.453626],[-70.737718,10.344382],[-70.658085,10.304772],[-70.535379,10.363011],[-70.492307,10.447425],[-70.330275,10.558064],[-70.24718,10.558374],[-70.157495,10.651702],[-70.047218,10.645268],[-69.969315,10.690485],[-69.789869,10.70144],[-69.663933,10.764666],[-69.426093,10.711905],[-69.084253,10.680485],[-68.924108,10.697332],[-68.885506,10.659531],[-68.776597,10.729371],[-68.633583,10.732937],[-68.519378,10.638576],[-68.273752,10.634223],[-68.326568,10.84927],[-68.262685,10.903144],[-68.417592,11.179145],[-68.65567,11.347886],[-68.863189,11.452867],[-69.061879,11.453518],[-69.270416,11.536038],[-69.376698,11.494045],[-69.500071,11.508734],[-69.623606,11.46776],[-69.700307,11.540188],[-69.808583,11.803616],[-69.835317,12.015204],[-69.925364,12.159613],[-70.01773,12.19892],[-70.2058,12.112006],[-70.296783,11.871894],[-70.2058,11.734687],[-70.186513,11.602688],[-69.849517,11.693671],[-69.791371,11.645331],[-69.747141,11.48078],[-69.814076,11.425605],[-69.945978,11.519774],[-70.050525,11.521129],[-70.180002,11.37637],[-70.287953,11.357082],[-70.513905,11.25316],[-70.685618,11.248033],[-70.8697,11.196275],[-71.282012,10.991441]]]},"properties":{"LOCATION_TYPE":"level1","ADM0_A3":"VEN","LOCATION_ID":"VEN-I","NAME":"Falcón","TYPE_EN":"State"}},
{"type":"Feature","geometry":{"type":"Polygon","coordinates":[[[-68.273752,10.634223],[-68.519378,10.638576],[-68.633583,10.732937],[-68.776597,10.729371],[-68.885506,10.659531],[-68.901138,10.59801],[-69.031724,10.537962],[-69.068414,10.424609],[-69.014981,10.248419],[-69.227474,10.110133],[-69.140916,9.944975],[-68.979117,10.009829],[-68.924883,9.930764],[-68.977722,9.85728],[-68.858892,9.853171],[-68.804322,9.960865],[-68.669705,9.968798],[-68.487158,9.909266],[-68.370498,9.990037],[-68.419875,10.18757],[-68.36161,10.260899],[-68.389541,10.493494],[-68.251739,10.59512],[-68.273752,10.634223]]]},"properties":{"LOCATION_TYPE":"level1","ADM0_A3":"VEN","LOCATION_ID":"VEN-U","NAME":"Yaracuy","TYPE_EN":"State"}},
{"type":"Feature","geometry":{"type":"Polygon","coordinates":[[[-68.251739,10.59512],[-68.389541,10.493494],[-68.36161,10.260899],[-68.419875,10.18757],[-68.370498,9.990037],[-68.233892,10.123103],[-68.21658,9.962958],[-68.065349,9.855368],[-67.788828,9.827049],[-67.591424,9.866375],[-67.534115,9.951486],[-67.662169,10.032876],[-67.671962,10.324357],[-67.818749,10.322419],[-67.869214,10.461282],[-68.129547,10.487738],[-68.251739,10.59512]]]},"properties":{"LOCATION_TYPE":"level1","ADM0_A3":"VEN","LOCATION_ID":"VEN-G","NAME":"Carabobo","TYPE_EN":"State"}},
{"type":"Feature","geometry":{"type":"Polygon","coordinates":[[[-67.869214,10.461282],[-67.818749,10.322419],[-67.671962,10.324357],[-67.662169,10.032876],[-67.534115,9.951486],[-67.428127,9.987401],[-67.340613,9.926423],[-67.181346,9.919834],[-67.101609,9.799506],[-66.85873,9.672252],[-66.881649,9.459888],[-66.679697,9.393484],[-66.575492,9.409478],[-66.544072,9.611197],[-66.611303,9.69685],[-66.584767,9.825318],[-66.61275,9.966446],[-66.821497,10.01541],[-66.929888,10.013084],[-67.119102,10.111476],[-67.108741,10.264852],[-67.186462,10.31304],[-67.220155,10.416677],[-67.341853,10.399856],[-67.391754,10.543077],[-67.777577,10.495998],[-67.869214,10.461282]]]},"properties":{"LOCATION_TYPE":"level1","ADM0_A3":"VEN","LOCATION_ID":"VEN-D","NAME":"Aragua","TYPE_EN":"State"}},
{"type":"Feature","geometry":{"type":"Polygon","coordinates":[[[-67.391754,10.543077],[-67.341853,10.399856],[-67.220155,10.416677],[-67.153182,10.440733],[-67.053343,10.478766],[-67.004199,10.574962],[-66.873768,10.547031],[-66.354316,10.545326],[-66.313614,10.629492],[-66.541575,10.632717],[-67.012359,10.611233],[-67.170033,10.555976],[-67.391754,10.543077]]]},"properties":{"LOCATION_TYPE":"level1","ADM0_A3":"VEN","LOCATION_ID":"VEN-X","NAME":"Vargas","TYPE_EN":"State"}},
{"type":"Feature","geometry":{"type":"Polygon","coordinates":[[[-66.313614,10.629492],[-66.354316,10.545326],[-66.873768,10.547031],[-66.897436,10.416212],[-67.051483,10.394508],[-67.153182,10.440733],[-67.220155,10.416677],[-67.186462,10.31304],[-67.108741,10.264852],[-67.119102,10.111476],[-66.929888,10.013084],[-66.821497,10.01541],[-66.61275,9.966446],[-66.38341,10.018588],[-66.190476,9.948695],[-65.971032,9.928903],[-65.696605,9.953424],[-65.448945,10.079643],[-65.425771,10.143419],[-65.580434,10.185452],[-65.868479,10.309556],[-66.118276,10.497952],[-66.124582,10.601955],[-66.313614,10.629492]]]},"properties":{"LOCATION_TYPE":"level1","ADM0_A3":"VEN","LOCATION_ID":"VEN-M","NAME":"Miranda","TYPE_EN":"State"}},
{"type":"Feature","geometry":{"type":"Polygon","coordinates":[[[-65.425771,10.143419],[-65.448945,10.079643],[-65.696605,9.953424],[-65.664953,9.773977],[-65.694098,9.680624],[-65.488839,9.569209],[-65.386959,9.571923],[-65.21821,9.506836],[-65.268801,9.393561],[-65.263711,9.289821],[-65.16488,9.178639],[-65.085195,9.175848],[-64.963729,9.09898],[-64.933034,8.999968],[-64.789942,8.878089],[-64.864071,8.740991],[-65.137827,8.739131],[-65.1501,8.556636],[-65.206634,8.36936],[-65.480468,8.023929],[-65.492483,7.943624],[-65.356651,7.869417],[-65.103695,7.83438],[-64.857328,7.659817],[-64.62034,7.774384],[-64.523162,7.773686],[-64.523627,7.996282],[-64.352397,8.008969],[-64.231629,8.071446],[-64.138586,7.974423],[-63.961,7.973622],[-63.839896,8.11041],[-63.682929,8.15821],[-63.491597,8.145627],[-63.415762,8.213039],[-63.330806,8.213892],[-63.17464,8.313446],[-62.9769,8.309519],[-62.879102,8.274121],[-62.757714,8.379825],[-62.685832,8.385716],[-62.742754,8.473385],[-62.98832,8.552605],[-63.056972,8.703888],[-62.975763,8.794838],[-63.269492,8.774969],[-63.340159,8.809023],[-63.418061,9.008262],[-63.627687,9.163136],[-63.77189,9.236284],[-63.908316,9.209206],[-63.973221,9.323876],[-63.966633,9.416687],[-63.84664,9.550606],[-63.965573,9.768293],[-63.92524,9.874669],[-64.042468,9.939704],[-64.061045,10.045434],[-63.94883,10.082615],[-64.04531,10.128297],[-64.153831,10.079282],[-64.347307,10.09463],[-64.536082,10.252305],[-64.631418,10.248114],[-64.748118,10.106879],[-64.96349,10.097317],[-65.083974,10.047512],[-65.169545,10.097317],[-65.425771,10.143419]]]},"properties":{"LOCATION_TYPE":"level1","ADM0_A3":"VEN","LOCATION_ID":"VEN-B","NAME":"Anzoátegui","TYPE_EN":"State"}},
{"type":"Feature","geometry":{"type":"Polygon","coordinates":[[[-64.536082,10.252305],[-64.347307,10.09463],[-64.153831,10.079282],[-64.04531,10.128297],[-63.94883,10.082615],[-63.800777,10.127754],[-63.739566,10.201238],[-63.55503,10.229634],[-63.475939,10.312808],[-63.371165,10.241727],[-63.179833,10.171602],[-63.063535,10.18726],[-63.013092,10.097398],[-62.656606,10.08218],[-62.626576,10.130805],[-62.674957,10.293362],[-62.73644,10.378485],[-62.831125,10.406806],[-62.857004,10.531562],[-62.662343,10.567043],[-62.33495,10.530219],[-62.239858,10.637885],[-61.962473,10.652167],[-61.98233,10.734687],[-62.154205,10.686347],[-62.719635,10.759996],[-62.904286,10.702216],[-63.171295,10.731594],[-63.240875,10.685126],[-63.466176,10.667629],[-63.531565,10.631049],[-63.756947,10.665595],[-63.91511,10.631049],[-64.072499,10.647895],[-64.131215,10.619696],[-64.274729,10.65058],[-64.249135,10.520453],[-64.155507,10.572699],[-63.966664,10.581366],[-63.846832,10.555976],[-63.820383,10.447577],[-64.028432,10.446112],[-64.143463,10.480129],[-64.339182,10.390692],[-64.468373,10.248603],[-64.536082,10.252305]]]},"properties":{"LOCATION_TYPE":"level1","ADM0_A3":"VEN","LOCATION_ID":"VEN-R","NAME":"Sucre","TYPE_EN":"State"}},
{"type":"Feature","geometry":{"type":"Polygon","coordinates":[[[-63.013092,10.097398],[-63.063535,10.18726],[-63.179833,10.171602],[-63.371165,10.241727],[-63.475939,10.312808],[-63.55503,10.229634],[-63.739566,10.201238],[-63.800777,10.127754],[-63.94883,10.082615],[-64.061045,10.045434],[-64.042468,9.939704],[-63.92524,9.874669],[-63.965573,9.768293],[-63.84664,9.550606],[-63.966633,9.416687],[-63.973221,9.323876],[-63.908316,9.209206],[-63.77189,9.236284],[-63.627687,9.163136],[-63.418061,9.008262],[-63.340159,8.809023],[-63.269492,8.774969],[-62.975763,8.794838],[-63.056972,8.703888],[-62.98832,8.552605],[-62.742754,8.473385],[-62.685832,8.385716],[-62.597646,8.447986],[-62.52654,8.513434],[-62.435899,8.513822],[-62.087393,8.725127],[-62.012618,8.855196],[-62.084189,8.944829],[-62.05308,9.045366],[-62.202115,9.070971],[-62.304693,9.196648],[-62.320532,9.357336],[-62.44024,9.54102],[-62.325366,9.718851],[-62.517568,10.184149],[-62.626576,10.196275],[-62.61852,10.09162],[-62.777415,10.018459],[-62.926178,10.046291],[-63.013092,10.097398]]]},"properties":{"LOCATION_TYPE":"level1","ADM0_A3":"VEN","LOCATION_ID":"VEN-N","NAME":"Monagas","TYPE_EN":"State"}},
{"type":"Feature","geometry":{"type":"Polygon","coordinates":[[[-63.846832,11.135403],[-63.985829,11.10928],[-64.049062,10.990709],[-64.18163,11.034084],[-64.198313,11.087633],[-64.370595,11.062486],[-64.408559,10.967475],[-64.224355,10.939358],[-64.175852,10.967475],[-64.042633,10.868476],[-63.898061,10.884955],[-63.793446,11.001125],[-63.846832,11.135403]]]},"properties":{"LOCATION_TYPE":"level1","ADM0_A3":"VEN","LOCATION_ID":"VEN-O","NAME":"Nueva Esparta","TYPE_EN":"State"}},
{"type":"Feature","geometry":{"type":"Polygon","coordinates":[[[-65.22761,10.953803],[-65.306264,10.976467],[-65.411773,10.92475],[-65.244618,10.884955],[-65.22761,10.953803]]]},"properties":{"LOCATION_TYPE":"level1","ADM0_A3":"VEN","LOCATION_ID":"VEN-W","NAME":"Dependencias Federales","TYPE_EN":"Federal Dependency"}},
{"type":"Feature","geometry":{"type":"Polygon","coordinates":[[[-63.639882,15.696031],[-63.634592,15.700588],[-63.639638,15.702948],[-63.639882,15.696031]]]},"properties":{"LOCATION_TYPE":"level1","ADM0_A3":"VEN","LOCATION_ID":"VEN-X01~","NAME":null,"TYPE_EN":null}},
{"type":"Feature","geometry":{"type":"Polygon","coordinates":[[[-65.696605,9.953424],[-65.971032,9.928903],[-66.190476,9.948695],[-66.38341,10.018588],[-66.61275,9.966446],[-66.584767,9.825318],[-66.611303,9.69685],[-66.544072,9.611197],[-66.575492,9.409478],[-66.679697,9.393484],[-66.881649,9.459888],[-66.85873,9.672252],[-67.101609,9.799506],[-67.181346,9.919834],[-67.340613,9.926423],[-67.428127,9.987401],[-67.534115,9.951486],[-67.591424,9.866375],[-67.788828,9.827049],[-67.757874,9.709795],[-67.899157,9.63011],[-67.955847,9.553862],[-67.916727,9.449734],[-67.940008,9.305427],[-67.853966,9.085156],[-67.963443,8.915089],[-68.012716,8.749595],[-68.036488,8.538497],[-67.771853,8.242908],[-67.677414,8.209525],[-67.580211,8.066252],[-67.544218,7.958765],[-67.53812,7.917011],[-67.3379,7.889079],[-67.226485,7.798517],[-67.056754,7.797457],[-66.764782,7.755108],[-66.55203,7.79384],[-66.330054,7.703535],[-66.330519,7.648422],[-66.215694,7.641291],[-66.130893,7.683821],[-65.939458,7.67917],[-65.746576,7.854689],[-65.648158,7.899906],[-65.356651,7.869417],[-65.492483,7.943624],[-65.480468,8.023929],[-65.206634,8.36936],[-65.1501,8.556636],[-65.137827,8.739131],[-64.864071,8.740991],[-64.789942,8.878089],[-64.933034,8.999968],[-64.963729,9.09898],[-65.085195,9.175848],[-65.16488,9.178639],[-65.263711,9.289821],[-65.268801,9.393561],[-65.21821,9.506836],[-65.386959,9.571923],[-65.488839,9.569209],[-65.694098,9.680624],[-65.664953,9.773977],[-65.696605,9.953424]]]},"properties":{"LOCATION_TYPE":"level1","ADM0_A3":"VEN","LOCATION_ID":"VEN-J","NAME":"Guárico","TYPE_EN":"State"}},
{"type":"Feature","geometry":{"type":"Polygon","coordinates":[[[-67.788828,9.827049],[-68.065349,9.855368],[-68.21658,9.962958],[-68.233892,10.123103],[-68.370498,9.990037],[-68.487158,9.909266],[-68.669705,9.968798],[-68.804322,9.960865],[-68.858892,9.853171],[-68.977722,9.85728],[-68.980797,9.782271],[-68.975138,9.710493],[-68.872121,9.439527],[-68.610897,9.243622],[-68.650662,8.955423],[-68.59157,8.868064],[-68.697868,8.761326],[-68.573535,8.635391],[-68.423053,8.603739],[-68.146119,8.604669],[-68.036488,8.538497],[-68.012716,8.749595],[-67.963443,8.915089],[-67.853966,9.085156],[-67.940008,9.305427],[-67.916727,9.449734],[-67.955847,9.553862],[-67.899157,9.63011],[-67.757874,9.709795],[-67.788828,9.827049]]]},"properties":{"LOCATION_TYPE":"level1","ADM0_A3":"VEN","LOCATION_ID":"VEN-H","NAME":"Cojedes","TYPE_EN":"State"}},
{"type":"Feature","geometry":{"type":"Polygon","coordinates":[[[-66.873768,10.547031],[-67.004199,10.574962],[-67.053343,10.478766],[-67.153182,10.440733],[-67.051483,10.394508],[-66.897436,10.416212],[-66.873768,10.547031]]]},"properties":{"LOCATION_TYPE":"level1","ADM0_A3":"VEN","LOCATION_ID":"VEN-A","NAME":"Distrito Capital","TYPE_EN":"Capital District"}},
{"type":"Feature","geometry":{"type":"Polygon","coordinates":[[[-68.036488,8.538497],[-68.146119,8.604669],[-68.423053,8.603739],[-68.573535,8.635391],[-68.603636,8.499843],[-68.678516,8.39246],[-68.783057,8.331636],[-68.841451,8.112451],[-69.127635,8.351041],[-69.175565,8.500463],[-69.28636,8.638956],[-69.466865,8.670375],[-69.63453,8.773108],[-69.705378,8.723835],[-69.819609,8.751301],[-70.004068,8.847057],[-70.182455,9.007874],[-70.426729,9.022473],[-70.534681,8.955345],[-70.577469,8.856669],[-70.768569,8.78148],[-70.837712,8.725463],[-71.077542,8.376337],[-71.01181,8.206657],[-71.090461,8.067544],[-71.462144,7.769526],[-71.483564,7.684492],[-71.490902,7.629793],[-71.382898,7.48975],[-71.667558,7.547472],[-71.841552,7.494762],[-71.639575,7.432337],[-71.472195,7.462801],[-71.24885,7.454532],[-71.189163,7.404174],[-71.019975,7.361877],[-70.946775,7.307978],[-70.666896,7.287411],[-70.547833,7.333713],[-70.460241,7.423061],[-70.368335,7.45045],[-70.299528,7.59039],[-70.133517,7.629328],[-70.086595,7.710744],[-69.733697,7.844431],[-69.44095,8.071652],[-69.212592,8.075761],[-69.054307,7.980185],[-68.970281,7.999383],[-68.88672,7.911275],[-68.72983,7.915848],[-68.650249,7.965897],[-68.461268,7.947345],[-68.386234,7.99158],[-68.256578,7.956517],[-68.054368,8.04845],[-67.605299,7.999409],[-67.544218,7.958765],[-67.580211,8.066252],[-67.677414,8.209525],[-67.771853,8.242908],[-68.036488,8.538497]]]},"properties":{"LOCATION_TYPE":"level1","ADM0_A3":"VEN","LOCATION_ID":"VEN-E","NAME":"Barinas","TYPE_EN":"State"}},
{"type":"Feature","geometry":{"type":"Polygon","coordinates":[[[-68.977722,9.85728],[-68.924883,9.930764],[-68.979117,10.009829],[-69.140916,9.944975],[-69.227474,10.110133],[-69.014981,10.248419],[-69.068414,10.424609],[-69.031724,10.537962],[-68.901138,10.59801],[-68.885506,10.659531],[-68.924108,10.697332],[-69.084253,10.680485],[-69.426093,10.711905],[-69.663933,10.764666],[-69.789869,10.70144],[-69.969315,10.690485],[-70.047218,10.645268],[-70.157495,10.651702],[-70.24718,10.558374],[-70.330275,10.558064],[-70.492307,10.447425],[-70.535379,10.363011],[-70.658085,10.304772],[-70.710795,10.194158],[-70.848202,10.099823],[-70.806809,9.983939],[-70.661159,9.904512],[-70.60863,10.031559],[-70.530418,9.939704],[-70.402545,9.921074],[-70.217698,9.84666],[-70.021715,9.709718],[-70.130804,9.624142],[-70.109281,9.517145],[-70.032981,9.430329],[-69.943322,9.564559],[-69.790902,9.53903],[-69.851338,9.412346],[-69.706877,9.395654],[-69.627941,9.426531],[-69.591948,9.618173],[-69.378421,9.657886],[-69.337183,9.768603],[-69.212178,9.689228],[-69.066786,9.70995],[-68.980797,9.782271],[-68.977722,9.85728]]]},"properties":{"LOCATION_TYPE":"level1","ADM0_A3":"VEN","LOCATION_ID":"VEN-K","NAME":"Lara","TYPE_EN":"State"}},
{"type":"Feature","geometry":{"type":"Polygon","coordinates":[[[-68.980797,9.782271],[-69.066786,9.70995],[-69.212178,9.689228],[-69.337183,9.768603],[-69.378421,9.657886],[-69.591948,9.618173],[-69.627941,9.426531],[-69.706877,9.395654],[-69.851338,9.412346],[-69.790902,9.53903],[-69.943322,9.564559],[-70.032981,9.430329],[-70.131114,9.27455],[-70.059362,9.236827],[-70.113363,9.031542],[-70.182455,9.007874],[-70.004068,8.847057],[-69.819609,8.751301],[-69.705378,8.723835],[-69.63453,8.773108],[-69.466865,8.670375],[-69.28636,8.638956],[-69.175565,8.500463],[-69.127635,8.351041],[-68.841451,8.112451],[-68.783057,8.331636],[-68.678516,8.39246],[-68.603636,8.499843],[-68.573535,8.635391],[-68.697868,8.761326],[-68.59157,8.868064],[-68.650662,8.955423],[-68.610897,9.243622],[-68.872121,9.439527],[-68.975138,9.710493],[-68.980797,9.782271]]]},"properties":{"LOCATION_TYPE":"level1","ADM0_A3":"VEN","LOCATION_ID":"VEN-P","NAME":"Portuguesa","TYPE_EN":"State"}}
]}