{"type":"FeatureCollection", "features": [
{"type":"Feature","geometry":{"type":"MultiPolygon","coordinates":[[[[-64.635121,18.405504],[-64.583323,18.416327],[-64.560161,18.454103],[-64.661821,18.440416],[-64.682554,18.399548],[-64.659685,18.383072],[-64.635121,18.405504]]],[[[-64.336537,18.72427],[-64.27953,18.701239],[-64.285064,18.734076],[-64.320302,18.746243],[-64.336537,18.72427]]]]},"properties":{"LOCATION_TYPE":"level1","ADM0_A3":"VGB","LOCATION_ID":"VGB-X01~","NAME":"British Virgin Islands","TYPE_EN":null}}
]}