{"type":"FeatureCollection", "features": [
{"type":"Feature","geometry":{"type":"Polygon","coordinates":[[[-64.559397,17.751614],[-64.591786,17.768297],[-64.689768,17.744778],[-64.771637,17.792629],[-64.887685,17.755276],[-64.876373,17.689114],[-64.670522,17.717231],[-64.559397,17.751614]]]},"properties":{"LOCATION_TYPE":"level1","ADM0_A3":"VIR","LOCATION_ID":"VIR-X01~","NAME":"Saint Croix","TYPE_EN":null}},
{"type":"Feature","geometry":{"type":"Polygon","coordinates":[[[-64.700994,18.342976],[-64.746955,18.37359],[-64.786365,18.349772],[-64.73623,18.319753],[-64.700994,18.342976]]]},"properties":{"LOCATION_TYPE":"level1","ADM0_A3":"VIR","LOCATION_ID":"VIR-X03~","NAME":"Saint John","TYPE_EN":null}},
{"type":"Feature","geometry":{"type":"Polygon","coordinates":[[[-64.871637,18.314623],[-64.854984,18.340129],[-64.928505,18.38037],[-64.944586,18.336714],[-64.871637,18.314623]]]},"properties":{"LOCATION_TYPE":"level1","ADM0_A3":"VIR","LOCATION_ID":"VIR-X02~","NAME":"Saint Thomas","TYPE_EN":null}}
]}