{"type":"FeatureCollection", "features": [
{"type":"Feature","geometry":{"type":"Polygon","coordinates":[[[107.57636,15.403054],[107.657594,15.282427],[107.656818,15.205688],[107.578012,15.047248],[107.445565,15.025389],[107.461947,14.956814],[107.555326,14.876199],[107.490885,14.80424],[107.532433,14.677942],[107.455745,14.433875],[107.386912,14.421912],[107.31994,14.119837],[107.343143,14.020618],[107.445988,13.921636],[107.60845,14.04997],[107.658266,14.138078],[107.787199,14.215877],[108.153223,14.33003],[108.336364,14.430696],[108.410985,14.516143],[108.426178,14.626627],[108.618156,14.640605],[108.548651,14.825555],[108.464832,14.857285],[108.296574,15.048126],[108.195804,15.056265],[108.138495,14.956478],[108.075037,15.038643],[108.062479,15.146492],[107.972356,15.2161],[107.862181,15.221991],[107.729476,15.300048],[107.64974,15.398931],[107.57636,15.403054]]]},"properties":{"LOCATION_TYPE":"level1","ADM0_A3":"VNM","LOCATION_ID":"VNM-28","NAME":"Kon Tum","TYPE_EN":"Province"}},
{"type":"Feature","geometry":{"type":"Polygon","coordinates":[[[107.540081,12.716693],[107.55667,12.472676],[107.514295,12.343847],[107.415851,12.254085],[107.320198,12.329223],[107.227824,12.310592],[107.247335,12.06531],[107.35968,11.918213],[107.390427,11.751764],[107.56344,11.786904],[107.701984,11.906922],[107.785907,11.848889],[107.874429,11.863953],[107.914891,11.793182],[107.997935,11.769644],[108.059999,11.821578],[108.087904,11.940176],[107.984655,12.067377],[107.998607,12.125746],[108.117566,12.151868],[108.128673,12.200792],[107.97877,12.307074],[107.929861,12.40998],[108.00587,12.486843],[107.874334,12.592244],[107.84221,12.720738],[107.540081,12.716693]]]},"properties":{"LOCATION_TYPE":"level1","ADM0_A3":"VNM","LOCATION_ID":"VNM-72","NAME":"Đắk Nông","TYPE_EN":"Region"}},
{"type":"Feature","geometry":{"type":"Polygon","coordinates":[[[107.540081,12.716693],[107.84221,12.720738],[107.874334,12.592244],[108.00587,12.486843],[107.929861,12.40998],[107.97877,12.307074],[108.128673,12.200792],[108.117566,12.151868],[108.236112,12.155796],[108.336364,12.239512],[108.426075,12.243852],[108.515733,12.300283],[108.68146,12.302996],[108.676602,12.478774],[108.854472,12.484742],[108.906769,12.681423],[109.037304,12.752659],[108.817679,12.828365],[108.725385,12.895647],[108.660841,12.996235],[108.514648,13.032745],[108.364476,13.294899],[108.107489,13.384196],[107.928431,13.345336],[107.680901,13.332882],[107.561597,13.262014],[107.460396,13.021609],[107.540081,12.716693]]]},"properties":{"LOCATION_TYPE":"level1","ADM0_A3":"VNM","LOCATION_ID":"VNM-33","NAME":"Đắk Lắk","TYPE_EN":"Region"}},
{"type":"Feature","geometry":{"type":"Polygon","coordinates":[[[107.561597,13.262014],[107.680901,13.332882],[107.928431,13.345336],[108.107489,13.384196],[108.364476,13.294899],[108.514648,13.032745],[108.660841,12.996235],[108.729105,13.105738],[108.874833,13.211313],[108.821709,13.430498],[108.825637,13.557519],[108.807602,13.74681],[108.712052,13.930106],[108.634744,14.21753],[108.687144,14.45718],[108.666887,14.595957],[108.618156,14.640605],[108.426178,14.626627],[108.410985,14.516143],[108.336364,14.430696],[108.153223,14.33003],[107.787199,14.215877],[107.658266,14.138078],[107.60845,14.04997],[107.445988,13.921636],[107.44324,13.783475],[107.596925,13.535066],[107.606951,13.369754],[107.561597,13.262014]]]},"properties":{"LOCATION_TYPE":"level1","ADM0_A3":"VNM","LOCATION_ID":"VNM-30","NAME":"Gia Lai","TYPE_EN":"Region"}},
{"type":"Feature","geometry":{"type":"Polygon","coordinates":[[[107.227824,12.310592],[107.152508,12.27703],[106.977687,12.097247],[106.749225,12.05234],[106.70158,11.970795],[106.394002,11.969813],[106.438753,11.863721],[106.398859,11.746313],[106.434587,11.678428],[106.464334,11.553326],[106.619053,11.43137],[106.64763,11.316777],[106.721166,11.345716],[106.964769,11.283627],[107.046572,11.354243],[107.104295,11.475424],[107.30852,11.566219],[107.284439,11.654896],[107.390427,11.751764],[107.35968,11.918213],[107.247335,12.06531],[107.227824,12.310592]]]},"properties":{"LOCATION_TYPE":"level1","ADM0_A3":"VNM","LOCATION_ID":"VNM-58","NAME":"Bình Phước","TYPE_EN":"Province"}},
{"type":"Feature","geometry":{"type":"Polygon","coordinates":[[[106.434587,11.678428],[106.287341,11.674586],[106.154636,11.746313],[106.01542,11.770497],[105.934081,11.642856],[105.80489,11.624925],[105.853208,11.546867],[105.871036,11.413284],[105.843441,11.304091],[105.899871,11.218593],[105.973975,11.190378],[106.063066,11.093329],[106.160321,11.053512],[106.17039,10.970602],[106.363668,10.982147],[106.429607,11.124205],[106.346718,11.272697],[106.378861,11.437183],[106.464334,11.553326],[106.434587,11.678428]]]},"properties":{"LOCATION_TYPE":"level1","ADM0_A3":"VNM","LOCATION_ID":"VNM-37","NAME":"Tây Ninh","TYPE_EN":"Province"}},
{"type":"Feature","geometry":{"type":"Polygon","coordinates":[[[106.17039,10.970602],[106.126938,10.908999],[106.15505,10.784847],[106.0179,10.819806],[105.931342,10.896364],[105.861011,10.839314],[105.752904,11.015608],[105.523603,10.951294],[105.653427,10.805852],[105.866024,10.607932],[105.962659,10.553465],[106.09893,10.548581],[106.166419,10.592274],[106.271012,10.586434],[106.452242,10.416367],[106.615408,10.436591],[106.74407,10.552232],[106.710779,10.651469],[106.645305,10.639041],[106.494926,10.73596],[106.524692,10.851018],[106.476943,10.924967],[106.363668,10.982147],[106.17039,10.970602]]]},"properties":{"LOCATION_TYPE":"level1","ADM0_A3":"VNM","LOCATION_ID":"VNM-41","NAME":"Long An","TYPE_EN":"Province"}},
{"type":"Feature","geometry":{"type":"Polygon","coordinates":[[[105.523603,10.951294],[105.410496,10.963001],[105.327503,10.84828],[105.209145,10.891647],[105.305697,10.702138],[105.36931,10.70268],[105.403313,10.586951],[105.504289,10.5376],[105.582992,10.44652],[105.699833,10.407892],[105.849023,10.301439],[105.839307,10.344149],[105.948551,10.480704],[105.962659,10.553465],[105.866024,10.607932],[105.653427,10.805852],[105.523603,10.951294]]]},"properties":{"LOCATION_TYPE":"level1","ADM0_A3":"VNM","LOCATION_ID":"VNM-45","NAME":"Ðong Tháp","TYPE_EN":"Province"}},
{"type":"Feature","geometry":{"type":"Polygon","coordinates":[[[105.209145,10.891647],[105.029072,10.914089],[105.014809,10.84921],[105.066227,10.746425],[104.854406,10.531322],[104.724425,10.521338],[104.887686,10.382467],[105.241463,10.19961],[105.473438,10.275342],[105.582992,10.44652],[105.504289,10.5376],[105.403313,10.586951],[105.36931,10.70268],[105.305697,10.702138],[105.209145,10.891647]]]},"properties":{"LOCATION_TYPE":"level1","ADM0_A3":"VNM","LOCATION_ID":"VNM-44","NAME":"An Giang","TYPE_EN":"Province"}},
{"type":"Feature","geometry":{"type":"MultiPolygon","coordinates":[[[[104.724425,10.521338],[104.55401,10.518326],[104.453624,10.379828],[104.588878,10.260891],[104.615977,10.14643],[104.707367,10.222317],[104.804861,10.207099],[104.901052,10.097317],[105.003266,10.092108],[105.087657,9.996731],[105.076671,9.943427],[104.969981,9.853664],[104.892789,9.851095],[104.856558,9.738037],[104.834136,9.534434],[104.873062,9.507844],[105.023905,9.528256],[105.27991,9.405809],[105.306472,9.605357],[105.392255,9.586831],[105.361559,9.683492],[105.503979,9.834258],[105.518914,9.952184],[105.422783,10.043628],[105.241463,10.19961],[104.887686,10.382467],[104.724425,10.521338]]],[[[104.082042,10.370998],[104.004731,10.450995],[103.857432,10.320868],[103.937185,10.266059],[104.01059,10.030463],[104.08546,10.248114],[104.082042,10.370998]]]]},"properties":{"LOCATION_TYPE":"level1","ADM0_A3":"VNM","LOCATION_ID":"VNM-47","NAME":"Kiên Giang","TYPE_EN":"Province"}},
{"type":"Feature","geometry":{"type":"Polygon","coordinates":[[[102.324649,22.565118],[102.218029,22.410675],[102.118655,22.397549],[102.226246,22.228412],[102.38944,22.117101],[102.482871,22.021396],[102.478065,21.957576],[102.59103,21.901352],[102.650664,21.657801],[102.721151,21.661676],[102.786676,21.739914],[102.864501,21.705653],[102.947804,21.737124],[102.974107,21.575325],[102.89499,21.495278],[102.887859,21.226923],[102.951576,21.068999],[103.014518,21.040526],[103.146965,20.846016],[103.225829,20.826413],[103.244065,20.963372],[103.318376,21.080936],[103.437749,21.072823],[103.449841,21.266558],[103.377804,21.406136],[103.435682,21.44342],[103.561565,21.610542],[103.550403,21.886907],[103.416515,22.081407],[103.323985,22.149482],[103.266531,22.08157],[103.140147,22.085557],[103.040294,22.147732],[102.951915,22.136176],[102.84547,22.20543],[102.776785,22.360378],[102.644949,22.436225],[102.508556,22.566759],[102.324649,22.565118]]]},"properties":{"LOCATION_TYPE":"level1","ADM0_A3":"VNM","LOCATION_ID":"VNM-71","NAME":"Điện Biên","TYPE_EN":"Province"}},
{"type":"Feature","geometry":{"type":"Polygon","coordinates":[[[103.225829,20.826413],[103.363799,20.787621],[103.426586,20.820694],[103.665383,20.658275],[103.758607,20.749742],[103.775557,20.834905],[104.056676,20.958825],[104.295267,20.879812],[104.389059,20.770981],[104.614071,20.642616],[104.776272,20.574998],[104.842934,20.625718],[104.857404,20.727882],[104.973934,20.729872],[105.077132,20.772195],[104.880141,21.022516],[104.908615,21.1014],[104.828516,21.329603],[104.74785,21.384121],[104.603672,21.413448],[104.490863,21.365725],[104.357124,21.416393],[104.310977,21.495536],[104.349838,21.671029],[104.307153,21.709709],[104.169797,21.659298],[103.925264,21.719786],[103.83483,21.732989],[103.711014,21.861198],[103.647968,22.00398],[103.56942,22.033591],[103.550403,21.886907],[103.561565,21.610542],[103.435682,21.44342],[103.377804,21.406136],[103.449841,21.266558],[103.437749,21.072823],[103.318376,21.080936],[103.244065,20.963372],[103.225829,20.826413]]]},"properties":{"LOCATION_TYPE":"level1","ADM0_A3":"VNM","LOCATION_ID":"VNM-05","NAME":"Son La","TYPE_EN":"Region"}},
{"type":"Feature","geometry":{"type":"Polygon","coordinates":[[[104.614071,20.642616],[104.542642,20.535699],[104.444973,20.534613],[104.35981,20.439735],[104.575508,20.414052],[104.680928,20.340982],[104.657053,20.212695],[104.819162,20.220989],[104.907994,20.175333],[104.95688,20.091798],[104.945688,19.992373],[105.179554,19.890957],[105.136095,19.811091],[105.190096,19.687532],[105.400936,19.483979],[105.534365,19.454162],[105.699988,19.302466],[105.806243,19.274315],[105.782563,19.394355],[105.810557,19.599595],[105.92335,19.766791],[105.964366,19.935289],[106.034203,19.995735],[105.982555,20.07818],[105.75492,20.196623],[105.542633,20.367103],[105.308797,20.456323],[105.137955,20.590836],[105.066693,20.575437],[104.842934,20.625718],[104.776272,20.574998],[104.614071,20.642616]]]},"properties":{"LOCATION_TYPE":"level1","ADM0_A3":"VNM","LOCATION_ID":"VNM-21","NAME":"Thanh Hóa","TYPE_EN":"Province"}},
{"type":"Feature","geometry":{"type":"Polygon","coordinates":[[[104.945688,19.992373],[104.780663,19.908088],[104.805003,19.790886],[104.65478,19.697972],[104.62305,19.61808],[104.505848,19.60281],[104.380068,19.685285],[104.295267,19.654874],[104.228966,19.706008],[104.088716,19.651902],[104.089956,19.48367],[104.038796,19.41339],[103.85674,19.317194],[103.972754,19.225288],[104.14773,19.182887],[104.48094,18.977706],[104.544295,18.906806],[104.721959,18.792007],[104.872906,18.777976],[104.937243,18.731158],[105.112684,18.698343],[105.169477,18.618327],[105.274329,18.625814],[105.412305,18.587522],[105.661799,18.57021],[105.750743,18.662787],[105.757579,18.77204],[105.648285,18.892727],[105.613292,18.985541],[105.643809,19.065375],[105.737071,19.108466],[105.745779,19.23725],[105.806243,19.274315],[105.699988,19.302466],[105.534365,19.454162],[105.400936,19.483979],[105.190096,19.687532],[105.136095,19.811091],[105.179554,19.890957],[104.945688,19.992373]]]},"properties":{"LOCATION_TYPE":"level1","ADM0_A3":"VNM","LOCATION_ID":"VNM-22","NAME":"Nghệ An","TYPE_EN":"Province"}},
{"type":"Feature","geometry":{"type":"Polygon","coordinates":[[[105.169477,18.618327],[105.100489,18.551169],[105.079973,18.454353],[105.156661,18.319839],[105.368328,18.149953],[105.476021,18.127318],[105.603431,17.969184],[105.859978,18.063885],[105.98674,18.060707],[106.058261,17.963271],[106.300933,17.913015],[106.350026,17.967379],[106.518565,17.957017],[106.403494,18.106187],[106.270844,18.204088],[106.098155,18.290025],[105.977306,18.402086],[105.750743,18.662787],[105.661799,18.57021],[105.412305,18.587522],[105.274329,18.625814],[105.169477,18.618327]]]},"properties":{"LOCATION_TYPE":"level1","ADM0_A3":"VNM","LOCATION_ID":"VNM-23","NAME":"Ha Tinh","TYPE_EN":"Region"}},
{"type":"Feature","geometry":{"type":"Polygon","coordinates":[[[105.603431,17.969184],[105.594154,17.888108],[105.735282,17.664039],[105.846025,17.597997],[106.019296,17.394495],[106.185435,17.257397],[106.259953,17.28923],[106.420253,16.98868],[106.53355,16.950638],[106.588202,16.972168],[106.816922,16.978757],[106.90255,17.100455],[107.007498,17.162218],[106.763927,17.335517],[106.634613,17.470404],[106.470063,17.748196],[106.447032,17.872138],[106.518565,17.957017],[106.350026,17.967379],[106.300933,17.913015],[106.058261,17.963271],[105.98674,18.060707],[105.859978,18.063885],[105.603431,17.969184]]]},"properties":{"LOCATION_TYPE":"level1","ADM0_A3":"VNM","LOCATION_ID":"VNM-24","NAME":"Quảng Bình","TYPE_EN":"Province"}},
{"type":"Feature","geometry":{"type":"Polygon","coordinates":[[[106.53355,16.950638],[106.535078,16.683531],[106.640188,16.586637],[106.655174,16.47083],[106.859865,16.411816],[106.9673,16.299885],[107.06798,16.290809],[107.062644,16.343912],[107.166823,16.471243],[107.108326,16.553357],[107.268781,16.600124],[107.411632,16.750027],[107.216482,16.907945],[107.111827,17.088284],[107.007498,17.162218],[106.90255,17.100455],[106.816922,16.978757],[106.588202,16.972168],[106.53355,16.950638]]]},"properties":{"LOCATION_TYPE":"level1","ADM0_A3":"VNM","LOCATION_ID":"VNM-25","NAME":"Quảng Trị","TYPE_EN":"Province"}},
{"type":"Feature","geometry":{"type":"Polygon","coordinates":[[[107.06798,16.290809],[107.154369,16.166043],[107.298959,16.064189],[107.433292,16.055461],[107.597133,16.056204],[107.662297,16.091421],[107.721725,16.016852],[107.856239,16.087649],[107.95308,16.21591],[108.200125,16.211575],[108.053966,16.235989],[107.94516,16.356838],[107.896495,16.278062],[107.812266,16.313178],[107.7588,16.46308],[107.672862,16.49726],[107.604666,16.595689],[107.411632,16.750027],[107.268781,16.600124],[107.108326,16.553357],[107.166823,16.471243],[107.062644,16.343912],[107.06798,16.290809]]]},"properties":{"LOCATION_TYPE":"level1","ADM0_A3":"VNM","LOCATION_ID":"VNM-26","NAME":"Thừa Thiên - Huế","TYPE_EN":"Province"}},
{"type":"Feature","geometry":{"type":"Polygon","coordinates":[[[107.433292,16.055461],[107.390633,15.935824],[107.175246,15.848543],[107.16026,15.758729],[107.369342,15.496058],[107.447891,15.508124],[107.493934,15.420042],[107.57636,15.403054],[107.64974,15.398931],[107.729476,15.300048],[107.862181,15.221991],[107.972356,15.2161],[108.062479,15.146492],[108.075037,15.038643],[108.138495,14.956478],[108.195804,15.056265],[108.296574,15.048126],[108.276161,15.178144],[108.336364,15.284881],[108.665957,15.383325],[108.761567,15.396552],[108.628917,15.455715],[108.618663,15.529242],[108.455333,15.747016],[108.414806,15.867418],[108.282319,15.990058],[108.055348,15.978095],[108.006927,16.086073],[107.856239,16.087649],[107.721725,16.016852],[107.662297,16.091421],[107.597133,16.056204],[107.433292,16.055461]]]},"properties":{"LOCATION_TYPE":"level1","ADM0_A3":"VNM","LOCATION_ID":"VNM-27","NAME":"Quàng Nam","TYPE_EN":"Province"}},
{"type":"Feature","geometry":{"type":"Polygon","coordinates":[[[105.535192,23.099004],[105.430856,23.267806],[105.332258,23.317958],[105.06106,23.232459],[104.945201,23.159828],[104.870064,23.163548],[104.797923,23.085569],[104.827017,22.954285],[104.728212,22.839098],[104.553545,22.836049],[104.361911,22.692536],[104.472518,22.593376],[104.440168,22.553482],[104.482491,22.405222],[104.594681,22.33166],[104.628477,22.257918],[104.689507,22.264429],[104.770174,22.181385],[104.848257,22.170223],[104.957346,22.353545],[105.048865,22.357034],[105.082713,22.459766],[105.196608,22.647765],[105.343575,22.600998],[105.567644,22.592239],[105.451889,22.774812],[105.302751,22.8546],[105.535192,23.099004]]]},"properties":{"LOCATION_TYPE":"level1","ADM0_A3":"VNM","LOCATION_ID":"VNM-03","NAME":"Hà Giang","TYPE_EN":"Province"}},
{"type":"Feature","geometry":{"type":"Polygon","coordinates":[[[105.535192,23.099004],[105.302751,22.8546],[105.451889,22.774812],[105.567644,22.592239],[105.724948,22.724143],[105.815123,22.505267],[105.909639,22.479868],[106.082342,22.542319],[106.192981,22.406695],[106.286205,22.440879],[106.369559,22.38853],[106.533028,22.403445],[106.568771,22.574592],[106.680186,22.57945],[106.735531,22.695412],[106.731035,22.800108],[106.667473,22.86752],[106.487794,22.925423],[106.31566,22.8538],[106.234011,22.863851],[106.202385,22.946998],[105.999245,22.975369],[105.853879,22.90465],[105.690324,23.043969],[105.535192,23.099004]]]},"properties":{"LOCATION_TYPE":"level1","ADM0_A3":"VNM","LOCATION_ID":"VNM-04","NAME":"Cao Bằng","TYPE_EN":"Province"}},
{"type":"Feature","geometry":{"type":"Polygon","coordinates":[[[104.361911,22.692536],[104.249481,22.72833],[104.213256,22.825016],[104.073316,22.782667],[104.02381,22.719183],[103.985363,22.527153],[103.866817,22.575419],[103.646934,22.799049],[103.590038,22.768017],[103.549923,22.648662],[103.602183,22.5787],[103.58792,22.451937],[103.74729,22.41982],[103.771682,22.287942],[103.622078,22.180145],[103.56942,22.033591],[103.647968,22.00398],[103.711014,21.861198],[103.83483,21.732989],[103.925264,21.719786],[103.913327,21.854015],[103.977251,21.968323],[104.205815,21.89223],[104.232222,21.960184],[104.394176,21.898612],[104.440581,21.989046],[104.380999,22.099685],[104.474275,22.143403],[104.56538,22.100047],[104.645427,22.17242],[104.628477,22.257918],[104.594681,22.33166],[104.482491,22.405222],[104.440168,22.553482],[104.472518,22.593376],[104.361911,22.692536]]]},"properties":{"LOCATION_TYPE":"level1","ADM0_A3":"VNM","LOCATION_ID":"VNM-02","NAME":"Lào Cai","TYPE_EN":"Province"}},
{"type":"Feature","geometry":{"type":"Polygon","coordinates":[[[103.549923,22.648662],[103.473146,22.591645],[103.401729,22.737838],[103.309642,22.787938],[103.252488,22.678565],[103.141745,22.607045],[103.142004,22.537799],[102.989093,22.437598],[102.893698,22.487362],[102.845174,22.585238],[102.692729,22.670504],[102.535787,22.695825],[102.442718,22.765175],[102.324649,22.565118],[102.508556,22.566759],[102.644949,22.436225],[102.776785,22.360378],[102.84547,22.20543],[102.951915,22.136176],[103.040294,22.147732],[103.140147,22.085557],[103.266531,22.08157],[103.323985,22.149482],[103.416515,22.081407],[103.550403,21.886907],[103.56942,22.033591],[103.622078,22.180145],[103.771682,22.287942],[103.74729,22.41982],[103.58792,22.451937],[103.602183,22.5787],[103.549923,22.648662]]]},"properties":{"LOCATION_TYPE":"level1","ADM0_A3":"VNM","LOCATION_ID":"VNM-01","NAME":"Lai Chau","TYPE_EN":"Province"}},
{"type":"Feature","geometry":{"type":"Polygon","coordinates":[[[106.533028,22.403445],[106.369559,22.38853],[106.286205,22.440879],[106.192981,22.406695],[106.260005,22.262104],[106.190449,22.111777],[106.132778,22.068834],[106.113968,21.948118],[106.141925,21.805336],[106.253339,21.695084],[106.167505,21.570777],[106.165489,21.517137],[106.35292,21.423861],[106.459993,21.430785],[106.559315,21.586616],[106.631042,21.609586],[106.747727,21.549253],[106.811341,21.592687],[106.92198,21.445022],[106.996756,21.445642],[107.065331,21.360531],[107.214779,21.40673],[107.241599,21.555971],[107.333576,21.612509],[107.272656,21.718314],[107.172352,21.715058],[107.065847,21.795828],[107.021147,21.892257],[106.864774,21.968066],[106.722354,22.006978],[106.672176,22.092503],[106.662926,22.223296],[106.617295,22.322773],[106.533028,22.403445]]]},"properties":{"LOCATION_TYPE":"level1","ADM0_A3":"VNM","LOCATION_ID":"VNM-09","NAME":"Lạng Sơn","TYPE_EN":"Province"}},
{"type":"Feature","geometry":{"type":"MultiPolygon","coordinates":[[[[107.333576,21.612509],[107.241599,21.555971],[107.214779,21.40673],[107.065331,21.360531],[106.998617,21.314668],[106.963528,21.198293],[106.824364,21.162171],[106.545828,21.19372],[106.44449,21.064373],[106.605256,21.025435],[106.650727,21.018012],[106.730805,21.029853],[106.867931,20.882717],[106.946951,20.954291],[107.066091,20.964911],[107.160899,20.93244],[107.224132,20.998236],[107.333832,21.005845],[107.388438,21.184638],[107.391612,21.280422],[107.599213,21.298774],[107.650238,21.376858],[107.748546,21.4112],[107.780365,21.503079],[107.881928,21.534084],[107.832363,21.639352],[107.744823,21.657542],[107.613204,21.605607],[107.333576,21.612509]]],[[[107.080333,20.800442],[107.022716,20.86225],[106.909923,20.818549],[107.005138,20.732164],[107.080333,20.800442]]],[[[107.580577,21.211982],[107.467133,21.276516],[107.372895,21.059556],[107.470714,21.095893],[107.580577,21.211982]]]]},"properties":{"LOCATION_TYPE":"level1","ADM0_A3":"VNM","LOCATION_ID":"VNM-13","NAME":"Quảng Ninh","TYPE_EN":"Province"}},
{"type":"Feature","geometry":{"type":"Polygon","coordinates":[[[105.902105,9.916699],[105.820394,9.7192],[105.569298,9.610421],[105.577566,9.459268],[105.692391,9.383949],[105.80179,9.390693],[105.868256,9.254706],[106.19337,9.36933],[106.197032,9.541164],[106.073497,9.747952],[105.902105,9.916699]]]},"properties":{"LOCATION_TYPE":"level1","ADM0_A3":"VNM","LOCATION_ID":"VNM-52","NAME":"Sóc Trăng","TYPE_EN":"Province"}},
{"type":"Feature","geometry":{"type":"Polygon","coordinates":[[[106.615408,10.436591],[106.452242,10.416367],[106.271012,10.586434],[106.166419,10.592274],[106.09893,10.548581],[105.962659,10.553465],[105.948551,10.480704],[105.839307,10.344149],[105.849023,10.301439],[105.954908,10.28852],[106.107188,10.296251],[106.342296,10.337429],[106.422374,10.316962],[106.775564,10.275377],[106.788097,10.393134],[106.741059,10.468004],[106.615408,10.436591]]]},"properties":{"LOCATION_TYPE":"level1","ADM0_A3":"VNM","LOCATION_ID":"VNM-46","NAME":"Tiền Giang","TYPE_EN":"Province"}},
{"type":"Feature","geometry":{"type":"Polygon","coordinates":[[[107.020239,10.511907],[107.025645,10.50137],[107.175955,10.477444],[107.271983,10.378485],[107.32602,10.44245],[107.530528,10.512926],[107.586518,10.573513],[107.516569,10.756062],[107.457865,10.801512],[107.358336,10.691337],[107.240979,10.769395],[107.116697,10.665112],[107.025319,10.635272],[107.020239,10.511907]]]},"properties":{"LOCATION_TYPE":"level1","ADM0_A3":"VNM","LOCATION_ID":"VNM-43","NAME":"Bà Rịa - Vũng Tàu","TYPE_EN":"Province"}},
{"type":"Feature","geometry":{"type":"MultiPolygon","coordinates":[[[[106.984141,10.566881],[106.8925,10.670074],[106.835991,10.887785],[106.712329,10.880964],[106.513737,11.135832],[106.429607,11.124205],[106.363668,10.982147],[106.476943,10.924967],[106.524692,10.851018],[106.494926,10.73596],[106.645305,10.639041],[106.710779,10.651469],[106.74407,10.552232],[106.751964,10.576483],[106.772472,10.603746],[106.741466,10.669257],[106.772472,10.686347],[106.828624,10.630276],[106.881602,10.652167],[106.984141,10.566881]]],[[[106.874278,10.460395],[106.840099,10.559394],[106.84783,10.613837],[106.808116,10.633612],[106.751964,10.566555],[106.7588,10.542955],[106.7588,10.487738],[106.874278,10.460395]]]]},"properties":{"LOCATION_TYPE":"level1","ADM0_A3":"VNM","LOCATION_ID":"VNM-SG","NAME":"Hồ Chí Minh city","TYPE_EN":"City|Municipality|Thanh Pho"}},
{"type":"Feature","geometry":{"type":"Polygon","coordinates":[[[109.384613,12.83397],[109.195692,12.846813],[109.037304,12.752659],[108.906769,12.681423],[108.854472,12.484742],[108.676602,12.478774],[108.68146,12.302996],[108.719183,12.181143],[108.809772,12.124325],[108.877933,11.95418],[109.033376,11.907671],[109.114095,11.797962],[109.203868,11.788682],[109.125824,11.863593],[109.198741,11.948147],[109.286794,11.967434],[109.213878,12.068101],[109.206554,12.387152],[109.336681,12.410142],[109.204926,12.550238],[109.204926,12.64643],[109.384613,12.83397]]]},"properties":{"LOCATION_TYPE":"level1","ADM0_A3":"VNM","LOCATION_ID":"VNM-34","NAME":"Khánh Hòa","TYPE_EN":"Province"}},
{"type":"Feature","geometry":{"type":"Polygon","coordinates":[[[105.426036,9.008002],[105.331121,9.102545],[105.281047,9.236207],[105.316859,9.297211],[105.27991,9.405809],[105.023905,9.528256],[104.873062,9.507844],[104.834136,9.534434],[104.807073,9.045571],[104.811717,8.937049],[104.774595,8.817867],[104.852794,8.729193],[104.856212,8.565579],[105.101472,8.634275],[105.184031,8.740882],[105.333976,8.839699],[105.426036,9.008002]]]},"properties":{"LOCATION_TYPE":"level1","ADM0_A3":"VNM","LOCATION_ID":"VNM-59","NAME":"Cà Mau","TYPE_EN":"Province"}},
{"type":"Feature","geometry":{"type":"Polygon","coordinates":[[[105.868256,9.254706],[105.80179,9.390693],[105.692391,9.383949],[105.577566,9.459268],[105.569298,9.610421],[105.392255,9.586831],[105.306472,9.605357],[105.27991,9.405809],[105.316859,9.297211],[105.281047,9.236207],[105.331121,9.102545],[105.426036,9.008002],[105.538748,9.12934],[105.868256,9.254706]]]},"properties":{"LOCATION_TYPE":"level1","ADM0_A3":"VNM","LOCATION_ID":"VNM-55","NAME":"Bạc Liêu","TYPE_EN":"Province"}},
{"type":"Feature","geometry":{"type":"Polygon","coordinates":[[[105.83851,10.004752],[105.692236,10.123181],[105.422783,10.043628],[105.518914,9.952184],[105.503979,9.834258],[105.361559,9.683492],[105.392255,9.586831],[105.569298,9.610421],[105.820394,9.7192],[105.902105,9.916699],[105.83851,10.004752]]]},"properties":{"LOCATION_TYPE":"level1","ADM0_A3":"VNM","LOCATION_ID":"VNM-73","NAME":"Hau Giang","TYPE_EN":"Region"}},
{"type":"Feature","geometry":{"type":"Polygon","coordinates":[[[105.996568,9.888559],[106.126267,9.942572],[106.141305,10.000527],[106.24643,10.07746],[106.118175,10.238105],[105.954908,10.28852],[105.849023,10.301439],[105.911189,10.221547],[105.881372,10.146384],[105.73766,10.183384],[105.692236,10.123181],[105.83851,10.004752],[105.996568,9.888559]]]},"properties":{"LOCATION_TYPE":"level1","ADM0_A3":"VNM","LOCATION_ID":"VNM-49","NAME":"Vĩnh Long","TYPE_EN":"Province"}},
{"type":"Feature","geometry":{"type":"Polygon","coordinates":[[[106.24643,10.07746],[106.141305,10.000527],[106.126267,9.942572],[105.996568,9.888559],[106.250336,9.631171],[106.398204,9.54206],[106.484874,9.547105],[106.575531,9.648627],[106.574962,9.739081],[106.475759,9.861802],[106.24643,10.07746]]]},"properties":{"LOCATION_TYPE":"level1","ADM0_A3":"VNM","LOCATION_ID":"VNM-51","NAME":"Trà Vinh","TYPE_EN":"Province"}},
{"type":"Feature","geometry":{"type":"Polygon","coordinates":[[[106.422374,10.316962],[106.342296,10.337429],[106.107188,10.296251],[105.954908,10.28852],[106.118175,10.238105],[106.39503,9.974351],[106.611339,9.817043],[106.6963,9.896552],[106.614268,9.939032],[106.668712,10.032416],[106.79127,10.110175],[106.720876,10.199693],[106.422374,10.316962]]]},"properties":{"LOCATION_TYPE":"level1","ADM0_A3":"VNM","LOCATION_ID":"VNM-50","NAME":"Bến Tre","TYPE_EN":"Province"}},
{"type":"Feature","geometry":{"type":"Polygon","coordinates":[[[106.997813,10.624905],[107.002547,10.624885],[107.025319,10.635272],[107.116697,10.665112],[107.240979,10.769395],[107.358336,10.691337],[107.457865,10.801512],[107.516569,10.756062],[107.590777,10.850863],[107.557394,10.979666],[107.430942,11.038086],[107.569796,11.327164],[107.609535,11.361684],[107.448925,11.417236],[107.44877,11.490591],[107.30852,11.566219],[107.104295,11.475424],[107.046572,11.354243],[106.964769,11.283627],[106.933866,11.214742],[106.954692,11.064002],[106.787518,10.980674],[106.835991,10.887785],[106.8925,10.670074],[106.984141,10.566881],[106.997813,10.624905]]]},"properties":{"LOCATION_TYPE":"level1","ADM0_A3":"VNM","LOCATION_ID":"VNM-39","NAME":"Đông Nam Bộ","TYPE_EN":"Region"}},
{"type":"Feature","geometry":{"type":"Polygon","coordinates":[[[108.905965,11.323377],[108.867908,11.387987],[108.771893,11.407779],[108.696963,11.547771],[108.620171,11.564023],[108.580432,11.505215],[108.386491,11.523845],[108.319001,11.482814],[108.335744,11.36866],[108.152603,11.281534],[108.092555,11.218695],[108.010183,11.301481],[107.756348,11.314917],[107.609535,11.361684],[107.569796,11.327164],[107.430942,11.038086],[107.557394,10.979666],[107.590777,10.850863],[107.516569,10.756062],[107.586518,10.573513],[107.882335,10.716986],[107.998302,10.699368],[108.106456,10.918158],[108.344981,10.953803],[108.362804,11.009711],[108.472341,11.053168],[108.577403,11.179145],[108.72934,11.181545],[108.787852,11.300686],[108.905965,11.323377]]]},"properties":{"LOCATION_TYPE":"level1","ADM0_A3":"VNM","LOCATION_ID":"VNM-40","NAME":"Bình Thuận","TYPE_EN":"Province"}},
{"type":"Feature","geometry":{"type":"Polygon","coordinates":[[[109.203868,11.788682],[109.114095,11.797962],[109.033376,11.907671],[108.877933,11.95418],[108.809772,12.124325],[108.719183,12.181143],[108.68332,12.122852],[108.681305,11.973171],[108.63738,11.8392],[108.684715,11.742255],[108.610094,11.640143],[108.620171,11.564023],[108.696963,11.547771],[108.771893,11.407779],[108.867908,11.387987],[108.905965,11.323377],[109.018077,11.355902],[109.027843,11.517483],[109.135997,11.570217],[109.242931,11.735663],[109.203868,11.788682]]]},"properties":{"LOCATION_TYPE":"level1","ADM0_A3":"VNM","LOCATION_ID":"VNM-36","NAME":"Ninh Thuận","TYPE_EN":"Province"}},
{"type":"Feature","geometry":{"type":"Polygon","coordinates":[[[109.237071,13.698594],[109.080712,13.587078],[108.977824,13.542559],[108.825637,13.557519],[108.821709,13.430498],[108.874833,13.211313],[108.729105,13.105738],[108.660841,12.996235],[108.725385,12.895647],[108.817679,12.828365],[109.037304,12.752659],[109.195692,12.846813],[109.384613,12.83397],[109.465017,12.913316],[109.307384,13.133043],[109.308849,13.341457],[109.232188,13.393134],[109.26588,13.533881],[109.237071,13.698594]]]},"properties":{"LOCATION_TYPE":"level1","ADM0_A3":"VNM","LOCATION_ID":"VNM-32","NAME":"Phú Yên","TYPE_EN":"Province"}},
{"type":"Feature","geometry":{"type":"Polygon","coordinates":[[[109.077322,14.672471],[108.862534,14.679466],[108.666887,14.595957],[108.687144,14.45718],[108.634744,14.21753],[108.712052,13.930106],[108.807602,13.74681],[108.825637,13.557519],[108.977824,13.542559],[109.080712,13.587078],[109.237071,13.698594],[109.303966,13.759263],[109.307384,13.87637],[109.266368,13.920722],[109.181407,14.304755],[109.074474,14.578599],[109.077322,14.672471]]]},"properties":{"LOCATION_TYPE":"level1","ADM0_A3":"VNM","LOCATION_ID":"VNM-31","NAME":"Bình Định","TYPE_EN":"Province"}},
{"type":"Feature","geometry":{"type":"Polygon","coordinates":[[[108.761567,15.396552],[108.665957,15.383325],[108.336364,15.284881],[108.276161,15.178144],[108.296574,15.048126],[108.464832,14.857285],[108.548651,14.825555],[108.618156,14.640605],[108.666887,14.595957],[108.862534,14.679466],[109.077322,14.672471],[108.942638,14.97956],[108.897716,15.153998],[108.924327,15.256415],[108.839041,15.374335],[108.761567,15.396552]]]},"properties":{"LOCATION_TYPE":"level1","ADM0_A3":"VNM","LOCATION_ID":"VNM-29","NAME":"Quảng Ngãi","TYPE_EN":"Province"}},
{"type":"Feature","geometry":{"type":"Polygon","coordinates":[[[108.200125,16.211575],[107.95308,16.21591],[107.856239,16.087649],[108.006927,16.086073],[108.055348,15.978095],[108.282319,15.990058],[108.240896,16.090522],[108.142833,16.119371],[108.200125,16.211575]]]},"properties":{"LOCATION_TYPE":"level1","ADM0_A3":"VNM","LOCATION_ID":"VNM-DN","NAME":"Đà Nẵng","TYPE_EN":"City|Municipality|Thanh Pho"}},
{"type":"Feature","geometry":{"type":"Polygon","coordinates":[[[106.114513,20.033271],[106.155102,20.217603],[105.963796,20.282612],[105.951187,20.336769],[105.841323,20.419477],[105.706034,20.413276],[105.715646,20.335297],[105.542633,20.367103],[105.75492,20.196623],[105.982555,20.07818],[106.034203,19.995735],[106.114513,20.033271]]]},"properties":{"LOCATION_TYPE":"level1","ADM0_A3":"VNM","LOCATION_ID":"VNM-18","NAME":"Ninh Bình","TYPE_EN":"Province"}},
{"type":"Feature","geometry":{"type":"Polygon","coordinates":[[[106.50294,20.300523],[106.450175,20.287289],[106.214117,20.424413],[106.184454,20.490868],[106.07087,20.483298],[105.951187,20.336769],[105.963796,20.282612],[106.155102,20.217603],[106.114513,20.033271],[106.160899,19.984076],[106.39503,20.204576],[106.569615,20.231994],[106.50294,20.300523]]]},"properties":{"LOCATION_TYPE":"level1","ADM0_A3":"VNM","LOCATION_ID":"VNM-67","NAME":"Nam Định","TYPE_EN":"Province"}},
{"type":"Feature","geometry":{"type":"Polygon","coordinates":[[[106.593598,20.646715],[106.468985,20.600655],[106.417205,20.719278],[106.25737,20.695895],[106.112366,20.631609],[106.184454,20.490868],[106.214117,20.424413],[106.450175,20.287289],[106.50294,20.300523],[106.57309,20.368476],[106.567719,20.524888],[106.593598,20.646715]]]},"properties":{"LOCATION_TYPE":"level1","ADM0_A3":"VNM","LOCATION_ID":"VNM-20","NAME":"Thái Bình","TYPE_EN":"Province"}},
{"type":"Feature","geometry":{"type":"Polygon","coordinates":[[[106.650727,21.018012],[106.605256,21.025435],[106.49658,20.860484],[106.535596,20.782272],[106.417205,20.719278],[106.468985,20.600655],[106.593598,20.646715],[106.682953,20.643378],[106.788829,20.730536],[106.749197,20.804348],[106.755138,20.938544],[106.650727,21.018012]]]},"properties":{"LOCATION_TYPE":"level1","ADM0_A3":"VNM","LOCATION_ID":"VNM-HP","NAME":"Hải Phòng","TYPE_EN":"Province"}},
{"type":"Feature","geometry":{"type":"Polygon","coordinates":[[[105.841323,20.419477],[105.785822,20.568306],[105.679782,20.637655],[105.612758,20.761627],[105.507286,20.846428],[105.504496,20.987246],[105.307919,21.011922],[105.332672,20.918827],[105.115269,20.949936],[104.942256,21.053599],[104.908615,21.1014],[104.880141,21.022516],[105.077132,20.772195],[104.973934,20.729872],[104.857404,20.727882],[104.842934,20.625718],[105.066693,20.575437],[105.137955,20.590836],[105.308797,20.456323],[105.542633,20.367103],[105.715646,20.335297],[105.706034,20.413276],[105.841323,20.419477]]]},"properties":{"LOCATION_TYPE":"level1","ADM0_A3":"VNM","LOCATION_ID":"VNM-14","NAME":"Hòa Bình","TYPE_EN":"Province"}},
{"type":"Feature","geometry":{"type":"Polygon","coordinates":[[[105.111755,21.703947],[105.233195,21.618732],[105.317427,21.514139],[105.460364,21.497164],[105.577721,21.543827],[105.522324,21.60757],[105.534365,21.866779],[105.557516,21.950883],[105.488631,22.154359],[105.519844,22.34029],[105.609296,22.469972],[105.567644,22.592239],[105.343575,22.600998],[105.196608,22.647765],[105.082713,22.459766],[105.048865,22.357034],[104.957346,22.353545],[104.848257,22.170223],[104.883759,22.089376],[104.982616,22.007365],[104.996878,21.923959],[105.100076,21.795156],[105.111755,21.703947]]]},"properties":{"LOCATION_TYPE":"level1","ADM0_A3":"VNM","LOCATION_ID":"VNM-07","NAME":"Tuyên Quang","TYPE_EN":"Province"}},
{"type":"Feature","geometry":{"type":"Polygon","coordinates":[[[104.848257,22.170223],[104.770174,22.181385],[104.689507,22.264429],[104.628477,22.257918],[104.645427,22.17242],[104.56538,22.100047],[104.474275,22.143403],[104.380999,22.099685],[104.440581,21.989046],[104.394176,21.898612],[104.232222,21.960184],[104.205815,21.89223],[103.977251,21.968323],[103.913327,21.854015],[103.925264,21.719786],[104.169797,21.659298],[104.307153,21.709709],[104.349838,21.671029],[104.310977,21.495536],[104.357124,21.416393],[104.490863,21.365725],[104.603672,21.413448],[104.74785,21.384121],[104.828516,21.329603],[104.919312,21.397919],[104.888099,21.522976],[104.921947,21.620593],[105.111755,21.703947],[105.100076,21.795156],[104.996878,21.923959],[104.982616,22.007365],[104.883759,22.089376],[104.848257,22.170223]]]},"properties":{"LOCATION_TYPE":"level1","ADM0_A3":"VNM","LOCATION_ID":"VNM-06","NAME":"Yên Bái","TYPE_EN":"Province"}},
{"type":"Feature","geometry":{"type":"Polygon","coordinates":[[[105.429391,21.276438],[105.514211,21.167494],[105.77988,21.179121],[105.772128,21.362469],[105.740037,21.417556],[105.577721,21.543827],[105.460364,21.497164],[105.317427,21.514139],[105.343679,21.434687],[105.451579,21.323944],[105.429391,21.276438]]]},"properties":{"LOCATION_TYPE":"level1","ADM0_A3":"VNM","LOCATION_ID":"VNM-70","NAME":"Vĩnh Phúc","TYPE_EN":"Province"}},
{"type":"Feature","geometry":{"type":"Polygon","coordinates":[[[105.317427,21.514139],[105.233195,21.618732],[105.111755,21.703947],[104.921947,21.620593],[104.888099,21.522976],[104.919312,21.397919],[104.828516,21.329603],[104.908615,21.1014],[104.942256,21.053599],[105.115269,20.949936],[105.332672,20.918827],[105.307919,21.011922],[105.284871,21.191549],[105.429391,21.276438],[105.451579,21.323944],[105.343679,21.434687],[105.317427,21.514139]]]},"properties":{"LOCATION_TYPE":"level1","ADM0_A3":"VNM","LOCATION_ID":"VNM-68","NAME":"Phú Thọ","TYPE_EN":"Province"}},
{"type":"Feature","geometry":{"type":"Polygon","coordinates":[[[105.785822,20.568306],[105.817138,20.647422],[106.007204,20.713232],[105.920336,20.801315],[105.91243,20.96593],[106.004724,20.991303],[105.929018,21.127445],[105.944986,21.247489],[105.920801,21.328052],[105.772128,21.362469],[105.77988,21.179121],[105.514211,21.167494],[105.429391,21.276438],[105.284871,21.191549],[105.307919,21.011922],[105.504496,20.987246],[105.507286,20.846428],[105.612758,20.761627],[105.679782,20.637655],[105.785822,20.568306]]]},"properties":{"LOCATION_TYPE":"level1","ADM0_A3":"VNM","LOCATION_ID":"VNM-HN","NAME":"Ha Noi","TYPE_EN":"Province"}},
{"type":"Feature","geometry":{"type":"Polygon","coordinates":[[[105.557516,21.950883],[105.717196,22.030335],[105.772903,21.977806],[105.800705,21.787714],[106.026169,21.921427],[106.113968,21.948118],[106.132778,22.068834],[106.190449,22.111777],[106.260005,22.262104],[106.192981,22.406695],[106.082342,22.542319],[105.909639,22.479868],[105.815123,22.505267],[105.724948,22.724143],[105.567644,22.592239],[105.609296,22.469972],[105.519844,22.34029],[105.488631,22.154359],[105.557516,21.950883]]]},"properties":{"LOCATION_TYPE":"level1","ADM0_A3":"VNM","LOCATION_ID":"VNM-53","NAME":"Đông Bắc","TYPE_EN":"Region"}},
{"type":"Feature","geometry":{"type":"Polygon","coordinates":[[[106.25737,20.695895],[106.138359,20.795966],[106.152157,20.997814],[106.004724,20.991303],[105.91243,20.96593],[105.920336,20.801315],[106.007204,20.713232],[106.112366,20.631609],[106.25737,20.695895]]]},"properties":{"LOCATION_TYPE":"level1","ADM0_A3":"VNM","LOCATION_ID":"VNM-66","NAME":"Đồng Bằng Sông Hồng","TYPE_EN":"Region"}},
{"type":"Feature","geometry":{"type":"Polygon","coordinates":[[[106.152157,20.997814],[106.306824,21.013317],[106.298039,21.134059],[106.21422,21.181369],[105.944986,21.247489],[105.929018,21.127445],[106.004724,20.991303],[106.152157,20.997814]]]},"properties":{"LOCATION_TYPE":"level1","ADM0_A3":"VNM","LOCATION_ID":"VNM-56","NAME":"Bắc Ninh","TYPE_EN":"Province"}},
{"type":"Feature","geometry":{"type":"Polygon","coordinates":[[[107.065331,21.360531],[106.996756,21.445642],[106.92198,21.445022],[106.811341,21.592687],[106.747727,21.549253],[106.631042,21.609586],[106.559315,21.586616],[106.459993,21.430785],[106.35292,21.423861],[106.165489,21.517137],[106.167505,21.570777],[106.071903,21.50259],[105.920801,21.328052],[105.944986,21.247489],[106.21422,21.181369],[106.298039,21.134059],[106.385837,21.222839],[106.545828,21.19372],[106.824364,21.162171],[106.963528,21.198293],[106.998617,21.314668],[107.065331,21.360531]]]},"properties":{"LOCATION_TYPE":"level1","ADM0_A3":"VNM","LOCATION_ID":"VNM-54","NAME":"Bắc Giang","TYPE_EN":"Province"}},
{"type":"Feature","geometry":{"type":"Polygon","coordinates":[[[105.577721,21.543827],[105.740037,21.417556],[105.772128,21.362469],[105.920801,21.328052],[106.071903,21.50259],[106.167505,21.570777],[106.253339,21.695084],[106.141925,21.805336],[106.113968,21.948118],[106.026169,21.921427],[105.800705,21.787714],[105.772903,21.977806],[105.717196,22.030335],[105.557516,21.950883],[105.534365,21.866779],[105.522324,21.60757],[105.577721,21.543827]]]},"properties":{"LOCATION_TYPE":"level1","ADM0_A3":"VNM","LOCATION_ID":"VNM-69","NAME":"Thái Nguyên","TYPE_EN":"Province"}},
{"type":"Feature","geometry":{"type":"Polygon","coordinates":[[[106.417205,20.719278],[106.535596,20.782272],[106.49658,20.860484],[106.605256,21.025435],[106.44449,21.064373],[106.545828,21.19372],[106.385837,21.222839],[106.298039,21.134059],[106.306824,21.013317],[106.152157,20.997814],[106.138359,20.795966],[106.25737,20.695895],[106.417205,20.719278]]]},"properties":{"LOCATION_TYPE":"level1","ADM0_A3":"VNM","LOCATION_ID":"VNM-61","NAME":"Hải Dương","TYPE_EN":"Province"}},
{"type":"Feature","geometry":{"type":"Polygon","coordinates":[[[105.951187,20.336769],[106.07087,20.483298],[106.184454,20.490868],[106.112366,20.631609],[106.007204,20.713232],[105.817138,20.647422],[105.785822,20.568306],[105.841323,20.419477],[105.951187,20.336769]]]},"properties":{"LOCATION_TYPE":"level1","ADM0_A3":"VNM","LOCATION_ID":"VNM-63","NAME":"Hà Nam","TYPE_EN":"Province"}},
{"type":"Feature","geometry":{"type":"Polygon","coordinates":[[[106.429607,11.124205],[106.513737,11.135832],[106.712329,10.880964],[106.835991,10.887785],[106.787518,10.980674],[106.954692,11.064002],[106.933866,11.214742],[106.964769,11.283627],[106.721166,11.345716],[106.64763,11.316777],[106.619053,11.43137],[106.464334,11.553326],[106.378861,11.437183],[106.346718,11.272697],[106.429607,11.124205]]]},"properties":{"LOCATION_TYPE":"level1","ADM0_A3":"VNM","LOCATION_ID":"VNM-57","NAME":"Bình Dương","TYPE_EN":"Province"}},
{"type":"Feature","geometry":{"type":"Polygon","coordinates":[[[108.719183,12.181143],[108.68146,12.302996],[108.515733,12.300283],[108.426075,12.243852],[108.336364,12.239512],[108.236112,12.155796],[108.117566,12.151868],[107.998607,12.125746],[107.984655,12.067377],[108.087904,11.940176],[108.059999,11.821578],[107.997935,11.769644],[107.914891,11.793182],[107.874429,11.863953],[107.785907,11.848889],[107.701984,11.906922],[107.56344,11.786904],[107.390427,11.751764],[107.284439,11.654896],[107.30852,11.566219],[107.44877,11.490591],[107.448925,11.417236],[107.609535,11.361684],[107.756348,11.314917],[108.010183,11.301481],[108.092555,11.218695],[108.152603,11.281534],[108.335744,11.36866],[108.319001,11.482814],[108.386491,11.523845],[108.580432,11.505215],[108.620171,11.564023],[108.610094,11.640143],[108.684715,11.742255],[108.63738,11.8392],[108.681305,11.973171],[108.68332,12.122852],[108.719183,12.181143]]]},"properties":{"LOCATION_TYPE":"level1","ADM0_A3":"VNM","LOCATION_ID":"VNM-35","NAME":"Lâm Đồng","TYPE_EN":"Province"}},
{"type":"Feature","geometry":{"type":"Polygon","coordinates":[[[105.422783,10.043628],[105.692236,10.123181],[105.73766,10.183384],[105.881372,10.146384],[105.911189,10.221547],[105.849023,10.301439],[105.699833,10.407892],[105.582992,10.44652],[105.473438,10.275342],[105.241463,10.19961],[105.422783,10.043628]]]},"properties":{"LOCATION_TYPE":"level1","ADM0_A3":"VNM","LOCATION_ID":"VNM-CT","NAME":"Can Tho","TYPE_EN":"Province"}}
]}