{"type":"FeatureCollection", "features": [
{"type":"Feature","geometry":{"type":"MultiPolygon","coordinates":[[[[169.840343,-20.140802],[169.737966,-20.208917],[169.830089,-20.253106],[169.898936,-20.192315],[169.840343,-20.140802]]],[[[169.432791,-19.492852],[169.366466,-19.469659],[169.352875,-19.328058],[169.243419,-19.341974],[169.218516,-19.490167],[169.278331,-19.578302],[169.436209,-19.657322],[169.495616,-19.539809],[169.432791,-19.492852]]],[[[169.336599,-18.934828],[169.22047,-18.824965],[169.152354,-18.636326],[169.038422,-18.629164],[168.98878,-18.690606],[168.987315,-18.87656],[169.254893,-18.984796],[169.336599,-18.934828]]]]},"properties":{"LOCATION_TYPE":"level1","ADM0_A3":"VUT","LOCATION_ID":"VUT-TAE","NAME":"Tafea","TYPE_EN":"Province"}},
{"type":"Feature","geometry":{"type":"MultiPolygon","coordinates":[[[[168.549571,-17.691013],[168.45338,-17.546319],[168.323009,-17.532647],[168.178966,-17.656183],[168.286632,-17.71087],[168.396007,-17.8235],[168.540212,-17.796645],[168.549571,-17.691013]]],[[[168.192068,-16.813897],[168.333263,-16.786716],[168.45338,-16.848077],[168.464122,-16.778009],[168.370291,-16.767022],[168.309337,-16.690362],[168.247325,-16.690362],[168.154063,-16.579197],[168.120372,-16.709161],[168.192068,-16.813897]]]]},"properties":{"LOCATION_TYPE":"level1","ADM0_A3":"VUT","LOCATION_ID":"VUT-SEE","NAME":"Shefa","TYPE_EN":"Province"}},
{"type":"Feature","geometry":{"type":"MultiPolygon","coordinates":[[[[168.182384,-16.347833],[168.288259,-16.344008],[168.3213,-16.282892],[168.230724,-16.227716],[168.171641,-16.080255],[168.069509,-16.179783],[167.925792,-16.219822],[167.920909,-16.258884],[168.139985,-16.361912],[168.182384,-16.347833]]],[[[167.812511,-16.419529],[167.603038,-16.224298],[167.397634,-16.087091],[167.336111,-15.908949],[167.185313,-15.89072],[167.147472,-16.08294],[167.233084,-16.16961],[167.322439,-16.115004],[167.377126,-16.200616],[167.384532,-16.368259],[167.458751,-16.567966],[167.521007,-16.580499],[167.621918,-16.494236],[167.726573,-16.517836],[167.812511,-16.419529]]]]},"properties":{"LOCATION_TYPE":"level1","ADM0_A3":"VUT","LOCATION_ID":"VUT-MAP","NAME":"Malampa","TYPE_EN":"Province"}},
{"type":"Feature","geometry":{"type":"MultiPolygon","coordinates":[[[[167.20574,-15.751235],[167.233572,-15.641534],[167.126964,-15.621515],[167.089122,-15.703546],[167.20574,-15.751235]]],[[[167.140636,-15.535577],[167.233409,-15.523614],[167.171723,-15.366388],[167.191742,-15.305597],[167.139415,-15.146417],[167.089122,-15.141209],[167.056814,-15.002048],[166.971934,-14.979913],[166.963227,-15.104181],[166.91977,-15.155938],[166.801768,-15.152276],[166.737315,-14.829522],[166.609874,-14.634698],[166.556163,-14.645929],[166.522634,-14.832127],[166.570811,-14.956231],[166.650076,-15.264744],[166.616059,-15.385024],[166.793142,-15.656345],[166.9463,-15.576755],[167.102712,-15.580011],[167.140636,-15.535577]]]]},"properties":{"LOCATION_TYPE":"level1","ADM0_A3":"VUT","LOCATION_ID":"VUT-SAM","NAME":"Sanma","TYPE_EN":"Province"}},
{"type":"Feature","geometry":{"type":"MultiPolygon","coordinates":[[[[168.185802,-15.517836],[168.11964,-15.662774],[168.187511,-15.971124],[168.254893,-15.975763],[168.264008,-15.85711],[168.216075,-15.70379],[168.185802,-15.517836]]],[[[167.939464,-15.39186],[167.976899,-15.277765],[167.804454,-15.320001],[167.682384,-15.43255],[167.734141,-15.484308],[167.838552,-15.484796],[167.939464,-15.39186]]],[[[168.096446,-14.980401],[168.130138,-15.157647],[168.131114,-15.395115],[168.178966,-15.395115],[168.192068,-15.206313],[168.141368,-14.960138],[168.096446,-14.980401]]]]},"properties":{"LOCATION_TYPE":"level1","ADM0_A3":"VUT","LOCATION_ID":"VUT-PAM","NAME":"Penama","TYPE_EN":"Province"}},
{"type":"Feature","geometry":{"type":"MultiPolygon","coordinates":[[[[167.514903,-14.140558],[167.407481,-14.19492],[167.430919,-14.318455],[167.526134,-14.31992],[167.603038,-14.18906],[167.514903,-14.140558]]],[[[167.45281,-13.918634],[167.533702,-13.880466],[167.549653,-13.789483],[167.488943,-13.708185],[167.389171,-13.804295],[167.45281,-13.918634]]]]},"properties":{"LOCATION_TYPE":"level1","ADM0_A3":"VUT","LOCATION_ID":"VUT-TOB","NAME":"Torba","TYPE_EN":"Province"}}
]}