{"type":"FeatureCollection", "features": [
{"type":"Feature","geometry":{"type":"Polygon","coordinates":[[[-178.126551,-14.313148],[-178.130774,-14.255547],[-178.18574,-14.248224],[-178.156606,-14.305108],[-178.126551,-14.313148]]]},"properties":{"LOCATION_TYPE":"level1","ADM0_A3":"WLF","LOCATION_ID":"WLF-SG","NAME":"Sigave","TYPE_EN":null}},
{"type":"Feature","geometry":{"type":"Polygon","coordinates":[[[-178.130774,-14.255547],[-178.126551,-14.313148],[-178.108144,-14.278985],[-178.130774,-14.255547]]]},"properties":{"LOCATION_TYPE":"level1","ADM0_A3":"WLF","LOCATION_ID":"WLF-AL","NAME":"Alo","TYPE_EN":null}},
{"type":"Feature","geometry":{"type":"Polygon","coordinates":[[[-176.155466,-13.208917],[-176.199574,-13.290623],[-176.18281,-13.339288],[-176.1256,-13.264093],[-176.155466,-13.208917]]]},"properties":{"LOCATION_TYPE":"level1","ADM0_A3":"WLF","LOCATION_ID":"WLF-UV","NAME":"`Uvea","TYPE_EN":null}}
]}