{"type":"FeatureCollection", "features": [
{"type":"Feature","geometry":{"type":"MultiPolygon","coordinates":[[[[-172.36616,-13.462823],[-172.414185,-13.636866],[-172.39102,-13.63746],[-172.347445,-13.638577],[-172.310967,-13.639513],[-172.297235,-13.561696],[-172.222768,-13.558364],[-172.280507,-13.493585],[-172.36616,-13.462823]]],[[[-171.854075,-14.001886],[-171.847926,-13.943745],[-171.87565,-14.004691],[-171.854075,-14.001886]]]]},"properties":{"LOCATION_TYPE":"level1","ADM0_A3":"WSM","LOCATION_ID":"WSM-GE","NAME":"Gaga'emauga","TYPE_EN":null}},
{"type":"Feature","geometry":{"type":"Polygon","coordinates":[[[-172.638987,-13.522068],[-172.631809,-13.599872],[-172.578746,-13.632646],[-172.414185,-13.636866],[-172.36616,-13.462823],[-172.530629,-13.483982],[-172.638987,-13.522068]]]},"properties":{"LOCATION_TYPE":"level1","ADM0_A3":"WSM","LOCATION_ID":"WSM-GI","NAME":"Gaga'ifomauga","TYPE_EN":null}},
{"type":"Feature","geometry":{"type":"Polygon","coordinates":[[[-172.703481,-13.616632],[-172.631809,-13.599872],[-172.638987,-13.522068],[-172.76655,-13.510512],[-172.776479,-13.542087],[-172.703481,-13.616632]]]},"properties":{"LOCATION_TYPE":"level1","ADM0_A3":"WSM","LOCATION_ID":"WSM-VS","NAME":"Vaisigano","TYPE_EN":null}},
{"type":"Feature","geometry":{"type":"MultiPolygon","coordinates":[[[[-172.608957,-13.693048],[-172.578746,-13.632646],[-172.631809,-13.599872],[-172.703481,-13.616632],[-172.608957,-13.693048]]],[[[-172.31843,-13.771254],[-172.347445,-13.638577],[-172.39102,-13.63746],[-172.354487,-13.783994],[-172.31843,-13.771254]]]]},"properties":{"LOCATION_TYPE":"level1","ADM0_A3":"WSM","LOCATION_ID":"WSM-SA","NAME":"Satupa'itea","TYPE_EN":null}},
{"type":"Feature","geometry":{"type":"MultiPolygon","coordinates":[[[[-172.354487,-13.783994],[-172.39102,-13.63746],[-172.414185,-13.636866],[-172.578746,-13.632646],[-172.608957,-13.693048],[-172.523183,-13.805352],[-172.354487,-13.783994]]],[[[-172.212961,-13.800958],[-172.310967,-13.639513],[-172.347445,-13.638577],[-172.31843,-13.771254],[-172.212961,-13.800958]]]]},"properties":{"LOCATION_TYPE":"level1","ADM0_A3":"WSM","LOCATION_ID":"WSM-PA","NAME":"Palauli","TYPE_EN":null}},
{"type":"Feature","geometry":{"type":"Polygon","coordinates":[[[-172.222768,-13.558364],[-172.297235,-13.561696],[-172.310967,-13.639513],[-172.212961,-13.800958],[-172.180613,-13.702407],[-172.222768,-13.558364]]]},"properties":{"LOCATION_TYPE":"level1","ADM0_A3":"WSM","LOCATION_ID":"WSM-FA","NAME":"Fa'asaleleaga","TYPE_EN":null}},
{"type":"Feature","geometry":{"type":"Polygon","coordinates":[[[-171.567576,-13.896742],[-171.585154,-13.883884],[-171.650217,-13.87127],[-171.665552,-13.930179],[-171.652415,-14.04518],[-171.466176,-14.05283],[-171.46935,-13.969415],[-171.557982,-13.982819],[-171.559071,-13.925388],[-171.567576,-13.896742]]]},"properties":{"LOCATION_TYPE":"level1","ADM0_A3":"WSM","LOCATION_ID":"WSM-AT","NAME":"Atua","TYPE_EN":null}},
{"type":"Feature","geometry":{"type":"Polygon","coordinates":[[[-171.559071,-13.925388],[-171.557982,-13.982819],[-171.46935,-13.969415],[-171.559071,-13.925388]]]},"properties":{"LOCATION_TYPE":"level1","ADM0_A3":"WSM","LOCATION_ID":"WSM-VF","NAME":"Va'a-o-Fonoti","TYPE_EN":null}},
{"type":"Feature","geometry":{"type":"Polygon","coordinates":[[[-171.792307,-13.816502],[-171.81491,-13.811624],[-171.857894,-13.806346],[-171.847926,-13.943745],[-171.854075,-14.001886],[-171.742991,-14.051853],[-171.652415,-14.04518],[-171.665552,-13.930179],[-171.650217,-13.87127],[-171.792307,-13.816502]]]},"properties":{"LOCATION_TYPE":"level1","ADM0_A3":"WSM","LOCATION_ID":"WSM-TU","NAME":"Tuamasaga","TYPE_EN":null}},
{"type":"Feature","geometry":{"type":"Polygon","coordinates":[[[-171.99261,-13.82821],[-171.972239,-13.872961],[-172.040639,-13.915216],[-171.940989,-13.990411],[-171.87565,-14.004691],[-171.847926,-13.943745],[-171.857894,-13.806346],[-171.99261,-13.82821]]]},"properties":{"LOCATION_TYPE":"level1","ADM0_A3":"WSM","LOCATION_ID":"WSM-AA","NAME":"A'ana","TYPE_EN":null}},
{"type":"Feature","geometry":{"type":"Polygon","coordinates":[[[-172.028046,-13.840717],[-172.055613,-13.861912],[-172.040639,-13.915216],[-171.972239,-13.872961],[-171.99261,-13.82821],[-172.028046,-13.840717]]]},"properties":{"LOCATION_TYPE":"level1","ADM0_A3":"WSM","LOCATION_ID":"WSM-AL","NAME":"Aiga-i-le-Tai","TYPE_EN":null}}
]}