{"type":"FeatureCollection", "features": [
{"type":"Feature","geometry":{"type":"MultiPolygon","coordinates":[[[[51.985689,18.979732],[51.978615,18.995638],[51.01981,18.866576],[49.738442,18.694157],[49.128815,18.612095],[49.035849,18.57972],[48.161949,18.148919],[47.589012,17.463276],[47.427575,17.091826],[47.190897,16.958914],[46.997026,16.948514],[47.038659,16.345359],[46.832728,16.149686],[46.339735,15.570729],[47.74921,15.675168],[47.851736,15.612665],[47.654694,15.316223],[47.612629,15.118845],[47.664305,14.981205],[47.486022,14.793878],[47.744507,14.600789],[47.998859,14.557587],[48.260341,14.300342],[48.580425,14.233085],[48.681488,14.043606],[49.003673,14.324774],[49.077973,14.50609],[49.578136,14.737291],[49.942149,14.838772],[50.179535,14.843329],[50.554047,15.04857],[50.80499,15.097378],[50.728356,15.261162],[50.584489,15.297413],[50.341351,15.273512],[50.259393,15.363765],[50.320836,15.529001],[50.192368,15.609306],[50.229937,15.853374],[50.301922,16.001737],[50.235363,16.145578],[50.396904,16.62374],[50.572242,16.69464],[51.132414,17.152752],[51.262432,17.338115],[51.384854,17.60027],[51.479215,17.884361],[51.540968,18.183903],[51.712275,18.596204],[51.985689,18.979732]]],[[[54.470662,12.543566],[54.119395,12.701117],[54.008097,12.645744],[53.762894,12.619703],[53.654755,12.704758],[53.396027,12.656468],[53.334239,12.51553],[53.572147,12.334614],[53.776352,12.304969],[54.140498,12.351344],[54.470662,12.543566]]]]},"properties":{"LOCATION_TYPE":"level1","ADM0_A3":"YEM","LOCATION_ID":"YEM-HD","NAME":"Hadramawt","TYPE_EN":"Governorate"}},
{"type":"Feature","geometry":{"type":"Polygon","coordinates":[[[51.985689,18.979732],[51.712275,18.596204],[51.540968,18.183903],[51.479215,17.884361],[51.384854,17.60027],[51.262432,17.338115],[51.132414,17.152752],[50.572242,16.69464],[50.396904,16.62374],[50.235363,16.145578],[50.301922,16.001737],[50.229937,15.853374],[50.192368,15.609306],[50.320836,15.529001],[50.259393,15.363765],[50.341351,15.273512],[50.584489,15.297413],[50.728356,15.261162],[50.80499,15.097378],[51.367849,15.229722],[51.679942,15.403469],[52.04713,15.570014],[52.228363,15.616116],[52.224376,15.846747],[52.155528,15.983873],[52.292735,16.263821],[52.597667,16.476711],[53.090343,16.642401],[52.801562,17.267423],[52.730145,17.299875],[52.484527,17.854157],[51.985689,18.979732]]]},"properties":{"LOCATION_TYPE":"level1","ADM0_A3":"YEM","LOCATION_ID":"YEM-MR","NAME":"Al Mahrah","TYPE_EN":"Governorate"}},
{"type":"Feature","geometry":{"type":"Polygon","coordinates":[[[44.972466,17.429696],[44.404142,17.418731],[44.10447,17.351965],[43.750642,17.345661],[43.50337,17.513454],[43.391025,17.511955],[43.165044,17.32592],[43.108717,16.926978],[43.208608,16.773396],[43.185679,16.684847],[43.412885,16.613302],[43.599902,16.608521],[43.856838,16.678517],[44.030005,16.62064],[44.188755,16.631466],[44.248493,16.770269],[44.490856,16.979222],[44.744897,17.076141],[44.950208,17.111436],[44.972466,17.429696]]]},"properties":{"LOCATION_TYPE":"level1","ADM0_A3":"YEM","LOCATION_ID":"YEM-SD","NAME":"Sa`dah","TYPE_EN":"Governorate"}},
{"type":"Feature","geometry":{"type":"Polygon","coordinates":[[[43.185679,16.684847],[43.084946,16.672575],[43.036267,16.536304],[42.78948,16.370958],[42.843272,16.052191],[42.834556,15.914064],[42.9972,15.820172],[43.285348,15.863554],[43.313873,15.509674],[43.54528,15.545563],[43.705271,15.526288],[43.804076,15.667261],[43.775241,15.930733],[43.61463,16.203482],[43.599902,16.608521],[43.412885,16.613302],[43.185679,16.684847]]]},"properties":{"LOCATION_TYPE":"level1","ADM0_A3":"YEM","LOCATION_ID":"YEM-HJ","NAME":"Hajjah","TYPE_EN":"Governorate"}},
{"type":"Feature","geometry":{"type":"Polygon","coordinates":[[[44.972466,17.429696],[44.950208,17.111436],[44.744897,17.076141],[44.490856,16.979222],[44.248493,16.770269],[44.188755,16.631466],[44.314277,16.549016],[44.369364,16.335231],[44.352466,16.195498],[44.425847,16.028273],[44.660975,16.011426],[44.997802,15.935539],[45.238975,15.812963],[45.564227,15.790354],[45.69285,15.897738],[45.994485,16.000031],[46.832728,16.149686],[47.038659,16.345359],[46.997026,16.948514],[46.710099,17.275381],[46.322629,17.224066],[45.430384,17.312019],[45.222128,17.417388],[44.972466,17.429696]]]},"properties":{"LOCATION_TYPE":"level1","ADM0_A3":"YEM","LOCATION_ID":"YEM-JA","NAME":"Al Jawf","TYPE_EN":"Governorate"}},
{"type":"Feature","geometry":{"type":"Polygon","coordinates":[[[43.284286,13.664872],[43.444408,13.74681],[43.541043,13.875484],[43.68429,13.911994],[43.797565,14.114048],[43.579387,14.15557],[43.558303,14.374317],[43.556908,14.848396],[43.701963,14.933404],[43.571015,15.04425],[43.332218,15.305552],[43.313873,15.509674],[43.285348,15.863554],[42.9972,15.820172],[42.834556,15.914064],[42.699229,15.717434],[42.774262,15.491034],[42.803071,15.245185],[42.937266,14.948472],[42.942231,14.788886],[43.028656,14.537991],[42.9935,14.44831],[43.09552,14.083956],[43.233165,13.87637],[43.284286,13.664872]]]},"properties":{"LOCATION_TYPE":"level1","ADM0_A3":"YEM","LOCATION_ID":"YEM-HU","NAME":"Al Hudaydah","TYPE_EN":"Governorate"}},
{"type":"Feature","geometry":{"type":"Polygon","coordinates":[[[43.530748,12.695478],[43.72589,13.040806],[43.882004,13.113386],[44.020704,13.047318],[44.196507,13.227436],[44.356807,13.251259],[44.354637,13.368022],[44.53323,13.577053],[44.41422,13.643224],[44.406933,13.761047],[44.321254,13.703014],[43.963446,13.801819],[43.8865,13.877732],[43.68429,13.911994],[43.541043,13.875484],[43.444408,13.74681],[43.284286,13.664872],[43.248871,13.212714],[43.473155,12.846625],[43.530748,12.695478]]]},"properties":{"LOCATION_TYPE":"level1","ADM0_A3":"YEM","LOCATION_ID":"YEM-TA","NAME":"Ta`izz","TYPE_EN":"Governorate"}},
{"type":"Feature","geometry":{"type":"Polygon","coordinates":[[[44.414692,12.673289],[44.484189,12.777644],[44.61891,12.835677],[45.093191,12.924709],[45.099457,12.936184],[45.131282,13.162969],[45.252308,13.407477],[45.211019,13.512225],[45.291892,13.779495],[45.405012,13.896594],[45.399121,14.023201],[45.180478,13.964368],[45.118724,13.830216],[44.857552,13.708052],[44.853056,13.590902],[44.628057,13.516798],[44.53323,13.577053],[44.354637,13.368022],[44.356807,13.251259],[44.196507,13.227436],[44.020704,13.047318],[43.882004,13.113386],[43.72589,13.040806],[43.530748,12.695478],[43.600597,12.756293],[43.909434,12.645331],[43.9463,12.598049],[44.414692,12.673289]]]},"properties":{"LOCATION_TYPE":"level1","ADM0_A3":"YEM","LOCATION_ID":"YEM-LA","NAME":"Lahij","TYPE_EN":"Governorate"}},
{"type":"Feature","geometry":{"type":"Polygon","coordinates":[[[45.093191,12.924709],[44.61891,12.835677],[44.484189,12.777644],[44.414692,12.673289],[44.542817,12.797309],[44.693614,12.803453],[44.868337,12.732123],[45.093191,12.924709]]]},"properties":{"LOCATION_TYPE":"level1","ADM0_A3":"YEM","LOCATION_ID":"YEM-AD","NAME":"`Adan","TYPE_EN":"Governorate"}},
{"type":"Feature","geometry":{"type":"Polygon","coordinates":[[[47.324481,13.632785],[47.222834,13.951965],[47.241902,14.137561],[46.865026,14.213861],[46.492284,14.125107],[46.396579,14.302435],[46.043836,14.191692],[45.985958,14.02364],[45.777547,13.867914],[45.636987,13.8228],[45.405012,13.896594],[45.291892,13.779495],[45.211019,13.512225],[45.252308,13.407477],[45.131282,13.162969],[45.099457,12.936184],[45.193533,13.012681],[45.403005,13.070136],[45.665782,13.341986],[46.234548,13.436347],[46.312999,13.41356],[46.700694,13.430325],[46.911876,13.533271],[47.324481,13.632785]]]},"properties":{"LOCATION_TYPE":"level1","ADM0_A3":"YEM","LOCATION_ID":"YEM-AB","NAME":"Abyan","TYPE_EN":"Governorate"}},
{"type":"Feature","geometry":{"type":"Polygon","coordinates":[[[48.681488,14.043606],[48.580425,14.233085],[48.260341,14.300342],[47.998859,14.557587],[47.744507,14.600789],[47.486022,14.793878],[47.664305,14.981205],[47.612629,15.118845],[47.654694,15.316223],[47.851736,15.612665],[47.74921,15.675168],[46.339735,15.570729],[45.753208,15.173415],[45.614301,15.060192],[45.527743,14.797831],[45.568568,14.689285],[45.72184,14.66324],[45.837027,14.389406],[46.001616,14.293676],[46.043836,14.191692],[46.396579,14.302435],[46.492284,14.125107],[46.865026,14.213861],[47.241902,14.137561],[47.222834,13.951965],[47.324481,13.632785],[47.436046,13.678046],[47.667247,13.887193],[48.016856,14.057278],[48.188731,13.969143],[48.338227,14.016303],[48.681488,14.043606]]]},"properties":{"LOCATION_TYPE":"level1","ADM0_A3":"YEM","LOCATION_ID":"YEM-SH","NAME":"Shabwah","TYPE_EN":"Governorate"}},
{"type":"Feature","geometry":{"type":"Polygon","coordinates":[[[46.832728,16.149686],[45.994485,16.000031],[45.69285,15.897738],[45.564227,15.790354],[45.238975,15.812963],[44.997802,15.935539],[44.660975,16.011426],[44.742107,15.70837],[44.828199,15.59556],[44.663145,15.449497],[44.77611,15.331623],[44.92101,15.374126],[45.154071,15.238476],[45.164923,15.139154],[44.998938,14.922242],[45.005915,14.814264],[45.106632,14.768117],[45.142754,14.549577],[45.215049,14.49772],[45.568568,14.689285],[45.527743,14.797831],[45.614301,15.060192],[45.753208,15.173415],[46.339735,15.570729],[46.832728,16.149686]]]},"properties":{"LOCATION_TYPE":"level1","ADM0_A3":"YEM","LOCATION_ID":"YEM-MA","NAME":"Ma'rib","TYPE_EN":"Governorate"}},
{"type":"Feature","geometry":{"type":"Polygon","coordinates":[[[44.660975,16.011426],[44.425847,16.028273],[44.254539,15.973806],[44.248028,15.782551],[44.167206,15.620623],[43.98422,15.504739],[43.965772,15.417741],[43.640055,15.21703],[43.571015,15.04425],[43.701963,14.933404],[43.823971,14.85036],[44.097495,14.973815],[44.280791,14.930975],[44.571264,14.959036],[44.732495,15.026783],[44.868714,14.756231],[45.005915,14.814264],[44.998938,14.922242],[45.164923,15.139154],[45.154071,15.238476],[44.92101,15.374126],[44.77611,15.331623],[44.663145,15.449497],[44.828199,15.59556],[44.742107,15.70837],[44.660975,16.011426]],[[44.368432,15.533363],[44.142142,15.351754],[44.209885,15.5521],[44.368432,15.533363]]]},"properties":{"LOCATION_TYPE":"level1","ADM0_A3":"YEM","LOCATION_ID":"YEM-SN","NAME":"Sana'a","TYPE_EN":"Governorate"}},
{"type":"Feature","geometry":{"type":"Polygon","coordinates":[[[43.701963,14.933404],[43.556908,14.848396],[43.558303,14.374317],[43.830328,14.458033],[43.981429,14.598747],[43.823971,14.85036],[43.701963,14.933404]]]},"properties":{"LOCATION_TYPE":"level1","ADM0_A3":"YEM","LOCATION_ID":"YEM-RA","NAME":"Raymah","TYPE_EN":"Governorate"}},
{"type":"Feature","geometry":{"type":"Polygon","coordinates":[[[45.005915,14.814264],[44.868714,14.756231],[44.792543,14.666754],[44.749083,14.427595],[44.630382,14.276597],[44.718025,14.161694],[45.007465,14.205154],[45.180478,13.964368],[45.399121,14.023201],[45.405012,13.896594],[45.636987,13.8228],[45.777547,13.867914],[45.985958,14.02364],[46.043836,14.191692],[46.001616,14.293676],[45.837027,14.389406],[45.72184,14.66324],[45.568568,14.689285],[45.215049,14.49772],[45.142754,14.549577],[45.106632,14.768117],[45.005915,14.814264]]]},"properties":{"LOCATION_TYPE":"level1","ADM0_A3":"YEM","LOCATION_ID":"YEM-BA","NAME":"Al Bayda'","TYPE_EN":"Governorate"}},
{"type":"Feature","geometry":{"type":"Polygon","coordinates":[[[44.188755,16.631466],[44.030005,16.62064],[43.856838,16.678517],[43.599902,16.608521],[43.61463,16.203482],[43.775241,15.930733],[43.804076,15.667261],[43.705271,15.526288],[43.862574,15.563676],[43.98422,15.504739],[44.167206,15.620623],[44.248028,15.782551],[44.254539,15.973806],[44.425847,16.028273],[44.352466,16.195498],[44.369364,16.335231],[44.314277,16.549016],[44.188755,16.631466]]]},"properties":{"LOCATION_TYPE":"level1","ADM0_A3":"YEM","LOCATION_ID":"YEM-AM","NAME":"Amran","TYPE_EN":"Governorate"}},
{"type":"Feature","geometry":{"type":"Polygon","coordinates":[[[45.180478,13.964368],[45.007465,14.205154],[44.718025,14.161694],[44.509666,13.945506],[44.406933,13.761047],[44.41422,13.643224],[44.53323,13.577053],[44.628057,13.516798],[44.853056,13.590902],[44.857552,13.708052],[45.118724,13.830216],[45.180478,13.964368]]]},"properties":{"LOCATION_TYPE":"level1","ADM0_A3":"YEM","LOCATION_ID":"YEM-DA","NAME":"Al Dali'","TYPE_EN":"Governorate"}},
{"type":"Feature","geometry":{"type":"Polygon","coordinates":[[[43.797565,14.114048],[43.68429,13.911994],[43.8865,13.877732],[43.963446,13.801819],[44.321254,13.703014],[44.406933,13.761047],[44.509666,13.945506],[44.718025,14.161694],[44.630382,14.276597],[44.240742,14.441005],[44.082612,14.425425],[43.962516,14.335327],[43.945928,14.208487],[43.797565,14.114048]]]},"properties":{"LOCATION_TYPE":"level1","ADM0_A3":"YEM","LOCATION_ID":"YEM-IB","NAME":"Ibb","TYPE_EN":"Governorate"}},
{"type":"Feature","geometry":{"type":"Polygon","coordinates":[[[43.571015,15.04425],[43.640055,15.21703],[43.965772,15.417741],[43.98422,15.504739],[43.862574,15.563676],[43.705271,15.526288],[43.54528,15.545563],[43.313873,15.509674],[43.332218,15.305552],[43.571015,15.04425]]]},"properties":{"LOCATION_TYPE":"level1","ADM0_A3":"YEM","LOCATION_ID":"YEM-MW","NAME":"Al Mahwit","TYPE_EN":"Governorate"}},
{"type":"Feature","geometry":{"type":"Polygon","coordinates":[[[43.558303,14.374317],[43.579387,14.15557],[43.797565,14.114048],[43.945928,14.208487],[43.962516,14.335327],[44.082612,14.425425],[44.240742,14.441005],[44.630382,14.276597],[44.749083,14.427595],[44.792543,14.666754],[44.868714,14.756231],[44.732495,15.026783],[44.571264,14.959036],[44.280791,14.930975],[44.097495,14.973815],[43.823971,14.85036],[43.981429,14.598747],[43.830328,14.458033],[43.558303,14.374317]]]},"properties":{"LOCATION_TYPE":"level1","ADM0_A3":"YEM","LOCATION_ID":"YEM-DH","NAME":"Dhamar","TYPE_EN":"Governorate"}},
{"type":"Feature","geometry":{"type":"Polygon","coordinates":[[[44.368432,15.533363],[44.209885,15.5521],[44.142142,15.351754],[44.368432,15.533363]]]},"properties":{"LOCATION_TYPE":"level1","ADM0_A3":"YEM","LOCATION_ID":"YEM-SA","NAME":"Amanat Al Asimah","TYPE_EN":"Governorate"}}
]}