{"type":"FeatureCollection", "features": [
{"type":"Feature","geometry":{"type":"Polygon","coordinates":[[[22.620863,-26.111532],[22.257277,-26.340923],[22.057702,-26.617599],[21.767487,-26.704312],[21.687182,-26.855207],[21.380844,-26.823995],[21.122462,-26.865336],[20.851884,-26.806528],[20.693548,-26.889004],[20.608902,-26.686122],[20.622544,-26.427533],[20.841446,-26.131324],[20.79411,-25.893922],[20.364886,-25.0332],[20.118906,-24.887369],[19.981757,-24.764999],[19.982273,-25.942395],[19.982687,-26.895515],[19.981653,-28.422347],[19.568759,-28.531177],[19.482872,-28.678248],[19.248571,-28.771576],[19.288879,-28.871001],[19.081657,-28.959368],[18.954533,-28.866661],[18.745656,-28.839892],[18.397564,-28.898907],[18.166467,-28.901904],[17.913252,-28.781291],[17.607121,-28.75566],[17.403619,-28.704293],[17.420569,-28.593396],[17.328172,-28.456143],[17.402069,-28.367776],[17.345742,-28.22763],[17.191953,-28.20882],[17.097798,-28.031156],[16.892953,-28.082626],[16.764382,-28.283234],[16.769343,-28.442604],[16.487071,-28.572931],[16.600352,-28.857517],[16.808767,-29.078302],[17.056326,-29.676446],[17.103689,-29.884942],[17.281993,-30.347752],[17.535981,-30.75213],[17.767113,-31.155811],[18.024047,-30.775072],[18.247186,-30.782824],[18.410587,-30.499947],[18.560811,-30.47075],[18.938669,-30.724016],[18.904976,-31.009528],[18.996856,-31.289924],[19.071787,-31.748139],[19.028637,-31.893247],[19.210848,-31.913504],[19.470729,-32.078248],[19.49264,-32.231986],[19.425099,-32.310017],[19.487524,-32.465512],[19.924603,-32.357404],[20.139216,-32.189611],[20.212751,-32.283559],[20.082268,-32.411716],[20.20934,-32.764305],[20.421162,-32.936852],[20.705124,-32.918145],[20.865114,-32.676868],[21.11776,-32.607157],[21.192226,-32.459052],[21.423116,-32.348516],[21.553444,-32.241494],[21.852651,-32.243045],[22.101215,-32.057423],[22.144364,-31.854179],[22.291487,-31.570166],[22.477367,-31.652951],[22.605525,-31.776613],[23.026533,-31.886477],[23.069838,-31.976549],[23.400929,-31.68127],[23.698895,-31.667369],[23.863226,-31.799816],[23.963116,-31.726797],[24.147033,-31.789894],[24.49957,-31.704834],[24.558687,-31.401804],[24.765238,-31.389091],[25.215081,-31.201558],[25.35006,-31.227706],[25.445507,-31.095156],[25.521988,-30.801892],[25.467469,-30.613118],[25.184902,-30.45566],[24.906883,-30.201205],[24.784462,-29.988247],[24.409084,-29.764488],[24.34082,-29.649043],[24.874327,-28.649879],[24.84513,-28.519396],[25.013492,-28.068209],[24.93236,-28.096631],[24.842029,-27.905997],[25.026669,-27.707714],[24.671342,-27.671747],[24.691341,-27.826415],[24.519723,-28.099577],[24.362575,-27.898865],[24.445199,-27.782766],[24.407534,-27.684356],[24.1124,-27.742738],[24.04337,-27.585241],[24.084936,-27.358875],[23.894304,-27.257674],[24.023546,-27.016142],[23.988005,-26.912469],[23.845838,-26.886536],[23.493653,-26.736583],[23.580891,-26.615323],[23.458111,-26.52863],[23.27071,-26.479475],[23.222244,-26.268158],[23.374104,-26.015812],[23.099464,-25.986772],[23.05746,-26.099988],[22.915294,-26.155105],[22.850672,-26.398468],[22.702044,-26.410044],[22.70516,-26.129706],[22.620863,-26.111532]]]},"properties":{"LOCATION_TYPE":"level1","ADM0_A3":"ZAF","LOCATION_ID":"ZAF-NC","NAME":"Northern Cape","TYPE_EN":"Province"}},
{"type":"Feature","geometry":{"type":"Polygon","coordinates":[[[28.859014,-28.77299],[28.980846,-28.909035],[29.208429,-29.068922],[29.311781,-29.089799],[29.435908,-29.342394],[29.303823,-29.466831],[29.278605,-29.613592],[29.1613,-29.666922],[29.015786,-29.978587],[29.115619,-30.078112],[29.174983,-30.285585],[29.297719,-30.317836],[29.162977,-30.554784],[29.320154,-30.655286],[29.476113,-30.620198],[29.602411,-30.688256],[29.793872,-30.708823],[30.063571,-30.858995],[30.195974,-31.077895],[30.392345,-30.847101],[31.015798,-29.868097],[31.18686,-29.560317],[31.488455,-29.209649],[31.752126,-28.966241],[32.012055,-28.866469],[32.379405,-28.55283],[32.422048,-28.381931],[32.543956,-28.190118],[32.676524,-27.520685],[32.839366,-27.12363],[32.893077,-26.846124],[32.352216,-26.860272],[31.992238,-26.838257],[31.942112,-27.10067],[31.96826,-27.316264],[31.52653,-27.31089],[31.244707,-27.232586],[31.15105,-27.324017],[30.980053,-27.354661],[30.661932,-27.276681],[30.422515,-27.275234],[30.133386,-27.379207],[29.929212,-27.364376],[29.771237,-27.452329],[29.766432,-27.605291],[29.682612,-27.668027],[29.721886,-27.810964],[29.624115,-28.048055],[29.675326,-28.120971],[29.588923,-28.250162],[29.234784,-28.439556],[29.188896,-28.535467],[28.973043,-28.574845],[28.859014,-28.77299]]]},"properties":{"LOCATION_TYPE":"level1","ADM0_A3":"ZAF","LOCATION_ID":"ZAF-NL","NAME":"KwaZulu-Natal","TYPE_EN":"Province"}},
{"type":"Feature","geometry":{"type":"Polygon","coordinates":[[[28.859014,-28.77299],[28.973043,-28.574845],[29.188896,-28.535467],[29.234784,-28.439556],[29.588923,-28.250162],[29.675326,-28.120971],[29.624115,-28.048055],[29.721886,-27.810964],[29.682612,-27.668027],[29.766432,-27.605291],[29.771237,-27.452329],[29.615278,-27.501835],[29.442265,-27.253168],[29.177682,-27.138136],[28.958574,-26.994993],[28.822665,-27.039124],[28.426358,-26.982642],[28.255826,-26.893604],[27.882309,-26.724312],[27.582534,-26.737644],[27.480266,-26.873967],[27.307512,-26.862391],[27.178011,-26.924403],[26.914151,-26.889935],[26.644917,-26.999334],[26.489681,-27.138602],[26.450148,-27.352904],[25.999788,-27.639243],[25.798663,-27.580693],[25.640378,-27.673246],[25.421425,-27.710401],[25.24061,-27.822901],[25.013492,-28.068209],[24.84513,-28.519396],[24.874327,-28.649879],[24.34082,-29.649043],[24.409084,-29.764488],[24.784462,-29.988247],[24.906883,-30.201205],[25.184902,-30.45566],[25.467469,-30.613118],[25.611233,-30.606297],[25.725438,-30.680556],[26.059888,-30.513848],[26.311449,-30.581544],[26.44157,-30.559581],[26.534587,-30.6511],[26.921799,-30.655338],[27.010424,-30.532916],[27.297797,-30.488216],[27.377708,-30.312324],[27.265911,-30.033308],[27.198835,-29.978531],[27.014867,-29.625581],[27.24183,-29.548996],[27.417634,-29.396551],[27.45329,-29.291648],[27.664957,-29.065718],[27.747432,-28.908622],[28.018734,-28.856842],[28.154953,-28.70233],[28.317217,-28.700056],[28.403413,-28.618924],[28.66655,-28.59722],[28.699519,-28.68848],[28.859014,-28.77299]]]},"properties":{"LOCATION_TYPE":"level1","ADM0_A3":"ZAF","LOCATION_ID":"ZAF-FS","NAME":"Free State","TYPE_EN":"Province"}},
{"type":"Feature","geometry":{"type":"Polygon","coordinates":[[[29.015786,-29.978587],[28.639678,-30.131493],[28.364087,-30.159295],[28.216034,-30.267402],[28.218205,-30.387395],[28.054701,-30.649704],[27.743608,-30.600302],[27.459388,-30.316598],[27.377708,-30.312324],[27.297797,-30.488216],[27.010424,-30.532916],[26.921799,-30.655338],[26.534587,-30.6511],[26.44157,-30.559581],[26.311449,-30.581544],[26.059888,-30.513848],[25.725438,-30.680556],[25.611233,-30.606297],[25.467469,-30.613118],[25.521988,-30.801892],[25.445507,-31.095156],[25.35006,-31.227706],[25.215081,-31.201558],[24.765238,-31.389091],[24.558687,-31.401804],[24.49957,-31.704834],[24.147033,-31.789894],[24.181604,-31.951641],[24.090085,-32.124809],[23.885395,-32.228007],[23.757083,-32.195916],[23.601588,-32.324745],[23.325378,-32.354562],[23.24254,-32.424532],[23.278197,-32.667515],[23.370388,-32.768232],[23.000746,-32.889207],[22.915739,-33.095602],[22.745206,-33.327888],[22.749547,-33.401578],[23.261609,-33.398891],[23.563399,-33.495991],[23.618176,-33.644044],[23.437257,-33.711999],[23.686751,-33.872041],[23.635509,-33.979669],[24.163097,-34.054783],[24.583995,-34.178318],[24.841075,-34.132501],[24.952891,-33.985121],[25.101085,-33.960545],[25.598155,-34.048517],[25.679047,-33.79518],[25.955251,-33.71087],[26.286632,-33.766371],[26.515147,-33.755304],[27.143077,-33.479425],[27.380219,-33.357354],[27.732677,-33.108819],[27.897146,-33.039972],[28.210785,-32.774672],[28.548595,-32.562433],[28.870372,-32.287042],[29.147634,-31.969822],[29.391856,-31.735528],[29.784516,-31.434747],[30.009939,-31.29225],[30.195974,-31.077895],[30.063571,-30.858995],[29.793872,-30.708823],[29.602411,-30.688256],[29.476113,-30.620198],[29.320154,-30.655286],[29.162977,-30.554784],[29.297719,-30.317836],[29.174983,-30.285585],[29.115619,-30.078112],[29.015786,-29.978587]]]},"properties":{"LOCATION_TYPE":"level1","ADM0_A3":"ZAF","LOCATION_ID":"ZAF-EC","NAME":"Eastern Cape","TYPE_EN":"Province"}},
{"type":"Feature","geometry":{"type":"Polygon","coordinates":[[[31.856491,-23.962958],[31.741194,-23.836787],[31.642285,-23.587861],[31.521466,-23.415572],[31.536349,-23.156983],[31.265616,-22.365507],[30.83789,-22.282308],[30.632424,-22.330677],[30.300765,-22.336982],[30.13509,-22.293574],[29.758886,-22.130896],[29.222071,-22.182159],[29.047818,-22.220296],[28.912529,-22.453667],[28.623865,-22.562808],[28.338559,-22.584615],[27.937498,-22.963817],[27.895537,-23.079469],[27.608009,-23.216721],[27.548892,-23.360795],[27.349989,-23.391491],[27.127419,-23.525023],[27.00417,-23.645842],[26.84971,-24.248131],[26.531176,-24.458661],[26.404001,-24.632758],[26.455419,-24.812335],[26.76801,-24.866182],[26.94433,-24.789546],[27.182507,-24.990929],[27.487863,-25.055731],[27.667593,-24.970775],[28.098161,-25.009378],[28.127513,-25.200167],[28.293705,-25.317111],[28.43318,-25.322072],[28.66314,-25.247451],[28.605727,-25.157896],[28.731559,-24.942767],[28.897597,-24.956363],[29.042994,-25.142238],[29.038148,-25.269406],[29.353176,-25.403738],[29.769982,-25.394982],[30.004234,-25.33221],[30.007465,-25.14955],[30.185173,-25.022257],[30.183557,-24.855259],[30.42104,-24.850861],[30.492123,-24.947575],[30.658523,-24.818606],[30.765148,-24.464721],[30.975167,-24.581569],[31.220727,-24.556592],[31.162568,-24.378668],[31.059174,-24.321267],[31.051096,-24.190178],[31.445554,-24.022668],[31.712308,-24.049953],[31.856491,-23.962958]]]},"properties":{"LOCATION_TYPE":"level1","ADM0_A3":"ZAF","LOCATION_ID":"ZAF-LP","NAME":"Limpopo","TYPE_EN":"Province"}},
{"type":"Feature","geometry":{"type":"Polygon","coordinates":[[[26.404001,-24.632758],[26.278788,-24.62847],[25.868374,-24.748152],[25.876746,-24.886025],[25.695465,-25.309979],[25.587254,-25.61952],[25.386491,-25.743544],[25.051731,-25.737859],[24.79862,-25.829223],[24.664985,-25.823332],[24.296739,-25.723493],[24.227699,-25.648976],[23.924772,-25.629236],[23.45927,-25.282177],[23.265691,-25.263987],[23.006998,-25.310805],[22.844631,-25.481131],[22.746446,-25.755326],[22.719367,-25.984253],[22.620863,-26.111532],[22.70516,-26.129706],[22.702044,-26.410044],[22.850672,-26.398468],[22.915294,-26.155105],[23.05746,-26.099988],[23.099464,-25.986772],[23.374104,-26.015812],[23.222244,-26.268158],[23.27071,-26.479475],[23.458111,-26.52863],[23.580891,-26.615323],[23.493653,-26.736583],[23.845838,-26.886536],[23.988005,-26.912469],[24.023546,-27.016142],[23.894304,-27.257674],[24.084936,-27.358875],[24.04337,-27.585241],[24.1124,-27.742738],[24.407534,-27.684356],[24.445199,-27.782766],[24.362575,-27.898865],[24.519723,-28.099577],[24.691341,-27.826415],[24.671342,-27.671747],[25.026669,-27.707714],[24.842029,-27.905997],[24.93236,-28.096631],[25.013492,-28.068209],[25.24061,-27.822901],[25.421425,-27.710401],[25.640378,-27.673246],[25.798663,-27.580693],[25.999788,-27.639243],[26.450148,-27.352904],[26.489681,-27.138602],[26.644917,-26.999334],[26.914151,-26.889935],[27.178011,-26.924403],[27.307512,-26.862391],[27.480266,-26.873967],[27.582534,-26.737644],[27.568604,-26.65005],[27.243404,-26.640021],[27.191265,-26.381919],[27.324443,-26.28655],[27.459337,-25.885293],[27.640715,-25.803653],[27.727641,-25.87842],[27.942822,-25.806848],[27.963821,-25.592571],[28.033289,-25.471577],[28.004209,-25.36068],[28.293705,-25.317111],[28.127513,-25.200167],[28.098161,-25.009378],[27.667593,-24.970775],[27.487863,-25.055731],[27.182507,-24.990929],[26.94433,-24.789546],[26.76801,-24.866182],[26.455419,-24.812335],[26.404001,-24.632758]]]},"properties":{"LOCATION_TYPE":"level1","ADM0_A3":"ZAF","LOCATION_ID":"ZAF-NW","NAME":"North West","TYPE_EN":"Province"}},
{"type":"Feature","geometry":{"type":"Polygon","coordinates":[[[31.244707,-27.232586],[30.976073,-27.035041],[30.880213,-26.772215],[30.785697,-26.716921],[30.804559,-26.397457],[30.969871,-26.209148],[31.119836,-25.910045],[31.309282,-25.757393],[31.426898,-25.743647],[31.834573,-25.982082],[31.949243,-25.958104],[31.911933,-25.785298],[31.991618,-25.650216],[31.986554,-24.423108],[31.869455,-24.163795],[31.856491,-23.962958],[31.712308,-24.049953],[31.445554,-24.022668],[31.051096,-24.190178],[31.059174,-24.321267],[31.162568,-24.378668],[31.220727,-24.556592],[30.975167,-24.581569],[30.765148,-24.464721],[30.658523,-24.818606],[30.492123,-24.947575],[30.42104,-24.850861],[30.183557,-24.855259],[30.185173,-25.022257],[30.007465,-25.14955],[30.004234,-25.33221],[29.769982,-25.394982],[29.353176,-25.403738],[29.038148,-25.269406],[29.042994,-25.142238],[28.897597,-24.956363],[28.731559,-24.942767],[28.605727,-25.157896],[28.751765,-25.114901],[28.782894,-25.227762],[28.629419,-25.33294],[28.669807,-25.663944],[28.763508,-25.706165],[28.920214,-25.551768],[28.975989,-25.673678],[28.870133,-26.004923],[28.634265,-25.972975],[28.500979,-26.08001],[28.532487,-26.221066],[28.718273,-26.338399],[28.766739,-26.516343],[28.643959,-26.50767],[28.401629,-26.659367],[28.408091,-26.758945],[28.255826,-26.893604],[28.426358,-26.982642],[28.822665,-27.039124],[28.958574,-26.994993],[29.177682,-27.138136],[29.442265,-27.253168],[29.615278,-27.501835],[29.771237,-27.452329],[29.929212,-27.364376],[30.133386,-27.379207],[30.422515,-27.275234],[30.661932,-27.276681],[30.980053,-27.354661],[31.15105,-27.324017],[31.244707,-27.232586]]]},"properties":{"LOCATION_TYPE":"level1","ADM0_A3":"ZAF","LOCATION_ID":"ZAF-MP","NAME":"Mpumalanga","TYPE_EN":"Province"}},
{"type":"Feature","geometry":{"type":"Polygon","coordinates":[[[23.635509,-33.979669],[23.686751,-33.872041],[23.437257,-33.711999],[23.618176,-33.644044],[23.563399,-33.495991],[23.261609,-33.398891],[22.749547,-33.401578],[22.745206,-33.327888],[22.915739,-33.095602],[23.000746,-32.889207],[23.370388,-32.768232],[23.278197,-32.667515],[23.24254,-32.424532],[23.325378,-32.354562],[23.601588,-32.324745],[23.757083,-32.195916],[23.885395,-32.228007],[24.090085,-32.124809],[24.181604,-31.951641],[24.147033,-31.789894],[23.963116,-31.726797],[23.863226,-31.799816],[23.698895,-31.667369],[23.400929,-31.68127],[23.069838,-31.976549],[23.026533,-31.886477],[22.605525,-31.776613],[22.477367,-31.652951],[22.291487,-31.570166],[22.144364,-31.854179],[22.101215,-32.057423],[21.852651,-32.243045],[21.553444,-32.241494],[21.423116,-32.348516],[21.192226,-32.459052],[21.11776,-32.607157],[20.865114,-32.676868],[20.705124,-32.918145],[20.421162,-32.936852],[20.20934,-32.764305],[20.082268,-32.411716],[20.212751,-32.283559],[20.139216,-32.189611],[19.924603,-32.357404],[19.487524,-32.465512],[19.425099,-32.310017],[19.49264,-32.231986],[19.470729,-32.078248],[19.210848,-31.913504],[19.028637,-31.893247],[19.071787,-31.748139],[18.996856,-31.289924],[18.904976,-31.009528],[18.938669,-30.724016],[18.560811,-30.47075],[18.410587,-30.499947],[18.247186,-30.782824],[18.024047,-30.775072],[17.767113,-31.155811],[17.893728,-31.344822],[18.172862,-31.663263],[18.276866,-31.892673],[18.349376,-32.260349],[18.334158,-32.491306],[18.273123,-32.647556],[18.080577,-32.781345],[17.967459,-32.703546],[17.852387,-32.829685],[17.912771,-33.047459],[18.075206,-33.202244],[18.146169,-33.35589],[18.307384,-33.479262],[18.431814,-33.69671],[18.475352,-33.899835],[18.314789,-34.029067],[18.441661,-34.14422],[18.555024,-34.073826],[18.740733,-34.077407],[18.858165,-34.150323],[18.808279,-34.364679],[19.08839,-34.342706],[19.304373,-34.417901],[19.398692,-34.601821],[19.642426,-34.772068],[19.858409,-34.749688],[19.953461,-34.808689],[20.211681,-34.672052],[20.524425,-34.454278],[20.961274,-34.356052],[21.262462,-34.421563],[21.51588,-34.352227],[21.702647,-34.390558],[21.894542,-34.336033],[21.921723,-34.246677],[22.114106,-34.193943],[22.275157,-34.057712],[22.410492,-34.065606],[22.629893,-33.995782],[22.936046,-34.082696],[23.408376,-34.11004],[23.427582,-34.012384],[23.635509,-33.979669]]]},"properties":{"LOCATION_TYPE":"level1","ADM0_A3":"ZAF","LOCATION_ID":"ZAF-WC","NAME":"Western Cape","TYPE_EN":"Province"}},
{"type":"Feature","geometry":{"type":"Polygon","coordinates":[[[27.582534,-26.737644],[27.882309,-26.724312],[28.255826,-26.893604],[28.408091,-26.758945],[28.401629,-26.659367],[28.643959,-26.50767],[28.766739,-26.516343],[28.718273,-26.338399],[28.532487,-26.221066],[28.500979,-26.08001],[28.634265,-25.972975],[28.870133,-26.004923],[28.975989,-25.673678],[28.920214,-25.551768],[28.763508,-25.706165],[28.669807,-25.663944],[28.629419,-25.33294],[28.782894,-25.227762],[28.751765,-25.114901],[28.605727,-25.157896],[28.66314,-25.247451],[28.43318,-25.322072],[28.293705,-25.317111],[28.004209,-25.36068],[28.033289,-25.471577],[27.963821,-25.592571],[27.942822,-25.806848],[27.727641,-25.87842],[27.640715,-25.803653],[27.459337,-25.885293],[27.324443,-26.28655],[27.191265,-26.381919],[27.243404,-26.640021],[27.568604,-26.65005],[27.582534,-26.737644]]]},"properties":{"LOCATION_TYPE":"level1","ADM0_A3":"ZAF","LOCATION_ID":"ZAF-GT","NAME":"Gauteng","TYPE_EN":"Province"}}
]}