{"type":"FeatureCollection", "features": [
{"type":"Feature","geometry":{"type":"Polygon","coordinates":[[[33.305049,-11.644026],[33.212629,-11.563841],[33.230302,-11.416563],[33.390912,-11.164795],[33.303682,-11.034571],[33.280325,-10.913338],[33.319082,-10.81815],[33.500983,-10.769161],[33.674203,-10.577028],[33.529302,-10.318646],[33.533281,-10.231209],[33.309987,-10.012721],[33.365591,-9.898826],[33.216711,-9.727054],[33.175422,-9.602307],[33.089225,-9.643958],[32.97471,-9.601273],[32.99197,-9.501848],[32.920863,-9.4079],[32.713228,-9.28584],[32.518046,-9.258245],[32.383015,-9.133912],[32.231448,-9.133808],[32.32092,-9.361564],[32.329302,-9.46215],[32.019161,-9.420239],[31.90181,-9.437004],[31.750931,-9.520826],[31.600051,-9.504061],[31.574905,-9.571119],[31.36535,-9.504061],[31.206088,-9.61303],[31.113884,-9.755527],[31.264764,-9.9567],[31.340203,-10.183019],[31.549758,-10.308752],[31.552826,-10.558038],[31.334972,-10.612481],[31.275483,-10.728041],[31.130626,-10.750014],[31.170909,-10.873224],[31.100841,-10.955418],[31.019786,-10.943536],[30.848562,-11.056573],[30.706309,-11.29046],[30.628022,-11.326023],[30.455847,-11.501727],[30.44763,-11.58999],[30.24511,-11.825841],[29.789531,-11.899015],[29.799397,-12.15582],[29.799582,-12.159036],[29.866684,-12.041642],[29.997322,-12.000508],[30.084552,-12.147165],[30.161808,-12.202304],[30.505198,-12.314597],[30.500547,-12.460686],[30.564471,-12.574013],[30.677125,-12.591169],[30.76296,-12.668115],[30.750196,-12.871462],[30.849673,-12.933474],[31.020515,-12.950837],[31.120767,-13.040702],[31.269906,-12.947116],[31.349642,-13.010213],[31.36499,-13.228598],[31.425813,-13.324819],[31.429121,-13.435717],[31.518263,-13.431945],[31.6381,-13.33562],[31.675101,-13.200538],[31.75277,-13.116098],[31.913226,-13.030781],[31.918497,-12.930632],[32.06779,-12.784646],[32.138535,-12.451333],[32.29129,-12.201167],[32.43291,-12.219131],[32.542129,-12.067904],[32.726961,-12.059503],[33.088224,-11.950284],[33.216346,-11.673336],[33.305049,-11.644026]]]},"properties":{"LOCATION_TYPE":"level1","ADM0_A3":"ZMB","LOCATION_ID":"ZMB-10","NAME":"Muchinga","TYPE_EN":"Province"}},
{"type":"Feature","geometry":{"type":"Polygon","coordinates":[[[33.305049,-11.644026],[33.216346,-11.673336],[33.088224,-11.950284],[32.726961,-12.059503],[32.542129,-12.067904],[32.43291,-12.219131],[32.29129,-12.201167],[32.138535,-12.451333],[32.06779,-12.784646],[31.918497,-12.930632],[31.913226,-13.030781],[31.75277,-13.116098],[31.675101,-13.200538],[31.6381,-13.33562],[31.518263,-13.431945],[31.429121,-13.435717],[31.122783,-13.627385],[31.098598,-13.71384],[30.873134,-13.929744],[30.097729,-13.931862],[30.18961,-14.050822],[30.302988,-14.099966],[30.291516,-14.206833],[30.034581,-14.442426],[29.994221,-14.607067],[30.051169,-14.671197],[30.206508,-14.830671],[30.214421,-14.981966],[30.815772,-14.768245],[31.410878,-14.633576],[31.658408,-14.519578],[32.227366,-14.33902],[33.202707,-14.013872],[33.154544,-13.936564],[33.049434,-13.996612],[32.85942,-13.808097],[32.722839,-13.573382],[32.874251,-13.443158],[32.919623,-13.294846],[32.995071,-13.190873],[32.965925,-13.116821],[33.005044,-12.892959],[32.941121,-12.769865],[33.024836,-12.612666],[33.255107,-12.531947],[33.373239,-12.518511],[33.51814,-12.37175],[33.330141,-12.298266],[33.2549,-12.072647],[33.312674,-11.898704],[33.305049,-11.644026]]]},"properties":{"LOCATION_TYPE":"level1","ADM0_A3":"ZMB","LOCATION_ID":"ZMB-03","NAME":"Eastern","TYPE_EN":"Province"}},
{"type":"Feature","geometry":{"type":"Polygon","coordinates":[[[32.231448,-9.133808],[32.134141,-9.064148],[31.917721,-9.022497],[31.936634,-8.93258],[31.787599,-8.892169],[31.672671,-8.913047],[31.55335,-8.809074],[31.539036,-8.70355],[31.353311,-8.587175],[31.119836,-8.616631],[30.959536,-8.550485],[30.828278,-8.388117],[30.752107,-8.194124],[29.575844,-8.372729],[29.496732,-8.494778],[29.427692,-8.515966],[29.337207,-8.644123],[29.232304,-8.925243],[29.170241,-8.956817],[29.120114,-9.107092],[29.334106,-9.216491],[29.358188,-9.523811],[29.531821,-9.642719],[29.807256,-9.714962],[29.937894,-9.891076],[29.937584,-10.072511],[29.82803,-10.237153],[29.725607,-10.218291],[29.445056,-10.377506],[29.357258,-10.63041],[29.169155,-10.73614],[29.163419,-10.8659],[29.085853,-10.953491],[29.269563,-11.087385],[29.3971,-11.042375],[29.337827,-10.908016],[29.64122,-10.739034],[29.78581,-10.810813],[29.892574,-11.019275],[29.834696,-11.395325],[29.980734,-11.240399],[30.138037,-11.254351],[30.449181,-11.475475],[30.455847,-11.501727],[30.628022,-11.326023],[30.706309,-11.29046],[30.848562,-11.056573],[31.019786,-10.943536],[31.100841,-10.955418],[31.170909,-10.873224],[31.130626,-10.750014],[31.275483,-10.728041],[31.334972,-10.612481],[31.552826,-10.558038],[31.549758,-10.308752],[31.340203,-10.183019],[31.264764,-9.9567],[31.113884,-9.755527],[31.206088,-9.61303],[31.36535,-9.504061],[31.574905,-9.571119],[31.600051,-9.504061],[31.750931,-9.520826],[31.90181,-9.437004],[32.019161,-9.420239],[32.329302,-9.46215],[32.32092,-9.361564],[32.231448,-9.133808]]]},"properties":{"LOCATION_TYPE":"level1","ADM0_A3":"ZMB","LOCATION_ID":"ZMB-05","NAME":"Northern","TYPE_EN":"Province"}},
{"type":"Feature","geometry":{"type":"Polygon","coordinates":[[[28.946862,-15.957235],[29.042341,-15.946261],[29.186311,-15.812832],[29.406969,-15.714233],[29.837331,-15.614808],[30.207231,-15.653152],[30.412696,-15.627934],[30.367428,-15.561271],[30.369185,-15.374719],[30.287949,-15.278911],[30.214421,-14.981966],[30.206508,-14.830671],[30.051169,-14.671197],[29.89893,-14.661947],[29.507739,-14.836148],[29.459784,-14.963117],[29.228118,-14.956709],[28.946792,-15.041511],[28.82313,-15.149359],[28.56914,-15.188272],[28.404344,-15.14569],[28.290759,-15.341699],[27.862465,-15.260619],[27.905615,-15.531661],[27.799316,-15.561014],[27.756787,-15.648864],[28.007211,-15.68297],[28.040594,-15.731753],[28.246059,-15.816967],[28.391115,-15.784359],[28.744478,-15.947398],[28.946862,-15.957235]]]},"properties":{"LOCATION_TYPE":"level1","ADM0_A3":"ZMB","LOCATION_ID":"ZMB-09","NAME":"Lusaka","TYPE_EN":"Province"}},
{"type":"Feature","geometry":{"type":"Polygon","coordinates":[[[28.946862,-15.957235],[28.744478,-15.947398],[28.391115,-15.784359],[28.246059,-15.816967],[28.040594,-15.731753],[28.007211,-15.68297],[27.756787,-15.648864],[27.653589,-15.625403],[27.626304,-15.518949],[27.534113,-15.487375],[27.409831,-15.568093],[27.279555,-15.714493],[27.227672,-15.49709],[26.968204,-15.470528],[26.843923,-15.351621],[26.746306,-15.336066],[25.32479,-15.298859],[25.345409,-15.339322],[25.227949,-15.583441],[25.296523,-15.759968],[25.397086,-15.769115],[25.334557,-15.99799],[25.426076,-16.083721],[25.289857,-16.292649],[25.142269,-16.38055],[24.999694,-16.548912],[25.107698,-16.672729],[25.251358,-16.705698],[25.279005,-16.905479],[25.09545,-17.130427],[25.098396,-17.221894],[25.020623,-17.334187],[24.969987,-17.559962],[25.335538,-17.841235],[25.49558,-17.854878],[25.681409,-17.81147],[25.978548,-17.998952],[26.203031,-17.887227],[26.408599,-17.939007],[26.71194,-18.065821],[27.048457,-17.944278],[27.157081,-17.769302],[27.577314,-17.363125],[27.641186,-17.198484],[27.777301,-17.001183],[27.868562,-16.929663],[28.113922,-16.827551],[28.280113,-16.706524],[28.643295,-16.568755],[28.73285,-16.55811],[28.822509,-16.470776],[28.870981,-16.087234],[28.946862,-15.957235]]]},"properties":{"LOCATION_TYPE":"level1","ADM0_A3":"ZMB","LOCATION_ID":"ZMB-07","NAME":"Southern","TYPE_EN":"Province"}},
{"type":"Feature","geometry":{"type":"Polygon","coordinates":[[[21.980353,-13.694822],[21.980911,-14.508416],[21.981325,-15.11117],[21.983805,-16.165886],[22.079923,-16.457754],[22.15165,-16.597694],[22.333654,-16.673658],[22.522894,-16.914677],[22.710479,-17.055444],[22.755851,-17.154869],[22.998627,-17.293775],[23.176187,-17.478157],[23.47622,-17.626365],[24.220464,-17.4795],[24.407016,-17.474539],[24.591294,-17.528386],[24.684415,-17.49242],[24.969987,-17.559962],[25.020623,-17.334187],[25.098396,-17.221894],[25.09545,-17.130427],[25.279005,-16.905479],[25.251358,-16.705698],[25.107698,-16.672729],[24.999694,-16.548912],[25.142269,-16.38055],[25.289857,-16.292649],[25.426076,-16.083721],[25.334557,-15.99799],[25.397086,-15.769115],[25.296523,-15.759968],[25.227949,-15.583441],[25.345409,-15.339322],[25.32479,-15.298859],[25.327581,-15.175042],[25.402822,-15.13644],[25.456049,-15.0196],[25.423182,-14.876456],[25.478683,-14.683496],[25.548394,-14.585208],[25.315282,-14.577353],[25.040208,-14.635954],[24.961195,-14.553323],[25.04858,-14.426561],[25.088319,-14.247864],[24.753869,-14.124512],[24.661265,-13.958528],[24.553881,-13.982919],[24.222429,-13.905869],[24.011692,-13.997181],[23.683495,-13.99036],[23.354885,-14.137535],[23.094797,-13.987105],[22.834245,-13.872745],[22.721694,-13.988552],[22.541136,-13.909332],[22.23299,-13.681387],[22.092843,-13.76071],[21.980353,-13.694822]]]},"properties":{"LOCATION_TYPE":"level1","ADM0_A3":"ZMB","LOCATION_ID":"ZMB-01","NAME":"Western","TYPE_EN":"Province"}},
{"type":"Feature","geometry":{"type":"Polygon","coordinates":[[[21.980353,-13.694822],[22.092843,-13.76071],[22.23299,-13.681387],[22.541136,-13.909332],[22.721694,-13.988552],[22.834245,-13.872745],[23.094797,-13.987105],[23.354885,-14.137535],[23.683495,-13.99036],[24.011692,-13.997181],[24.222429,-13.905869],[24.553881,-13.982919],[24.661265,-13.958528],[24.753869,-14.124512],[25.088319,-14.247864],[25.04858,-14.426561],[24.961195,-14.553323],[25.040208,-14.635954],[25.315282,-14.577353],[25.548394,-14.585208],[25.621,-14.555442],[26.376044,-14.647684],[26.588331,-14.442839],[26.736074,-14.44904],[26.92769,-14.409921],[26.979056,-14.169057],[26.913427,-14.076091],[26.912187,-13.910003],[26.951151,-13.839052],[26.852604,-13.716578],[26.788991,-13.643715],[26.859115,-13.439283],[26.97363,-13.334845],[26.981537,-13.191908],[27.067061,-13.115582],[27.094192,-13.000808],[26.879734,-12.886397],[26.847798,-12.747749],[26.886246,-12.637575],[27.076828,-12.51598],[27.060085,-12.333045],[27.276506,-12.345706],[27.42766,-12.243903],[27.510549,-12.300696],[27.58982,-12.242973],[27.52047,-12.179617],[27.420734,-11.921959],[27.234182,-11.809097],[27.180129,-11.569629],[27.010268,-11.609833],[26.967325,-11.870385],[26.874204,-11.964333],[26.643521,-11.985521],[26.414594,-11.91183],[26.298012,-11.941182],[26.16665,-11.902425],[25.994051,-11.904802],[25.850701,-11.793801],[25.725644,-11.800519],[25.621464,-11.728895],[25.481163,-11.715253],[25.351971,-11.64611],[25.279004,-11.396306],[25.324893,-11.283651],[25.278798,-11.199935],[25.124285,-11.259157],[24.942901,-11.268562],[24.67408,-11.341632],[24.564733,-11.444675],[24.446497,-11.463589],[24.310071,-11.406641],[24.392237,-11.279104],[24.381798,-11.12056],[24.293845,-11.05028],[24.124243,-11.043252],[24.003733,-10.982481],[24.011175,-11.272903],[24.061094,-11.394962],[23.959912,-11.617171],[23.959602,-12.19667],[24.030812,-12.385083],[23.928699,-12.561609],[23.865654,-12.789709],[24.000633,-13.001479],[23.222696,-13.001479],[21.979878,-13.001479],[21.980353,-13.694822]]]},"properties":{"LOCATION_TYPE":"level1","ADM0_A3":"ZMB","LOCATION_ID":"ZMB-06","NAME":"North-Western","TYPE_EN":"Province"}},
{"type":"Feature","geometry":{"type":"Polygon","coordinates":[[[29.575844,-8.372729],[28.915268,-8.472867],[28.930461,-8.679883],[28.765407,-8.934027],[28.59906,-9.096395],[28.372304,-9.235094],[28.368532,-9.308578],[28.515964,-9.378341],[28.623865,-9.649126],[28.668462,-9.821622],[28.623865,-9.951019],[28.619627,-10.141912],[28.569915,-10.219633],[28.629239,-10.295908],[28.634924,-10.51946],[28.699622,-10.643174],[28.563507,-10.811949],[28.476794,-11.077979],[28.439587,-11.348247],[28.357008,-11.446949],[28.452506,-11.780779],[28.497154,-11.857363],[28.835015,-12.092181],[28.944672,-12.206076],[29.030352,-12.376194],[29.254989,-12.366169],[29.499677,-12.453089],[29.446554,-12.33506],[29.474252,-12.242662],[29.799397,-12.15582],[29.789531,-11.899015],[30.24511,-11.825841],[30.44763,-11.58999],[30.455847,-11.501727],[30.449181,-11.475475],[30.138037,-11.254351],[29.980734,-11.240399],[29.834696,-11.395325],[29.892574,-11.019275],[29.78581,-10.810813],[29.64122,-10.739034],[29.337827,-10.908016],[29.3971,-11.042375],[29.269563,-11.087385],[29.085853,-10.953491],[29.163419,-10.8659],[29.169155,-10.73614],[29.357258,-10.63041],[29.445056,-10.377506],[29.725607,-10.218291],[29.82803,-10.237153],[29.937584,-10.072511],[29.937894,-9.891076],[29.807256,-9.714962],[29.531821,-9.642719],[29.358188,-9.523811],[29.334106,-9.216491],[29.120114,-9.107092],[29.170241,-8.956817],[29.232304,-8.925243],[29.337207,-8.644123],[29.427692,-8.515966],[29.496732,-8.494778],[29.575844,-8.372729]]]},"properties":{"LOCATION_TYPE":"level1","ADM0_A3":"ZMB","LOCATION_ID":"ZMB-04","NAME":"Luapula","TYPE_EN":"Province"}},
{"type":"Feature","geometry":{"type":"Polygon","coordinates":[[[27.58982,-12.242973],[27.510549,-12.300696],[27.42766,-12.243903],[27.276506,-12.345706],[27.060085,-12.333045],[27.076828,-12.51598],[26.886246,-12.637575],[26.847798,-12.747749],[26.879734,-12.886397],[27.094192,-13.000808],[27.067061,-13.115582],[26.981537,-13.191908],[26.97363,-13.334845],[26.859115,-13.439283],[26.788991,-13.643715],[26.852604,-13.716578],[27.347148,-13.74035],[27.393708,-13.897859],[27.461404,-13.892743],[27.66041,-13.650846],[27.823191,-13.698698],[27.952434,-13.921062],[28.150458,-13.887938],[28.435195,-13.890883],[28.674767,-13.850627],[28.66686,-13.740143],[28.871861,-13.560154],[28.954078,-13.519898],[29.065386,-13.388676],[28.93413,-13.309626],[28.903434,-13.162296],[28.667893,-12.849344],[28.583971,-12.888721],[28.474003,-12.736482],[28.511624,-12.694418],[28.42274,-12.521302],[28.339748,-12.450505],[28.131285,-12.429214],[27.958686,-12.367823],[27.831407,-12.259922],[27.666197,-12.30271],[27.58982,-12.242973]]]},"properties":{"LOCATION_TYPE":"level1","ADM0_A3":"ZMB","LOCATION_ID":"ZMB-08","NAME":"Copperbelt","TYPE_EN":"Province"}},
{"type":"Feature","geometry":{"type":"Polygon","coordinates":[[[29.799582,-12.159036],[29.797643,-13.424244],[29.702869,-13.457627],[29.601686,-13.374428],[29.667522,-13.291952],[29.574401,-13.225393],[29.168948,-13.433856],[29.065386,-13.388676],[28.954078,-13.519898],[28.871861,-13.560154],[28.66686,-13.740143],[28.674767,-13.850627],[28.435195,-13.890883],[28.150458,-13.887938],[27.952434,-13.921062],[27.823191,-13.698698],[27.66041,-13.650846],[27.461404,-13.892743],[27.393708,-13.897859],[27.347148,-13.74035],[26.852604,-13.716578],[26.951151,-13.839052],[26.912187,-13.910003],[26.913427,-14.076091],[26.979056,-14.169057],[26.92769,-14.409921],[26.736074,-14.44904],[26.588331,-14.442839],[26.376044,-14.647684],[25.621,-14.555442],[25.548394,-14.585208],[25.478683,-14.683496],[25.423182,-14.876456],[25.456049,-15.0196],[25.402822,-15.13644],[25.327581,-15.175042],[25.32479,-15.298859],[26.746306,-15.336066],[26.843923,-15.351621],[26.968204,-15.470528],[27.227672,-15.49709],[27.279555,-15.714493],[27.409831,-15.568093],[27.534113,-15.487375],[27.626304,-15.518949],[27.653589,-15.625403],[27.756787,-15.648864],[27.799316,-15.561014],[27.905615,-15.531661],[27.862465,-15.260619],[28.290759,-15.341699],[28.404344,-15.14569],[28.56914,-15.188272],[28.82313,-15.149359],[28.946792,-15.041511],[29.228118,-14.956709],[29.459784,-14.963117],[29.507739,-14.836148],[29.89893,-14.661947],[30.051169,-14.671197],[29.994221,-14.607067],[30.034581,-14.442426],[30.291516,-14.206833],[30.302988,-14.099966],[30.18961,-14.050822],[30.097729,-13.931862],[30.873134,-13.929744],[31.098598,-13.71384],[31.122783,-13.627385],[31.429121,-13.435717],[31.425813,-13.324819],[31.36499,-13.228598],[31.349642,-13.010213],[31.269906,-12.947116],[31.120767,-13.040702],[31.020515,-12.950837],[30.849673,-12.933474],[30.750196,-12.871462],[30.76296,-12.668115],[30.677125,-12.591169],[30.564471,-12.574013],[30.500547,-12.460686],[30.505198,-12.314597],[30.161808,-12.202304],[30.084552,-12.147165],[29.997322,-12.000508],[29.866684,-12.041642],[29.799582,-12.159036]]]},"properties":{"LOCATION_TYPE":"level1","ADM0_A3":"ZMB","LOCATION_ID":"ZMB-02","NAME":"Central","TYPE_EN":"Province"}}
]}