{"type":"FeatureCollection", "features": [
{"type":"Feature","geometry":{"type":"Polygon","coordinates":[[[28.022993,-16.865393],[27.868562,-16.929663],[27.777301,-17.001183],[27.641186,-17.198484],[27.577314,-17.363125],[27.157081,-17.769302],[27.149019,-17.842476],[27.048457,-17.944278],[26.88826,-17.984586],[26.71194,-18.065821],[26.408599,-17.939007],[26.203031,-17.887227],[25.978548,-17.998952],[25.86362,-17.971563],[25.849667,-17.906658],[25.681409,-17.81147],[25.49558,-17.854878],[25.335538,-17.841235],[25.259781,-17.794107],[25.226088,-17.931876],[25.296368,-18.068612],[25.387525,-18.138995],[25.508499,-18.399134],[25.669523,-18.566049],[25.761921,-18.630335],[25.815251,-18.813993],[25.940721,-18.921273],[25.956534,-19.122088],[26.034359,-19.243734],[26.13027,-19.501082],[26.194452,-19.5602],[26.292638,-19.572499],[26.312171,-19.651358],[26.566316,-19.800806],[26.67717,-19.886815],[26.938387,-19.81016],[27.388902,-19.805819],[27.526051,-19.860545],[27.645424,-20.032007],[27.842415,-20.180577],[27.914452,-20.187346],[27.992483,-20.118978],[28.142345,-20.083838],[28.339025,-20.335606],[28.499739,-20.229773],[28.413749,-20.140527],[28.431216,-20.031232],[28.64743,-20.087611],[28.699313,-20.19918],[28.599888,-20.236697],[28.672648,-20.27623],[28.838943,-20.093502],[28.834912,-20.049835],[28.971131,-19.971184],[28.96214,-19.835792],[29.085026,-19.811814],[29.12244,-19.590639],[29.113448,-19.493849],[29.223932,-19.487441],[29.098359,-19.373391],[29.109314,-19.296961],[28.99821,-19.183738],[29.016296,-19.099351],[28.939712,-19.000029],[28.881214,-18.747383],[29.128228,-18.632816],[29.107247,-18.565223],[28.510591,-18.577315],[28.056562,-18.561296],[28.005195,-18.5152],[28.009226,-18.222298],[28.074442,-18.125715],[28.008606,-18.006911],[28.067724,-17.924229],[28.087154,-17.754523],[28.201049,-17.685122],[28.247558,-17.409583],[28.168493,-17.31517],[28.138624,-17.149289],[28.042609,-17.084642],[28.022993,-16.865393]]]},"properties":{"LOCATION_TYPE":"level1","ADM0_A3":"ZWE","LOCATION_ID":"ZWE-MN","NAME":"Matabeleland North","TYPE_EN":"Province"}},
{"type":"Feature","geometry":{"type":"Polygon","coordinates":[[[26.67717,-19.886815],[26.925054,-20.000897],[27.02665,-20.010095],[27.214907,-20.110451],[27.283998,-20.35147],[27.340739,-20.473013],[27.590853,-20.473323],[27.698133,-20.509083],[27.707332,-20.716719],[27.676016,-20.866684],[27.674775,-21.090133],[27.884995,-21.310171],[27.990415,-21.551913],[28.032893,-21.577855],[28.284867,-21.596872],[28.464598,-21.660331],[28.629704,-21.651339],[28.860853,-21.757379],[29.038723,-21.797893],[29.021567,-21.982791],[29.070763,-22.051004],[29.239331,-22.072605],[29.378031,-22.192908],[29.456889,-22.158801],[29.758886,-22.130896],[29.946678,-22.198282],[30.13509,-22.293574],[30.300765,-22.336982],[30.507367,-22.309593],[30.632424,-22.330677],[30.83789,-22.282308],[31.097048,-22.334922],[31.012815,-22.197715],[30.932717,-22.152446],[30.654491,-21.778877],[30.550053,-21.734332],[30.37549,-21.600542],[30.256324,-21.592273],[30.111578,-21.497034],[29.960735,-21.358334],[29.836143,-21.158915],[29.727984,-21.024194],[29.611144,-21.042953],[29.480609,-21.002284],[29.622461,-20.910765],[29.682664,-20.66308],[29.68623,-20.518334],[29.80462,-20.193444],[29.871025,-20.060791],[29.79997,-19.962037],[29.707004,-19.97537],[29.497869,-19.87026],[29.43994,-19.879303],[29.405523,-19.730423],[29.288631,-19.548109],[29.223932,-19.487441],[29.113448,-19.493849],[29.12244,-19.590639],[29.085026,-19.811814],[28.96214,-19.835792],[28.971131,-19.971184],[28.834912,-20.049835],[28.838943,-20.093502],[28.672648,-20.27623],[28.599888,-20.236697],[28.499739,-20.229773],[28.339025,-20.335606],[28.142345,-20.083838],[27.992483,-20.118978],[27.914452,-20.187346],[27.842415,-20.180577],[27.645424,-20.032007],[27.526051,-19.860545],[27.388902,-19.805819],[26.938387,-19.81016],[26.67717,-19.886815]]]},"properties":{"LOCATION_TYPE":"level1","ADM0_A3":"ZWE","LOCATION_ID":"ZWE-MS","NAME":"Matabeleland South","TYPE_EN":"Province"}},
{"type":"Feature","geometry":{"type":"Polygon","coordinates":[[[31.097048,-22.334922],[31.163348,-22.322616],[31.288922,-22.39734],[31.433822,-22.302048],[31.957615,-21.758826],[32.408543,-21.290327],[32.312891,-21.232657],[32.250208,-21.088635],[32.180134,-21.055614],[32.135021,-20.919808],[32.248451,-20.67202],[32.336249,-20.123061],[32.328342,-20.005084],[32.191348,-19.920954],[32.118381,-19.916768],[31.939477,-19.797293],[31.834264,-19.643193],[31.70068,-19.499068],[31.434857,-19.401141],[31.198696,-19.248437],[30.998346,-19.24637],[30.901246,-19.192575],[30.859336,-19.272363],[30.719655,-19.381142],[30.723221,-19.642108],[30.69392,-19.7929],[30.632012,-19.869536],[30.472487,-19.846954],[30.42112,-19.993973],[30.265161,-20.000019],[30.178448,-20.036968],[30.158087,-20.132156],[30.231519,-20.211841],[30.23214,-20.305324],[30.410268,-20.47229],[30.490625,-20.689848],[30.436778,-20.851543],[30.432127,-20.951331],[30.332857,-21.037424],[30.157622,-21.031171],[29.98864,-20.917173],[29.818418,-21.01882],[29.727984,-21.024194],[29.836143,-21.158915],[29.960735,-21.358334],[30.111578,-21.497034],[30.256324,-21.592273],[30.37549,-21.600542],[30.550053,-21.734332],[30.654491,-21.778877],[30.932717,-22.152446],[31.012815,-22.197715],[31.097048,-22.334922]]]},"properties":{"LOCATION_TYPE":"level1","ADM0_A3":"ZWE","LOCATION_ID":"ZWE-MV","NAME":"Masvingo","TYPE_EN":"Province"}},
{"type":"Feature","geometry":{"type":"Polygon","coordinates":[[[30.296196,-15.639042],[30.130129,-15.623696],[30.010654,-15.646227],[29.837331,-15.614808],[29.508462,-15.703588],[29.406969,-15.714233],[29.186311,-15.812832],[29.042341,-15.946261],[28.932373,-15.963727],[28.870981,-16.087234],[28.822509,-16.470776],[28.73285,-16.55811],[28.643295,-16.568755],[28.280113,-16.706524],[28.113922,-16.827551],[28.022993,-16.865393],[28.042609,-17.084642],[28.138624,-17.149289],[28.168493,-17.31517],[28.247558,-17.409583],[28.423051,-17.381419],[28.501599,-17.39501],[28.6465,-17.231609],[28.815689,-17.155645],[28.932167,-17.142313],[28.980123,-17.224013],[29.271165,-17.329898],[29.402423,-17.485392],[29.317363,-17.58673],[29.320567,-17.766874],[29.200058,-18.007944],[29.215767,-18.080498],[29.314676,-18.212841],[29.544688,-18.357329],[29.581016,-18.59225],[29.932778,-18.718289],[29.98647,-18.702631],[30.180618,-18.75162],[30.363088,-18.861536],[30.441584,-18.691314],[30.549588,-18.726609],[30.656041,-18.715912],[30.757844,-18.572148],[30.796343,-18.384924],[30.702602,-18.233099],[30.879025,-17.949033],[30.906052,-17.803202],[30.982068,-17.721709],[30.783475,-17.63329],[30.775982,-17.562597],[30.635422,-17.563062],[30.62271,-17.363488],[30.723841,-17.162311],[30.7349,-17.079681],[30.556409,-17.057046],[30.522923,-16.859126],[30.551448,-16.802178],[30.502769,-16.695466],[30.406237,-16.647872],[30.385877,-16.553356],[30.435538,-16.410109],[30.292343,-16.269291],[30.10331,-16.368871],[30.10424,-16.142632],[30.0506,-15.995199],[30.311721,-15.776814],[30.296196,-15.639042]]]},"properties":{"LOCATION_TYPE":"level1","ADM0_A3":"ZWE","LOCATION_ID":"ZWE-MW","NAME":"Mashonaland West","TYPE_EN":"Province"}},
{"type":"Feature","geometry":{"type":"Polygon","coordinates":[[[30.296196,-15.639042],[30.311721,-15.776814],[30.0506,-15.995199],[30.10424,-16.142632],[30.10331,-16.368871],[30.292343,-16.269291],[30.435538,-16.410109],[30.385877,-16.553356],[30.406237,-16.647872],[30.502769,-16.695466],[30.551448,-16.802178],[30.522923,-16.859126],[30.556409,-17.057046],[30.7349,-17.079681],[30.723841,-17.162311],[30.62271,-17.363488],[30.635422,-17.563062],[30.775982,-17.562597],[30.783475,-17.63329],[30.982068,-17.721709],[31.088676,-17.666105],[31.087746,-17.54327],[31.15105,-17.468339],[31.30856,-17.481878],[31.296312,-17.62988],[31.373879,-17.626469],[31.51604,-17.502756],[31.607146,-17.455885],[31.754682,-17.281425],[31.75861,-17.186444],[31.880514,-17.079474],[31.929865,-16.964959],[32.041952,-16.815201],[32.31346,-16.758098],[32.437896,-16.709522],[32.665118,-16.745231],[32.73095,-16.708656],[32.671783,-16.599761],[32.290463,-16.45176],[31.910279,-16.428919],[31.86005,-16.340759],[31.686107,-16.207227],[31.404574,-16.162268],[31.259983,-16.023465],[31.1141,-15.996904],[30.973075,-16.062016],[30.857424,-15.998144],[30.402568,-16.001244],[30.396263,-15.635995],[30.296196,-15.639042]]]},"properties":{"LOCATION_TYPE":"level1","ADM0_A3":"ZWE","LOCATION_ID":"ZWE-MC","NAME":"Mashonaland Central","TYPE_EN":"Province"}},
{"type":"Feature","geometry":{"type":"Polygon","coordinates":[[[32.73095,-16.708656],[32.665118,-16.745231],[32.437896,-16.709522],[32.31346,-16.758098],[32.041952,-16.815201],[31.929865,-16.964959],[31.880514,-17.079474],[31.75861,-17.186444],[31.754682,-17.281425],[31.607146,-17.455885],[31.51604,-17.502756],[31.373879,-17.626469],[31.296312,-17.62988],[31.30856,-17.481878],[31.15105,-17.468339],[31.087746,-17.54327],[31.088676,-17.666105],[31.196525,-17.706671],[31.222105,-17.85183],[31.063252,-18.054195],[30.879025,-17.949033],[30.702602,-18.233099],[30.796343,-18.384924],[30.757844,-18.572148],[30.656041,-18.715912],[30.549588,-18.726609],[30.441584,-18.691314],[30.363088,-18.861536],[30.573359,-18.960289],[30.659917,-18.971917],[30.723531,-19.089274],[30.722446,-19.175625],[30.859336,-19.272363],[30.901246,-19.192575],[30.998346,-19.24637],[31.198696,-19.248437],[31.30825,-19.232624],[31.319257,-19.119918],[31.419974,-19.108239],[31.54193,-19.154283],[31.604614,-19.047209],[31.746311,-19.035634],[31.830026,-19.097697],[31.985159,-19.132217],[31.992549,-18.997083],[31.900048,-18.773686],[31.837985,-18.74516],[31.77065,-18.631472],[31.74352,-18.509051],[31.851317,-18.420942],[31.864081,-18.267515],[31.911727,-18.166281],[32.146183,-17.938595],[32.15626,-17.861597],[32.395057,-17.680936],[32.59122,-17.598667],[32.708991,-17.484462],[32.767334,-17.375011],[32.96909,-17.266115],[32.954143,-17.167168],[32.828776,-16.935141],[32.933369,-16.815768],[32.893372,-16.712415],[32.73095,-16.708656]]]},"properties":{"LOCATION_TYPE":"level1","ADM0_A3":"ZWE","LOCATION_ID":"ZWE-ME","NAME":"Mashonaland East","TYPE_EN":"Province"}},
{"type":"Feature","geometry":{"type":"Polygon","coordinates":[[[32.408543,-21.290327],[32.339814,-21.134058],[32.467661,-20.980165],[32.49722,-20.898103],[32.469108,-20.68685],[32.513136,-20.564583],[32.646462,-20.557969],[32.845209,-20.286668],[32.88531,-20.10301],[33.001995,-19.927],[33.032795,-19.784166],[32.81627,-19.652081],[32.825365,-19.479172],[32.768831,-19.363623],[32.828673,-19.284558],[32.862262,-19.118057],[32.819991,-19.028346],[32.691058,-19.01429],[32.69142,-18.83425],[32.885207,-18.787844],[32.920243,-18.726246],[32.870737,-18.535767],[32.996414,-18.46714],[33.034965,-18.332885],[32.952283,-18.233046],[32.972282,-18.150261],[32.93709,-18.047114],[32.957037,-17.817981],[32.999102,-17.794313],[33.006646,-17.580993],[32.958174,-17.478467],[33.022459,-17.361471],[32.96909,-17.266115],[32.767334,-17.375011],[32.708991,-17.484462],[32.59122,-17.598667],[32.395057,-17.680936],[32.15626,-17.861597],[32.146183,-17.938595],[31.911727,-18.166281],[31.864081,-18.267515],[31.851317,-18.420942],[31.74352,-18.509051],[31.77065,-18.631472],[31.837985,-18.74516],[31.900048,-18.773686],[31.992549,-18.997083],[31.985159,-19.132217],[31.830026,-19.097697],[31.746311,-19.035634],[31.604614,-19.047209],[31.54193,-19.154283],[31.419974,-19.108239],[31.319257,-19.119918],[31.30825,-19.232624],[31.198696,-19.248437],[31.434857,-19.401141],[31.70068,-19.499068],[31.834264,-19.643193],[31.939477,-19.797293],[32.118381,-19.916768],[32.191348,-19.920954],[32.328342,-20.005084],[32.336249,-20.123061],[32.248451,-20.67202],[32.135021,-20.919808],[32.180134,-21.055614],[32.250208,-21.088635],[32.312891,-21.232657],[32.408543,-21.290327]]]},"properties":{"LOCATION_TYPE":"level1","ADM0_A3":"ZWE","LOCATION_ID":"ZWE-MA","NAME":"Manicaland","TYPE_EN":"Province"}},
{"type":"Feature","geometry":{"type":"Polygon","coordinates":[[[30.363088,-18.861536],[30.180618,-18.75162],[29.98647,-18.702631],[29.932778,-18.718289],[29.581016,-18.59225],[29.544688,-18.357329],[29.314676,-18.212841],[29.215767,-18.080498],[29.200058,-18.007944],[29.320567,-17.766874],[29.317363,-17.58673],[29.402423,-17.485392],[29.271165,-17.329898],[28.980123,-17.224013],[28.932167,-17.142313],[28.815689,-17.155645],[28.6465,-17.231609],[28.501599,-17.39501],[28.423051,-17.381419],[28.247558,-17.409583],[28.201049,-17.685122],[28.087154,-17.754523],[28.067724,-17.924229],[28.008606,-18.006911],[28.074442,-18.125715],[28.009226,-18.222298],[28.005195,-18.5152],[28.056562,-18.561296],[28.510591,-18.577315],[29.107247,-18.565223],[29.128228,-18.632816],[28.881214,-18.747383],[28.939712,-19.000029],[29.016296,-19.099351],[28.99821,-19.183738],[29.109314,-19.296961],[29.098359,-19.373391],[29.223932,-19.487441],[29.288631,-19.548109],[29.405523,-19.730423],[29.43994,-19.879303],[29.497869,-19.87026],[29.707004,-19.97537],[29.79997,-19.962037],[29.871025,-20.060791],[29.80462,-20.193444],[29.68623,-20.518334],[29.682664,-20.66308],[29.622461,-20.910765],[29.480609,-21.002284],[29.611144,-21.042953],[29.727984,-21.024194],[29.818418,-21.01882],[29.98864,-20.917173],[30.157622,-21.031171],[30.332857,-21.037424],[30.432127,-20.951331],[30.436778,-20.851543],[30.490625,-20.689848],[30.410268,-20.47229],[30.23214,-20.305324],[30.231519,-20.211841],[30.158087,-20.132156],[30.178448,-20.036968],[30.265161,-20.000019],[30.42112,-19.993973],[30.472487,-19.846954],[30.632012,-19.869536],[30.69392,-19.7929],[30.723221,-19.642108],[30.719655,-19.381142],[30.859336,-19.272363],[30.722446,-19.175625],[30.723531,-19.089274],[30.659917,-18.971917],[30.573359,-18.960289],[30.363088,-18.861536]]]},"properties":{"LOCATION_TYPE":"level1","ADM0_A3":"ZWE","LOCATION_ID":"ZWE-MI","NAME":"Midlands","TYPE_EN":"Province"}},
{"type":"Feature","geometry":{"type":"Polygon","coordinates":[[[31.088676,-17.666105],[30.982068,-17.721709],[30.906052,-17.803202],[30.879025,-17.949033],[31.063252,-18.054195],[31.222105,-17.85183],[31.196525,-17.706671],[31.088676,-17.666105]]]},"properties":{"LOCATION_TYPE":"level1","ADM0_A3":"ZWE","LOCATION_ID":"ZWE-HA","NAME":"Harare","TYPE_EN":"City"}},
{"type":"Feature","geometry":{"type":"Polygon","coordinates":[[[28.599888,-20.236697],[28.699313,-20.19918],[28.64743,-20.087611],[28.431216,-20.031232],[28.413749,-20.140527],[28.499739,-20.229773],[28.599888,-20.236697]]]},"properties":{"LOCATION_TYPE":"level1","ADM0_A3":"ZWE","LOCATION_ID":"ZWE-BU","NAME":"Bulawayo","TYPE_EN":"City"}}
]}